{"type": "FeatureCollection", "attribution": "\u00a9 OpenStreetMap contributors (ODbL)", "crs": {"type": "name", "properties": {"name": "urn:ogc:def:crs:EPSG::25833"}}, "features": [{"type": "Feature", "properties": {"name": "Schlachthofbr\u00fccke", "kind": "road", "structure": "beam", "deck": [113.0, 113.08, 113.93, 113.75, 113.07, 113.07, 113.75, 113.93, 113.08, 113.0], "axis": [[410082.17, 5658203.8], [410048.5, 5657877.82]], "line": [113.07, 113.08, 113.08, 113.1, 113.11, 113.13, 113.14, 113.15, 113.17, 113.18, 113.2, 113.22, 113.22, 113.24, 113.24, 113.25, 113.26, 113.28, 113.29, 113.3, 113.32, 113.33, 113.35, 113.36, 113.37, 113.37, 113.38, 113.39, 113.39, 113.41, 113.42, 113.44, 113.45, 113.46, 113.47, 113.49, 113.5, 113.51, 113.53, 113.53, 113.55, 113.56, 113.59, 113.59, 113.6, 113.61, 113.64, 113.64, 113.65, 113.66, 113.68, 113.69, 113.7, 113.71, 113.73, 113.73, 113.75, 113.76, 113.77, 113.79, 113.8, 113.81, 113.82, 113.84, 113.85, 113.85, 113.86, 113.88, 113.89, 113.9, 113.91, 113.92, 113.93, 113.93, 113.93, 113.94, 113.94, 113.95, 113.95, 113.95, 113.95, 113.95, 113.94, 113.93, 113.92, 113.92, 113.91, 113.9, 113.89, 113.88, 113.87, 113.85, 113.84, 113.84, 113.82, 113.81, 113.8, 113.79, 113.78, 113.76, 113.75, 113.74, 113.73, 113.71, 113.7, 113.7, 113.68, 113.67, 113.65, 113.65, 113.63, 113.62, 113.62, 113.59, 113.58, 113.57, 113.57, 113.55, 113.54, 113.53, 113.52, 113.51, 113.49, 113.48, 113.47, 113.46, 113.45, 113.44, 113.42, 113.41, 113.41, 113.39, 113.39, 113.37, 113.35, 113.35, 113.33, 113.31, 113.3, 113.3, 113.29, 113.28, 113.27, 113.26, 113.25, 113.23, 113.22, 113.21, 113.19, 113.17, 113.16, 113.16, 113.15, 113.13, 113.12, 113.11, 113.09, 113.09, 113.07, 113.03, 113.02, 113.01, 113.01, 113.01], "wikidata": "Q2799757"}, "geometry": {"type": "Polygon", "coordinates": [[[410037.63, 5657879.45], [410039.44, 5657891.54], [410062.44, 5658057.62], [410067.11, 5658092.24], [410082.17, 5658203.8], [410093.07, 5658202.32], [410078.01, 5658090.77], [410073.34, 5658056.12], [410050.34, 5657890.02], [410048.5, 5657877.82]]]}}, {"type": "Feature", "properties": {"name": "Augustusbr\u00fccke", "kind": "road", "structure": "arch", "deck": [115.56, 117.5, 117.08, 116.69, 115.35, 114.76, 113.64, 113.65, 114.79, 115.37, 116.7, 117.09, 117.5, 115.56], "axis": [[411733.9, 5656895.87], [411616.77, 5656614.08]], "line": [113.64, 113.68, 113.71, 113.73, 113.77, 113.81, 113.86, 113.91, 113.98, 114.04, 114.1, 114.14, 114.21, 114.27, 114.33, 114.38, 114.43, 114.5, 114.55, 114.59, 114.66, 114.71, 114.76, 114.83, 114.87, 114.93, 114.98, 115.04, 115.1, 115.17, 115.21, 115.28, 115.33, 115.45, 115.55, 115.61, 115.76, 115.79, 115.84, 115.85, 115.92, 115.97, 116.02, 116.04, 116.13, 116.17, 116.18, 116.24, 116.28, 116.31, 116.41, 116.45, 116.53, 116.6, 116.61, 116.64, 116.67, 116.69, 116.73, 116.78, 116.82, 116.87, 116.92, 116.97, 117.0, 117.05, 117.09, 117.13, 117.18, 117.22, 117.26, 117.29, 117.34, 117.39, 117.42, 117.47, 117.51, 117.53, 117.57, 117.62, 117.64, 117.68, 117.7, 117.72, 117.75, 117.77, 117.79, 117.82, 117.85, 117.85, 117.86, 117.87, 117.88, 117.89, 117.89, 117.9, 117.9, 117.9, 117.89, 117.89, 117.88, 117.87, 117.86, 117.85, 117.83, 117.81, 117.8, 117.78, 117.75, 117.74, 117.71, 117.69, 117.64, 117.62, 117.58, 117.55, 117.51, 117.47, 117.43, 117.39, 117.35, 117.3, 117.25, 117.2, 117.15, 117.09, 117.02, 116.97, 116.92, 116.84, 116.81, 116.73, 116.66, 116.6, 116.55, 116.48, 116.42, 116.36, 116.31, 116.26, 116.19, 116.13, 116.08, 116.01, 115.94, 115.89, 115.82, 115.76, 115.7, 115.67, 115.65, 115.62, 115.58], "fairway": 0.855, "clearance": 10.9, "depth": 1.69, "wikidata": "Q450445"}, "geometry": {"type": "Polygon", "coordinates": [[[411606.73, 5656618.58], [411636.38, 5656684.71], [411677.71, 5656776.77], [411685.47, 5656792.58], [411705.71, 5656837.68], [411714.67, 5656856.17], [411733.9, 5656895.87], [411743.8, 5656891.07], [411724.57, 5656851.37], [411715.71, 5656833.1], [411695.47, 5656787.98], [411687.72, 5656772.21], [411646.42, 5656680.21], [411616.77, 5656614.08]]]}}, {"type": "Feature", "properties": {"name": "Marienbr\u00fccke", "kind": "road", "structure": "arch;beam", "deck": [117.57, 117.42, 117.41, 117.38, 117.36, 117.35, 117.52, 117.65, 117.75, 117.8, 117.92, 117.95, 117.98, 118.01, 118.12, 118.12, 118.03, 117.98, 118.01, 118.01, 118.01, 118.01, 118.01, 118.01, 117.97, 118.04, 118.0, 117.98, 117.95, 117.91, 117.89, 117.87, 117.79, 117.73, 117.68, 117.57], "axis": [[410894.3, 5657231.42], [411293.96, 5657506.11]], "line": [117.35, 117.36, 117.37, 117.39, 117.4, 117.41, 117.41, 117.43, 117.44, 117.44, 117.44, 117.46, 117.47, 117.48, 117.5, 117.5, 117.5, 117.5, 117.5, 117.51, 117.52, 117.52, 117.53, 117.53, 117.56, 117.57, 117.57, 117.6, 117.61, 117.63, 117.64, 117.65, 117.65, 117.65, 117.65, 117.65, 117.65, 117.65, 117.65, 117.65, 117.66, 117.68, 117.68, 117.69, 117.7, 117.71, 117.72, 117.73, 117.73, 117.73, 117.74, 117.75, 117.76, 117.75, 117.75, 117.75, 117.77, 117.78, 117.79, 117.8, 117.8, 117.81, 117.82, 117.82, 117.82, 117.84, 117.85, 117.86, 117.87, 117.87, 117.87, 117.88, 117.88, 117.88, 117.89, 117.89, 117.89, 117.9, 117.9, 117.91, 117.91, 117.91, 117.91, 117.92, 117.93, 117.93, 117.94, 117.94, 117.94, 117.94, 117.95, 117.95, 117.95, 117.96, 117.96, 117.96, 117.96, 117.97, 117.97, 117.98, 117.99, 117.98, 118.0, 118.01, 118.02, 118.02, 118.02, 118.01, 118.01, 118.01, 118.01, 118.01, 118.0, 118.01, 118.01, 118.0, 118.01, 118.01, 118.01, 118.01, 118.01, 118.02, 118.02, 118.03, 118.03, 118.03, 118.03, 118.03, 118.04, 118.04, 118.04, 118.04, 118.05, 118.05, 118.06, 118.07, 118.07, 118.07, 118.08, 118.08, 118.08, 118.08, 118.09, 118.09, 118.1, 118.11, 118.11, 118.12, 118.12, 118.13, 118.13, 118.13, 118.15, 118.15, 118.16, 118.17, 118.17, 118.17, 118.18, 118.18, 118.17, 118.17, 118.16, 118.15, 118.15, 118.14, 118.14, 118.13, 118.13, 118.12, 118.12, 118.11, 118.11, 118.1, 118.1, 118.1, 118.1, 118.09, 118.08, 118.08, 118.07, 118.07, 118.06, 118.06, 118.05, 118.05, 118.05, 118.05, 118.05, 118.04, 118.04, 118.04, 118.02, 118.01, 118.0, 117.99, 117.99, 117.99, 117.98, 117.98, 117.98, 117.97, 117.96, 117.96, 117.95, 117.94, 117.93, 117.93, 117.92, 117.92, 117.91, 117.9, 117.89, 117.89, 117.89, 117.89, 117.89, 117.89, 117.91, 117.91, 117.93, 117.94, 117.97, 117.98, 117.98, 117.98, 117.98, 117.98, 117.98, 117.97, 117.97, 117.98, 118.0, 118.01, 118.02, 118.01, 118.02, 118.02, 118.02, 118.02, 118.01, 118.0, 118.01], "fairway": 0.623, "clearance": 10.7, "depth": 3.53, "wikidata": "Q1897647", "ribs": [{"offset": -18.1, "rise": [0.0, 0.0, 0.0, 0.0, 0.0, 0.0, 0.0, 0.0, 0.0, 0.0, 0.0, 0.0, 0.0, 0.0, 0.0, 0.0, 0.0, 0.0, 0.0, 0.0, 0.0, 0.0, 0.0, 0.0, 0.0, 0.0, 0.0, 0.0, 0.0, 0.0, 0.0, 0.0, 0.0, 0.0, 0.0, 0.0, 0.0, 0.0, 0.0, 0.0, 0.0, 0.0, 0.0, 0.0, 0.0, 0.0, 0.0, 0.0, 0.0, 0.0, 0.0, 0.0, 0.0, 0.0, 0.0, 0.0, 0.0, 0.0, 0.0, 0.0, 0.0, 0.0, 0.0, 0.0, 0.0, 0.0, 0.0, 0.0, 0.0, 0.0, 0.0, 0.0, 0.0, 0.0, 0.0, 0.0, 0.0, 0.0, 0.0, 0.0, 0.0, 0.0, 0.0, 0.0, 0.0, 0.0, 0.0, 0.0, 0.0, 0.0, 0.0, 0.0, 0.0, 0.0, 0.0, 0.0, 0.0, 0.0, 0.0, 0.0, 0.0, 0.0, 0.0, 0.0, 0.0, 0.0, 0.0, 0.0, 0.0, 0.0, 0.0, 0.0, 0.0, 0.0, 0.0, 0.0, 0.0, 0.0, 0.0, 0.0, 0.0, 0.0, 0.0, 0.0, 0.0, 0.0, 0.0, 0.0, 0.0, 0.0, 0.0, 0.0, 0.0, 0.0, 0.0, 0.0, 0.0, 0.0, 0.0, 0.0, 0.0, 0.0, 0.0, 0.0, 0.0, 0.0, 0.0, 0.0, 0.0, 0.0, 0.0, 0.0, 0.0, 0.0, 0.0, 0.0, 0.0, 0.0, 0.0, 0.0, 0.0, 0.0, 0.0, 0.0, 0.0, 0.0, 0.0, 0.0, 0.0, 0.0, 0.0, 0.0, 0.0, 0.0, 0.0, 0.0, 0.0, 0.0, 0.0, 0.0, 0.0, 0.0, 0.0, 0.0, 0.0, 0.0, 0.0, 0.0, 0.0, 0.0, 0.0, 0.0, 0.0, 0.0, 0.0, 0.0, 0.0, 0.0, 0.0, 0.0, 0.0, 0.0, 0.0, 0.0, 0.0, 0.0, 0.0, 0.0, 0.0, 4.8, 4.8, 4.8, 4.8, 3.5, 3.5, 3.5, 3.5, 3.5, 3.5, 5.4, 5.4, 5.4, 5.4, 5.2, 5.2, 5.2, 0.0, 0.0, 0.0, 0.0, 0.0, 0.0, 0.0, 0.0, 0.0, 0.0, 0.0, 0.0, 0.0, 0.0, 0.0, 0.0, 0.0]}, {"offset": 22.9, "rise": [0.0, 0.0, 0.0, 0.0, 0.0, 0.0, 0.0, 0.0, 0.0, 0.0, 0.0, 0.0, 0.0, 0.0, 0.0, 0.0, 0.0, 0.0, 0.0, 0.0, 0.0, 0.0, 0.0, 0.0, 0.0, 0.0, 0.0, 0.0, 0.0, 0.0, 0.0, 0.0, 0.0, 0.0, 0.0, 0.0, 0.0, 0.0, 0.0, 0.0, 3.8, 7.3, 9.4, 9.4, 9.4, 9.4, 9.4, 10.5, 10.5, 10.5, 8.1, 8.1, 8.1, 3.7, 3.7, 3.7, 3.7, 0.0, 0.0, 0.0, 0.0, 0.0, 0.0, 0.0, 0.0, 5.4, 10.0, 10.0, 10.0, 7.8, 7.8, 6.6, 6.6, 5.2, 5.2, 5.2, 4.3, 4.2, 4.2, 4.2, 0.0, 0.0, 0.0, 0.0, 0.0, 0.0, 0.0, 0.0, 0.0, 0.0, 4.0, 4.0, 4.0, 4.1, 4.1, 6.6, 6.6, 6.6, 6.6, 6.6, 6.6, 6.6, 8.0, 9.5, 9.5, 9.5, 9.5, 8.9, 3.9, 3.9, 3.9, 3.9, 0.0, 0.0, 0.0, 0.0, 0.0, 0.0, 0.0, 0.0, 0.0, 4.9, 4.9, 4.9, 10.8, 10.8, 10.8, 8.8, 8.8, 8.8, 8.8, 8.0, 8.0, 8.0, 8.0, 8.0, 5.2, 3.2, 3.2, 3.2, 0.0, 0.0, 0.0, 0.0, 0.0, 0.0, 0.0, 0.0, 5.0, 5.3, 5.3, 5.3, 5.3, 5.3, 5.3, 5.3, 5.4, 5.4, 5.4, 5.4, 5.4, 5.4, 5.4, 5.4, 10.6, 10.6, 10.6, 10.6, 8.3, 7.3, 7.3, 7.3, 7.3, 7.3, 7.3, 7.3, 7.3, 7.3, 9.4, 9.4, 9.4, 9.4, 3.6, 0.0, 0.0, 0.0, 0.0, 0.0, 0.0, 5.2, 5.2, 5.2, 5.2, 5.2, 5.2, 5.2, 5.2, 5.3, 5.3, 7.9, 7.9, 7.9, 0.0, 0.0, 0.0, 0.0, 0.0, 0.0, 0.0, 0.0, 0.0, 0.0, 0.0, 0.0, 0.0, 0.0, 0.0, 0.0, 0.0, 0.0, 0.0, 0.0, 0.0, 0.0, 0.0, 0.0, 0.0, 0.0, 0.0, 0.0, 0.0, 0.0, 0.0, 0.0, 0.0, 0.0, 0.0, 0.0, 0.0, 0.0, 0.0, 0.0, 0.0]}]}, "geometry": {"type": "Polygon", "coordinates": [[[410941.02, 5657252.21], [410918.5, 5657217.59], [410913.9, 5657221.32], [410904.0, 5657225.67], [410898.7, 5657229.04], [410894.3, 5657231.42], [410918.02, 5657268.9], [410937.92, 5657299.13], [410957.8, 5657321.5], [410971.14, 5657333.4], [411007.27, 5657362.1], [411021.1, 5657371.94], [411032.9, 5657379.96], [411062.04, 5657395.56], [411119.43, 5657423.24], [411119.51, 5657423.28], [411199.82, 5657463.97], [411269.13, 5657500.46], [411290.15, 5657511.07], [411293.96, 5657506.11], [411296.0, 5657502.3], [411298.01, 5657498.59], [411303.25, 5657489.82], [411306.28, 5657484.77], [411283.23, 5657473.33], [411211.14, 5657437.58], [411073.43, 5657367.74], [411048.72, 5657356.55], [411034.94, 5657348.18], [411021.03, 5657337.75], [411009.13, 5657329.95], [411000.37, 5657322.78], [410983.2, 5657305.19], [410971.14, 5657292.22], [410961.37, 5657280.69], [410941.02, 5657252.21]]]}}, {"type": "Feature", "properties": {"name": null, "kind": "rail", "structure": "beam", "deck": [116.62, 118.35, 118.34, 118.34, 118.35, 116.75], "axis": [[411593.84, 5657841.2], [411615.73, 5657889.32]], "line": [116.62, 116.78, 116.93, 117.08, 117.29, 117.59, 117.88, 118.17, 118.31, 118.33, 118.34, 118.34, 118.35, 118.35, 118.35, 118.35, 118.35, 118.35, 118.36, 118.35, 118.35, 118.35, 118.34, 118.34, 118.34, 118.34, 118.34], "wikidata": "Q49458085"}, "geometry": {"type": "Polygon", "coordinates": [[[411593.84, 5657841.2], [411600.03, 5657866.08], [411607.05, 5657891.7], [411615.73, 5657889.32], [411608.73, 5657863.8], [411602.58, 5657839.02]]]}}, {"type": "Feature", "properties": {"name": null, "kind": "rail", "structure": "beam", "deck": [115.72, 115.67, 115.64, 115.6, 115.52, 115.52, 115.57, 115.64, 115.65, 115.71], "axis": [[410107.95, 5656476.01], [410080.33, 5656507.63]], "line": [115.72, 115.71, 115.71, 115.71, 115.69, 115.68, 115.66, 115.65, 115.64, 115.64, 115.63, 115.61, 115.6, 115.59, 115.56, 115.54, 115.54, 115.54, 115.53, 115.53, 115.52]}, "geometry": {"type": "Polygon", "coordinates": [[[410107.95, 5656476.01], [410099.02, 5656482.49], [410094.33, 5656486.12], [410087.34, 5656491.38], [410075.03, 5656500.35], [410080.33, 5656507.63], [410092.68, 5656498.63], [410099.78, 5656493.29], [410104.39, 5656489.72], [410113.24, 5656483.29]]]}}, {"type": "Feature", "properties": {"name": null, "kind": "rail", "structure": "beam", "deck": [115.64, 115.72, 115.77, 115.82, 115.86, 115.87, 115.88, 115.86, 115.83, 115.78, 115.73, 115.65], "axis": [[410112.12, 5656535.78], [410155.56, 5656518.65]], "line": [115.64, 115.65, 115.65, 115.66, 115.66, 115.69, 115.71, 115.72, 115.72, 115.73, 115.74, 115.74, 115.75, 115.77, 115.79, 115.8, 115.81, 115.81, 115.83, 115.84, 115.86, 115.86, 115.87, 115.87]}, "geometry": {"type": "Polygon", "coordinates": [[[410112.12, 5656535.78], [410128.52, 5656532.66], [410138.17, 5656530.84], [410147.2, 5656529.04], [410153.85, 5656527.96], [410156.78, 5656527.56], [410155.56, 5656518.65], [410152.48, 5656519.07], [410145.58, 5656520.19], [410136.45, 5656522.0], [410126.85, 5656523.81], [410110.44, 5656526.94]]]}}, {"type": "Feature", "properties": {"name": null, "kind": "path", "structure": "", "deck": [113.18, 113.23, 113.38, 113.48, 113.67, 114.67, 113.16, 113.04, 113.04, 113.17, 114.67, 113.67, 113.48, 113.4, 113.31, 113.2], "axis": [[410066.49, 5658201.2], [410032.34, 5657884.66]], "line": [113.18, 113.19, 113.21, 113.22, 113.31, 113.34, 113.37, 113.4, 113.43, 113.46, 113.49, 113.52, 113.55, 113.57, 113.6, 113.63, 113.66, 113.69, 113.72, 113.75, 113.78, 113.8, 113.83, 113.86, 113.88, 113.91, 113.94, 113.96, 113.99, 114.02, 114.04, 114.07, 114.09, 114.11, 114.14, 114.16, 114.18, 114.21, 114.23, 114.25, 114.27, 114.29, 114.31, 114.33, 114.35, 114.37, 114.39, 114.41, 114.42, 114.44, 114.46, 114.47, 114.49, 114.5, 114.52, 114.53, 114.54, 114.56, 114.57, 114.58, 114.59, 114.6, 114.61, 114.62, 114.63, 114.64, 114.65, 114.65, 114.66, 114.66, 114.67, 114.67, 114.68, 114.68, 114.68, 114.68, 114.69, 114.69, 114.69, 114.69, 114.68, 114.68, 114.68, 114.68, 114.67, 114.67, 114.66, 114.66, 114.65, 114.65, 114.64, 114.63, 114.62, 114.61, 114.6, 114.59, 114.58, 114.57, 114.56, 114.55, 114.53, 114.52, 114.5, 114.49, 114.47, 114.46, 114.44, 114.42, 114.4, 114.39, 114.37, 114.35, 114.33, 114.31, 114.29, 114.27, 114.24, 114.22, 114.2, 114.18, 114.15, 114.13, 114.1, 114.08, 114.05, 114.03, 114.0, 113.98, 113.95, 113.92, 113.89, 113.87, 113.84, 113.81, 113.78, 113.75, 113.72, 113.69, 113.66, 113.63, 113.6, 113.57, 113.54, 113.51, 113.48, 113.45, 113.41, 113.38, 113.35, 113.32, 113.29, 113.25, 113.22, 113.19, 113.16, 113.12, 113.1, 113.08, 113.06, 113.05]}, "geometry": {"type": "Polygon", "coordinates": [[[410066.49, 5658201.2], [410071.62, 5658194.25], [410073.58, 5658187.2], [410073.6, 5658180.94], [410072.39, 5658167.82], [410056.64, 5658060.45], [410033.65, 5657895.53], [410032.34, 5657884.66], [410028.87, 5657885.08], [410030.19, 5657896.01], [410053.17, 5658060.94], [410068.93, 5658168.3], [410070.1, 5658181.16], [410070.12, 5658186.7], [410068.5, 5658192.65], [410063.67, 5658199.12]]]}}, {"type": "Feature", "properties": {"name": null, "kind": "rail", "structure": "", "deck": [116.85, 116.88, 116.91, 116.93, 116.91, 116.88], "axis": [[410325.95, 5656562.58], [410343.67, 5656563.25]], "line": [116.85, 116.87, 116.88, 116.88, 116.89, 116.9, 116.91, 116.92, 116.93]}, "geometry": {"type": "Polygon", "coordinates": [[[410325.95, 5656562.58], [410332.98, 5656566.93], [410338.66, 5656570.73], [410343.67, 5656563.25], [410337.84, 5656559.35], [410330.68, 5656554.92]]]}}, {"type": "Feature", "properties": {"name": null, "kind": "path", "structure": "beam", "deck": [111.5, 111.49, 111.51, 111.55, 111.53, 111.52, 111.49, 111.52], "axis": [[411191.58, 5656446.17], [411166.28, 5656427.31]], "line": [111.55, 111.52, 111.52, 111.51, 111.5, 111.53, 111.51, 111.5, 111.51, 111.5, 111.49, 111.49, 111.49, 111.49, 111.49, 111.51], "wikidata": "Q87587759"}, "geometry": {"type": "Polygon", "coordinates": [[[411164.68, 5656430.42], [411170.26, 5656433.29], [411190.2, 5656445.37], [411191.58, 5656446.17], [411193.34, 5656443.15], [411192.01, 5656442.37], [411172.02, 5656430.27], [411166.28, 5656427.31]]]}}, {"type": "Feature", "properties": {"name": "Augustusbr\u00fccke", "kind": "road", "structure": "arch", "deck": [114.62, 114.73, 115.25, 115.32, 115.5, 115.33, 114.87, 114.68], "axis": [[411594.2, 5656593.96], [411616.77, 5656614.08]], "line": [114.62, 114.66, 114.68, 114.71, 114.75, 114.83, 114.88, 114.96, 115.04, 115.11, 115.17, 115.24, 115.29, 115.32, 115.37, 115.47], "wikidata": "Q450445"}, "geometry": {"type": "Polygon", "coordinates": [[[411594.2, 5656593.96], [411597.9, 5656601.07], [411605.18, 5656615.1], [411606.73, 5656618.58], [411616.77, 5656614.08], [411615.0, 5656610.15], [411607.67, 5656596.0], [411603.96, 5656588.88]]]}}, {"type": "Feature", "properties": {"name": null, "kind": "rail", "structure": "beam", "deck": [118.53, 118.61, 118.53, 118.39, 118.35, 118.35, 118.35, 118.35, 118.35, 118.44, 118.46, 118.49, 118.44, 118.4, 118.36, 118.39, 118.45, 118.53], "axis": [[411569.31, 5657691.78], [411552.88, 5657754.05]], "line": [118.61, 118.58, 118.54, 118.53, 118.52, 118.5, 118.46, 118.44, 118.41, 118.38, 118.37, 118.37, 118.37, 118.36, 118.36, 118.36, 118.36, 118.35, 118.35, 118.35, 118.35, 118.35, 118.35, 118.37, 118.39, 118.4, 118.41, 118.44, 118.44, 118.45, 118.49, 118.49, 118.47]}, "geometry": {"type": "Polygon", "coordinates": [[[411580.65, 5657701.48], [411569.31, 5657691.78], [411565.13, 5657695.81], [411554.73, 5657706.02], [411541.78, 5657718.82], [411540.36, 5657720.22], [411537.68, 5657722.85], [411535.55, 5657724.94], [411532.51, 5657727.93], [411542.4, 5657740.08], [411552.88, 5657754.05], [411555.16, 5657750.92], [411557.65, 5657747.92], [411563.28, 5657741.66], [411576.92, 5657725.52], [411586.29, 5657714.33], [411589.84, 5657710.02], [411580.65, 5657701.48]]]}}, {"type": "Feature", "properties": {"name": null, "kind": "rail", "structure": "beam", "deck": [117.29, 117.26, 117.26, 117.28, 117.32, 119.64, 119.72, 117.29, 117.26, 117.26, 117.28, 117.32, 120.19, 120.22, 117.29], "axis": [[410391.03, 5656622.3], [410443.76, 5656635.2]], "line": [119.72, 119.72, 119.67, 119.62, 119.6, 117.34, 117.3, 117.28, 117.28, 117.27, 117.27, 117.27, 117.26, 117.26, 117.26, 117.26, 117.26, 117.27, 117.27, 117.28, 117.29, 117.31, 117.35, 119.63, 120.17, 120.19, 120.22, 120.23]}, "geometry": {"type": "Polygon", "coordinates": [[[410432.88, 5656619.22], [410423.72, 5656605.26], [410419.51, 5656607.88], [410410.57, 5656612.23], [410403.99, 5656615.46], [410397.12, 5656619.49], [410391.03, 5656622.3], [410400.96, 5656634.57], [410413.16, 5656651.94], [410418.42, 5656649.1], [410423.1, 5656646.52], [410430.01, 5656642.8], [410438.63, 5656638.01], [410443.76, 5656635.2], [410432.88, 5656619.22]]]}}, {"type": "Feature", "properties": {"name": null, "kind": "rail", "structure": "beam", "deck": [117.27, 115.26, 117.27, 117.26, 117.26, 117.27, 117.28, 117.27, 115.14, 115.2, 115.23, 117.28, 117.26, 117.26, 117.27], "axis": [[410698.71, 5656935.29], [410689.59, 5656985.73]], "line": [115.26, 115.3, 115.33, 115.36, 117.19, 117.27, 117.27, 117.27, 117.27, 117.26, 117.26, 117.26, 117.26, 117.26, 117.26, 117.27, 117.27, 117.28, 117.28, 117.28, 117.28, 117.27, 117.27, 115.48, 115.21, 115.17]}, "geometry": {"type": "Polygon", "coordinates": [[[410708.55, 5656947.77], [410698.71, 5656935.29], [410691.28, 5656942.7], [410680.71, 5656953.19], [410674.23, 5656959.73], [410671.48, 5656962.61], [410668.71, 5656965.42], [410677.5, 5656974.21], [410689.59, 5656985.73], [410692.27, 5656983.17], [410693.54, 5656982.08], [410700.06, 5656975.27], [410711.51, 5656963.81], [410717.82, 5656958.54], [410708.55, 5656947.77]]]}}, {"type": "Feature", "properties": {"name": null, "kind": "rail", "structure": "beam", "deck": [118.44, 118.41, 118.41, 117.85, 113.08, 112.88, 112.54, 118.4, 118.41, 118.42, 118.42, 118.44, 118.44, 118.4, 118.33, 118.44], "axis": [[411454.92, 5657645.15], [411512.38, 5657643.9]], "line": [112.54, 112.69, 112.84, 112.99, 113.21, 117.51, 117.8, 118.09, 118.37, 118.4, 118.41, 118.41, 118.41, 118.41, 118.41, 118.41, 118.41, 118.42, 118.42, 118.42, 118.43, 118.44, 118.44, 118.44, 118.45, 118.5, 118.46, 118.39, 118.31]}, "geometry": {"type": "Polygon", "coordinates": [[[411495.25, 5657629.7], [411479.84, 5657617.02], [411476.39, 5657621.23], [411467.01, 5657631.51], [411461.86, 5657637.31], [411459.39, 5657639.85], [411454.92, 5657645.15], [411472.91, 5657660.91], [411486.36, 5657673.98], [411490.75, 5657669.81], [411493.13, 5657666.6], [411500.35, 5657658.49], [411507.75, 5657649.82], [411508.67, 5657648.74], [411512.38, 5657643.9], [411495.25, 5657629.7]]]}}, {"type": "Feature", "properties": {"name": null, "kind": "rail", "structure": "beam", "deck": [116.87, 112.15, 116.84, 117.26, 117.26, 117.27, 117.27, 117.21, 117.03, 117.15, 117.26, 117.27, 117.26, 117.22, 116.87], "axis": [[410517.21, 5656726.47], [410499.65, 5656776.52]], "line": [112.15, 112.29, 112.43, 114.56, 116.78, 117.05, 117.19, 117.22, 117.23, 117.25, 117.26, 117.26, 117.25, 117.26, 117.26, 117.26, 117.27, 117.27, 117.27, 117.27, 117.27, 117.27, 117.27, 117.26, 117.2, 117.14, 117.07]}, "geometry": {"type": "Polygon", "coordinates": [[[410527.52, 5656739.25], [410517.21, 5656726.47], [410509.76, 5656732.78], [410498.55, 5656742.86], [410490.65, 5656749.95], [410487.05, 5656753.13], [410482.82, 5656756.87], [410493.31, 5656768.83], [410499.65, 5656776.52], [410502.86, 5656774.1], [410506.08, 5656771.33], [410515.15, 5656764.34], [410526.83, 5656753.95], [410534.25, 5656746.78], [410527.52, 5656739.25]]]}}, {"type": "Feature", "properties": {"name": null, "kind": "rail", "structure": "beam", "deck": [117.26, 117.42, 117.31, 117.24, 117.27, 117.29, 117.32, 117.61, 117.44, 117.29, 117.24, 117.26], "axis": [[410790.66, 5657043.06], [410779.63, 5657083.95]], "line": [117.42, 117.37, 117.35, 117.33, 117.31, 117.29, 117.27, 117.25, 117.24, 117.24, 117.24, 117.25, 117.25, 117.26, 117.27, 117.28, 117.29, 117.3, 117.31, 117.4, 117.58, 117.61]}, "geometry": {"type": "Polygon", "coordinates": [[[410803.63, 5657059.69], [410790.66, 5657043.06], [410783.47, 5657049.12], [410775.31, 5657058.77], [410768.73, 5657065.2], [410765.04, 5657068.58], [410772.85, 5657076.81], [410779.63, 5657083.95], [410782.95, 5657080.68], [410789.31, 5657074.36], [410798.5, 5657065.2], [410803.63, 5657059.69]]]}}, {"type": "Feature", "properties": {"name": null, "kind": "rail", "structure": "beam", "deck": [118.38, 118.42, 118.36, 118.29, 118.99, 118.99, 118.31, 118.35, 118.31, 118.98, 118.33, 118.3, 118.3, 118.35, 118.38], "axis": [[411699.87, 5657804.52], [411667.75, 5657888.68]], "line": [118.42, 118.4, 118.38, 118.37, 118.36, 118.35, 118.31, 118.3, 118.3, 118.3, 118.3, 118.3, 118.3, 118.3, 118.29, 118.29, 118.29, 118.29, 118.32, 118.32, 118.37, 118.41, 118.96, 118.99, 118.99, 118.99, 118.99, 118.68, 118.68, 118.68, 118.68, 118.98, 118.99, 118.99, 118.99, 118.41, 118.34, 118.31, 118.31, 118.31, 118.31, 118.31, 118.32, 118.33, 118.34, 118.35]}, "geometry": {"type": "Polygon", "coordinates": [[[411709.54, 5657813.29], [411699.87, 5657804.52], [411693.72, 5657812.36], [411682.51, 5657828.36], [411667.39, 5657847.12], [411656.07, 5657860.8], [411648.14, 5657870.76], [411667.75, 5657888.68], [411674.64, 5657880.16], [411685.78, 5657865.29], [411700.58, 5657845.75], [411712.24, 5657831.01], [411715.97, 5657825.44], [411718.14, 5657822.32], [411709.54, 5657813.29]]]}}, {"type": "Feature", "properties": {"name": null, "kind": "rail", "structure": "beam", "deck": [126.14, 126.19, 120.76, 119.56, 119.52, 119.95, 122.18, 122.4, 119.95, 119.52, 119.57, 119.87, 126.14], "axis": [[410224.11, 5656050.95], [410265.57, 5656100.95]], "line": [126.19, 126.16, 126.16, 126.13, 126.09, 126.03, 119.93, 119.86, 119.78, 119.7, 119.63, 119.61, 119.58, 119.57, 119.56, 119.55, 119.52, 119.52, 119.52, 119.52, 119.52, 119.6, 119.93, 119.95, 119.96, 119.97, 119.98, 120.18, 122.24, 122.25, 122.36, 122.46, 122.45]}, "geometry": {"type": "Polygon", "coordinates": [[[410230.81, 5656052.37], [410224.11, 5656050.95], [410224.61, 5656064.88], [410225.44, 5656087.7], [410232.19, 5656090.35], [410242.05, 5656094.65], [410254.97, 5656097.82], [410265.57, 5656100.95], [410264.78, 5656076.63], [410265.17, 5656062.4], [410255.58, 5656058.76], [410240.99, 5656054.71], [410230.81, 5656052.37]]]}}]}