{"type": "FeatureCollection", "attribution": "\u00a9 OpenStreetMap contributors (ODbL)", "crs": {"type": "name", "properties": {"name": "urn:ogc:def:crs:EPSG::25833"}}, "features": [{"type": "Feature", "properties": {"name": null, "kind": "rail", "structure": "", "deck": [116.42, 116.41, 116.35, 116.31, 116.3, 116.3, 116.31, 116.35, 116.41, 116.42], "axis": [[408085.62, 5657229.26], [408073.82, 5657237.41], [408063.49, 5657243.33]], "line": [116.42, 116.41, 116.4, 116.39, 116.38, 116.37, 116.36, 116.35, 116.35, 116.34, 116.33, 116.32, 116.31, 116.3], "wikidata": "Q130392309"}, "geometry": {"type": "Polygon", "coordinates": [[[408083.07, 5657225.56], [408080.94, 5657227.03], [408071.4, 5657233.61], [408064.16, 5657237.76], [408061.25, 5657239.43], [408065.73, 5657247.24], [408068.64, 5657245.57], [408076.24, 5657241.2], [408086.05, 5657234.43], [408088.18, 5657232.97]]]}}, {"type": "Feature", "properties": {"name": null, "kind": "road", "structure": "", "deck": [113.3, 113.3, 113.3, 113.3], "axis": [[408570.06, 5657488.46], [408569.4, 5657496.31]], "line": [113.3, 113.3, 113.3, 113.3]}, "geometry": {"type": "Polygon", "coordinates": [[[408564.58, 5657488.0], [408563.92, 5657495.85], [408574.88, 5657496.78], [408575.54, 5657488.93]]]}}, {"type": "Feature", "properties": {"name": null, "kind": "rail", "structure": "", "deck": [114.52, 114.53, 114.56, 114.57, 114.58, 114.58, 114.57, 114.56, 114.53, 114.52], "axis": [[408087.45, 5657250.55], [408064.23, 5657261.64]], "line": [114.52, 114.53, 114.53, 114.54, 114.54, 114.55, 114.55, 114.56, 114.56, 114.57, 114.57, 114.57, 114.58], "wikidata": "Q130392309"}, "geometry": {"type": "Polygon", "coordinates": [[[408085.56, 5657246.46], [408083.94, 5657247.22], [408072.62, 5657252.47], [408066.25, 5657255.62], [408062.23, 5657257.61], [408066.23, 5657265.68], [408070.25, 5657263.68], [408076.48, 5657260.59], [408087.73, 5657255.38], [408089.35, 5657254.63]]]}}, {"type": "Feature", "properties": {"name": null, "kind": "road", "structure": "truss", "deck": [115.02, 115.58, 115.34, 114.93, 114.95, 115.34, 115.59, 115.02], "axis": [[408778.47, 5657784.06], [408854.77, 5657818.79]], "line": [115.02, 115.17, 115.32, 115.45, 115.58, 115.7, 115.81, 115.92, 116.01, 116.11, 116.19, 116.26, 116.33, 116.39, 116.45, 116.49, 116.53, 116.56, 116.58, 116.6, 116.61, 116.61, 116.6, 116.59, 116.57, 116.54, 116.5, 116.46, 116.41, 116.35, 116.28, 116.21, 116.13, 116.04, 115.95, 115.84, 115.73, 115.61, 115.49, 115.36, 115.22, 115.07], "fairway": 0.598, "clearance": 4.0, "depth": 5.0, "wikidata": "Q15112054", "ribs": [{"offset": 5.0, "rise": [4.4, 4.4, 4.4, 4.4, 4.4, 4.6, 4.6, 4.6, 4.6, 4.6, 4.5, 4.4, 4.3, 4.2, 4.0, 4.0, 4.0, 4.0, 4.0, 4.0, 4.0, 4.0, 4.1, 4.1, 4.1, 4.1, 4.1, 4.2, 4.2, 4.2, 4.2, 4.2, 4.2, 4.2, 4.2, 4.2, 7.1, 7.8, 7.8, 7.8, 7.8, 7.8]}]}, "geometry": {"type": "Polygon", "coordinates": [[[408776.18, 5657789.06], [408783.52, 5657792.43], [408847.22, 5657821.72], [408852.75, 5657823.91], [408856.79, 5657813.67], [408851.78, 5657811.7], [408788.12, 5657782.43], [408780.76, 5657779.06]]]}}, {"type": "Feature", "properties": {"name": null, "kind": "road", "structure": "beam", "deck": [113.97, 114.1, 114.33, 114.63, 114.77, 114.76, 114.63, 114.33, 114.11, 113.98], "axis": [[408113.47, 5657083.91], [408087.74, 5657061.67]], "line": [113.97, 114.02, 114.07, 114.11, 114.16, 114.21, 114.25, 114.3, 114.35, 114.39, 114.44, 114.49, 114.53, 114.58, 114.63, 114.68, 114.72, 114.77], "wikidata": "Q130375436"}, "geometry": {"type": "Polygon", "coordinates": [[[408117.21, 5657079.88], [408113.03, 5657075.99], [408105.69, 5657069.62], [408095.92, 5657061.15], [408091.17, 5657057.36], [408084.32, 5657065.97], [408088.82, 5657069.55], [408098.48, 5657077.93], [408105.71, 5657084.21], [408109.73, 5657087.94]]]}}, {"type": "Feature", "properties": {"name": null, "kind": "path", "structure": "beam", "deck": [117.41, 117.68, 117.95, 117.82, 117.82, 117.95, 117.68, 117.41], "axis": [[408766.28, 5656484.38], [408757.41, 5656451.45]], "line": [117.41, 117.51, 117.6, 117.69, 117.76, 117.82, 117.88, 117.92, 117.95, 117.98, 117.99, 117.99, 117.99, 117.97, 117.94, 117.91, 117.86, 117.8]}, "geometry": {"type": "Polygon", "coordinates": [[[408767.97, 5656483.93], [408766.43, 5656478.17], [408760.75, 5656457.11], [408759.23, 5656451.47], [408755.85, 5656452.39], [408757.37, 5656458.03], [408763.05, 5656479.09], [408764.59, 5656484.83]]]}}, {"type": "Feature", "properties": {"name": "Waltherstra\u00dfenbr\u00fccke", "kind": "road", "structure": "beam", "deck": [121.1, 121.41, 121.75, 123.33, 121.41, 120.76, 120.76, 121.41, 123.33, 121.75, 121.41, 121.11], "axis": [[409425.28, 5656572.75], [409432.51, 5656593.39], [409508.06, 5656839.29], [409514.38, 5656858.69]], "line": [121.1, 121.17, 121.23, 121.29, 121.35, 121.41, 121.47, 121.53, 121.59, 121.64, 121.7, 121.75, 121.81, 121.86, 121.91, 121.96, 122.01, 122.06, 122.11, 122.16, 122.21, 122.25, 122.3, 122.34, 122.38, 122.43, 122.47, 122.51, 122.55, 122.59, 122.62, 122.66, 122.7, 122.73, 122.77, 122.8, 122.83, 122.86, 122.89, 122.92, 122.95, 122.98, 123.01, 123.03, 123.06, 123.08, 123.11, 123.13, 123.15, 123.17, 123.19, 123.21, 123.23, 123.25, 123.27, 123.28, 123.3, 123.31, 123.32, 123.34, 123.35, 123.36, 123.37, 123.38, 123.38, 123.39, 123.4, 123.4, 123.41, 123.41, 123.41, 123.41, 123.41, 123.41, 123.41, 123.41, 123.41, 123.4, 123.4, 123.39, 123.39, 123.38, 123.37, 123.36, 123.35, 123.34, 123.33, 123.32, 123.3, 123.29, 123.28, 123.26, 123.24, 123.22, 123.21, 123.19, 123.17, 123.14, 123.12, 123.1, 123.07, 123.05, 123.02, 123.0, 122.97, 122.94, 122.91, 122.88, 122.85, 122.82, 122.78, 122.75, 122.72, 122.68, 122.64, 122.61, 122.57, 122.53, 122.49, 122.45, 122.41, 122.36, 122.32, 122.28, 122.23, 122.19, 122.14, 122.09, 122.04, 121.99, 121.94, 121.89, 121.84, 121.78, 121.73, 121.67, 121.62, 121.56, 121.5, 121.45, 121.39, 121.33, 121.27, 121.2, 121.14, 121.08, 121.01, 120.95, 120.88, 120.81], "wikidata": "Q127699038"}, "geometry": {"type": "Polygon", "coordinates": [[[409420.05, 5656574.44], [409423.14, 5656584.01], [409427.26, 5656595.03], [409471.72, 5656739.1], [409502.8, 5656840.91], [409509.15, 5656860.39], [409519.61, 5656856.99], [409513.31, 5656837.67], [409482.23, 5656735.87], [409437.76, 5656591.75], [409433.52, 5656580.37], [409430.51, 5656571.06]]]}}, {"type": "Feature", "properties": {"name": null, "kind": "rail", "structure": "truss", "deck": [113.62, 114.08, 114.16, 113.9, 113.9, 114.16, 114.08, 113.62], "axis": [[408882.71, 5657819.5], [408808.07, 5657785.82], [408799.69, 5657782.55]], "line": [113.62, 113.69, 113.77, 113.84, 113.91, 113.97, 114.03, 114.09, 114.15, 114.2, 114.25, 114.29, 114.33, 114.37, 114.41, 114.44, 114.47, 114.5, 114.52, 114.54, 114.56, 114.57, 114.58, 114.59, 114.59, 114.59, 114.59, 114.58, 114.57, 114.56, 114.55, 114.53, 114.5, 114.48, 114.45, 114.42, 114.38, 114.35, 114.3, 114.26, 114.21, 114.16, 114.11, 114.05, 113.99, 113.92], "fairway": 0.654, "clearance": 4.0, "depth": 5.0, "wikidata": "Q15112054", "ribs": [{"offset": -2.5, "rise": [0.0, 0.0, 0.0, 0.0, 0.0, 0.0, 0.0, 0.0, 0.0, 4.9, 5.3, 5.8, 5.8, 5.8, 5.8, 5.8, 6.1, 6.1, 6.1, 6.1, 6.1, 6.1, 6.0, 6.0, 6.0, 6.0, 6.0, 6.0, 6.0, 6.0, 6.0, 6.1, 6.1, 6.1, 6.1, 6.1, 6.2, 6.2, 6.2, 5.7, 5.6, 5.6, 5.3, 3.8, 3.8, 3.8]}, {"offset": 2.0, "rise": [0.0, 0.0, 0.0, 0.0, 4.5, 4.5, 4.5, 4.5, 4.5, 6.1, 6.1, 6.1, 6.1, 6.1, 6.1, 6.0, 6.0, 6.0, 6.0, 6.0, 6.0, 6.0, 6.0, 6.0, 6.0, 6.0, 6.0, 6.0, 5.9, 5.9, 5.9, 5.9, 5.9, 5.9, 5.9, 5.9, 5.9, 4.5, 4.4, 3.0, 0.0, 0.0, 0.0, 0.0, 0.0, 0.0]}]}, "geometry": {"type": "Polygon", "coordinates": [[[408884.56, 5657815.4], [408872.28, 5657809.86], [408809.89, 5657781.71], [408801.32, 5657778.36], [408798.05, 5657786.75], [408806.24, 5657789.93], [408868.58, 5657818.07], [408880.86, 5657823.6]]]}}, {"type": "Feature", "properties": {"name": null, "kind": "rail", "structure": "arch", "deck": [119.63, 119.65, 119.65, 119.65, 119.65, 119.65, 119.65, 119.63], "axis": [[408375.06, 5657140.68], [408432.21, 5657136.55], [408462.38, 5657135.27]], "line": [119.63, 119.63, 119.63, 119.63, 119.63, 119.63, 119.64, 119.64, 119.64, 119.64, 119.64, 119.64, 119.64, 119.64, 119.65, 119.65, 119.65, 119.65, 119.65, 119.65, 119.65, 119.65, 119.65, 119.65, 119.65, 119.65, 119.65, 119.65, 119.65, 119.65, 119.65, 119.65, 119.65, 119.65, 119.65, 119.65, 119.65, 119.65, 119.65, 119.65, 119.65, 119.65, 119.65, 119.65], "ribs": [{"offset": -0.2, "rise": [0.0, 0.0, 0.0, 0.0, 5.0, 5.9, 6.6, 6.9, 6.9, 6.9, 6.9, 9.0, 9.4, 9.6, 9.7, 9.7, 9.7, 9.7, 9.9, 9.9, 9.9, 9.9, 9.7, 9.0, 8.7, 8.7, 8.8, 9.2, 9.6, 9.6, 9.6, 9.6, 9.6, 9.7, 9.7, 9.7, 9.7, 9.3, 8.9, 6.1, 6.1, 5.8, 5.8, 5.8]}]}, "geometry": {"type": "Polygon", "coordinates": [[[408375.37, 5657145.17], [408416.02, 5657142.31], [408432.45, 5657141.05], [408462.57, 5657139.77], [408462.18, 5657130.78], [408431.96, 5657132.06], [408415.37, 5657133.34], [408374.74, 5657136.19]]]}}, {"type": "Feature", "properties": {"name": null, "kind": "path", "structure": "beam", "deck": [117.27, 117.38, 117.42, 117.24, 117.05, 117.05, 117.24, 117.42, 117.38, 117.27], "axis": [[408356.34, 5656569.53], [408368.53, 5656598.63]], "line": [117.27, 117.32, 117.36, 117.39, 117.41, 117.43, 117.43, 117.43, 117.42, 117.4, 117.37, 117.34, 117.29, 117.24, 117.18, 117.11]}, "geometry": {"type": "Polygon", "coordinates": [[[408354.73, 5656570.2], [408356.86, 5656575.31], [408360.77, 5656584.64], [408364.79, 5656594.22], [408366.92, 5656599.31], [408370.14, 5656597.95], [408368.01, 5656592.86], [408364.0, 5656583.29], [408360.08, 5656573.95], [408357.95, 5656568.86]]]}}, {"type": "Feature", "properties": {"name": null, "kind": "rail", "structure": "arch", "deck": [117.16, 117.12, 117.05, 117.05, 117.12, 117.16], "axis": [[408157.22, 5657191.86], [408139.6, 5657199.63]], "line": [117.16, 117.15, 117.14, 117.13, 117.12, 117.11, 117.1, 117.09, 117.07, 117.06]}, "geometry": {"type": "Polygon", "coordinates": [[[408155.49, 5657187.7], [408147.13, 5657191.2], [408137.71, 5657195.55], [408141.49, 5657203.72], [408150.77, 5657199.43], [408158.96, 5657196.01]]]}}, {"type": "Feature", "properties": {"name": null, "kind": "path", "structure": "arch", "deck": [107.74, 107.8, 107.98, 107.82, 107.78, 107.78, 107.82, 107.98, 107.79, 107.74], "axis": [[408011.24, 5657648.48], [408009.78, 5657647.18], [407985.99, 5657632.31]], "line": [107.74, 107.8, 107.85, 107.89, 107.92, 107.95, 107.97, 107.98, 107.98, 107.98, 107.96, 107.94, 107.91, 107.88, 107.83, 107.78], "wikidata": "Q130370597"}, "geometry": {"type": "Polygon", "coordinates": [[[408012.41, 5657647.18], [408010.75, 5657645.72], [407999.1, 5657638.37], [407988.41, 5657631.62], [407986.81, 5657630.77], [407985.17, 5657633.86], [407986.57, 5657634.6], [407997.23, 5657641.33], [408008.82, 5657648.64], [408010.08, 5657649.79]]]}}, {"type": "Feature", "properties": {"name": null, "kind": "rail", "structure": "beam", "deck": [111.72, 111.9, 112.11, 112.11, 111.9, 111.72], "axis": [[408163.73, 5657221.07], [408146.27, 5657227.26]], "line": [111.72, 111.76, 111.8, 111.85, 111.89, 111.93, 111.97, 112.01, 112.05, 112.1]}, "geometry": {"type": "Polygon", "coordinates": [[[408162.25, 5657216.82], [408154.24, 5657219.62], [408144.75, 5657223.02], [408147.79, 5657231.49], [408157.24, 5657228.1], [408165.22, 5657225.31]]]}}, {"type": "Feature", "properties": {"name": null, "kind": "other", "structure": "", "deck": [113.83, 113.29, 113.49, 113.6, 113.84, 113.8, 113.2, 113.26, 113.4, 113.57, 113.6, 113.83], "axis": [[408071.75, 5657169.64], [408073.93, 5657228.14]], "line": [113.29, 113.36, 113.43, 113.5, 113.56, 113.61, 113.66, 113.7, 113.74, 113.77, 113.79, 113.81, 113.83, 113.83, 113.84, 113.84, 113.83, 113.81, 113.8, 113.77, 113.74, 113.71, 113.67, 113.62, 113.57, 113.51, 113.45, 113.38, 113.3, 113.22], "wikidata": "Q130392309"}, "geometry": {"type": "Polygon", "coordinates": [[[408082.53, 5657193.75], [408079.72, 5657169.34], [408069.26, 5657175.36], [408061.14, 5657179.64], [408061.82, 5657196.92], [408062.17, 5657205.85], [408062.97, 5657228.55], [408065.59, 5657227.04], [408072.75, 5657222.89], [408082.32, 5657217.16], [408084.46, 5657215.88], [408082.53, 5657193.75]]]}}, {"type": "Feature", "properties": {"name": null, "kind": "road", "structure": "beam", "deck": [117.36, 117.36, 118.2, 118.47, 117.12, 116.79, 116.79, 116.79, 116.8, 116.8, 117.11, 118.48, 117.36, 117.36, 117.35, 117.36], "axis": [[408214.5, 5657645.14], [408178.93, 5657950.21]], "line": [117.35, 117.39, 117.43, 117.47, 117.5, 117.54, 117.58, 117.61, 117.65, 117.68, 117.71, 117.75, 117.78, 117.81, 117.84, 117.87, 117.9, 117.93, 117.96, 117.99, 118.02, 118.04, 118.07, 118.1, 118.12, 118.15, 118.17, 118.19, 118.22, 118.24, 118.26, 118.28, 118.31, 118.33, 118.35, 118.37, 118.39, 118.4, 118.42, 118.44, 118.46, 118.47, 118.49, 118.5, 118.52, 118.53, 118.55, 118.56, 118.57, 118.58, 118.59, 118.6, 118.61, 118.62, 118.63, 118.64, 118.65, 118.66, 118.66, 118.67, 118.68, 118.68, 118.69, 118.69, 118.69, 118.7, 118.7, 118.7, 118.7, 118.7, 118.71, 118.7, 118.7, 118.7, 118.7, 118.7, 118.7, 118.69, 118.69, 118.68, 118.68, 118.67, 118.67, 118.66, 118.65, 118.64, 118.64, 118.63, 118.62, 118.61, 118.6, 118.59, 118.57, 118.56, 118.55, 118.54, 118.52, 118.51, 118.49, 118.48, 118.46, 118.44, 118.43, 118.41, 118.39, 118.37, 118.35, 118.33, 118.31, 118.29, 118.27, 118.25, 118.22, 118.2, 118.18, 118.15, 118.13, 118.1, 118.08, 118.05, 118.02, 117.99, 117.97, 117.94, 117.91, 117.88, 117.85, 117.82, 117.79, 117.75, 117.72, 117.69, 117.65, 117.62, 117.59, 117.55, 117.51, 117.48, 117.44, 117.4, 117.36, 117.33, 117.29, 117.25, 117.21, 117.17, 117.12, 117.08, 117.04, 117.0, 116.95, 116.91, 116.86, 116.82], "fairway": 0.455, "clearance": 8.0, "depth": 5.0, "wikidata": "Q1434893"}, "geometry": {"type": "Polygon", "coordinates": [[[408205.57, 5657644.42], [408200.42, 5657644.01], [408194.5, 5657697.76], [408177.54, 5657841.52], [408166.66, 5657933.75], [408164.91, 5657948.58], [408171.86, 5657949.36], [408178.82, 5657950.14], [408185.96, 5657950.94], [408192.72, 5657951.7], [408194.41, 5657937.36], [408218.94, 5657728.93], [408228.41, 5657647.17], [408223.04, 5657646.4], [408213.95, 5657645.08], [408205.57, 5657644.42]]]}}, {"type": "Feature", "properties": {"name": null, "kind": "road", "structure": "beam", "deck": [112.59, 112.62, 111.96, 111.92, 111.86, 111.82, 111.77, 112.45, 112.5, 112.54, 112.59], "axis": [[408053.75, 5657529.53], [408002.98, 5657537.87]], "line": [112.62, 112.59, 112.56, 112.52, 112.49, 112.46, 112.42, 112.39, 112.36, 112.33, 112.29, 112.26, 112.23, 112.19, 112.16, 112.13, 112.09, 112.06, 112.03, 111.99, 111.96, 111.93, 111.89, 111.86, 111.83, 111.79], "wikidata": "Q130375375"}, "geometry": {"type": "Polygon", "coordinates": [[[408049.97, 5657520.97], [408051.16, 5657513.76], [408011.75, 5657520.24], [408010.38, 5657527.19], [408008.23, 5657537.21], [408006.91, 5657545.01], [408005.57, 5657553.64], [408045.88, 5657545.75], [408047.33, 5657537.41], [408048.52, 5657530.07], [408049.97, 5657520.97]]]}}, {"type": "Feature", "properties": {"name": null, "kind": "road", "structure": "beam", "deck": [116.12, 116.14, 116.94, 117.27, 117.61, 117.95, 118.09, 118.14, 118.14, 118.14, 118.14, 118.14, 118.09, 117.96, 117.57, 117.29, 116.9, 116.07, 116.09, 116.11, 116.12], "axis": [[409171.59, 5656251.93], [409155.99, 5656291.76]], "line": [116.07, 116.23, 116.38, 116.52, 116.66, 116.79, 116.91, 117.04, 117.15, 117.26, 117.36, 117.46, 117.55, 117.64, 117.72, 117.79, 117.86, 117.93, 117.99, 118.04, 118.08, 118.13]}, "geometry": {"type": "Polygon", "coordinates": [[[409161.0, 5656248.46], [409153.66, 5656245.76], [409149.63, 5656256.71], [409147.38, 5656262.08], [409145.12, 5656268.65], [409141.31, 5656277.36], [409139.2, 5656282.51], [409138.26, 5656284.81], [409142.6, 5656286.51], [409153.85, 5656290.92], [409164.71, 5656295.18], [409173.5, 5656298.62], [409174.44, 5656296.14], [409176.2, 5656291.48], [409180.32, 5656281.56], [409182.54, 5656276.19], [409184.92, 5656269.83], [409189.06, 5656258.78], [409180.18, 5656255.51], [409170.88, 5656252.09], [409161.0, 5656248.46]]]}}, {"type": "Feature", "properties": {"name": null, "kind": "rail", "structure": "beam", "deck": [114.75, 114.46, 114.4, 114.31, 114.61, 114.68, 114.7, 114.7, 114.7, 114.75, 114.75, 114.73, 114.73, 114.75, 114.75], "axis": [[409958.89, 5656592.89], [409935.16, 5656548.61]], "line": [114.73, 114.74, 114.74, 114.75, 114.75, 114.75, 114.75, 114.75, 114.74, 114.73, 114.72, 114.71, 114.69, 114.68, 114.66, 114.64, 114.62, 114.59, 114.56, 114.53, 114.5, 114.47, 114.43, 114.4, 114.36, 114.31]}, "geometry": {"type": "Polygon", "coordinates": [[[409964.27, 5656575.87], [409951.59, 5656548.62], [409936.61, 5656552.63], [409922.4, 5656555.45], [409930.91, 5656571.34], [409956.22, 5656565.73], [409956.85, 5656568.06], [409947.71, 5656573.05], [409936.56, 5656579.11], [409942.17, 5656588.67], [409945.35, 5656594.54], [409947.7, 5656598.89], [409969.77, 5656586.64], [409967.36, 5656581.77], [409964.27, 5656575.87]]]}}]}