{"type": "FeatureCollection", "attribution": "\u00a9 OpenStreetMap contributors (ODbL)", "crs": {"type": "name", "properties": {"name": "urn:ogc:def:crs:EPSG::25833"}}, "features": [{"type": "Feature", "properties": {"name": null, "kind": "road", "structure": "beam", "deck": [126.43, 126.31, 126.28, 126.04, 125.67, 125.51, 124.19, 124.08, 122.0, 122.0, 124.08, 124.19, 125.51, 125.67, 126.04, 126.28, 126.31, 126.43], "axis": [[410497.99, 5655392.01], [410578.74, 5655452.36], [410620.76, 5655482.47], [410686.31, 5655532.25], [410763.96, 5655586.52]], "line": [126.43, 126.42, 126.42, 126.42, 126.41, 126.4, 126.39, 126.38, 126.37, 126.36, 126.34, 126.33, 126.32, 126.32, 126.31, 126.31, 126.3, 126.3, 126.29, 126.29, 126.28, 126.28, 126.28, 126.28, 126.28, 126.27, 126.26, 126.25, 126.24, 126.22, 126.21, 126.2, 126.2, 126.19, 126.18, 126.18, 126.18, 126.18, 126.18, 126.17, 126.17, 126.17, 126.18, 126.19, 126.16, 126.15, 126.15, 126.14, 126.11, 126.07, 126.04, 126.03, 126.03, 126.03, 126.0, 125.96, 125.96, 125.94, 125.92, 125.9, 125.88, 125.86, 125.85, 125.83, 125.8, 125.77, 125.76, 125.73, 125.71, 125.68, 125.68, 125.67, 125.65, 125.62, 125.57, 125.55, 125.52, 125.49, 125.47, 125.45, 125.43, 125.41, 125.38, 125.38, 125.35, 125.32, 125.3, 125.27, 125.25, 125.22, 125.19, 125.16, 125.12, 125.1, 125.07, 125.04, 125.01, 124.97, 124.93, 124.9, 124.86, 124.83, 124.79, 124.77, 124.73, 124.69, 124.66, 124.61, 124.58, 124.54, 124.51, 124.47, 124.43, 124.38, 124.34, 124.3, 124.26, 124.22, 124.17, 124.13, 124.09, 124.05, 124.0, 123.96, 123.93, 123.91, 123.89, 123.87, 123.85, 123.76, 123.7, 123.66, 123.6, 123.56, 123.51, 123.47, 123.41, 123.37, 123.32, 123.27, 123.21, 123.17, 123.12, 123.06, 123.02, 122.97, 122.93, 122.86, 122.83, 122.77, 122.73, 122.67, 122.62, 122.57, 122.53, 122.46, 122.42, 122.36, 122.3, 122.24, 122.19, 122.13, 122.09, 122.06, 122.03]}, "geometry": {"type": "Polygon", "coordinates": [[[410494.7, 5655396.42], [410518.53, 5655414.23], [410527.39, 5655420.85], [410575.49, 5655456.79], [410609.0, 5655480.72], [410617.44, 5655486.86], [410682.99, 5655536.64], [410687.94, 5655540.22], [410760.82, 5655591.03], [410767.11, 5655582.0], [410694.24, 5655531.2], [410689.63, 5655527.86], [410624.08, 5655478.08], [410615.4, 5655471.78], [410581.99, 5655447.93], [410533.97, 5655412.03], [410525.12, 5655405.42], [410501.28, 5655387.6]]]}}, {"type": "Feature", "properties": {"name": null, "kind": "road", "structure": "beam", "deck": [126.38, 126.28, 126.26, 125.97, 125.78, 125.56, 125.39, 124.01, 123.88, 122.04, 122.04, 123.88, 124.0, 125.39, 125.56, 125.78, 125.97, 126.26, 126.28, 126.38], "axis": [[410517.72, 5655376.6], [410600.53, 5655438.2], [410617.79, 5655449.83], [410643.63, 5655469.41], [410709.16, 5655517.47], [410775.94, 5655565.74]], "line": [126.38, 126.37, 126.37, 126.37, 126.37, 126.36, 126.36, 126.35, 126.34, 126.33, 126.32, 126.31, 126.3, 126.29, 126.28, 126.28, 126.27, 126.27, 126.26, 126.26, 126.26, 126.25, 126.24, 126.24, 126.23, 126.22, 126.22, 126.21, 126.2, 126.2, 126.19, 126.18, 126.18, 126.15, 126.15, 126.15, 126.14, 126.13, 126.11, 126.11, 126.1, 126.1, 126.09, 126.08, 126.07, 126.06, 126.04, 126.03, 126.01, 126.0, 125.98, 125.97, 125.97, 125.94, 125.93, 125.9, 125.89, 125.88, 125.86, 125.84, 125.82, 125.8, 125.78, 125.75, 125.74, 125.71, 125.69, 125.67, 125.66, 125.63, 125.63, 125.6, 125.57, 125.52, 125.5, 125.46, 125.45, 125.42, 125.39, 125.38, 125.34, 125.3, 125.28, 125.25, 125.22, 125.19, 125.16, 125.14, 125.12, 125.08, 125.06, 125.04, 125.01, 124.97, 124.93, 124.91, 124.87, 124.84, 124.81, 124.77, 124.74, 124.69, 124.66, 124.64, 124.59, 124.56, 124.51, 124.49, 124.44, 124.42, 124.38, 124.34, 124.31, 124.26, 124.21, 124.17, 124.13, 124.08, 124.05, 124.0, 123.95, 123.92, 123.87, 123.83, 123.77, 123.73, 123.69, 123.65, 123.62, 123.57, 123.54, 123.49, 123.43, 123.39, 123.33, 123.29, 123.24, 123.18, 123.11, 123.08, 123.04, 122.99, 122.93, 122.89, 122.83, 122.77, 122.72, 122.66, 122.62, 122.56, 122.49, 122.46, 122.39, 122.33, 122.26, 122.22, 122.17, 122.13, 122.1, 122.06, 122.04]}, "geometry": {"type": "Polygon", "coordinates": [[[410514.44, 5655381.01], [410537.6, 5655398.24], [410546.17, 5655404.62], [410597.3, 5655442.65], [410614.59, 5655454.3], [410630.62, 5655466.47], [410640.37, 5655473.84], [410705.91, 5655521.91], [410710.75, 5655525.4], [410772.72, 5655570.2], [410779.16, 5655561.28], [410717.19, 5655516.48], [410712.41, 5655513.03], [410646.89, 5655464.98], [410637.26, 5655457.71], [410620.99, 5655445.36], [410603.76, 5655433.75], [410552.74, 5655395.79], [410544.16, 5655389.41], [410521.0, 5655372.19]]]}}, {"type": "Feature", "properties": {"name": null, "kind": "road", "structure": "beam", "deck": [122.04, 124.89, 125.34, 125.34, 124.89, 122.04], "axis": [[410727.61, 5655413.07], [410643.63, 5655469.41]], "line": [122.04, 122.06, 122.11, 122.17, 122.22, 122.29, 122.38, 122.52, 122.56, 122.59, 122.69, 122.77, 122.87, 122.95, 123.02, 123.12, 123.2, 123.26, 123.34, 123.42, 123.49, 123.58, 123.68, 123.75, 123.82, 123.91, 123.97, 124.07, 124.14, 124.24, 124.31, 124.4, 124.46, 124.56, 124.62, 124.69, 124.76, 124.83, 124.91, 124.96, 125.06, 125.11, 125.16, 125.2, 125.22, 125.24, 125.25, 125.29, 125.3, 125.32, 125.34]}, "geometry": {"type": "Polygon", "coordinates": [[[410724.54, 5655408.51], [410661.84, 5655450.66], [410640.58, 5655464.83], [410646.68, 5655473.99], [410667.97, 5655459.8], [410730.68, 5655417.63]]]}}, {"type": "Feature", "properties": {"name": null, "kind": "road", "structure": "beam", "deck": [122.44, 125.12, 125.43, 125.5, 125.5, 125.43, 125.12, 122.44], "axis": [[410536.3, 5655539.21], [410604.67, 5655492.82], [410620.76, 5655482.47]], "line": [122.44, 122.47, 122.51, 122.55, 122.55, 122.64, 122.72, 122.81, 122.89, 122.97, 123.05, 123.14, 123.21, 123.29, 123.37, 123.45, 123.54, 123.61, 123.69, 123.77, 123.84, 123.92, 124.01, 124.11, 124.15, 124.22, 124.32, 124.4, 124.47, 124.57, 124.63, 124.69, 124.77, 124.87, 124.92, 124.99, 125.08, 125.14, 125.23, 125.29, 125.36, 125.42, 125.45, 125.48, 125.51, 125.52, 125.52, 125.52, 125.53, 125.52, 125.51]}, "geometry": {"type": "Polygon", "coordinates": [[[410539.37, 5655543.78], [410600.18, 5655502.86], [410607.73, 5655497.39], [410623.74, 5655487.1], [410617.78, 5655477.84], [410601.61, 5655488.25], [410594.0, 5655493.76], [410533.23, 5655534.65]]]}}, {"type": "Feature", "properties": {"name": null, "kind": "rail", "structure": "beam", "deck": [119.55, 119.55, 119.55, 119.55, 119.55, 119.55, 119.55, 119.55, 119.55, 119.55, 119.55, 119.55, 119.55, 119.55, 119.55, 119.54, 119.54, 119.57, 119.69, 119.7, 119.71, 119.71, 119.7, 119.71, 119.7, 119.69, 119.55, 119.54, 119.54, 119.55, 119.55, 119.55, 119.55, 119.55, 119.55, 119.55, 119.55, 119.55, 119.55, 119.55, 119.55, 119.55, 119.55, 119.55, 119.55, 119.55, 119.55, 119.55, 119.55, 119.55], "axis": [[411227.9, 5654947.72], [411157.16, 5654979.24]], "line": [119.55, 119.55, 119.55, 119.54, 119.54, 119.54, 119.54, 119.54, 119.54, 119.54, 119.54, 119.54, 119.55, 119.55, 119.55, 119.58, 119.56, 119.58, 119.61, 119.62, 119.62, 119.62, 119.68, 119.69, 119.69, 119.69, 119.69, 119.7, 119.7, 119.7, 119.7, 119.7, 119.7, 119.7, 119.7, 119.7, 119.7, 119.71, 119.71]}, "geometry": {"type": "Polygon", "coordinates": [[[411225.55, 5654943.41], [411225.4, 5654943.28], [411225.31, 5654943.23], [411225.13, 5654943.15], [411224.93, 5654943.1], [411224.73, 5654943.07], [411224.69, 5654943.07], [411224.54, 5654943.08], [411224.35, 5654943.12], [411224.17, 5654943.18], [411224.0, 5654943.27], [411223.85, 5654943.39], [411223.72, 5654943.14], [411223.42, 5654943.3], [411214.46, 5654926.8], [411203.22, 5654931.13], [411197.43, 5654934.01], [411190.91, 5654937.53], [411172.4, 5654947.76], [411162.24, 5654953.89], [411149.39, 5654961.78], [411157.08, 5654976.02], [411162.17, 5654985.99], [411168.62, 5654997.38], [411179.61, 5654993.57], [411192.91, 5654988.19], [411213.36, 5654980.28], [411220.25, 5654977.57], [411229.89, 5654973.95], [411238.16, 5654970.74], [411233.36, 5654961.76], [411226.57, 5654949.02], [411226.84, 5654948.88], [411226.74, 5654948.7], [411226.93, 5654948.62], [411227.09, 5654948.51], [411227.25, 5654948.37], [411227.38, 5654948.22], [411227.48, 5654948.05], [411227.56, 5654947.96], [411227.63, 5654947.74], [411227.66, 5654947.52], [411227.65, 5654947.29], [411227.6, 5654947.07], [411227.52, 5654946.85], [411227.4, 5654946.66], [411225.85, 5654943.91], [411225.78, 5654943.73], [411225.67, 5654943.56], [411225.55, 5654943.41]]]}}, {"type": "Feature", "properties": {"name": null, "kind": "rail", "structure": "beam", "deck": [119.55, 119.55, 119.54, 119.55, 119.55, 119.55, 119.54, 119.55, 119.55], "axis": [[411520.28, 5654884.97], [411499.57, 5654896.96]], "line": [119.55, 119.55, 119.55, 119.55, 119.55, 119.54, 119.54, 119.54, 119.55, 119.55, 119.55, 119.55]}, "geometry": {"type": "Polygon", "coordinates": [[[411521.52, 5654887.56], [411514.58, 5654875.13], [411504.46, 5654881.92], [411494.88, 5654887.42], [411502.49, 5654901.67], [411504.97, 5654906.29], [411514.86, 5654901.26], [411525.44, 5654893.89], [411521.52, 5654887.56]]]}}, {"type": "Feature", "properties": {"name": null, "kind": "rail", "structure": "arch", "deck": [119.56, 119.57, 119.59, 119.59, 119.59, 119.58, 119.58, 119.57, 119.57, 119.59, 119.59, 119.59, 119.57, 119.57, 119.56], "axis": [[411972.04, 5654610.49], [411936.6, 5654630.26]], "line": [119.56, 119.57, 119.57, 119.57, 119.57, 119.58, 119.58, 119.58, 119.59, 119.59, 119.59, 119.59, 119.59, 119.59, 119.59, 119.59, 119.59, 119.58, 119.58, 119.58, 119.57]}, "geometry": {"type": "Polygon", "coordinates": [[[411969.56, 5654606.04], [411966.98, 5654602.13], [411953.13, 5654609.87], [411949.0, 5654612.17], [411944.74, 5654614.51], [411934.96, 5654620.12], [411936.02, 5654623.93], [411939.04, 5654632.98], [411941.37, 5654638.8], [411953.48, 5654631.55], [411957.77, 5654629.33], [411962.64, 5654626.63], [411975.34, 5654619.86], [411973.37, 5654613.98], [411969.56, 5654606.04]]]}}, {"type": "Feature", "properties": {"name": null, "kind": "rail", "structure": "beam", "deck": [119.55, 119.29, 119.21, 119.11, 119.55, 119.55, 119.39, 119.39, 119.39, 119.55, 119.55], "axis": [[411500.85, 5654873.91], [411481.78, 5654838.29]], "line": [119.39, 119.42, 119.46, 119.47, 119.52, 119.53, 119.54, 119.55, 119.55, 119.55, 119.55, 119.55, 119.54, 119.53, 119.52, 119.52, 119.45, 119.37, 119.29, 119.21, 119.13]}, "geometry": {"type": "Polygon", "coordinates": [[[411501.67, 5654851.14], [411493.88, 5654836.88], [411482.55, 5654840.7], [411471.54, 5654843.77], [411480.93, 5654861.34], [411483.68, 5654866.49], [411490.59, 5654879.41], [411499.94, 5654874.39], [411511.11, 5654868.42], [411504.85, 5654856.96], [411501.67, 5654851.14]]]}}, {"type": "Feature", "properties": {"name": null, "kind": "rail", "structure": "beam", "deck": [119.41, 119.41, 119.41, 119.42, 119.42, 119.42, 119.42, 119.42, 119.42, 119.42, 119.42, 119.42, 119.42, 119.42, 119.42, 119.42, 119.42, 119.42, 119.42, 119.42, 119.42, 119.42, 119.42, 119.42, 119.42, 119.42, 119.42, 119.42, 119.42, 119.42, 119.41, 119.41, 119.41, 119.41, 119.4, 119.4, 119.4, 119.4, 119.4, 119.4, 119.41, 119.41, 119.41, 119.41, 119.41], "axis": [[411269.11, 5655026.38], [411204.47, 5655065.15]], "line": [119.42, 119.41, 119.42, 119.42, 119.42, 119.41, 119.41, 119.41, 119.41, 119.41, 119.41, 119.41, 119.41, 119.41, 119.41, 119.41, 119.42, 119.41, 119.41, 119.41, 119.41, 119.41, 119.41, 119.41, 119.41, 119.41, 119.41, 119.41, 119.41, 119.41, 119.4, 119.4, 119.4, 119.4, 119.4, 119.4, 119.4, 119.4]}, "geometry": {"type": "Polygon", "coordinates": [[[411260.01, 5655052.93], [411266.54, 5655049.51], [411277.12, 5655042.9], [411273.74, 5655036.55], [411273.86, 5655036.49], [411273.98, 5655036.4], [411274.08, 5655036.31], [411274.16, 5655036.19], [411274.23, 5655036.07], [411274.28, 5655035.94], [411274.31, 5655035.79], [411274.32, 5655035.64], [411274.3, 5655035.5], [411274.26, 5655035.35], [411274.2, 5655035.22], [411274.12, 5655035.1], [411273.18, 5655033.26], [411272.89, 5655032.68], [411272.82, 5655032.55], [411272.72, 5655032.43], [411272.62, 5655032.34], [411272.49, 5655032.25], [411272.36, 5655032.19], [411272.2, 5655032.14], [411272.04, 5655032.12], [411271.87, 5655032.12], [411271.71, 5655032.16], [411271.56, 5655032.22], [411271.41, 5655032.3], [411259.59, 5655010.5], [411249.08, 5655017.09], [411242.46, 5655021.21], [411235.85, 5655025.31], [411219.39, 5655035.54], [411206.58, 5655043.1], [411196.84, 5655049.62], [411196.86, 5655049.61], [411207.35, 5655069.05], [411212.31, 5655078.22], [411221.79, 5655073.77], [411235.26, 5655066.48], [411237.95, 5655065.0], [411248.04, 5655059.45], [411253.64, 5655056.37], [411260.01, 5655052.93]]]}}, {"type": "Feature", "properties": {"name": null, "kind": "rail", "structure": "beam", "deck": [119.59, 119.59, 119.58, 119.57, 119.57, 119.57, 119.57, 119.58, 119.6, 119.59, 119.59], "axis": [[411662.59, 5654784.33], [411633.75, 5654798.81]], "line": [119.59, 119.59, 119.59, 119.58, 119.58, 119.57, 119.58, 119.58, 119.58, 119.58, 119.57, 119.57, 119.57, 119.57, 119.57, 119.57, 119.57]}, "geometry": {"type": "Polygon", "coordinates": [[[411658.34, 5654777.27], [411655.54, 5654770.29], [411641.19, 5654778.01], [411626.82, 5654784.71], [411631.32, 5654793.97], [411638.07, 5654807.07], [411641.38, 5654812.56], [411653.67, 5654805.64], [411666.07, 5654798.0], [411663.35, 5654790.27], [411658.34, 5654777.27]]]}}, {"type": "Feature", "properties": {"name": null, "kind": "rail", "structure": "beam", "deck": [118.67, 119.3, 119.11, 118.66, 118.65, 118.72, 118.8, 118.65, 118.65, 118.65, 118.67], "axis": [[410501.46, 5655431.63], [410415.36, 5655520.9]], "line": [119.3, 119.33, 119.29, 119.21, 119.13, 119.05, 118.97, 118.89, 118.81, 118.73, 118.69, 118.67, 118.66, 118.66, 118.66, 118.66, 118.66, 118.65, 118.65, 118.65, 118.65, 118.65, 118.65, 118.65, 118.65, 118.65, 118.66, 118.66, 118.66, 118.65, 118.65, 118.65, 118.65, 118.65, 118.65, 118.65, 118.65, 118.65, 118.65, 118.65, 118.66, 118.66, 118.66, 118.67, 118.68, 118.7, 118.7, 118.72, 118.73, 118.75, 118.8, 118.8, 118.81, 118.89, 118.97, 119.04, 119.04, 119.0, 118.92, 118.85, 118.81, 118.77, 118.72]}, "geometry": {"type": "Polygon", "coordinates": [[[410495.45, 5655456.74], [410511.26, 5655441.08], [410501.27, 5655443.14], [410478.15, 5655450.76], [410457.26, 5655457.84], [410405.93, 5655511.81], [410430.42, 5655503.76], [410453.91, 5655492.5], [410466.77, 5655487.2], [410475.13, 5655477.32], [410495.45, 5655456.74]]]}}, {"type": "Feature", "properties": {"name": null, "kind": "rail", "structure": "beam", "deck": [119.14, 119.16, 119.16, 119.14, 119.14, 119.14, 119.11, 119.1, 119.13, 119.37, 119.74, 119.77, 119.79, 119.4, 119.13, 119.1, 119.14], "axis": [[410247.75, 5655817.35], [410301.02, 5655832.6]], "line": [119.14, 119.17, 119.16, 119.14, 119.14, 119.12, 119.11, 119.11, 119.1, 119.1, 119.1, 119.11, 119.13, 119.14, 119.14, 119.13, 119.14, 119.18, 119.19, 119.19, 119.19, 119.25, 119.33, 119.41, 119.49, 119.57, 119.65, 119.73]}, "geometry": {"type": "Polygon", "coordinates": [[[410257.4, 5655807.88], [410251.65, 5655805.94], [410249.27, 5655814.21], [410246.36, 5655822.21], [410251.06, 5655824.06], [410250.68, 5655830.72], [410256.25, 5655832.24], [410264.0, 5655834.01], [410272.73, 5655836.74], [410287.78, 5655841.12], [410296.71, 5655843.66], [410300.65, 5655832.01], [410304.22, 5655821.43], [410294.99, 5655818.49], [410279.72, 5655814.35], [410271.5, 5655811.62], [410257.4, 5655807.88]]]}}]}