{"type": "FeatureCollection", "attribution": "\u00a9 OpenStreetMap contributors (ODbL)", "crs": {"type": "name", "properties": {"name": "urn:ogc:def:crs:EPSG::25833"}}, "features": [{"type": "Feature", "properties": {"k": "colony"}, "geometry": {"type": "Polygon", "coordinates": [[[416195.74, 5654082.89], [416202.61, 5654093.59], [416226.51, 5654078.89], [416215.47, 5654063.62], [416242.64, 5654030.76], [416263.98, 5654055.92], [416288.34, 5654040.29], [416349.38, 5654000.0], [416145.8, 5654000.0], [416195.74, 5654082.89]]]}}, {"type": "Feature", "properties": {"k": "colony"}, "geometry": {"type": "Polygon", "coordinates": [[[416324.99, 5654203.86], [416320.44, 5654196.6], [416344.46, 5654180.52], [416334.04, 5654165.75], [416335.73, 5654158.32], [416340.4, 5654137.69], [416343.09, 5654125.84], [416343.79, 5654122.73], [416344.1, 5654121.38], [416348.07, 5654105.22], [416340.3, 5654092.89], [416339.32, 5654091.16], [416341.35, 5654086.13], [416331.75, 5654070.81], [416308.08, 5654086.0], [416305.29, 5654081.21], [416277.92, 5654099.16], [416277.59, 5654117.17], [416273.75, 5654129.81], [416269.24, 5654138.94], [416317.04, 5654208.97], [416324.99, 5654203.86]]]}}, {"type": "Feature", "properties": {"k": "colony"}, "geometry": {"type": "Polygon", "coordinates": [[[416610.89, 5655430.2], [416619.83, 5655429.36], [416628.04, 5655430.15], [416632.31, 5655431.81], [416642.39, 5655440.74], [416682.28, 5655476.04], [416697.53, 5655489.54], [416749.3, 5655420.92], [416740.29, 5655411.91], [416697.7, 5655369.36], [416671.82, 5655343.5], [416645.29, 5655377.69], [416605.5, 5655425.53], [416610.89, 5655430.2]]]}}, {"type": "Feature", "properties": {"k": "colony"}, "geometry": {"type": "Polygon", "coordinates": [[[417703.76, 5654838.08], [417585.15, 5654939.58], [417610.34, 5654958.86], [417561.2, 5655014.97], [417517.26, 5655069.53], [417583.28, 5655106.96], [417612.52, 5655130.77], [417618.3, 5655135.48], [417638.15, 5655089.62], [417668.4, 5655107.34], [417683.57, 5655083.51], [417660.52, 5655070.56], [417692.79, 5655009.46], [417681.75, 5655005.07], [417708.43, 5654972.0], [417693.61, 5654960.38], [417673.74, 5654943.62], [417686.51, 5654924.99], [417715.98, 5654882.72], [417726.59, 5654891.17], [417743.78, 5654871.17], [417703.76, 5654838.08]]]}}, {"type": "Feature", "properties": {"k": "colony"}, "geometry": {"type": "Polygon", "coordinates": [[[416125.65, 5654000.0], [416000.0, 5654000.0], [416000.0, 5654088.69], [416036.61, 5654081.17], [416095.39, 5654057.39], [416088.2, 5654037.73], [416133.32, 5654012.72], [416125.65, 5654000.0]]]}}, {"type": "Feature", "properties": {"k": "colony"}, "geometry": {"type": "Polygon", "coordinates": [[[416088.2, 5654037.73], [416095.39, 5654057.39], [416135.31, 5654147.09], [416156.59, 5654136.44], [416188.23, 5654121.81], [416191.98, 5654107.96], [416188.19, 5654101.76], [416143.45, 5654029.17], [416133.32, 5654012.72], [416088.2, 5654037.73]]]}}, {"type": "Feature", "properties": {"k": "colony"}, "geometry": {"type": "Polygon", "coordinates": [[[417669.05, 5654027.99], [417640.42, 5654064.36], [417654.36, 5654075.06], [417657.05, 5654071.82], [417659.66, 5654073.98], [417660.25, 5654074.47], [417665.32, 5654068.84], [417682.16, 5654048.53], [417686.11, 5654046.87], [417718.8, 5654005.01], [417722.71, 5654000.0], [417687.45, 5654000.0], [417666.98, 5654026.17], [417669.05, 5654027.99]]]}}, {"type": "Feature", "properties": {"k": "colony"}, "geometry": {"type": "Polygon", "coordinates": [[[417368.65, 5655341.76], [417442.28, 5655395.83], [417464.1, 5655410.82], [417479.13, 5655390.01], [417502.98, 5655357.38], [417520.0, 5655334.08], [417488.45, 5655314.46], [417455.59, 5655294.46], [417418.2, 5655270.2], [417410.63, 5655281.49], [417368.65, 5655341.76]]]}}, {"type": "Feature", "properties": {"k": "colony"}, "geometry": {"type": "Polygon", "coordinates": [[[416370.35, 5654289.55], [416375.92, 5654291.18], [416399.44, 5654196.72], [416370.55, 5654189.88], [416365.03, 5654182.45], [416320.71, 5654213.87], [416370.35, 5654289.55]]]}}, {"type": "Feature", "properties": {"k": "colony"}, "geometry": {"type": "Polygon", "coordinates": [[[416350.65, 5654105.48], [416381.4, 5654113.19], [416390.51, 5654073.92], [416388.1, 5654065.88], [416385.89, 5654062.51], [416349.37, 5654086.54], [416341.63, 5654091.62], [416350.65, 5654105.48]]]}}, {"type": "Feature", "properties": {"k": "colony"}, "geometry": {"type": "Polygon", "coordinates": [[[416395.99, 5654070.62], [416402.09, 5654074.36], [416430.34, 5654080.73], [416444.62, 5654027.28], [416440.47, 5654023.84], [416388.79, 5654060.79], [416395.99, 5654070.62]]]}}, {"type": "Feature", "properties": {"k": "colony"}, "geometry": {"type": "Polygon", "coordinates": [[[416394.71, 5654115.98], [416397.12, 5654106.34], [416421.74, 5654112.17], [416429.58, 5654083.04], [416417.39, 5654080.19], [416413.99, 5654093.53], [416389.67, 5654087.92], [416383.91, 5654113.39], [416394.71, 5654115.98]]]}}, {"type": "Feature", "properties": {"k": "vineyard"}, "geometry": {"type": "Polygon", "coordinates": [[[417893.21, 5655322.0], [417888.06, 5655349.64], [417878.79, 5655403.84], [417887.99, 5655405.28], [417892.45, 5655401.36], [417896.66, 5655403.93], [417905.4, 5655409.07], [417920.07, 5655408.76], [417926.88, 5655401.76], [417947.84, 5655399.74], [417984.93, 5655391.65], [418000.0, 5655368.79], [418000.0, 5655348.04], [417976.85, 5655341.64], [417975.47, 5655323.98], [417987.73, 5655292.64], [418000.0, 5655273.38], [418000.0, 5655192.38], [417998.92, 5655191.64], [417974.39, 5655177.58], [417965.95, 5655191.79], [417949.04, 5655181.24], [417936.62, 5655201.56], [417934.19, 5655207.92], [417930.29, 5655210.28], [417925.84, 5655209.95], [417924.83, 5655213.05], [417925.11, 5655214.19], [417925.5, 5655215.57], [417922.99, 5655216.37], [417919.0, 5655230.52], [417917.3, 5655240.67], [417914.57, 5655260.42], [417907.68, 5655278.01], [417900.42, 5655292.54], [417896.14, 5655304.66], [417893.21, 5655322.0]]]}}, {"type": "Feature", "properties": {"k": "row"}, "geometry": {"type": "LineString", "coordinates": [[418000.0, 5655368.07], [417989.51, 5655384.69]]}}, {"type": "Feature", "properties": {"k": "row"}, "geometry": {"type": "LineString", "coordinates": [[418000.0, 5655364.7], [417982.69, 5655392.13]]}}, {"type": "Feature", "properties": {"k": "row"}, "geometry": {"type": "LineString", "coordinates": [[418000.0, 5655361.32], [417980.22, 5655392.67]]}}, {"type": "Feature", "properties": {"k": "row"}, "geometry": {"type": "LineString", "coordinates": [[418000.0, 5655357.95], [417977.75, 5655393.21]]}}, {"type": "Feature", "properties": {"k": "row"}, "geometry": {"type": "LineString", "coordinates": [[418000.0, 5655354.58], [417975.28, 5655393.75]]}}, {"type": "Feature", "properties": {"k": "row"}, "geometry": {"type": "LineString", "coordinates": [[418000.0, 5655351.2], [417972.82, 5655394.29]]}}, {"type": "Feature", "properties": {"k": "row"}, "geometry": {"type": "LineString", "coordinates": [[417999.89, 5655348.01], [417970.35, 5655394.83]]}}, {"type": "Feature", "properties": {"k": "row"}, "geometry": {"type": "LineString", "coordinates": [[417998.08, 5655347.51], [417967.88, 5655395.37]]}}, {"type": "Feature", "properties": {"k": "row"}, "geometry": {"type": "LineString", "coordinates": [[417996.26, 5655347.01], [417965.41, 5655395.91]]}}, {"type": "Feature", "properties": {"k": "row"}, "geometry": {"type": "LineString", "coordinates": [[417994.45, 5655346.51], [417962.94, 5655396.44]]}}, {"type": "Feature", "properties": {"k": "row"}, "geometry": {"type": "LineString", "coordinates": [[417992.64, 5655346.0], [417960.47, 5655396.98]]}}, {"type": "Feature", "properties": {"k": "row"}, "geometry": {"type": "LineString", "coordinates": [[417990.83, 5655345.5], [417958.01, 5655397.52]]}}, {"type": "Feature", "properties": {"k": "row"}, "geometry": {"type": "LineString", "coordinates": [[417989.01, 5655345.0], [417955.54, 5655398.06]]}}, {"type": "Feature", "properties": {"k": "row"}, "geometry": {"type": "LineString", "coordinates": [[417987.2, 5655344.5], [417953.07, 5655398.6]]}}, {"type": "Feature", "properties": {"k": "row"}, "geometry": {"type": "LineString", "coordinates": [[417985.39, 5655344.0], [417950.6, 5655399.14]]}}, {"type": "Feature", "properties": {"k": "row"}, "geometry": {"type": "LineString", "coordinates": [[417983.58, 5655343.5], [417948.13, 5655399.68]]}}, {"type": "Feature", "properties": {"k": "row"}, "geometry": {"type": "LineString", "coordinates": [[417981.76, 5655343.0], [417945.84, 5655399.93]]}}, {"type": "Feature", "properties": {"k": "row"}, "geometry": {"type": "LineString", "coordinates": [[417979.95, 5655342.5], [417943.58, 5655400.15]]}}, {"type": "Feature", "properties": {"k": "row"}, "geometry": {"type": "LineString", "coordinates": [[417978.14, 5655342.0], [417941.31, 5655400.37]]}}, {"type": "Feature", "properties": {"k": "row"}, "geometry": {"type": "LineString", "coordinates": [[417976.78, 5655340.78], [417939.05, 5655400.59]]}}, {"type": "Feature", "properties": {"k": "row"}, "geometry": {"type": "LineString", "coordinates": [[417976.55, 5655337.78], [417936.78, 5655400.8]]}}, {"type": "Feature", "properties": {"k": "row"}, "geometry": {"type": "LineString", "coordinates": [[417976.31, 5655334.78], [417934.52, 5655401.02]]}}, {"type": "Feature", "properties": {"k": "row"}, "geometry": {"type": "LineString", "coordinates": [[417976.08, 5655331.77], [417932.25, 5655401.24]]}}, {"type": "Feature", "properties": {"k": "row"}, "geometry": {"type": "LineString", "coordinates": [[417975.85, 5655328.77], [417929.98, 5655401.46]]}}, {"type": "Feature", "properties": {"k": "row"}, "geometry": {"type": "LineString", "coordinates": [[417975.61, 5655325.77], [417927.72, 5655401.67]]}}, {"type": "Feature", "properties": {"k": "row"}, "geometry": {"type": "LineString", "coordinates": [[417976.88, 5655320.38], [417923.07, 5655405.67]]}}, {"type": "Feature", "properties": {"k": "row"}, "geometry": {"type": "LineString", "coordinates": [[417980.35, 5655311.51], [417918.98, 5655408.78]]}}, {"type": "Feature", "properties": {"k": "row"}, "geometry": {"type": "LineString", "coordinates": [[417983.82, 5655302.63], [417916.82, 5655408.83]]}}, {"type": "Feature", "properties": {"k": "row"}, "geometry": {"type": "LineString", "coordinates": [[417987.29, 5655293.76], [417914.66, 5655408.87]]}}, {"type": "Feature", "properties": {"k": "row"}, "geometry": {"type": "LineString", "coordinates": [[418000.0, 5655270.24], [417912.51, 5655408.92]]}}, {"type": "Feature", "properties": {"k": "row"}, "geometry": {"type": "LineString", "coordinates": [[418000.0, 5655266.87], [417910.35, 5655408.97]]}}, {"type": "Feature", "properties": {"k": "row"}, "geometry": {"type": "LineString", "coordinates": [[418000.0, 5655263.5], [417908.19, 5655409.01]]}}, {"type": "Feature", "properties": {"k": "row"}, "geometry": {"type": "LineString", "coordinates": [[418000.0, 5655260.12], [417906.03, 5655409.06]]}}, {"type": "Feature", "properties": {"k": "row"}, "geometry": {"type": "LineString", "coordinates": [[418000.0, 5655256.75], [417904.3, 5655408.43]]}}, {"type": "Feature", "properties": {"k": "row"}, "geometry": {"type": "LineString", "coordinates": [[418000.0, 5655253.38], [417902.75, 5655407.51]]}}, {"type": "Feature", "properties": {"k": "row"}, "geometry": {"type": "LineString", "coordinates": [[418000.0, 5655250.01], [417901.2, 5655406.6]]}}, {"type": "Feature", "properties": {"k": "row"}, "geometry": {"type": "LineString", "coordinates": [[418000.0, 5655246.63], [417899.65, 5655405.69]]}}, {"type": "Feature", "properties": {"k": "row"}, "geometry": {"type": "LineString", "coordinates": [[418000.0, 5655243.26], [417898.1, 5655404.77]]}}, {"type": "Feature", "properties": {"k": "row"}, "geometry": {"type": "LineString", "coordinates": [[418000.0, 5655239.89], [417896.55, 5655403.86]]}}, {"type": "Feature", "properties": {"k": "row"}, "geometry": {"type": "LineString", "coordinates": [[418000.0, 5655236.51], [417895.01, 5655402.92]]}}, {"type": "Feature", "properties": {"k": "row"}, "geometry": {"type": "LineString", "coordinates": [[418000.0, 5655233.14], [417893.47, 5655401.98]]}}, {"type": "Feature", "properties": {"k": "row"}, "geometry": {"type": "LineString", "coordinates": [[418000.0, 5655229.77], [417890.85, 5655402.76]]}}, {"type": "Feature", "properties": {"k": "row"}, "geometry": {"type": "LineString", "coordinates": [[418000.0, 5655226.39], [417887.21, 5655405.16]]}}, {"type": "Feature", "properties": {"k": "row"}, "geometry": {"type": "LineString", "coordinates": [[418000.0, 5655223.02], [417885.27, 5655404.85]]}}, {"type": "Feature", "properties": {"k": "row"}, "geometry": {"type": "LineString", "coordinates": [[418000.0, 5655219.65], [417883.34, 5655404.55]]}}, {"type": "Feature", "properties": {"k": "row"}, "geometry": {"type": "LineString", "coordinates": [[418000.0, 5655216.27], [417881.4, 5655404.25]]}}, {"type": "Feature", "properties": {"k": "row"}, "geometry": {"type": "LineString", "coordinates": [[418000.0, 5655212.9], [417879.46, 5655403.95]]}}, {"type": "Feature", "properties": {"k": "row"}, "geometry": {"type": "LineString", "coordinates": [[418000.0, 5655209.53], [417879.31, 5655400.81]]}}, {"type": "Feature", "properties": {"k": "row"}, "geometry": {"type": "LineString", "coordinates": [[418000.0, 5655206.15], [417880.1, 5655396.18]]}}, {"type": "Feature", "properties": {"k": "row"}, "geometry": {"type": "LineString", "coordinates": [[418000.0, 5655202.78], [417880.89, 5655391.56]]}}, {"type": "Feature", "properties": {"k": "row"}, "geometry": {"type": "LineString", "coordinates": [[418000.0, 5655199.41], [417881.68, 5655386.93]]}}, {"type": "Feature", "properties": {"k": "row"}, "geometry": {"type": "LineString", "coordinates": [[418000.0, 5655196.03], [417882.47, 5655382.3]]}}, {"type": "Feature", "properties": {"k": "row"}, "geometry": {"type": "LineString", "coordinates": [[418000.0, 5655192.66], [417883.27, 5655377.68]]}}, {"type": "Feature", "properties": {"k": "row"}, "geometry": {"type": "LineString", "coordinates": [[417998.62, 5655191.47], [417884.06, 5655373.05]]}}, {"type": "Feature", "properties": {"k": "row"}, "geometry": {"type": "LineString", "coordinates": [[417997.06, 5655190.57], [417884.85, 5655368.43]]}}, {"type": "Feature", "properties": {"k": "row"}, "geometry": {"type": "LineString", "coordinates": [[417995.5, 5655189.67], [417885.64, 5655363.8]]}}, {"type": "Feature", "properties": {"k": "row"}, "geometry": {"type": "LineString", "coordinates": [[417993.94, 5655188.78], [417886.43, 5655359.17]]}}, {"type": "Feature", "properties": {"k": "row"}, "geometry": {"type": "LineString", "coordinates": [[417992.37, 5655187.88], [417887.22, 5655354.55]]}}, {"type": "Feature", "properties": {"k": "row"}, "geometry": {"type": "LineString", "coordinates": [[417990.81, 5655186.99], [417888.01, 5655349.92]]}}, {"type": "Feature", "properties": {"k": "row"}, "geometry": {"type": "LineString", "coordinates": [[417989.25, 5655186.09], [417888.89, 5655345.14]]}}, {"type": "Feature", "properties": {"k": "row"}, "geometry": {"type": "LineString", "coordinates": [[417987.68, 5655185.2], [417889.79, 5655340.36]]}}, {"type": "Feature", "properties": {"k": "row"}, "geometry": {"type": "LineString", "coordinates": [[417986.12, 5655184.3], [417890.68, 5655335.57]]}}, {"type": "Feature", "properties": {"k": "row"}, "geometry": {"type": "LineString", "coordinates": [[417984.56, 5655183.4], [417891.57, 5655330.78]]}}, {"type": "Feature", "properties": {"k": "row"}, "geometry": {"type": "LineString", "coordinates": [[417982.99, 5655182.51], [417892.46, 5655326.0]]}}, {"type": "Feature", "properties": {"k": "row"}, "geometry": {"type": "LineString", "coordinates": [[417981.43, 5655181.61], [417893.33, 5655321.24]]}}, {"type": "Feature", "properties": {"k": "row"}, "geometry": {"type": "LineString", "coordinates": [[417979.87, 5655180.72], [417894.11, 5655316.63]]}}, {"type": "Feature", "properties": {"k": "row"}, "geometry": {"type": "LineString", "coordinates": [[417978.3, 5655179.82], [417894.9, 5655312.02]]}}, {"type": "Feature", "properties": {"k": "row"}, "geometry": {"type": "LineString", "coordinates": [[417976.74, 5655178.92], [417895.68, 5655307.41]]}}, {"type": "Feature", "properties": {"k": "row"}, "geometry": {"type": "LineString", "coordinates": [[417975.18, 5655178.03], [417897.23, 5655301.57]]}}, {"type": "Feature", "properties": {"k": "row"}, "geometry": {"type": "LineString", "coordinates": [[417964.81, 5655191.08], [417899.93, 5655293.92]]}}, {"type": "Feature", "properties": {"k": "row"}, "geometry": {"type": "LineString", "coordinates": [[417963.29, 5655190.13], [417907.07, 5655279.23]]}}, {"type": "Feature", "properties": {"k": "row"}, "geometry": {"type": "LineString", "coordinates": [[417961.76, 5655189.18], [417910.9, 5655269.78]]}}, {"type": "Feature", "properties": {"k": "row"}, "geometry": {"type": "LineString", "coordinates": [[417960.23, 5655188.22], [417914.39, 5655260.89]]}}, {"type": "Feature", "properties": {"k": "row"}, "geometry": {"type": "LineString", "coordinates": [[417958.7, 5655187.27], [417915.13, 5655256.33]]}}, {"type": "Feature", "properties": {"k": "row"}, "geometry": {"type": "LineString", "coordinates": [[417957.18, 5655186.32], [417915.73, 5655252.01]]}}, {"type": "Feature", "properties": {"k": "row"}, "geometry": {"type": "LineString", "coordinates": [[417955.65, 5655185.36], [417916.33, 5655247.69]]}}, {"type": "Feature", "properties": {"k": "row"}, "geometry": {"type": "LineString", "coordinates": [[417954.12, 5655184.41], [417916.92, 5655243.37]]}}, {"type": "Feature", "properties": {"k": "row"}, "geometry": {"type": "LineString", "coordinates": [[417952.6, 5655183.46], [417917.59, 5655238.95]]}}, {"type": "Feature", "properties": {"k": "row"}, "geometry": {"type": "LineString", "coordinates": [[417951.07, 5655182.5], [417918.36, 5655234.35]]}}, {"type": "Feature", "properties": {"k": "row"}, "geometry": {"type": "LineString", "coordinates": [[417949.54, 5655181.55], [417936.15, 5655202.77]]}}, {"type": "Feature", "properties": {"k": "row"}, "geometry": {"type": "LineString", "coordinates": [[417932.11, 5655209.18], [417919.29, 5655229.51]]}}, {"type": "Feature", "properties": {"k": "row"}, "geometry": {"type": "LineString", "coordinates": [[417929.34, 5655210.21], [417921.0, 5655223.41]]}}, {"type": "Feature", "properties": {"k": "row"}, "geometry": {"type": "LineString", "coordinates": [[417927.3, 5655210.06], [417924.99, 5655213.72]]}}, {"type": "Feature", "properties": {"k": "row"}, "geometry": {"type": "LineString", "coordinates": [[417923.4, 5655216.24], [417922.72, 5655217.32]]}}]}