{"type": "FeatureCollection", "attribution": "\u00a9 OpenStreetMap contributors (ODbL)", "crs": {"type": "name", "properties": {"name": "urn:ogc:def:crs:EPSG::25833"}}, "features": [{"type": "Feature", "properties": {"k": "colony"}, "geometry": {"type": "Polygon", "coordinates": [[[414602.93, 5657205.34], [414599.58, 5657198.27], [414600.28, 5657189.45], [414599.42, 5657172.15], [414599.7, 5657159.08], [414583.31, 5657158.64], [414584.97, 5657141.25], [414588.83, 5657108.95], [414557.89, 5657105.86], [414521.06, 5657101.72], [414516.35, 5657145.58], [414469.57, 5657189.39], [414465.47, 5657191.82], [414441.24, 5657184.34], [414428.6, 5657217.31], [414437.63, 5657222.04], [414449.22, 5657229.31], [414450.92, 5657227.25], [414473.97, 5657242.93], [414486.03, 5657252.83], [414503.65, 5657265.4], [414514.72, 5657271.12], [414525.97, 5657275.4], [414535.7, 5657277.59], [414543.3, 5657278.18], [414544.9, 5657278.21], [414546.8, 5657278.24], [414553.0, 5657278.33], [414616.53, 5657276.1], [414602.93, 5657205.34]]]}}, {"type": "Feature", "properties": {"k": "colony"}, "geometry": {"type": "Polygon", "coordinates": [[[414210.83, 5657063.73], [414211.45, 5657073.35], [414207.04, 5657171.84], [414207.31, 5657171.74], [414214.2, 5657169.77], [414224.37, 5657167.38], [414228.19, 5657166.5], [414259.59, 5657159.16], [414277.74, 5657156.09], [414274.02, 5657141.91], [414299.35, 5657134.47], [414300.88, 5657084.78], [414295.03, 5657071.63], [414275.2, 5657065.1], [414270.27, 5657063.74], [414251.48, 5657057.85], [414251.28, 5657057.79], [414213.31, 5657045.86], [414213.09, 5657047.44], [414210.83, 5657063.73]]]}}, {"type": "Feature", "properties": {"k": "colony"}, "geometry": {"type": "Polygon", "coordinates": [[[414011.63, 5657912.11], [414027.86, 5657900.96], [414038.62, 5657892.1], [414045.0, 5657886.3], [414041.22, 5657882.64], [414036.32, 5657871.93], [414033.24, 5657868.93], [414015.09, 5657883.16], [414000.0, 5657889.66], [414000.0, 5657920.96], [414011.63, 5657912.11]]]}}, {"type": "Feature", "properties": {"k": "colony"}, "geometry": {"type": "Polygon", "coordinates": [[[414616.87, 5657279.22], [414640.54, 5657277.25], [414722.91, 5657268.38], [414791.59, 5657258.01], [414783.01, 5657217.4], [414777.58, 5657175.11], [414768.09, 5657183.76], [414756.01, 5657187.48], [414739.95, 5657186.28], [414711.0, 5657182.22], [414681.21, 5657178.44], [414672.69, 5657174.89], [414666.31, 5657169.43], [414662.0, 5657159.54], [414660.44, 5657152.01], [414659.73, 5657142.7], [414659.47, 5657135.43], [414658.96, 5657124.0], [414656.46, 5657118.96], [414646.8, 5657114.23], [414614.31, 5657111.22], [414588.83, 5657108.95], [414584.97, 5657141.25], [414583.31, 5657158.64], [414599.7, 5657159.08], [414599.42, 5657172.15], [414600.28, 5657189.45], [414599.58, 5657198.27], [414602.93, 5657205.34], [414616.53, 5657276.1], [414616.87, 5657279.22]]]}}, {"type": "Feature", "properties": {"k": "vineyard"}, "geometry": {"type": "Polygon", "coordinates": [[[415729.96, 5657620.96], [415727.83, 5657616.07], [415748.32, 5657606.08], [415750.96, 5657611.12], [415791.73, 5657590.16], [415779.7, 5657560.48], [415773.93, 5657546.25], [415769.77, 5657537.24], [415768.34, 5657539.55], [415766.05, 5657540.65], [415763.57, 5657540.72], [415761.17, 5657539.34], [415754.63, 5657542.14], [415746.98, 5657542.91], [415741.02, 5657542.25], [415659.4, 5657578.31], [415672.56, 5657612.12], [415680.46, 5657627.27], [415688.3, 5657642.28], [415729.96, 5657620.96]]]}}, {"type": "Feature", "properties": {"k": "row"}, "geometry": {"type": "LineString", "coordinates": [[415705.81, 5657633.32], [415687.86, 5657641.44]]}}, {"type": "Feature", "properties": {"k": "row"}, "geometry": {"type": "LineString", "coordinates": [[415754.46, 5657609.32], [415750.87, 5657610.94]]}}, {"type": "Feature", "properties": {"k": "row"}, "geometry": {"type": "LineString", "coordinates": [[415729.76, 5657620.5], [415687.03, 5657639.85]]}}, {"type": "Feature", "properties": {"k": "row"}, "geometry": {"type": "LineString", "coordinates": [[415786.75, 5657592.72], [415750.03, 5657609.35]]}}, {"type": "Feature", "properties": {"k": "row"}, "geometry": {"type": "LineString", "coordinates": [[415729.04, 5657618.85], [415686.19, 5657638.25]]}}, {"type": "Feature", "properties": {"k": "row"}, "geometry": {"type": "LineString", "coordinates": [[415791.16, 5657588.75], [415749.19, 5657607.75]]}}, {"type": "Feature", "properties": {"k": "row"}, "geometry": {"type": "LineString", "coordinates": [[415728.32, 5657617.2], [415685.36, 5657636.65]]}}, {"type": "Feature", "properties": {"k": "row"}, "geometry": {"type": "LineString", "coordinates": [[415790.48, 5657587.08], [415748.36, 5657606.15]]}}, {"type": "Feature", "properties": {"k": "row"}, "geometry": {"type": "LineString", "coordinates": [[415745.62, 5657607.39], [415684.52, 5657635.05]]}}, {"type": "Feature", "properties": {"k": "row"}, "geometry": {"type": "LineString", "coordinates": [[415789.8, 5657585.41], [415683.69, 5657633.45]]}}, {"type": "Feature", "properties": {"k": "row"}, "geometry": {"type": "LineString", "coordinates": [[415789.13, 5657583.74], [415682.85, 5657631.86]]}}, {"type": "Feature", "properties": {"k": "row"}, "geometry": {"type": "LineString", "coordinates": [[415788.45, 5657582.07], [415682.02, 5657630.26]]}}, {"type": "Feature", "properties": {"k": "row"}, "geometry": {"type": "LineString", "coordinates": [[415787.78, 5657580.4], [415681.19, 5657628.66]]}}, {"type": "Feature", "properties": {"k": "row"}, "geometry": {"type": "LineString", "coordinates": [[415787.1, 5657578.73], [415680.35, 5657627.06]]}}, {"type": "Feature", "properties": {"k": "row"}, "geometry": {"type": "LineString", "coordinates": [[415786.42, 5657577.06], [415679.52, 5657625.46]]}}, {"type": "Feature", "properties": {"k": "row"}, "geometry": {"type": "LineString", "coordinates": [[415785.75, 5657575.39], [415678.68, 5657623.86]]}}, {"type": "Feature", "properties": {"k": "row"}, "geometry": {"type": "LineString", "coordinates": [[415785.07, 5657573.72], [415677.85, 5657622.27]]}}, {"type": "Feature", "properties": {"k": "row"}, "geometry": {"type": "LineString", "coordinates": [[415784.39, 5657572.05], [415677.02, 5657620.67]]}}, {"type": "Feature", "properties": {"k": "row"}, "geometry": {"type": "LineString", "coordinates": [[415783.72, 5657570.38], [415676.18, 5657619.07]]}}, {"type": "Feature", "properties": {"k": "row"}, "geometry": {"type": "LineString", "coordinates": [[415783.04, 5657568.72], [415675.35, 5657617.47]]}}, {"type": "Feature", "properties": {"k": "row"}, "geometry": {"type": "LineString", "coordinates": [[415782.36, 5657567.05], [415674.52, 5657615.87]]}}, {"type": "Feature", "properties": {"k": "row"}, "geometry": {"type": "LineString", "coordinates": [[415781.69, 5657565.38], [415673.68, 5657614.27]]}}, {"type": "Feature", "properties": {"k": "row"}, "geometry": {"type": "LineString", "coordinates": [[415781.01, 5657563.71], [415672.85, 5657612.67]]}}, {"type": "Feature", "properties": {"k": "row"}, "geometry": {"type": "LineString", "coordinates": [[415780.33, 5657562.04], [415672.13, 5657611.02]]}}, {"type": "Feature", "properties": {"k": "row"}, "geometry": {"type": "LineString", "coordinates": [[415779.66, 5657560.37], [415671.48, 5657609.34]]}}, {"type": "Feature", "properties": {"k": "row"}, "geometry": {"type": "LineString", "coordinates": [[415778.98, 5657558.7], [415670.83, 5657607.66]]}}, {"type": "Feature", "properties": {"k": "row"}, "geometry": {"type": "LineString", "coordinates": [[415778.3, 5657557.03], [415670.17, 5657605.98]]}}, {"type": "Feature", "properties": {"k": "row"}, "geometry": {"type": "LineString", "coordinates": [[415777.63, 5657555.36], [415669.52, 5657604.3]]}}, {"type": "Feature", "properties": {"k": "row"}, "geometry": {"type": "LineString", "coordinates": [[415776.95, 5657553.69], [415668.87, 5657602.62]]}}, {"type": "Feature", "properties": {"k": "row"}, "geometry": {"type": "LineString", "coordinates": [[415776.27, 5657552.02], [415668.21, 5657600.94]]}}, {"type": "Feature", "properties": {"k": "row"}, "geometry": {"type": "LineString", "coordinates": [[415775.6, 5657550.35], [415667.56, 5657599.26]]}}, {"type": "Feature", "properties": {"k": "row"}, "geometry": {"type": "LineString", "coordinates": [[415774.92, 5657548.68], [415666.9, 5657597.58]]}}, {"type": "Feature", "properties": {"k": "row"}, "geometry": {"type": "LineString", "coordinates": [[415774.24, 5657547.01], [415666.25, 5657595.9]]}}, {"type": "Feature", "properties": {"k": "row"}, "geometry": {"type": "LineString", "coordinates": [[415773.52, 5657545.36], [415665.6, 5657594.22]]}}, {"type": "Feature", "properties": {"k": "row"}, "geometry": {"type": "LineString", "coordinates": [[415772.77, 5657543.73], [415664.94, 5657592.54]]}}, {"type": "Feature", "properties": {"k": "row"}, "geometry": {"type": "LineString", "coordinates": [[415772.01, 5657542.09], [415664.29, 5657590.86]]}}, {"type": "Feature", "properties": {"k": "row"}, "geometry": {"type": "LineString", "coordinates": [[415771.26, 5657540.46], [415663.64, 5657589.18]]}}, {"type": "Feature", "properties": {"k": "row"}, "geometry": {"type": "LineString", "coordinates": [[415770.5, 5657538.83], [415662.98, 5657587.5]]}}, {"type": "Feature", "properties": {"k": "row"}, "geometry": {"type": "LineString", "coordinates": [[415762.85, 5657540.31], [415662.33, 5657585.82]]}}, {"type": "Feature", "properties": {"k": "row"}, "geometry": {"type": "LineString", "coordinates": [[415754.41, 5657542.16], [415661.68, 5657584.14]]}}, {"type": "Feature", "properties": {"k": "row"}, "geometry": {"type": "LineString", "coordinates": [[415748.79, 5657542.73], [415661.02, 5657582.46]]}}, {"type": "Feature", "properties": {"k": "row"}, "geometry": {"type": "LineString", "coordinates": [[415744.61, 5657542.65], [415660.37, 5657580.78]]}}, {"type": "Feature", "properties": {"k": "row"}, "geometry": {"type": "LineString", "coordinates": [[415741.1, 5657542.26], [415659.71, 5657579.1]]}}, {"type": "Feature", "properties": {"k": "vineyard"}, "geometry": {"type": "Polygon", "coordinates": [[[415985.68, 5657411.21], [415993.45, 5657421.75], [415999.17, 5657430.82], [416000.0, 5657431.88], [416000.0, 5657402.92], [415985.68, 5657411.21]]]}}, {"type": "Feature", "properties": {"k": "row"}, "geometry": {"type": "LineString", "coordinates": [[416000.0, 5657429.8], [415998.9, 5657430.39]]}}, {"type": "Feature", "properties": {"k": "row"}, "geometry": {"type": "LineString", "coordinates": [[416000.0, 5657427.76], [415997.93, 5657428.86]]}}, {"type": "Feature", "properties": {"k": "row"}, "geometry": {"type": "LineString", "coordinates": [[416000.0, 5657425.72], [415996.97, 5657427.34]]}}, {"type": "Feature", "properties": {"k": "row"}, "geometry": {"type": "LineString", "coordinates": [[416000.0, 5657423.68], [415996.01, 5657425.81]]}}, {"type": "Feature", "properties": {"k": "row"}, "geometry": {"type": "LineString", "coordinates": [[416000.0, 5657421.65], [415995.04, 5657424.29]]}}, {"type": "Feature", "properties": {"k": "row"}, "geometry": {"type": "LineString", "coordinates": [[416000.0, 5657419.61], [415994.08, 5657422.76]]}}, {"type": "Feature", "properties": {"k": "row"}, "geometry": {"type": "LineString", "coordinates": [[416000.0, 5657417.57], [415993.08, 5657421.25]]}}, {"type": "Feature", "properties": {"k": "row"}, "geometry": {"type": "LineString", "coordinates": [[416000.0, 5657415.53], [415992.0, 5657419.79]]}}, {"type": "Feature", "properties": {"k": "row"}, "geometry": {"type": "LineString", "coordinates": [[416000.0, 5657413.49], [415990.92, 5657418.32]]}}, {"type": "Feature", "properties": {"k": "row"}, "geometry": {"type": "LineString", "coordinates": [[416000.0, 5657411.45], [415989.84, 5657416.86]]}}, {"type": "Feature", "properties": {"k": "row"}, "geometry": {"type": "LineString", "coordinates": [[416000.0, 5657409.41], [415988.76, 5657415.4]]}}, {"type": "Feature", "properties": {"k": "row"}, "geometry": {"type": "LineString", "coordinates": [[416000.0, 5657407.37], [415987.68, 5657413.93]]}}, {"type": "Feature", "properties": {"k": "row"}, "geometry": {"type": "LineString", "coordinates": [[416000.0, 5657405.33], [415986.6, 5657412.47]]}}, {"type": "Feature", "properties": {"k": "row"}, "geometry": {"type": "LineString", "coordinates": [[416000.0, 5657403.29], [415992.04, 5657407.53]]}}, {"type": "Feature", "properties": {"k": "vineyard"}, "geometry": {"type": "Polygon", "coordinates": [[[415331.5, 5657692.72], [415365.35, 5657682.67], [415354.88, 5657649.44], [415253.65, 5657678.32], [415261.18, 5657713.57], [415331.5, 5657692.72]]]}}, {"type": "Feature", "properties": {"k": "row"}, "geometry": {"type": "LineString", "coordinates": [[415365.33, 5657682.6], [415362.64, 5657683.48]]}}, {"type": "Feature", "properties": {"k": "row"}, "geometry": {"type": "LineString", "coordinates": [[415364.79, 5657680.89], [415294.87, 5657703.58]]}}, {"type": "Feature", "properties": {"k": "row"}, "geometry": {"type": "LineString", "coordinates": [[415364.25, 5657679.17], [415260.99, 5657712.68]]}}, {"type": "Feature", "properties": {"k": "row"}, "geometry": {"type": "LineString", "coordinates": [[415363.71, 5657677.45], [415260.61, 5657710.91]]}}, {"type": "Feature", "properties": {"k": "row"}, "geometry": {"type": "LineString", "coordinates": [[415363.17, 5657675.74], [415260.23, 5657709.14]]}}, {"type": "Feature", "properties": {"k": "row"}, "geometry": {"type": "LineString", "coordinates": [[415362.63, 5657674.02], [415259.85, 5657707.37]]}}, {"type": "Feature", "properties": {"k": "row"}, "geometry": {"type": "LineString", "coordinates": [[415362.09, 5657672.3], [415259.48, 5657705.6]]}}, {"type": "Feature", "properties": {"k": "row"}, "geometry": {"type": "LineString", "coordinates": [[415361.55, 5657670.59], [415259.1, 5657703.83]]}}, {"type": "Feature", "properties": {"k": "row"}, "geometry": {"type": "LineString", "coordinates": [[415361.0, 5657668.87], [415258.72, 5657702.06]]}}, {"type": "Feature", "properties": {"k": "row"}, "geometry": {"type": "LineString", "coordinates": [[415360.46, 5657667.15], [415258.34, 5657700.29]]}}, {"type": "Feature", "properties": {"k": "row"}, "geometry": {"type": "LineString", "coordinates": [[415359.92, 5657665.44], [415257.97, 5657698.52]]}}, {"type": "Feature", "properties": {"k": "row"}, "geometry": {"type": "LineString", "coordinates": [[415359.38, 5657663.72], [415257.59, 5657696.75]]}}, {"type": "Feature", "properties": {"k": "row"}, "geometry": {"type": "LineString", "coordinates": [[415358.84, 5657662.0], [415257.21, 5657694.98]]}}, {"type": "Feature", "properties": {"k": "row"}, "geometry": {"type": "LineString", "coordinates": [[415358.3, 5657660.28], [415256.83, 5657693.21]]}}, {"type": "Feature", "properties": {"k": "row"}, "geometry": {"type": "LineString", "coordinates": [[415357.76, 5657658.57], [415256.45, 5657691.44]]}}, {"type": "Feature", "properties": {"k": "row"}, "geometry": {"type": "LineString", "coordinates": [[415357.22, 5657656.85], [415256.08, 5657689.67]]}}, {"type": "Feature", "properties": {"k": "row"}, "geometry": {"type": "LineString", "coordinates": [[415356.68, 5657655.13], [415255.7, 5657687.9]]}}, {"type": "Feature", "properties": {"k": "row"}, "geometry": {"type": "LineString", "coordinates": [[415356.14, 5657653.42], [415255.32, 5657686.13]]}}, {"type": "Feature", "properties": {"k": "row"}, "geometry": {"type": "LineString", "coordinates": [[415355.6, 5657651.7], [415254.94, 5657684.36]]}}, {"type": "Feature", "properties": {"k": "row"}, "geometry": {"type": "LineString", "coordinates": [[415355.05, 5657649.98], [415254.57, 5657682.59]]}}, {"type": "Feature", "properties": {"k": "row"}, "geometry": {"type": "LineString", "coordinates": [[415321.87, 5657658.86], [415254.19, 5657680.83]]}}, {"type": "Feature", "properties": {"k": "row"}, "geometry": {"type": "LineString", "coordinates": [[415273.65, 5657672.62], [415253.81, 5657679.06]]}}]}