{"type": "FeatureCollection", "attribution": "\u00a9 OpenStreetMap contributors (ODbL)", "crs": {"type": "name", "properties": {"name": "urn:ogc:def:crs:EPSG::25833"}}, "features": [{"type": "Feature", "properties": {"k": "colony"}, "geometry": {"type": "MultiPolygon", "coordinates": [[[[408628.57, 5654111.82], [408602.38, 5654096.81], [408557.56, 5654061.22], [408535.29, 5654038.52], [408521.46, 5654047.24], [408509.39, 5654054.86], [408469.83, 5654077.81], [408431.43, 5654095.45], [408409.82, 5654104.36], [408418.42, 5654112.54], [408444.8, 5654133.41], [408478.23, 5654167.88], [408543.93, 5654233.96], [408535.33, 5654239.03], [408562.93, 5654263.9], [408562.56, 5654268.1], [408566.02, 5654288.04], [408567.86, 5654287.8], [408569.61, 5654287.49], [408566.12, 5654266.63], [408600.91, 5654259.81], [408653.08, 5654244.59], [408657.35, 5654241.98], [408652.99, 5654210.61], [408658.16, 5654182.21], [408648.97, 5654168.89], [408648.72, 5654153.11], [408643.3, 5654140.22], [408630.88, 5654113.62], [408628.57, 5654111.82]]], [[[408424.11, 5654087.53], [408441.11, 5654080.07], [408461.63, 5654070.26], [408481.76, 5654058.37], [408427.48, 5654000.0], [408311.69, 5654000.0], [408327.21, 5654023.2], [408352.64, 5654050.64], [408395.84, 5654099.12], [408424.11, 5654087.53]]], [[[408718.55, 5654032.44], [408721.44, 5654011.44], [408721.41, 5654009.57], [408704.17, 5654002.75], [408697.0, 5654000.0], [408647.08, 5654000.0], [408645.88, 5654002.0], [408718.55, 5654032.44]]]]}}, {"type": "Feature", "properties": {"k": "colony"}, "geometry": {"type": "Polygon", "coordinates": [[[408944.52, 5655968.33], [408948.39, 5655939.04], [408944.82, 5655937.61], [408874.75, 5655978.0], [408837.01, 5656000.0], [408933.83, 5656000.0], [408944.52, 5655968.33]]]}}, {"type": "Feature", "properties": {"k": "colony"}, "geometry": {"type": "Polygon", "coordinates": [[[409115.76, 5656000.0], [409187.46, 5656000.0], [409187.91, 5655996.56], [409199.21, 5655953.03], [409205.13, 5655920.22], [409212.04, 5655871.12], [409212.78, 5655856.2], [409202.68, 5655817.97], [409160.62, 5655814.71], [409152.72, 5655821.3], [409105.09, 5655817.32], [409074.69, 5655811.4], [409055.77, 5655879.04], [409040.34, 5655934.14], [409078.95, 5655945.85], [409129.78, 5655961.85], [409115.76, 5656000.0]]]}}, {"type": "Feature", "properties": {"k": "colony"}, "geometry": {"type": "Polygon", "coordinates": [[[408069.29, 5655808.35], [408070.17, 5655808.6], [408089.52, 5655814.03], [408133.47, 5655718.93], [408134.11, 5655717.56], [408000.0, 5655669.78], [408000.0, 5655793.68], [408069.29, 5655808.35]]]}}, {"type": "Feature", "properties": {"k": "colony"}, "geometry": {"type": "Polygon", "coordinates": [[[408408.38, 5654411.38], [408408.36, 5654412.18], [408393.37, 5654411.71], [408393.78, 5654421.35], [408393.14, 5654430.69], [408379.07, 5654506.61], [408521.41, 5654574.55], [408523.72, 5654574.03], [408527.17, 5654528.87], [408541.55, 5654529.93], [408541.9, 5654524.99], [408542.39, 5654518.25], [408661.76, 5654527.5], [408665.44, 5654525.0], [408666.2, 5654513.84], [408669.12, 5654487.63], [408675.82, 5654390.2], [408618.67, 5654393.11], [408536.59, 5654394.2], [408408.83, 5654399.26], [408408.38, 5654411.38]]]}}, {"type": "Feature", "properties": {"k": "colony"}, "geometry": {"type": "Polygon", "coordinates": [[[408214.27, 5654637.68], [408220.3, 5654634.73], [408228.07, 5654635.05], [408227.96, 5654636.65], [408227.72, 5654638.2], [408233.48, 5654637.57], [408249.24, 5654633.63], [408280.73, 5654636.16], [408319.59, 5654639.26], [408326.28, 5654562.03], [408162.37, 5654439.48], [408140.76, 5654431.89], [408135.99, 5654445.68], [408142.74, 5654452.28], [408141.81, 5654454.25], [408141.15, 5654454.89], [408135.12, 5654454.22], [408129.94, 5654457.66], [408117.99, 5654490.19], [408118.03, 5654495.63], [408120.59, 5654498.56], [408119.86, 5654500.46], [408110.8, 5654525.22], [408163.11, 5654542.37], [408139.59, 5654614.98], [408214.27, 5654637.68]]]}}, {"type": "Feature", "properties": {"k": "colony"}, "geometry": {"type": "Polygon", "coordinates": [[[408401.41, 5654313.68], [408412.75, 5654362.96], [408414.88, 5654364.32], [408438.01, 5654356.52], [408476.67, 5654339.61], [408480.14, 5654336.86], [408487.34, 5654331.06], [408459.31, 5654277.16], [408400.04, 5654308.38], [408401.41, 5654313.68]]]}}, {"type": "Feature", "properties": {"k": "colony"}, "geometry": {"type": "Polygon", "coordinates": [[[408082.89, 5654217.02], [408096.72, 5654181.2], [408125.56, 5654106.43], [408106.38, 5654106.18], [408104.99, 5654092.01], [408106.11, 5654065.46], [408114.95, 5654060.87], [408078.38, 5654027.12], [408060.76, 5654013.95], [408043.17, 5654000.0], [408001.83, 5654000.0], [408016.4, 5654011.6], [408036.9, 5654044.82], [408046.44, 5654068.06], [408044.97, 5654100.24], [408024.38, 5654202.48], [408082.89, 5654217.02]]]}}, {"type": "Feature", "properties": {"k": "colony"}, "geometry": {"type": "Polygon", "coordinates": [[[408611.6, 5654000.0], [408587.57, 5654000.0], [408579.07, 5654007.4], [408560.15, 5654020.6], [408542.61, 5654032.82], [408536.8, 5654036.97], [408561.83, 5654062.12], [408596.85, 5654089.56], [408623.0, 5654104.55], [408642.22, 5654111.74], [408672.56, 5654115.47], [408674.83, 5654113.0], [408676.3, 5654111.38], [408701.71, 5654124.93], [408713.43, 5654089.22], [408707.09, 5654086.5], [408662.36, 5654067.3], [408644.71, 5654060.1], [408643.71, 5654053.55], [408644.52, 5654044.41], [408649.97, 5654023.52], [408635.72, 5654018.26], [408611.6, 5654000.0]]]}}, {"type": "Feature", "properties": {"k": "colony"}, "geometry": {"type": "Polygon", "coordinates": [[[408280.73, 5654636.16], [408249.24, 5654633.63], [408233.48, 5654637.57], [408227.72, 5654638.2], [408226.63, 5654638.15], [408226.16, 5654644.64], [408223.72, 5654643.93], [408222.53, 5654657.21], [408211.32, 5654782.05], [408233.94, 5654784.11], [408270.18, 5654791.2], [408290.71, 5654793.15], [408288.54, 5654818.38], [408303.99, 5654819.28], [408305.93, 5654794.46], [408307.04, 5654794.56], [408308.12, 5654794.67], [408308.96, 5654782.47], [408376.71, 5654787.11], [408376.13, 5654800.7], [408377.05, 5654800.73], [408377.94, 5654800.76], [408377.54, 5654802.62], [408390.25, 5654801.6], [408391.41, 5654795.12], [408416.03, 5654797.98], [408442.34, 5654770.75], [408449.44, 5654771.33], [408453.27, 5654710.96], [408503.65, 5654715.22], [408504.43, 5654696.25], [408498.02, 5654694.35], [408430.57, 5654689.71], [408430.39, 5654692.3], [408398.82, 5654690.46], [408399.07, 5654685.68], [408399.07, 5654684.63], [408401.93, 5654655.15], [408402.24, 5654651.96], [408402.48, 5654647.97], [408507.0, 5654655.6], [408507.21, 5654653.32], [408517.08, 5654653.74], [408517.94, 5654617.68], [408492.12, 5654612.25], [408466.8, 5654608.71], [408446.8, 5654610.18], [408360.54, 5654571.04], [408326.28, 5654562.03], [408319.59, 5654639.26], [408280.73, 5654636.16]]]}}, {"type": "Feature", "properties": {"k": "colony"}, "geometry": {"type": "Polygon", "coordinates": [[[408085.05, 5654488.17], [408087.9, 5654483.8], [408096.36, 5654465.45], [408101.64, 5654455.55], [408107.64, 5654447.88], [408108.39, 5654446.29], [408128.49, 5654445.08], [408132.85, 5654439.19], [408138.68, 5654407.83], [408101.82, 5654410.18], [408082.41, 5654414.67], [408068.0, 5654419.91], [408047.91, 5654433.27], [408000.0, 5654465.11], [408000.0, 5654480.19], [408012.2, 5654497.1], [408000.0, 5654505.49], [408000.0, 5654566.98], [408028.34, 5654583.34], [408032.06, 5654577.24], [408032.24, 5654563.23], [408034.1, 5654560.74], [408039.01, 5654564.28], [408075.04, 5654506.25], [408085.05, 5654488.17]]]}}, {"type": "Feature", "properties": {"k": "colony"}, "geometry": {"type": "Polygon", "coordinates": [[[408359.62, 5654318.0], [408347.73, 5654248.93], [408322.57, 5654238.78], [408319.98, 5654261.36], [408306.66, 5654274.93], [408312.48, 5654336.56], [408317.41, 5654376.02], [408326.87, 5654386.61], [408344.17, 5654383.37], [408370.85, 5654375.74], [408405.0, 5654365.97], [408393.07, 5654310.88], [408359.62, 5654318.0]]]}}, {"type": "Feature", "properties": {"k": "colony"}, "geometry": {"type": "Polygon", "coordinates": [[[408319.98, 5654261.36], [408322.57, 5654238.78], [408347.73, 5654248.93], [408330.42, 5654140.69], [408295.24, 5654146.07], [408284.57, 5654146.2], [408263.58, 5654141.75], [408259.97, 5654156.11], [408260.2, 5654199.82], [408265.92, 5654250.15], [408303.03, 5654245.98], [408306.66, 5654274.93], [408319.98, 5654261.36]]]}}, {"type": "Feature", "properties": {"k": "colony"}, "geometry": {"type": "Polygon", "coordinates": [[[408481.28, 5655984.62], [408492.91, 5655934.89], [408389.68, 5655910.88], [408377.03, 5655959.36], [408481.28, 5655984.62]]]}}, {"type": "Feature", "properties": {"k": "colony"}, "geometry": {"type": "Polygon", "coordinates": [[[408297.69, 5654083.7], [408296.24, 5654072.0], [408346.43, 5654061.77], [408344.48, 5654054.41], [408352.64, 5654050.64], [408327.21, 5654023.2], [408311.69, 5654000.0], [408271.87, 5654000.0], [408274.64, 5654013.68], [408216.81, 5654026.12], [408258.75, 5654079.66], [408284.57, 5654076.4], [408285.98, 5654085.12], [408291.43, 5654084.38], [408297.69, 5654083.7]]]}}, {"type": "Feature", "properties": {"k": "colony"}, "geometry": {"type": "Polygon", "coordinates": [[[408000.0, 5655138.92], [408000.0, 5655151.19], [408006.06, 5655145.35], [408000.0, 5655138.92]]]}}, {"type": "Feature", "properties": {"k": "colony"}, "geometry": {"type": "Polygon", "coordinates": [[[408050.03, 5654590.41], [408046.42, 5654593.4], [408065.54, 5654614.74], [408072.55, 5654625.77], [408082.27, 5654642.91], [408090.62, 5654659.73], [408091.87, 5654658.33], [408116.8, 5654703.68], [408123.21, 5654704.48], [408158.71, 5654708.9], [408150.9, 5654753.61], [408136.0, 5654750.94], [408133.81, 5654764.29], [408148.77, 5654765.83], [408199.79, 5654776.65], [408199.62, 5654780.79], [408204.47, 5654781.42], [408211.32, 5654782.05], [408222.53, 5654657.21], [408223.72, 5654643.93], [408057.32, 5654595.41], [408050.03, 5654590.41]]]}}, {"type": "Feature", "properties": {"k": "colony"}, "geometry": {"type": "Polygon", "coordinates": [[[409129.78, 5655961.85], [409078.95, 5655945.85], [409040.34, 5655934.14], [409017.22, 5656000.0], [409115.76, 5656000.0], [409129.78, 5655961.85]]]}}, {"type": "Feature", "properties": {"k": "colony"}, "geometry": {"type": "Polygon", "coordinates": [[[408691.74, 5655188.23], [408687.16, 5655248.24], [408721.69, 5655250.48], [408725.52, 5655191.27], [408691.74, 5655188.23]]]}}, {"type": "Feature", "properties": {"k": "colony"}, "geometry": {"type": "Polygon", "coordinates": [[[408519.61, 5654353.67], [408408.83, 5654399.26], [408536.59, 5654394.2], [408519.61, 5654353.67]]]}}, {"type": "Feature", "properties": {"k": "colony"}, "geometry": {"type": "Polygon", "coordinates": [[[409442.77, 5655990.6], [409447.32, 5655957.48], [409434.72, 5655958.89], [409425.91, 5655959.88], [409349.5, 5655968.46], [409353.29, 5655873.0], [409287.28, 5655867.78], [409283.53, 5655888.01], [409276.11, 5655921.66], [409295.12, 5655925.78], [409278.21, 5656000.0], [409443.17, 5656000.0], [409442.77, 5655990.6]]]}}, {"type": "Feature", "properties": {"k": "colony"}, "geometry": {"type": "Polygon", "coordinates": [[[409168.2, 5655630.07], [409171.52, 5655634.48], [409173.04, 5655648.27], [409171.16, 5655675.28], [409173.58, 5655675.51], [409177.92, 5655668.14], [409176.89, 5655659.81], [409176.31, 5655654.05], [409175.85, 5655649.11], [409175.78, 5655646.53], [409176.69, 5655642.07], [409178.24, 5655639.63], [409180.39, 5655637.45], [409188.34, 5655632.13], [409187.65, 5655631.44], [409184.85, 5655630.12], [409174.0, 5655626.75], [409171.73, 5655625.17], [409168.72, 5655622.06], [409166.75, 5655618.77], [409166.01, 5655616.45], [409161.79, 5655618.34], [409168.2, 5655630.07]]]}}, {"type": "Feature", "properties": {"k": "colony"}, "geometry": {"type": "Polygon", "coordinates": [[[408782.89, 5655991.48], [408829.23, 5655950.12], [408835.21, 5655875.28], [408835.61, 5655869.45], [408774.85, 5655860.46], [408756.24, 5655916.34], [408724.09, 5655906.31], [408711.12, 5655948.68], [408744.14, 5655958.16], [408751.6, 5655964.02], [408746.85, 5655981.39], [408747.58, 5655981.73], [408759.44, 5655987.28], [408768.32, 5656000.0], [408769.29, 5656000.0], [408782.89, 5655991.48]]]}}, {"type": "Feature", "properties": {"k": "colony"}, "geometry": {"type": "Polygon", "coordinates": [[[408159.73, 5654427.06], [408183.86, 5654430.95], [408189.7, 5654435.02], [408223.31, 5654445.0], [408217.66, 5654398.56], [408197.05, 5654402.99], [408145.65, 5654407.7], [408142.75, 5654423.48], [408159.73, 5654427.06]]]}}, {"type": "Feature", "properties": {"k": "orchard"}, "geometry": {"type": "Polygon", "coordinates": [[[408486.07, 5654893.93], [408498.3, 5654894.89], [408495.48, 5654927.38], [408520.93, 5654929.14], [408525.92, 5654848.3], [408490.16, 5654845.65], [408486.07, 5654893.93]]]}}, {"type": "Feature", "properties": {"k": "tree", "h": 4.5, "d": 4.0, "src": "grid"}, "geometry": {"type": "Point", "coordinates": [408519.2, 5654852.2]}}, {"type": "Feature", "properties": {"k": "tree", "h": 4.5, "d": 4.0, "src": "grid"}, "geometry": {"type": "Point", "coordinates": [408511.2, 5654851.7]}}, {"type": "Feature", "properties": {"k": "tree", "h": 4.5, "d": 4.0, "src": "grid"}, "geometry": {"type": "Point", "coordinates": [408503.2, 5654851.2]}}, {"type": "Feature", "properties": {"k": "tree", "h": 4.5, "d": 4.0, "src": "grid"}, "geometry": {"type": "Point", "coordinates": [408495.2, 5654850.7]}}, {"type": "Feature", "properties": {"k": "tree", "h": 4.5, "d": 4.0, "src": "grid"}, "geometry": {"type": "Point", "coordinates": [408518.7, 5654860.2]}}, {"type": "Feature", "properties": {"k": "tree", "h": 4.5, "d": 4.0, "src": "grid"}, "geometry": {"type": "Point", "coordinates": [408510.7, 5654859.7]}}, {"type": "Feature", "properties": {"k": "tree", "h": 4.5, "d": 4.0, "src": "grid"}, "geometry": {"type": "Point", "coordinates": [408502.7, 5654859.2]}}, {"type": "Feature", "properties": {"k": "tree", "h": 4.5, "d": 4.0, "src": "grid"}, "geometry": {"type": "Point", "coordinates": [408494.7, 5654858.7]}}, {"type": "Feature", "properties": {"k": "tree", "h": 4.5, "d": 4.0, "src": "grid"}, "geometry": {"type": "Point", "coordinates": [408518.2, 5654868.1]}}, {"type": "Feature", "properties": {"k": "tree", "h": 4.5, "d": 4.0, "src": "grid"}, "geometry": {"type": "Point", "coordinates": [408510.2, 5654867.6]}}, {"type": "Feature", "properties": {"k": "tree", "h": 4.5, "d": 4.0, "src": "grid"}, "geometry": {"type": "Point", "coordinates": [408502.2, 5654867.2]}}, {"type": "Feature", "properties": {"k": "tree", "h": 4.5, "d": 4.0, "src": "grid"}, "geometry": {"type": "Point", "coordinates": [408494.3, 5654866.7]}}, {"type": "Feature", "properties": {"k": "tree", "h": 4.5, "d": 4.0, "src": "grid"}, "geometry": {"type": "Point", "coordinates": [408517.7, 5654876.1]}}, {"type": "Feature", "properties": {"k": "tree", "h": 4.5, "d": 4.0, "src": "grid"}, "geometry": {"type": "Point", "coordinates": [408509.7, 5654875.6]}}, {"type": "Feature", "properties": {"k": "tree", "h": 4.5, "d": 4.0, "src": "grid"}, "geometry": {"type": "Point", "coordinates": [408501.7, 5654875.1]}}, {"type": "Feature", "properties": {"k": "tree", "h": 4.5, "d": 4.0, "src": "grid"}, "geometry": {"type": "Point", "coordinates": [408493.8, 5654874.6]}}, {"type": "Feature", "properties": {"k": "tree", "h": 4.5, "d": 4.0, "src": "grid"}, "geometry": {"type": "Point", "coordinates": [408517.2, 5654884.1]}}, {"type": "Feature", "properties": {"k": "tree", "h": 4.5, "d": 4.0, "src": "grid"}, "geometry": {"type": "Point", "coordinates": [408509.2, 5654883.6]}}, {"type": "Feature", "properties": {"k": "tree", "h": 4.5, "d": 4.0, "src": "grid"}, "geometry": {"type": "Point", "coordinates": [408501.2, 5654883.1]}}, {"type": "Feature", "properties": {"k": "tree", "h": 4.5, "d": 4.0, "src": "grid"}, "geometry": {"type": "Point", "coordinates": [408493.3, 5654882.6]}}, {"type": "Feature", "properties": {"k": "tree", "h": 4.5, "d": 4.0, "src": "grid"}, "geometry": {"type": "Point", "coordinates": [408516.7, 5654892.1]}}, {"type": "Feature", "properties": {"k": "tree", "h": 4.5, "d": 4.0, "src": "grid"}, "geometry": {"type": "Point", "coordinates": [408508.7, 5654891.6]}}, {"type": "Feature", "properties": {"k": "tree", "h": 4.5, "d": 4.0, "src": "grid"}, "geometry": {"type": "Point", "coordinates": [408500.8, 5654891.1]}}, {"type": "Feature", "properties": {"k": "tree", "h": 4.5, "d": 4.0, "src": "grid"}, "geometry": {"type": "Point", "coordinates": [408492.8, 5654890.6]}}, {"type": "Feature", "properties": {"k": "tree", "h": 4.5, "d": 4.0, "src": "grid"}, "geometry": {"type": "Point", "coordinates": [408516.2, 5654900.1]}}, {"type": "Feature", "properties": {"k": "tree", "h": 4.5, "d": 4.0, "src": "grid"}, "geometry": {"type": "Point", "coordinates": [408508.2, 5654899.6]}}, {"type": "Feature", "properties": {"k": "tree", "h": 4.5, "d": 4.0, "src": "grid"}, "geometry": {"type": "Point", "coordinates": [408500.3, 5654899.1]}}, {"type": "Feature", "properties": {"k": "tree", "h": 4.5, "d": 4.0, "src": "grid"}, "geometry": {"type": "Point", "coordinates": [408515.7, 5654908.1]}}, {"type": "Feature", "properties": {"k": "tree", "h": 4.5, "d": 4.0, "src": "grid"}, "geometry": {"type": "Point", "coordinates": [408507.8, 5654907.6]}}, {"type": "Feature", "properties": {"k": "tree", "h": 4.5, "d": 4.0, "src": "grid"}, "geometry": {"type": "Point", "coordinates": [408499.8, 5654907.1]}}, {"type": "Feature", "properties": {"k": "tree", "h": 4.5, "d": 4.0, "src": "grid"}, "geometry": {"type": "Point", "coordinates": [408515.2, 5654916.1]}}, {"type": "Feature", "properties": {"k": "tree", "h": 4.5, "d": 4.0, "src": "grid"}, "geometry": {"type": "Point", "coordinates": [408507.3, 5654915.6]}}, {"type": "Feature", "properties": {"k": "tree", "h": 4.5, "d": 4.0, "src": "grid"}, "geometry": {"type": "Point", "coordinates": [408499.3, 5654915.1]}}, {"type": "Feature", "properties": {"k": "tree", "h": 4.5, "d": 4.0, "src": "grid"}, "geometry": {"type": "Point", "coordinates": [408514.8, 5654924.0]}}, {"type": "Feature", "properties": {"k": "tree", "h": 4.5, "d": 4.0, "src": "grid"}, "geometry": {"type": "Point", "coordinates": [408506.8, 5654923.5]}}, {"type": "Feature", "properties": {"k": "tree", "h": 4.5, "d": 4.0, "src": "grid"}, "geometry": {"type": "Point", "coordinates": [408498.8, 5654923.1]}}]}