{"type": "FeatureCollection", "attribution": "\u00a9 OpenStreetMap contributors (ODbL)", "crs": {"type": "name", "properties": {"name": "urn:ogc:def:crs:EPSG::25833"}}, "features": [{"type": "Feature", "properties": {"k": "bollard"}, "geometry": {"type": "Point", "coordinates": [408065.54, 5654614.74]}}, {"type": "Feature", "properties": {"k": "bin"}, "geometry": {"type": "Point", "coordinates": [409010.62, 5654975.0]}}, {"type": "Feature", "properties": {"k": "postbox", "a": 145}, "geometry": {"type": "Point", "coordinates": [408723.83, 5655527.02]}}, {"type": "Feature", "properties": {"k": "bench", "a": 293}, "geometry": {"type": "Point", "coordinates": [408942.69, 5654898.33]}}, {"type": "Feature", "properties": {"k": "bollard"}, "geometry": {"type": "Point", "coordinates": [409375.68, 5654198.86]}}, {"type": "Feature", "properties": {"k": "postbox", "a": 124}, "geometry": {"type": "Point", "coordinates": [409330.53, 5654063.85]}}, {"type": "Feature", "properties": {"k": "postbox", "a": 356}, "geometry": {"type": "Point", "coordinates": [408927.52, 5655333.77]}}, {"type": "Feature", "properties": {"k": "postbox", "a": 259}, "geometry": {"type": "Point", "coordinates": [409871.03, 5654275.12]}}, {"type": "Feature", "properties": {"k": "postbox", "a": 342}, "geometry": {"type": "Point", "coordinates": [408903.68, 5654204.63]}}, {"type": "Feature", "properties": {"k": "postbox", "a": 146}, "geometry": {"type": "Point", "coordinates": [408633.43, 5655464.74]}}, {"type": "Feature", "properties": {"k": "bench", "a": 322, "back": false}, "geometry": {"type": "Point", "coordinates": [409340.02, 5655576.17]}}, {"type": "Feature", "properties": {"k": "shelter", "a": 86}, "geometry": {"type": "Point", "coordinates": [408977.07, 5654965.77]}}, {"type": "Feature", "properties": {"k": "shelter", "a": 266}, "geometry": {"type": "Point", "coordinates": [408967.52, 5654951.97]}}, {"type": "Feature", "properties": {"k": "shelter", "a": 265}, "geometry": {"type": "Point", "coordinates": [408943.25, 5655312.2]}}, {"type": "Feature", "properties": {"k": "shelter", "a": 86}, "geometry": {"type": "Point", "coordinates": [408955.97, 5655233.98]}}, {"type": "Feature", "properties": {"k": "postbox", "a": 359}, "geometry": {"type": "Point", "coordinates": [408128.66, 5655361.13]}}, {"type": "Feature", "properties": {"k": "bollard"}, "geometry": {"type": "Point", "coordinates": [408480.43, 5654090.86]}}, {"type": "Feature", "properties": {"k": "bollard"}, "geometry": {"type": "Point", "coordinates": [409849.58, 5654322.53]}}, {"type": "Feature", "properties": {"k": "bollard"}, "geometry": {"type": "Point", "coordinates": [409919.38, 5654536.78]}}, {"type": "Feature", "properties": {"k": "postbox", "a": 280}, "geometry": {"type": "Point", "coordinates": [409270.93, 5654738.1]}}, {"type": "Feature", "properties": {"k": "bollard"}, "geometry": {"type": "Point", "coordinates": [409116.98, 5654214.74]}}, {"type": "Feature", "properties": {"k": "bollard"}, "geometry": {"type": "Point", "coordinates": [409141.51, 5654206.4]}}, {"type": "Feature", "properties": {"k": "postbox", "a": 356}, "geometry": {"type": "Point", "coordinates": [408855.81, 5654858.46]}}, {"type": "Feature", "properties": {"k": "postbox", "a": 356}, "geometry": {"type": "Point", "coordinates": [408863.95, 5654858.59]}}, {"type": "Feature", "properties": {"k": "postbox", "a": 355}, "geometry": {"type": "Point", "coordinates": [408341.75, 5655204.99]}}, {"type": "Feature", "properties": {"k": "bollard"}, "geometry": {"type": "Point", "coordinates": [408698.91, 5654124.82]}}, {"type": "Feature", "properties": {"k": "bench", "a": 320}, "geometry": {"type": "Point", "coordinates": [408208.79, 5654104.95]}}, {"type": "Feature", "properties": {"k": "bench", "a": 18}, "geometry": {"type": "Point", "coordinates": [408381.7, 5654115.79]}}, {"type": "Feature", "properties": {"k": "bench", "a": 307}, "geometry": {"type": "Point", "coordinates": [408256.75, 5655685.69]}}, {"type": "Feature", "properties": {"k": "bin"}, "geometry": {"type": "Point", "coordinates": [408254.72, 5655696.77]}}, {"type": "Feature", "properties": {"k": "bench", "a": 280}, "geometry": {"type": "Point", "coordinates": [408257.6, 5655689.3]}}, {"type": "Feature", "properties": {"k": "bench", "a": 210}, "geometry": {"type": "Point", "coordinates": [408253.9, 5655697.1]}}, {"type": "Feature", "properties": {"k": "bollard"}, "geometry": {"type": "Point", "coordinates": [409422.88, 5654204.79]}}, {"type": "Feature", "properties": {"k": "bollard"}, "geometry": {"type": "Point", "coordinates": [409367.36, 5654244.56]}}, {"type": "Feature", "properties": {"k": "postbox", "a": 216}, "geometry": {"type": "Point", "coordinates": [409607.06, 5654359.7]}}, {"type": "Feature", "properties": {"k": "bench", "a": 306}, "geometry": {"type": "Point", "coordinates": [409835.37, 5654303.58]}}, {"type": "Feature", "properties": {"k": "bollard"}, "geometry": {"type": "Point", "coordinates": [408016.12, 5654707.56]}}, {"type": "Feature", "properties": {"k": "bollard"}, "geometry": {"type": "Point", "coordinates": [408003.74, 5654773.73]}}, {"type": "Feature", "properties": {"k": "bollard"}, "geometry": {"type": "Point", "coordinates": [408007.67, 5654752.97]}}, {"type": "Feature", "properties": {"k": "bollard"}, "geometry": {"type": "Point", "coordinates": [408017.86, 5654696.57]}}, {"type": "Feature", "properties": {"k": "bench", "a": 215}, "geometry": {"type": "Point", "coordinates": [408345.39, 5655747.48]}}, {"type": "Feature", "properties": {"k": "postbox", "a": 74}, "geometry": {"type": "Point", "coordinates": [409015.89, 5655526.22]}}, {"type": "Feature", "properties": {"k": "bollard"}, "geometry": {"type": "Point", "coordinates": [409371.95, 5655456.16]}}, {"type": "Feature", "properties": {"k": "bollard"}, "geometry": {"type": "Point", "coordinates": [409418.89, 5655162.79]}}, {"type": "Feature", "properties": {"k": "bollard"}, "geometry": {"type": "Point", "coordinates": [408596.47, 5654622.27]}}, {"type": "Feature", "properties": {"k": "bench", "a": 55}, "geometry": {"type": "Point", "coordinates": [408198.72, 5654519.07]}}, {"type": "Feature", "properties": {"k": "bench", "a": 53}, "geometry": {"type": "Point", "coordinates": [408201.0, 5654515.36]}}, {"type": "Feature", "properties": {"k": "bollard"}, "geometry": {"type": "Point", "coordinates": [408096.79, 5654494.88]}}, {"type": "Feature", "properties": {"k": "bench", "a": 252}, "geometry": {"type": "Point", "coordinates": [409857.44, 5654561.04]}}, {"type": "Feature", "properties": {"k": "bench", "a": 37}, "geometry": {"type": "Point", "coordinates": [409844.99, 5654543.98]}}, {"type": "Feature", "properties": {"k": "postbox", "a": 167}, "geometry": {"type": "Point", "coordinates": [408453.53, 5655530.48]}}, {"type": "Feature", "properties": {"k": "bench", "a": 348}, "geometry": {"type": "Point", "coordinates": [408802.34, 5655785.48]}}, {"type": "Feature", "properties": {"k": "bench", "a": 343}, "geometry": {"type": "Point", "coordinates": [408837.92, 5655794.51]}}, {"type": "Feature", "properties": {"k": "bike", "a": 259, "n": 12}, "geometry": {"type": "Point", "coordinates": [409531.16, 5654288.97]}}, {"type": "Feature", "properties": {"k": "bench", "a": 23}, "geometry": {"type": "Point", "coordinates": [408458.06, 5654350.01]}}, {"type": "Feature", "properties": {"k": "bench", "a": 23, "back": false}, "geometry": {"type": "Point", "coordinates": [408456.88, 5654350.56]}}, {"type": "Feature", "properties": {"k": "bin"}, "geometry": {"type": "Point", "coordinates": [408383.18, 5654115.78]}}, {"type": "Feature", "properties": {"k": "bench", "a": 12}, "geometry": {"type": "Point", "coordinates": [408315.2, 5654132.87]}}, {"type": "Feature", "properties": {"k": "bin"}, "geometry": {"type": "Point", "coordinates": [408316.44, 5654132.85]}}, {"type": "Feature", "properties": {"k": "bike", "a": 305, "n": 5}, "geometry": {"type": "Point", "coordinates": [409641.18, 5654313.07]}}, {"type": "Feature", "properties": {"k": "postbox", "a": 301}, "geometry": {"type": "Point", "coordinates": [408374.13, 5655766.34]}}, {"type": "Feature", "properties": {"k": "bin"}, "geometry": {"type": "Point", "coordinates": [408360.52, 5655010.44]}}, {"type": "Feature", "properties": {"k": "bench", "a": 305}, "geometry": {"type": "Point", "coordinates": [409222.2, 5654049.0]}}, {"type": "Feature", "properties": {"k": "bin"}, "geometry": {"type": "Point", "coordinates": [409221.04, 5654049.63]}}, {"type": "Feature", "properties": {"k": "bike", "a": 171, "n": 1}, "geometry": {"type": "Point", "coordinates": [409269.04, 5654101.45]}}, {"type": "Feature", "properties": {"k": "bike", "a": 171, "n": 1}, "geometry": {"type": "Point", "coordinates": [409278.46, 5654103.03]}}, {"type": "Feature", "properties": {"k": "bike", "a": 348, "n": 1}, "geometry": {"type": "Point", "coordinates": [409261.88, 5654137.6]}}, {"type": "Feature", "properties": {"k": "bike", "a": 348, "n": 1}, "geometry": {"type": "Point", "coordinates": [409269.15, 5654138.59]}}, {"type": "Feature", "properties": {"k": "postbox", "a": 12}, "geometry": {"type": "Point", "coordinates": [408331.22, 5654110.19]}}, {"type": "Feature", "properties": {"k": "bin"}, "geometry": {"type": "Point", "coordinates": [408280.42, 5654138.78]}}, {"type": "Feature", "properties": {"k": "bench", "a": 346}, "geometry": {"type": "Point", "coordinates": [408281.66, 5654138.88]}}, {"type": "Feature", "properties": {"k": "postbox", "a": 124}, "geometry": {"type": "Point", "coordinates": [409329.81, 5654062.75]}}, {"type": "Feature", "properties": {"k": "bike", "a": 74, "n": 6}, "geometry": {"type": "Point", "coordinates": [408905.43, 5655665.79]}}, {"type": "Feature", "properties": {"k": "bike", "a": 86, "n": 1}, "geometry": {"type": "Point", "coordinates": [408928.39, 5655453.38]}}, {"type": "Feature", "properties": {"k": "bike", "a": 264, "n": 2}, "geometry": {"type": "Point", "coordinates": [408940.14, 5655478.13]}}, {"type": "Feature", "properties": {"k": "postbox", "a": 183}, "geometry": {"type": "Point", "coordinates": [409008.82, 5655504.11]}}, {"type": "Feature", "properties": {"k": "bike", "a": 127, "n": 5}, "geometry": {"type": "Point", "coordinates": [409446.64, 5654035.47]}}, {"type": "Feature", "properties": {"k": "bike", "a": 306, "n": 2}, "geometry": {"type": "Point", "coordinates": [409067.42, 5654100.4]}}, {"type": "Feature", "properties": {"k": "bench", "a": 126}, "geometry": {"type": "Point", "coordinates": [409121.95, 5654178.17]}}, {"type": "Feature", "properties": {"k": "bike", "a": 266, "n": 3}, "geometry": {"type": "Point", "coordinates": [408956.68, 5655314.22]}}, {"type": "Feature", "properties": {"k": "bike", "a": 355, "n": 2}, "geometry": {"type": "Point", "coordinates": [408842.76, 5655333.29]}}, {"type": "Feature", "properties": {"k": "bench", "a": 175}, "geometry": {"type": "Point", "coordinates": [408830.55, 5655336.61]}}, {"type": "Feature", "properties": {"k": "bench", "a": 175}, "geometry": {"type": "Point", "coordinates": [408833.59, 5655336.76]}}, {"type": "Feature", "properties": {"k": "bench", "a": 175}, "geometry": {"type": "Point", "coordinates": [408808.0, 5655337.36]}}, {"type": "Feature", "properties": {"k": "bench", "a": 175}, "geometry": {"type": "Point", "coordinates": [408811.85, 5655337.5]}}, {"type": "Feature", "properties": {"k": "bike", "a": 86, "n": 2}, "geometry": {"type": "Point", "coordinates": [408854.45, 5655372.04]}}, {"type": "Feature", "properties": {"k": "bike", "a": 86, "n": 2}, "geometry": {"type": "Point", "coordinates": [408852.74, 5655405.49]}}, {"type": "Feature", "properties": {"k": "bike", "a": 352, "n": 3}, "geometry": {"type": "Point", "coordinates": [408838.86, 5655475.02]}}, {"type": "Feature", "properties": {"k": "bike", "a": 74, "n": 4}, "geometry": {"type": "Point", "coordinates": [408921.21, 5655517.16]}}, {"type": "Feature", "properties": {"k": "bike", "a": 254, "n": 4}, "geometry": {"type": "Point", "coordinates": [408930.34, 5655520.01]}}, {"type": "Feature", "properties": {"k": "bike", "a": 236, "n": 3}, "geometry": {"type": "Point", "coordinates": [409344.97, 5655541.37]}}, {"type": "Feature", "properties": {"k": "bench", "a": 339}, "geometry": {"type": "Point", "coordinates": [409439.72, 5655557.26]}}, {"type": "Feature", "properties": {"k": "bike", "a": 258, "n": 3}, "geometry": {"type": "Point", "coordinates": [409335.16, 5655573.34]}}, {"type": "Feature", "properties": {"k": "bike", "a": 266, "n": 2}, "geometry": {"type": "Point", "coordinates": [408889.8, 5654913.75]}}, {"type": "Feature", "properties": {"k": "bike", "a": 266, "n": 2}, "geometry": {"type": "Point", "coordinates": [408886.94, 5654956.28]}}, {"type": "Feature", "properties": {"k": "bike", "a": 86, "n": 2}, "geometry": {"type": "Point", "coordinates": [408873.76, 5655147.48]}}, {"type": "Feature", "properties": {"k": "bench", "a": 266, "back": false}, "geometry": {"type": "Point", "coordinates": [408668.17, 5654643.29]}}, {"type": "Feature", "properties": {"k": "bench", "a": 353}, "geometry": {"type": "Point", "coordinates": [408428.42, 5655407.13]}}, {"type": "Feature", "properties": {"k": "bike", "a": 259, "n": 2}, "geometry": {"type": "Point", "coordinates": [408465.57, 5655446.12]}}, {"type": "Feature", "properties": {"k": "bike", "a": 146, "n": 2}, "geometry": {"type": "Point", "coordinates": [408633.76, 5655462.11]}}, {"type": "Feature", "properties": {"k": "bike", "a": 7, "n": 4}, "geometry": {"type": "Point", "coordinates": [409143.25, 5655465.16]}}, {"type": "Feature", "properties": {"k": "bike", "a": 243, "n": 4}, "geometry": {"type": "Point", "coordinates": [408899.2, 5655622.24]}}, {"type": "Feature", "properties": {"k": "bike", "a": 125, "n": 2}, "geometry": {"type": "Point", "coordinates": [409411.23, 5654314.75]}}, {"type": "Feature", "properties": {"k": "bench", "a": 266}, "geometry": {"type": "Point", "coordinates": [408972.56, 5655009.94]}}, {"type": "Feature", "properties": {"k": "shelter", "a": 352}, "geometry": {"type": "Point", "coordinates": [408713.83, 5655460.25]}}, {"type": "Feature", "properties": {"k": "postbox", "a": 54}, "geometry": {"type": "Point", "coordinates": [408813.3, 5655565.18]}}, {"type": "Feature", "properties": {"k": "bike", "a": 266, "n": 2}, "geometry": {"type": "Point", "coordinates": [409063.36, 5654887.87]}}, {"type": "Feature", "properties": {"k": "bench", "a": 176}, "geometry": {"type": "Point", "coordinates": [408856.89, 5655165.27]}}, {"type": "Feature", "properties": {"k": "bin"}, "geometry": {"type": "Point", "coordinates": [408858.37, 5655165.35]}}, {"type": "Feature", "properties": {"k": "bench", "a": 176}, "geometry": {"type": "Point", "coordinates": [408997.47, 5655000.24]}}, {"type": "Feature", "properties": {"k": "bollard"}, "geometry": {"type": "Point", "coordinates": [409038.51, 5655029.28]}}, {"type": "Feature", "properties": {"k": "bench", "a": 265}, "geometry": {"type": "Point", "coordinates": [409006.07, 5655057.16]}}, {"type": "Feature", "properties": {"k": "bench", "a": 301}, "geometry": {"type": "Point", "coordinates": [409004.64, 5655088.16]}}, {"type": "Feature", "properties": {"k": "bollard"}, "geometry": {"type": "Point", "coordinates": [409029.99, 5655112.81]}}, {"type": "Feature", "properties": {"k": "bench", "a": 18, "back": false}, "geometry": {"type": "Point", "coordinates": [409001.43, 5655128.74]}}, {"type": "Feature", "properties": {"k": "bollard"}, "geometry": {"type": "Point", "coordinates": [408961.35, 5655239.4]}}, {"type": "Feature", "properties": {"k": "postbox", "a": 354}, "geometry": {"type": "Point", "coordinates": [408159.76, 5655182.69]}}, {"type": "Feature", "properties": {"k": "bike", "a": 2, "n": 5}, "geometry": {"type": "Point", "coordinates": [409256.9, 5654836.32]}}, {"type": "Feature", "properties": {"k": "bike", "a": 96, "n": 3}, "geometry": {"type": "Point", "coordinates": [409242.84, 5654833.49]}}, {"type": "Feature", "properties": {"k": "shelter", "a": 357}, "geometry": {"type": "Point", "coordinates": [408161.55, 5655364.43]}}, {"type": "Feature", "properties": {"k": "shelter", "a": 159}, "geometry": {"type": "Point", "coordinates": [409521.42, 5655605.06]}}, {"type": "Feature", "properties": {"k": "postbox", "a": 263}, "geometry": {"type": "Point", "coordinates": [409587.4, 5654391.76]}}, {"type": "Feature", "properties": {"k": "bench"}, "geometry": {"type": "Point", "coordinates": [408536.48, 5654814.39]}}, {"type": "Feature", "properties": {"k": "bench", "a": 95}, "geometry": {"type": "Point", "coordinates": [409260.37, 5655254.55]}}, {"type": "Feature", "properties": {"k": "bench", "a": 95}, "geometry": {"type": "Point", "coordinates": [409260.93, 5655258.09]}}, {"type": "Feature", "properties": {"k": "bin"}, "geometry": {"type": "Point", "coordinates": [409162.67, 5655495.81]}}, {"type": "Feature", "properties": {"k": "bench", "a": 315}, "geometry": {"type": "Point", "coordinates": [409281.58, 5655532.97]}}, {"type": "Feature", "properties": {"k": "bench", "a": 315}, "geometry": {"type": "Point", "coordinates": [409283.53, 5655534.98]}}, {"type": "Feature", "properties": {"k": "bench", "a": 315}, "geometry": {"type": "Point", "coordinates": [409290.0, 5655540.96]}}, {"type": "Feature", "properties": {"k": "bench", "a": 315}, "geometry": {"type": "Point", "coordinates": [409291.7, 5655542.64]}}, {"type": "Feature", "properties": {"k": "bin"}, "geometry": {"type": "Point", "coordinates": [409292.9, 5655543.53]}}, {"type": "Feature", "properties": {"k": "bench", "a": 315}, "geometry": {"type": "Point", "coordinates": [409307.19, 5655557.35]}}, {"type": "Feature", "properties": {"k": "bench", "a": 315}, "geometry": {"type": "Point", "coordinates": [409308.23, 5655558.34]}}, {"type": "Feature", "properties": {"k": "bin"}, "geometry": {"type": "Point", "coordinates": [409309.33, 5655559.14]}}, {"type": "Feature", "properties": {"k": "bin"}, "geometry": {"type": "Point", "coordinates": [409230.85, 5655754.58]}}, {"type": "Feature", "properties": {"k": "bench", "a": 343}, "geometry": {"type": "Point", "coordinates": [409231.82, 5655754.71]}}, {"type": "Feature", "properties": {"k": "bench", "a": 343}, "geometry": {"type": "Point", "coordinates": [409233.11, 5655754.98]}}, {"type": "Feature", "properties": {"k": "bike", "a": 125, "n": 2}, "geometry": {"type": "Point", "coordinates": [409205.19, 5654019.59]}}, {"type": "Feature", "properties": {"k": "bike", "a": 305, "n": 1}, "geometry": {"type": "Point", "coordinates": [409225.94, 5654053.68]}}, {"type": "Feature", "properties": {"k": "bike", "a": 305, "n": 3}, "geometry": {"type": "Point", "coordinates": [409232.06, 5654076.44]}}, {"type": "Feature", "properties": {"k": "bike", "a": 305, "n": 1}, "geometry": {"type": "Point", "coordinates": [409235.88, 5654082.44]}}, {"type": "Feature", "properties": {"k": "bike", "a": 258, "n": 3}, "geometry": {"type": "Point", "coordinates": [409469.03, 5655686.01]}}, {"type": "Feature", "properties": {"k": "bench", "a": 144, "back": false}, "geometry": {"type": "Point", "coordinates": [409489.39, 5655729.24]}}, {"type": "Feature", "properties": {"k": "bench", "a": 316, "back": false}, "geometry": {"type": "Point", "coordinates": [409525.96, 5655749.69]}}, {"type": "Feature", "properties": {"k": "bench", "a": 136, "back": false}, "geometry": {"type": "Point", "coordinates": [409527.31, 5655761.47]}}, {"type": "Feature", "properties": {"k": "bench", "a": 134, "back": false}, "geometry": {"type": "Point", "coordinates": [409559.44, 5655789.37]}}, {"type": "Feature", "properties": {"k": "bollard"}, "geometry": {"type": "Point", "coordinates": [409417.8, 5654135.52]}}, {"type": "Feature", "properties": {"k": "bollard"}, "geometry": {"type": "Point", "coordinates": [409381.31, 5654197.93]}}, {"type": "Feature", "properties": {"k": "bollard"}, "geometry": {"type": "Point", "coordinates": [409370.72, 5654205.68]}}, {"type": "Feature", "properties": {"k": "bench", "a": 21}, "geometry": {"type": "Point", "coordinates": [408927.57, 5654952.78]}}, {"type": "Feature", "properties": {"k": "bench", "a": 218}, "geometry": {"type": "Point", "coordinates": [408935.99, 5654967.87]}}, {"type": "Feature", "properties": {"k": "bike", "a": 183, "n": 2}, "geometry": {"type": "Point", "coordinates": [409008.85, 5655495.2]}}, {"type": "Feature", "properties": {"k": "bin"}, "geometry": {"type": "Point", "coordinates": [409031.37, 5655468.51]}}, {"type": "Feature", "properties": {"k": "postbox", "a": 28}, "geometry": {"type": "Point", "coordinates": [409147.82, 5654598.96]}}, {"type": "Feature", "properties": {"k": "bin"}, "geometry": {"type": "Point", "coordinates": [408726.54, 5655459.91]}}, {"type": "Feature", "properties": {"k": "bin"}, "geometry": {"type": "Point", "coordinates": [409085.94, 5655474.77]}}, {"type": "Feature", "properties": {"k": "postbox", "a": 266}, "geometry": {"type": "Point", "coordinates": [408669.29, 5654638.78]}}, {"type": "Feature", "properties": {"k": "bollard"}, "geometry": {"type": "Point", "coordinates": [409385.54, 5655376.99]}}, {"type": "Feature", "properties": {"k": "bike", "a": 349, "n": 7}, "geometry": {"type": "Point", "coordinates": [408797.34, 5654980.08]}}, {"type": "Feature", "properties": {"k": "bench", "a": 154}, "geometry": {"type": "Point", "coordinates": [409254.06, 5655652.86]}}, {"type": "Feature", "properties": {"k": "bike", "a": 175, "n": 6}, "geometry": {"type": "Point", "coordinates": [409233.79, 5655648.95]}}, {"type": "Feature", "properties": {"k": "bin"}, "geometry": {"type": "Point", "coordinates": [409231.64, 5655688.58]}}, {"type": "Feature", "properties": {"k": "bin"}, "geometry": {"type": "Point", "coordinates": [409251.4, 5655650.54]}}, {"type": "Feature", "properties": {"k": "bike", "a": 136, "n": 3}, "geometry": {"type": "Point", "coordinates": [409719.99, 5655935.17]}}, {"type": "Feature", "properties": {"k": "bench", "a": 136, "back": false}, "geometry": {"type": "Point", "coordinates": [409719.29, 5655939.19]}}, {"type": "Feature", "properties": {"k": "bench", "a": 137}, "geometry": {"type": "Point", "coordinates": [409337.07, 5655462.69]}}, {"type": "Feature", "properties": {"k": "bench", "a": 226}, "geometry": {"type": "Point", "coordinates": [409320.04, 5655455.53]}}, {"type": "Feature", "properties": {"k": "bench", "a": 46}, "geometry": {"type": "Point", "coordinates": [409313.54, 5655456.43]}}, {"type": "Feature", "properties": {"k": "bench", "a": 137}, "geometry": {"type": "Point", "coordinates": [409306.88, 5655440.75]}}, {"type": "Feature", "properties": {"k": "bench", "a": 226}, "geometry": {"type": "Point", "coordinates": [409301.62, 5655436.73]}}, {"type": "Feature", "properties": {"k": "bench", "a": 317}, "geometry": {"type": "Point", "coordinates": [409322.05, 5655439.84]}}, {"type": "Feature", "properties": {"k": "bin"}, "geometry": {"type": "Point", "coordinates": [409336.52, 5655559.47]}}, {"type": "Feature", "properties": {"k": "bike", "a": 319, "n": 1}, "geometry": {"type": "Point", "coordinates": [409383.09, 5655630.22]}}, {"type": "Feature", "properties": {"k": "bench", "a": 319, "back": false}, "geometry": {"type": "Point", "coordinates": [409380.36, 5655628.69]}}, {"type": "Feature", "properties": {"k": "bin"}, "geometry": {"type": "Point", "coordinates": [409467.45, 5655692.73]}}, {"type": "Feature", "properties": {"k": "bin"}, "geometry": {"type": "Point", "coordinates": [409528.79, 5655595.21]}}, {"type": "Feature", "properties": {"k": "bin"}, "geometry": {"type": "Point", "coordinates": [409520.77, 5655604.78]}}, {"type": "Feature", "properties": {"k": "bike", "a": 86, "n": 1}, "geometry": {"type": "Point", "coordinates": [408927.88, 5655462.4]}}, {"type": "Feature", "properties": {"k": "bench", "a": 15}, "geometry": {"type": "Point", "coordinates": [409301.79, 5655101.91]}}, {"type": "Feature", "properties": {"k": "bench", "a": 303, "back": false}, "geometry": {"type": "Point", "coordinates": [409315.9, 5655103.44]}}, {"type": "Feature", "properties": {"k": "bench", "a": 123, "back": false}, "geometry": {"type": "Point", "coordinates": [409311.33, 5655105.55]}}, {"type": "Feature", "properties": {"k": "bench", "a": 308, "back": false}, "geometry": {"type": "Point", "coordinates": [409317.03, 5655105.62]}}, {"type": "Feature", "properties": {"k": "bench", "a": 125, "back": false}, "geometry": {"type": "Point", "coordinates": [409312.61, 5655108.04]}}, {"type": "Feature", "properties": {"k": "bench", "a": 313, "back": false}, "geometry": {"type": "Point", "coordinates": [409310.49, 5655127.63]}}, {"type": "Feature", "properties": {"k": "bench", "a": 316, "back": false}, "geometry": {"type": "Point", "coordinates": [409307.92, 5655129.53]}}, {"type": "Feature", "properties": {"k": "bench", "a": 320, "back": false}, "geometry": {"type": "Point", "coordinates": [409306.05, 5655131.18]}}, {"type": "Feature", "properties": {"k": "shelter", "a": 37}, "geometry": {"type": "Point", "coordinates": [409978.73, 5654684.2]}}, {"type": "Feature", "properties": {"k": "shelter", "a": 306}, "geometry": {"type": "Point", "coordinates": [409981.81, 5654767.25]}}, {"type": "Feature", "properties": {"k": "shelter", "a": 126}, "geometry": {"type": "Point", "coordinates": [409732.42, 5654416.54]}}, {"type": "Feature", "properties": {"k": "shelter", "a": 128}, "geometry": {"type": "Point", "coordinates": [409994.79, 5654743.07]}}, {"type": "Feature", "properties": {"k": "shelter", "a": 188}, "geometry": {"type": "Point", "coordinates": [408229.15, 5654396.32]}}, {"type": "Feature", "properties": {"k": "bike", "a": 252, "n": 2}, "geometry": {"type": "Point", "coordinates": [409275.16, 5655509.51]}}, {"type": "Feature", "properties": {"k": "bike", "a": 248, "n": 1}, "geometry": {"type": "Point", "coordinates": [409198.35, 5655624.71]}}, {"type": "Feature", "properties": {"k": "bin"}, "geometry": {"type": "Point", "coordinates": [409198.4, 5655626.23]}}, {"type": "Feature", "properties": {"k": "bench", "a": 242}, "geometry": {"type": "Point", "coordinates": [409198.53, 5655627.52]}}, {"type": "Feature", "properties": {"k": "bin"}, "geometry": {"type": "Point", "coordinates": [409181.17, 5655659.66]}}, {"type": "Feature", "properties": {"k": "bench", "a": 267}, "geometry": {"type": "Point", "coordinates": [409182.32, 5655659.69]}}, {"type": "Feature", "properties": {"k": "shelter", "a": 88}, "geometry": {"type": "Point", "coordinates": [409211.09, 5654910.07]}}, {"type": "Feature", "properties": {"k": "shelter", "a": 98}, "geometry": {"type": "Point", "coordinates": [408980.59, 5654165.82]}}, {"type": "Feature", "properties": {"k": "bollard"}, "geometry": {"type": "Point", "coordinates": [409359.27, 5654230.22]}}, {"type": "Feature", "properties": {"k": "shelter", "a": 128}, "geometry": {"type": "Point", "coordinates": [409715.05, 5654380.55]}}, {"type": "Feature", "properties": {"k": "shelter", "a": 277}, "geometry": {"type": "Point", "coordinates": [408664.03, 5654276.45]}}, {"type": "Feature", "properties": {"k": "shelter", "a": 191}, "geometry": {"type": "Point", "coordinates": [408624.83, 5654293.04]}}, {"type": "Feature", "properties": {"k": "bike", "a": 254, "n": 3}, "geometry": {"type": "Point", "coordinates": [409037.67, 5655505.49]}}, {"type": "Feature", "properties": {"k": "bollard"}, "geometry": {"type": "Point", "coordinates": [409638.49, 5654297.46]}}, {"type": "Feature", "properties": {"k": "bench", "a": 64}, "geometry": {"type": "Point", "coordinates": [409611.68, 5654337.25]}}, {"type": "Feature", "properties": {"k": "bench", "a": 164}, "geometry": {"type": "Point", "coordinates": [409610.73, 5654342.93]}}, {"type": "Feature", "properties": {"k": "bollard"}, "geometry": {"type": "Point", "coordinates": [409603.89, 5654350.99]}}, {"type": "Feature", "properties": {"k": "bollard"}, "geometry": {"type": "Point", "coordinates": [409607.69, 5654356.86]}}, {"type": "Feature", "properties": {"k": "postbox", "a": 170}, "geometry": {"type": "Point", "coordinates": [408197.32, 5655388.83]}}, {"type": "Feature", "properties": {"k": "bin"}, "geometry": {"type": "Point", "coordinates": [409314.11, 5655109.48]}}, {"type": "Feature", "properties": {"k": "bin"}, "geometry": {"type": "Point", "coordinates": [409305.59, 5655131.54]}}, {"type": "Feature", "properties": {"k": "bench", "a": 339, "back": false}, "geometry": {"type": "Point", "coordinates": [409335.21, 5655161.99]}}, {"type": "Feature", "properties": {"k": "bin"}, "geometry": {"type": "Point", "coordinates": [409336.2, 5655161.27]}}, {"type": "Feature", "properties": {"k": "shelter", "a": 172}, "geometry": {"type": "Point", "coordinates": [408710.49, 5655472.67]}}, {"type": "Feature", "properties": {"k": "shelter", "a": 134}, "geometry": {"type": "Point", "coordinates": [409362.92, 5655740.34]}}, {"type": "Feature", "properties": {"k": "shelter", "a": 314}, "geometry": {"type": "Point", "coordinates": [409373.56, 5655726.03]}}, {"type": "Feature", "properties": {"k": "bench", "a": 24}, "geometry": {"type": "Point", "coordinates": [408330.0, 5655720.33]}}, {"type": "Feature", "properties": {"k": "bike", "a": 86, "n": 1}, "geometry": {"type": "Point", "coordinates": [408933.65, 5655384.67]}}, {"type": "Feature", "properties": {"k": "bike", "a": 175, "n": 2}, "geometry": {"type": "Point", "coordinates": [408842.05, 5655338.46]}}, {"type": "Feature", "properties": {"k": "shelter", "a": 339}, "geometry": {"type": "Point", "coordinates": [409529.49, 5655595.44]}}, {"type": "Feature", "properties": {"k": "postbox", "a": 169}, "geometry": {"type": "Point", "coordinates": [408372.66, 5655419.78]}}, {"type": "Feature", "properties": {"k": "bike", "a": 93, "n": 7}, "geometry": {"type": "Point", "coordinates": [408825.5, 5654551.36]}}, {"type": "Feature", "properties": {"k": "bench", "a": 252, "back": false}, "geometry": {"type": "Point", "coordinates": [409277.07, 5655504.2]}}, {"type": "Feature", "properties": {"k": "bench", "a": 306, "back": false}, "geometry": {"type": "Point", "coordinates": [409059.26, 5654088.18]}}, {"type": "Feature", "properties": {"k": "bench", "a": 306, "back": false}, "geometry": {"type": "Point", "coordinates": [409065.78, 5654096.22]}}, {"type": "Feature", "properties": {"k": "bollard"}, "geometry": {"type": "Point", "coordinates": [409264.11, 5655158.87]}}, {"type": "Feature", "properties": {"k": "bench", "a": 174}, "geometry": {"type": "Point", "coordinates": [409116.84, 5655681.85]}}, {"type": "Feature", "properties": {"k": "bench", "a": 174}, "geometry": {"type": "Point", "coordinates": [409121.4, 5655682.24]}}, {"type": "Feature", "properties": {"k": "postbox", "a": 36}, "geometry": {"type": "Point", "coordinates": [409958.79, 5654689.88]}}, {"type": "Feature", "properties": {"k": "bike", "a": 86, "n": 2}, "geometry": {"type": "Point", "coordinates": [408857.06, 5655399.68]}}, {"type": "Feature", "properties": {"k": "bike", "a": 176, "n": 5}, "geometry": {"type": "Point", "coordinates": [408784.91, 5655100.78]}}, {"type": "Feature", "properties": {"k": "bin"}, "geometry": {"type": "Point", "coordinates": [409612.65, 5654340.64]}}, {"type": "Feature", "properties": {"k": "bin"}, "geometry": {"type": "Point", "coordinates": [409584.86, 5654389.89]}}, {"type": "Feature", "properties": {"k": "bike", "a": 359, "n": 3}, "geometry": {"type": "Point", "coordinates": [408036.46, 5655363.74]}}, {"type": "Feature", "properties": {"k": "bin"}, "geometry": {"type": "Point", "coordinates": [408940.06, 5654894.51]}}, {"type": "Feature", "properties": {"k": "bench", "a": 354}, "geometry": {"type": "Point", "coordinates": [408935.78, 5654892.74]}}, {"type": "Feature", "properties": {"k": "bench", "a": 161}, "geometry": {"type": "Point", "coordinates": [408932.87, 5654910.42]}}, {"type": "Feature", "properties": {"k": "bin"}, "geometry": {"type": "Point", "coordinates": [408929.74, 5654908.48]}}, {"type": "Feature", "properties": {"k": "bench", "a": 120}, "geometry": {"type": "Point", "coordinates": [408927.13, 5654906.15]}}, {"type": "Feature", "properties": {"k": "postbox", "a": 132}, "geometry": {"type": "Point", "coordinates": [409463.68, 5655816.13]}}, {"type": "Feature", "properties": {"k": "postbox", "a": 307}, "geometry": {"type": "Point", "coordinates": [409608.51, 5654192.4]}}, {"type": "Feature", "properties": {"k": "bike", "a": 176, "n": 2}, "geometry": {"type": "Point", "coordinates": [408922.99, 5654994.17]}}, {"type": "Feature", "properties": {"k": "bike", "a": 86, "n": 2}, "geometry": {"type": "Point", "coordinates": [408865.69, 5655165.82]}}, {"type": "Feature", "properties": {"k": "bike", "a": 168, "n": 12}, "geometry": {"type": "Point", "coordinates": [408724.53, 5654974.46]}}, {"type": "Feature", "properties": {"k": "bin"}, "geometry": {"type": "Point", "coordinates": [408793.78, 5654967.22]}}, {"type": "Feature", "properties": {"k": "bench", "a": 266, "back": false}, "geometry": {"type": "Point", "coordinates": [408746.65, 5654960.06]}}, {"type": "Feature", "properties": {"k": "bench", "a": 286}, "geometry": {"type": "Point", "coordinates": [408771.82, 5654957.37]}}, {"type": "Feature", "properties": {"k": "bin"}, "geometry": {"type": "Point", "coordinates": [408748.65, 5654949.93]}}, {"type": "Feature", "properties": {"k": "bench", "a": 266, "back": false}, "geometry": {"type": "Point", "coordinates": [408753.67, 5654951.98]}}, {"type": "Feature", "properties": {"k": "bin"}, "geometry": {"type": "Point", "coordinates": [408773.45, 5654925.03]}}, {"type": "Feature", "properties": {"k": "bench", "a": 266, "back": false}, "geometry": {"type": "Point", "coordinates": [408746.62, 5654963.88]}}, {"type": "Feature", "properties": {"k": "bollard"}, "geometry": {"type": "Point", "coordinates": [408744.58, 5654972.0]}}, {"type": "Feature", "properties": {"k": "bench", "a": 346}, "geometry": {"type": "Point", "coordinates": [408793.77, 5654965.0]}}, {"type": "Feature", "properties": {"k": "bench", "a": 266, "back": false}, "geometry": {"type": "Point", "coordinates": [408746.82, 5654954.31]}}, {"type": "Feature", "properties": {"k": "bench", "a": 277}, "geometry": {"type": "Point", "coordinates": [408773.51, 5654922.3]}}, {"type": "Feature", "properties": {"k": "bench", "a": 354}, "geometry": {"type": "Point", "coordinates": [409116.72, 5655685.91]}}, {"type": "Feature", "properties": {"k": "bin"}, "geometry": {"type": "Point", "coordinates": [409119.34, 5655685.93]}}, {"type": "Feature", "properties": {"k": "bench", "a": 354}, "geometry": {"type": "Point", "coordinates": [409120.74, 5655686.01]}}, {"type": "Feature", "properties": {"k": "bin"}, "geometry": {"type": "Point", "coordinates": [409259.08, 5655689.89]}}, {"type": "Feature", "properties": {"k": "bollard"}, "geometry": {"type": "Point", "coordinates": [408728.81, 5654973.19]}}, {"type": "Feature", "properties": {"k": "postbox", "a": 85}, "geometry": {"type": "Point", "coordinates": [408280.86, 5654830.56]}}, {"type": "Feature", "properties": {"k": "bench", "a": 167, "back": false}, "geometry": {"type": "Point", "coordinates": [409230.12, 5655692.67]}}, {"type": "Feature", "properties": {"k": "bollard"}, "geometry": {"type": "Point", "coordinates": [408647.04, 5654625.68]}}, {"type": "Feature", "properties": {"k": "bollard"}, "geometry": {"type": "Point", "coordinates": [408600.22, 5654571.29]}}, {"type": "Feature", "properties": {"k": "bollard"}, "geometry": {"type": "Point", "coordinates": [408651.34, 5654575.03]}}, {"type": "Feature", "properties": {"k": "bin"}, "geometry": {"type": "Point", "coordinates": [408981.99, 5654154.75]}}, {"type": "Feature", "properties": {"k": "bin"}, "geometry": {"type": "Point", "coordinates": [408915.31, 5654892.49]}}, {"type": "Feature", "properties": {"k": "bike", "a": 352, "n": 2}, "geometry": {"type": "Point", "coordinates": [408705.43, 5655452.06]}}, {"type": "Feature", "properties": {"k": "bin"}, "geometry": {"type": "Point", "coordinates": [408209.64, 5654105.83]}}, {"type": "Feature", "properties": {"k": "bin"}, "geometry": {"type": "Point", "coordinates": [409002.85, 5655639.64]}}, {"type": "Feature", "properties": {"k": "shelter", "a": 254}, "geometry": {"type": "Point", "coordinates": [409003.86, 5655606.46]}}, {"type": "Feature", "properties": {"k": "bench", "a": 354}, "geometry": {"type": "Point", "coordinates": [408636.44, 5655424.99]}}, {"type": "Feature", "properties": {"k": "bike", "a": 257, "n": 3}, "geometry": {"type": "Point", "coordinates": [408402.08, 5655719.25]}}, {"type": "Feature", "properties": {"k": "bin"}, "geometry": {"type": "Point", "coordinates": [408270.31, 5655210.81]}}, {"type": "Feature", "properties": {"k": "postbox", "a": 304}, "geometry": {"type": "Point", "coordinates": [409602.78, 5654472.26]}}, {"type": "Feature", "properties": {"k": "bin"}, "geometry": {"type": "Point", "coordinates": [409428.83, 5655941.78]}}, {"type": "Feature", "properties": {"k": "bench", "a": 243}, "geometry": {"type": "Point", "coordinates": [408101.46, 5655201.59]}}, {"type": "Feature", "properties": {"k": "bench", "a": 243}, "geometry": {"type": "Point", "coordinates": [408096.75, 5655210.14]}}, {"type": "Feature", "properties": {"k": "bin"}, "geometry": {"type": "Point", "coordinates": [408095.55, 5655211.3]}}, {"type": "Feature", "properties": {"k": "bin"}, "geometry": {"type": "Point", "coordinates": [408101.21, 5655202.61]}}, {"type": "Feature", "properties": {"k": "bench", "a": 206}, "geometry": {"type": "Point", "coordinates": [409612.49, 5654349.36]}}, {"type": "Feature", "properties": {"k": "bin"}, "geometry": {"type": "Point", "coordinates": [409612.27, 5654348.52]}}, {"type": "Feature", "properties": {"k": "bike", "a": 266, "n": 12}, "geometry": {"type": "Point", "coordinates": [408445.65, 5654852.47]}}, {"type": "Feature", "properties": {"k": "bench", "a": 179}, "geometry": {"type": "Point", "coordinates": [408430.16, 5654871.63]}}, {"type": "Feature", "properties": {"k": "bench", "a": 6}, "geometry": {"type": "Point", "coordinates": [408419.77, 5654860.5]}}, {"type": "Feature", "properties": {"k": "bench", "a": 359, "back": false}, "geometry": {"type": "Point", "coordinates": [408422.3, 5654859.0]}}, {"type": "Feature", "properties": {"k": "bin"}, "geometry": {"type": "Point", "coordinates": [408255.46, 5655683.47]}}, {"type": "Feature", "properties": {"k": "bench", "a": 71}, "geometry": {"type": "Point", "coordinates": [408241.73, 5655698.28]}}, {"type": "Feature", "properties": {"k": "bin"}, "geometry": {"type": "Point", "coordinates": [408104.19, 5655803.42]}}, {"type": "Feature", "properties": {"k": "bin"}, "geometry": {"type": "Point", "coordinates": [408122.88, 5655803.35]}}, {"type": "Feature", "properties": {"k": "bin"}, "geometry": {"type": "Point", "coordinates": [409903.25, 5654730.38]}}, {"type": "Feature", "properties": {"k": "bin"}, "geometry": {"type": "Point", "coordinates": [409974.75, 5654686.41]}}, {"type": "Feature", "properties": {"k": "bin"}, "geometry": {"type": "Point", "coordinates": [409883.96, 5654750.76]}}, {"type": "Feature", "properties": {"k": "bin"}, "geometry": {"type": "Point", "coordinates": [409768.01, 5654921.82]}}, {"type": "Feature", "properties": {"k": "bin"}, "geometry": {"type": "Point", "coordinates": [409924.09, 5654712.36]}}, {"type": "Feature", "properties": {"k": "bike", "a": 47, "n": 2}, "geometry": {"type": "Point", "coordinates": [409890.17, 5654755.72]}}, {"type": "Feature", "properties": {"k": "postbox", "a": 176}, "geometry": {"type": "Point", "coordinates": [408779.74, 5655254.91]}}, {"type": "Feature", "properties": {"k": "bike", "a": 356, "n": 1}, "geometry": {"type": "Point", "coordinates": [408525.15, 5654834.17]}}, {"type": "Feature", "properties": {"k": "bench", "a": 81, "back": false}, "geometry": {"type": "Point", "coordinates": [409720.4, 5655942.66]}}, {"type": "Feature", "properties": {"k": "bin"}, "geometry": {"type": "Point", "coordinates": [409174.67, 5655448.86]}}, {"type": "Feature", "properties": {"k": "bench", "a": 26}, "geometry": {"type": "Point", "coordinates": [409173.83, 5655447.7]}}, {"type": "Feature", "properties": {"k": "bench", "a": 295}, "geometry": {"type": "Point", "coordinates": [409173.28, 5655445.47]}}, {"type": "Feature", "properties": {"k": "bench", "a": 295}, "geometry": {"type": "Point", "coordinates": [409172.78, 5655443.14]}}, {"type": "Feature", "properties": {"k": "bench", "a": 4}, "geometry": {"type": "Point", "coordinates": [409100.15, 5655481.31]}}, {"type": "Feature", "properties": {"k": "bench", "a": 3}, "geometry": {"type": "Point", "coordinates": [409100.85, 5655490.83]}}, {"type": "Feature", "properties": {"k": "bench", "a": 124}, "geometry": {"type": "Point", "coordinates": [408323.87, 5655743.11]}}, {"type": "Feature", "properties": {"k": "bench", "a": 304}, "geometry": {"type": "Point", "coordinates": [408350.49, 5655724.98]}}, {"type": "Feature", "properties": {"k": "bench", "a": 332}, "geometry": {"type": "Point", "coordinates": [409481.82, 5655669.08]}}, {"type": "Feature", "properties": {"k": "bike", "a": 167, "n": 7}, "geometry": {"type": "Point", "coordinates": [408159.54, 5655751.23]}}, {"type": "Feature", "properties": {"k": "bike", "a": 167, "n": 7}, "geometry": {"type": "Point", "coordinates": [408160.02, 5655749.08]}}, {"type": "Feature", "properties": {"k": "bike", "a": 267, "n": 1}, "geometry": {"type": "Point", "coordinates": [409180.94, 5655660.79]}}, {"type": "Feature", "properties": {"k": "bike", "a": 215, "n": 12}, "geometry": {"type": "Point", "coordinates": [409978.53, 5655119.48]}}, {"type": "Feature", "properties": {"k": "picnic"}, "geometry": {"type": "Point", "coordinates": [409329.9, 5655625.66]}}, {"type": "Feature", "properties": {"k": "bin"}, "geometry": {"type": "Point", "coordinates": [409051.53, 5654291.79]}}, {"type": "Feature", "properties": {"k": "bench", "a": 347, "back": false}, "geometry": {"type": "Point", "coordinates": [408964.5, 5654176.12]}}, {"type": "Feature", "properties": {"k": "bench", "a": 248}, "geometry": {"type": "Point", "coordinates": [408951.1, 5654215.61]}}, {"type": "Feature", "properties": {"k": "bench", "a": 248}, "geometry": {"type": "Point", "coordinates": [408950.68, 5654216.98]}}, {"type": "Feature", "properties": {"k": "bench", "a": 16, "back": false}, "geometry": {"type": "Point", "coordinates": [409139.31, 5655347.78]}}, {"type": "Feature", "properties": {"k": "bench", "a": 20, "back": false}, "geometry": {"type": "Point", "coordinates": [409138.19, 5655348.22]}}, {"type": "Feature", "properties": {"k": "bench", "a": 30, "back": false}, "geometry": {"type": "Point", "coordinates": [409135.34, 5655349.44]}}, {"type": "Feature", "properties": {"k": "bench", "a": 34, "back": false}, "geometry": {"type": "Point", "coordinates": [409134.08, 5655349.98]}}, {"type": "Feature", "properties": {"k": "bin"}, "geometry": {"type": "Point", "coordinates": [409126.98, 5655353.74]}}, {"type": "Feature", "properties": {"k": "bollard"}, "geometry": {"type": "Point", "coordinates": [409130.97, 5655353.1]}}, {"type": "Feature", "properties": {"k": "bike", "a": 292, "n": 2}, "geometry": {"type": "Point", "coordinates": [409129.24, 5655352.82]}}, {"type": "Feature", "properties": {"k": "bin"}, "geometry": {"type": "Point", "coordinates": [409164.06, 5655404.38]}}, {"type": "Feature", "properties": {"k": "bench", "a": 102}, "geometry": {"type": "Point", "coordinates": [409160.93, 5655391.07]}}, {"type": "Feature", "properties": {"k": "bike", "a": 102, "n": 1}, "geometry": {"type": "Point", "coordinates": [409161.52, 5655393.13]}}, {"type": "Feature", "properties": {"k": "bike", "a": 102, "n": 1}, "geometry": {"type": "Point", "coordinates": [409162.99, 5655400.11]}}, {"type": "Feature", "properties": {"k": "bench", "a": 102}, "geometry": {"type": "Point", "coordinates": [409163.42, 5655402.27]}}, {"type": "Feature", "properties": {"k": "bin"}, "geometry": {"type": "Point", "coordinates": [409156.0, 5655366.54]}}, {"type": "Feature", "properties": {"k": "bike", "a": 102, "n": 2}, "geometry": {"type": "Point", "coordinates": [409157.32, 5655374.89]}}, {"type": "Feature", "properties": {"k": "bike", "a": 102, "n": 1}, "geometry": {"type": "Point", "coordinates": [409158.26, 5655381.14]}}, {"type": "Feature", "properties": {"k": "bench", "a": 102}, "geometry": {"type": "Point", "coordinates": [409158.2, 5655380.33]}}, {"type": "Feature", "properties": {"k": "bench", "a": 102, "back": false}, "geometry": {"type": "Point", "coordinates": [409157.69, 5655377.34]}}, {"type": "Feature", "properties": {"k": "bench", "a": 102, "back": false}, "geometry": {"type": "Point", "coordinates": [409156.56, 5655369.41]}}, {"type": "Feature", "properties": {"k": "bench", "a": 102}, "geometry": {"type": "Point", "coordinates": [409156.99, 5655372.09]}}, {"type": "Feature", "properties": {"k": "bench", "a": 266}, "geometry": {"type": "Point", "coordinates": [408668.65, 5654767.92]}}, {"type": "Feature", "properties": {"k": "picnic"}, "geometry": {"type": "Point", "coordinates": [408684.19, 5654758.46]}}, {"type": "Feature", "properties": {"k": "bench", "a": 265}, "geometry": {"type": "Point", "coordinates": [408305.0, 5655074.28]}}, {"type": "Feature", "properties": {"k": "bench"}, "geometry": {"type": "Point", "coordinates": [409173.38, 5655727.41]}}, {"type": "Feature", "properties": {"k": "bench", "a": 77, "back": false}, "geometry": {"type": "Point", "coordinates": [409242.89, 5655059.75]}}, {"type": "Feature", "properties": {"k": "bench", "a": 77, "back": false}, "geometry": {"type": "Point", "coordinates": [409246.77, 5655046.87]}}, {"type": "Feature", "properties": {"k": "bin"}, "geometry": {"type": "Point", "coordinates": [408243.68, 5654939.42]}}, {"type": "Feature", "properties": {"k": "bin"}, "geometry": {"type": "Point", "coordinates": [408305.18, 5655072.3]}}, {"type": "Feature", "properties": {"k": "bin"}, "geometry": {"type": "Point", "coordinates": [408606.64, 5655422.3]}}, {"type": "Feature", "properties": {"k": "bench", "a": 215}, "geometry": {"type": "Point", "coordinates": [408324.97, 5655753.87]}}, {"type": "Feature", "properties": {"k": "bin"}, "geometry": {"type": "Point", "coordinates": [408588.45, 5655420.14]}}, {"type": "Feature", "properties": {"k": "bench", "a": 215}, "geometry": {"type": "Point", "coordinates": [408316.42, 5655759.98]}}, {"type": "Feature", "properties": {"k": "bin"}, "geometry": {"type": "Point", "coordinates": [408569.91, 5655418.03]}}, {"type": "Feature", "properties": {"k": "bin"}, "geometry": {"type": "Point", "coordinates": [408346.82, 5655768.02]}}, {"type": "Feature", "properties": {"k": "bench", "a": 215}, "geometry": {"type": "Point", "coordinates": [408309.6, 5655764.52]}}, {"type": "Feature", "properties": {"k": "bin"}, "geometry": {"type": "Point", "coordinates": [408551.43, 5655417.33]}}, {"type": "Feature", "properties": {"k": "bench", "a": 122}, "geometry": {"type": "Point", "coordinates": [408339.18, 5655756.09]}}, {"type": "Feature", "properties": {"k": "bench", "a": 215}, "geometry": {"type": "Point", "coordinates": [408304.34, 5655770.42]}}, {"type": "Feature", "properties": {"k": "bench", "a": 174}, "geometry": {"type": "Point", "coordinates": [408639.3, 5655430.17]}}, {"type": "Feature", "properties": {"k": "bench", "a": 122}, "geometry": {"type": "Point", "coordinates": [408345.97, 5655767.01]}}, {"type": "Feature", "properties": {"k": "bench", "a": 215}, "geometry": {"type": "Point", "coordinates": [408303.76, 5655769.05]}}, {"type": "Feature", "properties": {"k": "bench", "a": 354}, "geometry": {"type": "Point", "coordinates": [408609.83, 5655422.92]}}, {"type": "Feature", "properties": {"k": "bench", "a": 122}, "geometry": {"type": "Point", "coordinates": [408347.25, 5655769.2]}}, {"type": "Feature", "properties": {"k": "bench", "a": 354}, "geometry": {"type": "Point", "coordinates": [408548.29, 5655416.62]}}, {"type": "Feature", "properties": {"k": "bench", "a": 122}, "geometry": {"type": "Point", "coordinates": [408353.22, 5655777.67]}}, {"type": "Feature", "properties": {"k": "bench", "a": 354}, "geometry": {"type": "Point", "coordinates": [408553.75, 5655416.59]}}, {"type": "Feature", "properties": {"k": "bench", "a": 347}, "geometry": {"type": "Point", "coordinates": [408344.64, 5655779.01]}}, {"type": "Feature", "properties": {"k": "bench", "a": 354}, "geometry": {"type": "Point", "coordinates": [408572.83, 5655418.52]}}, {"type": "Feature", "properties": {"k": "bench", "a": 347}, "geometry": {"type": "Point", "coordinates": [408336.72, 5655777.0]}}, {"type": "Feature", "properties": {"k": "bench", "a": 354}, "geometry": {"type": "Point", "coordinates": [408590.9, 5655420.7]}}, {"type": "Feature", "properties": {"k": "bench", "a": 347}, "geometry": {"type": "Point", "coordinates": [408330.26, 5655775.88]}}, {"type": "Feature", "properties": {"k": "bike", "a": 342, "n": 1}, "geometry": {"type": "Point", "coordinates": [409209.05, 5655023.6]}}, {"type": "Feature", "properties": {"k": "bin"}, "geometry": {"type": "Point", "coordinates": [409211.7, 5655024.68]}}, {"type": "Feature", "properties": {"k": "bin"}, "geometry": {"type": "Point", "coordinates": [409245.22, 5655037.59]}}, {"type": "Feature", "properties": {"k": "bin"}, "geometry": {"type": "Point", "coordinates": [409239.58, 5655072.42]}}, {"type": "Feature", "properties": {"k": "bin"}, "geometry": {"type": "Point", "coordinates": [409060.52, 5654090.83]}}, {"type": "Feature", "properties": {"k": "bin"}, "geometry": {"type": "Point", "coordinates": [409066.77, 5654099.26]}}, {"type": "Feature", "properties": {"k": "bin"}, "geometry": {"type": "Point", "coordinates": [409043.13, 5654992.01]}}, {"type": "Feature", "properties": {"k": "bench", "a": 183}, "geometry": {"type": "Point", "coordinates": [409013.99, 5654975.63]}}, {"type": "Feature", "properties": {"k": "bench", "a": 110}, "geometry": {"type": "Point", "coordinates": [409005.7, 5654969.47]}}, {"type": "Feature", "properties": {"k": "bench", "a": 83}, "geometry": {"type": "Point", "coordinates": [409005.08, 5654966.29]}}, {"type": "Feature", "properties": {"k": "bin"}, "geometry": {"type": "Point", "coordinates": [409005.16, 5654968.39]}}, {"type": "Feature", "properties": {"k": "bench", "a": 20}, "geometry": {"type": "Point", "coordinates": [409010.78, 5654958.68]}}, {"type": "Feature", "properties": {"k": "bin"}, "geometry": {"type": "Point", "coordinates": [409013.41, 5654958.54]}}, {"type": "Feature", "properties": {"k": "bench", "a": 342}, "geometry": {"type": "Point", "coordinates": [409015.77, 5654959.16]}}, {"type": "Feature", "properties": {"k": "bench", "a": 102}, "geometry": {"type": "Point", "coordinates": [408948.96, 5654935.76]}}, {"type": "Feature", "properties": {"k": "bin"}, "geometry": {"type": "Point", "coordinates": [408949.03, 5654933.97]}}, {"type": "Feature", "properties": {"k": "bench", "a": 74}, "geometry": {"type": "Point", "coordinates": [408949.07, 5654931.16]}}, {"type": "Feature", "properties": {"k": "picnic", "a": 34}, "geometry": {"type": "Point", "coordinates": [408938.8, 5654941.35]}}, {"type": "Feature", "properties": {"k": "bike", "a": 311, "n": 1}, "geometry": {"type": "Point", "coordinates": [409150.81, 5654471.36]}}, {"type": "Feature", "properties": {"k": "bench", "a": 9}, "geometry": {"type": "Point", "coordinates": [409157.3, 5654485.37]}}, {"type": "Feature", "properties": {"k": "bench", "a": 321}, "geometry": {"type": "Point", "coordinates": [409038.65, 5654972.75]}}, {"type": "Feature", "properties": {"k": "bench", "a": 203}, "geometry": {"type": "Point", "coordinates": [409019.16, 5654912.49]}}, {"type": "Feature", "properties": {"k": "bin"}, "geometry": {"type": "Point", "coordinates": [409022.18, 5654913.2]}}, {"type": "Feature", "properties": {"k": "bench", "a": 76}, "geometry": {"type": "Point", "coordinates": [409011.51, 5654905.69]}}, {"type": "Feature", "properties": {"k": "bin"}, "geometry": {"type": "Point", "coordinates": [409012.01, 5654902.31]}}, {"type": "Feature", "properties": {"k": "bench", "a": 336}, "geometry": {"type": "Point", "coordinates": [409020.38, 5654896.71]}}, {"type": "Feature", "properties": {"k": "bin"}, "geometry": {"type": "Point", "coordinates": [409023.79, 5654898.15]}}, {"type": "Feature", "properties": {"k": "bike", "a": 86, "n": 3}, "geometry": {"type": "Point", "coordinates": [408316.52, 5654904.2]}}, {"type": "Feature", "properties": {"k": "bike", "a": 264, "n": 3}, "geometry": {"type": "Point", "coordinates": [408322.48, 5654876.05]}}, {"type": "Feature", "properties": {"k": "bike", "a": 86, "n": 3}, "geometry": {"type": "Point", "coordinates": [408317.71, 5654889.63]}}, {"type": "Feature", "properties": {"k": "bike", "a": 85, "n": 3}, "geometry": {"type": "Point", "coordinates": [408316.42, 5654919.26]}}, {"type": "Feature", "properties": {"k": "bench", "a": 243}, "geometry": {"type": "Point", "coordinates": [409037.51, 5654951.46]}}, {"type": "Feature", "properties": {"k": "bin"}, "geometry": {"type": "Point", "coordinates": [409038.52, 5654955.24]}}, {"type": "Feature", "properties": {"k": "bench", "a": 235}, "geometry": {"type": "Point", "coordinates": [409038.5, 5654959.46]}}, {"type": "Feature", "properties": {"k": "bin"}, "geometry": {"type": "Point", "coordinates": [409030.6, 5654959.89]}}, {"type": "Feature", "properties": {"k": "bench", "a": 321}, "geometry": {"type": "Point", "coordinates": [409026.68, 5654971.96]}}, {"type": "Feature", "properties": {"k": "bench", "a": 321}, "geometry": {"type": "Point", "coordinates": [409030.16, 5654975.23]}}, {"type": "Feature", "properties": {"k": "bench", "a": 321, "back": false}, "geometry": {"type": "Point", "coordinates": [409033.35, 5654977.09]}}, {"type": "Feature", "properties": {"k": "bin"}, "geometry": {"type": "Point", "coordinates": [409036.71, 5654980.78]}}, {"type": "Feature", "properties": {"k": "bench", "a": 266}, "geometry": {"type": "Point", "coordinates": [408663.78, 5654762.03]}}, {"type": "Feature", "properties": {"k": "bench", "a": 266}, "geometry": {"type": "Point", "coordinates": [408677.61, 5654769.42]}}, {"type": "Feature", "properties": {"k": "bin"}, "geometry": {"type": "Point", "coordinates": [408420.45, 5654858.68]}}, {"type": "Feature", "properties": {"k": "bench", "a": 359}, "geometry": {"type": "Point", "coordinates": [408427.96, 5654868.68]}}, {"type": "Feature", "properties": {"k": "bench", "a": 359, "back": false}, "geometry": {"type": "Point", "coordinates": [408425.98, 5654866.09]}}, {"type": "Feature", "properties": {"k": "bench", "a": 359, "back": false}, "geometry": {"type": "Point", "coordinates": [408427.95, 5654865.22]}}, {"type": "Feature", "properties": {"k": "bench", "a": 359, "back": false}, "geometry": {"type": "Point", "coordinates": [408430.33, 5654866.96]}}, {"type": "Feature", "properties": {"k": "bench", "a": 294}, "geometry": {"type": "Point", "coordinates": [409040.03, 5654914.36]}}, {"type": "Feature", "properties": {"k": "bin"}, "geometry": {"type": "Point", "coordinates": [409039.87, 5654912.45]}}, {"type": "Feature", "properties": {"k": "bench", "a": 308}, "geometry": {"type": "Point", "coordinates": [409040.22, 5654910.75]}}, {"type": "Feature", "properties": {"k": "bench", "a": 175, "back": false}, "geometry": {"type": "Point", "coordinates": [408306.72, 5655161.26]}}, {"type": "Feature", "properties": {"k": "bench", "a": 265}, "geometry": {"type": "Point", "coordinates": [408603.52, 5655008.94]}}, {"type": "Feature", "properties": {"k": "bench", "a": 354}, "geometry": {"type": "Point", "coordinates": [408603.98, 5654968.45]}}, {"type": "Feature", "properties": {"k": "bench", "a": 265}, "geometry": {"type": "Point", "coordinates": [408468.6, 5654902.83]}}, {"type": "Feature", "properties": {"k": "bench", "a": 265}, "geometry": {"type": "Point", "coordinates": [408618.54, 5654601.73]}}, {"type": "Feature", "properties": {"k": "bench", "a": 265}, "geometry": {"type": "Point", "coordinates": [408620.92, 5654598.49]}}, {"type": "Feature", "properties": {"k": "bike", "a": 329, "n": 3}, "geometry": {"type": "Point", "coordinates": [409870.13, 5654511.69]}}, {"type": "Feature", "properties": {"k": "bike", "a": 341, "n": 1}, "geometry": {"type": "Point", "coordinates": [409862.43, 5654508.6]}}, {"type": "Feature", "properties": {"k": "bollard"}, "geometry": {"type": "Point", "coordinates": [409146.01, 5654469.9]}}, {"type": "Feature", "properties": {"k": "bench", "a": 103, "back": false}, "geometry": {"type": "Point", "coordinates": [409156.82, 5654475.78]}}, {"type": "Feature", "properties": {"k": "bench", "a": 103, "back": false}, "geometry": {"type": "Point", "coordinates": [409158.28, 5654482.35]}}, {"type": "Feature", "properties": {"k": "bin"}, "geometry": {"type": "Point", "coordinates": [409156.51, 5654485.46]}}, {"type": "Feature", "properties": {"k": "picnic", "a": 136}, "geometry": {"type": "Point", "coordinates": [408942.53, 5654920.61]}}, {"type": "Feature", "properties": {"k": "bench", "a": 264}, "geometry": {"type": "Point", "coordinates": [408437.72, 5655237.68]}}, {"type": "Feature", "properties": {"k": "bench"}, "geometry": {"type": "Point", "coordinates": [408020.76, 5654962.62]}}, {"type": "Feature", "properties": {"k": "bollard"}, "geometry": {"type": "Point", "coordinates": [409894.47, 5654303.07]}}, {"type": "Feature", "properties": {"k": "bench"}, "geometry": {"type": "Point", "coordinates": [408039.82, 5654852.57]}}, {"type": "Feature", "properties": {"k": "bench", "a": 223}, "geometry": {"type": "Point", "coordinates": [408509.09, 5654098.0]}}, {"type": "Feature", "properties": {"k": "bench", "a": 223}, "geometry": {"type": "Point", "coordinates": [408510.85, 5654096.4]}}, {"type": "Feature", "properties": {"k": "bench", "a": 223}, "geometry": {"type": "Point", "coordinates": [408515.09, 5654096.86]}}, {"type": "Feature", "properties": {"k": "bench", "a": 223}, "geometry": {"type": "Point", "coordinates": [408516.61, 5654095.07]}}, {"type": "Feature", "properties": {"k": "bollard"}, "geometry": {"type": "Point", "coordinates": [408565.86, 5654265.96]}}, {"type": "Feature", "properties": {"k": "bike", "a": 174, "n": 4}, "geometry": {"type": "Point", "coordinates": [409181.87, 5655777.94]}}, {"type": "Feature", "properties": {"k": "bike", "a": 354, "n": 6}, "geometry": {"type": "Point", "coordinates": [409184.72, 5655765.72]}}, {"type": "Feature", "properties": {"k": "bike", "a": 265, "n": 3}, "geometry": {"type": "Point", "coordinates": [409136.78, 5655773.79]}}, {"type": "Feature", "properties": {"k": "bike", "a": 3, "n": 2}, "geometry": {"type": "Point", "coordinates": [408955.08, 5655488.31]}}, {"type": "Feature", "properties": {"k": "bike", "a": 276, "n": 8}, "geometry": {"type": "Point", "coordinates": [408954.4, 5655500.31]}}, {"type": "Feature", "properties": {"k": "bollard"}, "geometry": {"type": "Point", "coordinates": [408796.83, 5655600.58]}}, {"type": "Feature", "properties": {"k": "bollard"}, "geometry": {"type": "Point", "coordinates": [409288.0, 5654185.13]}}, {"type": "Feature", "properties": {"k": "bin"}, "geometry": {"type": "Point", "coordinates": [408856.81, 5655802.51]}}, {"type": "Feature", "properties": {"k": "bin"}, "geometry": {"type": "Point", "coordinates": [408851.14, 5655823.48]}}, {"type": "Feature", "properties": {"k": "bench", "a": 228}, "geometry": {"type": "Point", "coordinates": [408848.77, 5655822.75]}}, {"type": "Feature", "properties": {"k": "picnic", "a": 149}, "geometry": {"type": "Point", "coordinates": [408864.52, 5655827.07]}}, {"type": "Feature", "properties": {"k": "bin"}, "geometry": {"type": "Point", "coordinates": [408865.37, 5655828.05]}}, {"type": "Feature", "properties": {"k": "bin"}, "geometry": {"type": "Point", "coordinates": [408876.19, 5655823.14]}}, {"type": "Feature", "properties": {"k": "picnic", "a": 344}, "geometry": {"type": "Point", "coordinates": [408881.53, 5655815.72]}}, {"type": "Feature", "properties": {"k": "bench", "a": 343}, "geometry": {"type": "Point", "coordinates": [408834.13, 5655793.05]}}, {"type": "Feature", "properties": {"k": "bin"}, "geometry": {"type": "Point", "coordinates": [408839.44, 5655794.61]}}, {"type": "Feature", "properties": {"k": "bin"}, "geometry": {"type": "Point", "coordinates": [408783.7, 5655788.31]}}, {"type": "Feature", "properties": {"k": "bin"}, "geometry": {"type": "Point", "coordinates": [408162.95, 5655710.07]}}, {"type": "Feature", "properties": {"k": "bike", "a": 182, "n": 3}, "geometry": {"type": "Point", "coordinates": [409138.41, 5655465.49]}}, {"type": "Feature", "properties": {"k": "bike", "a": 323, "n": 3}, "geometry": {"type": "Point", "coordinates": [409142.1, 5655452.68]}}, {"type": "Feature", "properties": {"k": "bench", "a": 99, "back": false}, "geometry": {"type": "Point", "coordinates": [408966.59, 5654177.26]}}, {"type": "Feature", "properties": {"k": "bench", "a": 339}, "geometry": {"type": "Point", "coordinates": [408097.78, 5654488.67]}}, {"type": "Feature", "properties": {"k": "bench", "a": 36}, "geometry": {"type": "Point", "coordinates": [409736.83, 5654371.11]}}, {"type": "Feature", "properties": {"k": "bike", "a": 3, "n": 1}, "geometry": {"type": "Point", "coordinates": [409004.28, 5655485.03]}}, {"type": "Feature", "properties": {"k": "bench", "a": 316, "back": false}, "geometry": {"type": "Point", "coordinates": [409002.34, 5654063.77]}}, {"type": "Feature", "properties": {"k": "bike", "a": 174, "n": 3}, "geometry": {"type": "Point", "coordinates": [409052.63, 5655676.21]}}, {"type": "Feature", "properties": {"k": "bike", "a": 251, "n": 1}, "geometry": {"type": "Point", "coordinates": [409047.56, 5655675.65]}}, {"type": "Feature", "properties": {"k": "bench", "a": 129}, "geometry": {"type": "Point", "coordinates": [409787.99, 5654294.17]}}, {"type": "Feature", "properties": {"k": "bike", "a": 117, "n": 1}, "geometry": {"type": "Point", "coordinates": [408502.92, 5654307.68]}}, {"type": "Feature", "properties": {"k": "bench", "a": 106}, "geometry": {"type": "Point", "coordinates": [409335.97, 5655598.16]}}, {"type": "Feature", "properties": {"k": "bench", "a": 3}, "geometry": {"type": "Point", "coordinates": [409124.14, 5655491.98]}}, {"type": "Feature", "properties": {"k": "bench", "a": 3}, "geometry": {"type": "Point", "coordinates": [409116.22, 5655492.42]}}, {"type": "Feature", "properties": {"k": "bin"}, "geometry": {"type": "Point", "coordinates": [409126.34, 5655492.03]}}, {"type": "Feature", "properties": {"k": "bin"}, "geometry": {"type": "Point", "coordinates": [409110.79, 5655492.61]}}, {"type": "Feature", "properties": {"k": "bin"}, "geometry": {"type": "Point", "coordinates": [409102.07, 5655492.7]}}, {"type": "Feature", "properties": {"k": "bin"}, "geometry": {"type": "Point", "coordinates": [408165.45, 5655364.86]}}, {"type": "Feature", "properties": {"k": "bin"}, "geometry": {"type": "Point", "coordinates": [408303.23, 5655406.25]}}, {"type": "Feature", "properties": {"k": "bin"}, "geometry": {"type": "Point", "coordinates": [408708.47, 5655472.1]}}, {"type": "Feature", "properties": {"k": "bike", "a": 3, "n": 4}, "geometry": {"type": "Point", "coordinates": [408979.33, 5655487.43]}}, {"type": "Feature", "properties": {"k": "bike", "a": 183, "n": 4}, "geometry": {"type": "Point", "coordinates": [408979.85, 5655497.96]}}, {"type": "Feature", "properties": {"k": "bin"}, "geometry": {"type": "Point", "coordinates": [409322.34, 5655582.43]}}, {"type": "Feature", "properties": {"k": "bench", "a": 268, "back": false}, "geometry": {"type": "Point", "coordinates": [408485.3, 5654728.93]}}, {"type": "Feature", "properties": {"k": "bench", "a": 268, "back": false}, "geometry": {"type": "Point", "coordinates": [408485.4, 5654726.62]}}, {"type": "Feature", "properties": {"k": "bench", "a": 325}, "geometry": {"type": "Point", "coordinates": [408523.94, 5654727.63]}}, {"type": "Feature", "properties": {"k": "bench", "a": 325}, "geometry": {"type": "Point", "coordinates": [408525.33, 5654729.61]}}, {"type": "Feature", "properties": {"k": "bench", "a": 325}, "geometry": {"type": "Point", "coordinates": [408526.23, 5654731.91]}}, {"type": "Feature", "properties": {"k": "bollard"}, "geometry": {"type": "Point", "coordinates": [408477.51, 5654825.8]}}, {"type": "Feature", "properties": {"k": "bollard"}, "geometry": {"type": "Point", "coordinates": [408480.52, 5654825.96]}}, {"type": "Feature", "properties": {"k": "bin"}, "geometry": {"type": "Point", "coordinates": [409718.25, 5655941.32]}}, {"type": "Feature", "properties": {"k": "bench", "a": 353}, "geometry": {"type": "Point", "coordinates": [408460.25, 5655411.66]}}, {"type": "Feature", "properties": {"k": "bench", "a": 353}, "geometry": {"type": "Point", "coordinates": [408452.15, 5655410.77]}}, {"type": "Feature", "properties": {"k": "bollard"}, "geometry": {"type": "Point", "coordinates": [409968.65, 5655122.71]}}, {"type": "Feature", "properties": {"k": "bin"}, "geometry": {"type": "Point", "coordinates": [409493.77, 5655730.04]}}, {"type": "Feature", "properties": {"k": "bin"}, "geometry": {"type": "Point", "coordinates": [409533.53, 5655755.09]}}, {"type": "Feature", "properties": {"k": "bin"}, "geometry": {"type": "Point", "coordinates": [409531.89, 5655763.94]}}, {"type": "Feature", "properties": {"k": "bin"}, "geometry": {"type": "Point", "coordinates": [409519.62, 5655743.85]}}, {"type": "Feature", "properties": {"k": "bin"}, "geometry": {"type": "Point", "coordinates": [409379.08, 5655627.13]}}, {"type": "Feature", "properties": {"k": "bin"}, "geometry": {"type": "Point", "coordinates": [409555.1, 5655786.44]}}, {"type": "Feature", "properties": {"k": "bench", "a": 324, "back": false}, "geometry": {"type": "Point", "coordinates": [409521.7, 5655745.91]}}, {"type": "Feature", "properties": {"k": "bench", "a": 317}, "geometry": {"type": "Point", "coordinates": [409323.69, 5655436.91]}}, {"type": "Feature", "properties": {"k": "bin"}, "geometry": {"type": "Point", "coordinates": [409308.14, 5655439.62]}}, {"type": "Feature", "properties": {"k": "bench", "a": 318}, "geometry": {"type": "Point", "coordinates": [409300.72, 5655444.23]}}, {"type": "Feature", "properties": {"k": "bin"}, "geometry": {"type": "Point", "coordinates": [408433.05, 5655537.78]}}, {"type": "Feature", "properties": {"k": "picnic", "a": 127}, "geometry": {"type": "Point", "coordinates": [409830.07, 5654015.04]}}, {"type": "Feature", "properties": {"k": "bike", "a": 355, "n": 5}, "geometry": {"type": "Point", "coordinates": [409814.01, 5654021.5]}}, {"type": "Feature", "properties": {"k": "bench", "a": 264}, "geometry": {"type": "Point", "coordinates": [408557.05, 5655036.12]}}, {"type": "Feature", "properties": {"k": "bench", "a": 84}, "geometry": {"type": "Point", "coordinates": [408544.98, 5655111.26]}}, {"type": "Feature", "properties": {"k": "bench", "a": 208}, "geometry": {"type": "Point", "coordinates": [408529.75, 5655155.86]}}, {"type": "Feature", "properties": {"k": "bench", "a": 356}, "geometry": {"type": "Point", "coordinates": [408506.24, 5655129.02]}}, {"type": "Feature", "properties": {"k": "bench", "a": 303}, "geometry": {"type": "Point", "coordinates": [408690.31, 5655077.34]}}, {"type": "Feature", "properties": {"k": "bench", "a": 85}, "geometry": {"type": "Point", "coordinates": [408618.88, 5655136.5]}}, {"type": "Feature", "properties": {"k": "bench", "a": 86}, "geometry": {"type": "Point", "coordinates": [408654.16, 5655176.38]}}, {"type": "Feature", "properties": {"k": "bench", "a": 265}, "geometry": {"type": "Point", "coordinates": [408596.43, 5655161.61]}}, {"type": "Feature", "properties": {"k": "bench", "a": 348}, "geometry": {"type": "Point", "coordinates": [408808.66, 5655786.58]}}, {"type": "Feature", "properties": {"k": "bin"}, "geometry": {"type": "Point", "coordinates": [408798.66, 5655784.93]}}, {"type": "Feature", "properties": {"k": "bike", "a": 305, "n": 1}, "geometry": {"type": "Point", "coordinates": [409846.42, 5654057.34]}}, {"type": "Feature", "properties": {"k": "bike", "a": 11, "n": 4}, "geometry": {"type": "Point", "coordinates": [409460.72, 5654946.0]}}, {"type": "Feature", "properties": {"k": "bike", "a": 27, "n": 11}, "geometry": {"type": "Point", "coordinates": [409472.33, 5654937.17]}}, {"type": "Feature", "properties": {"k": "bike", "a": 304, "n": 12}, "geometry": {"type": "Point", "coordinates": [409572.93, 5654224.38]}}, {"type": "Feature", "properties": {"k": "bike", "a": 89, "n": 5}, "geometry": {"type": "Point", "coordinates": [408988.85, 5654536.4]}}, {"type": "Feature", "properties": {"k": "bench", "a": 129}, "geometry": {"type": "Point", "coordinates": [409788.94, 5654293.33]}}, {"type": "Feature", "properties": {"k": "bench", "a": 309}, "geometry": {"type": "Point", "coordinates": [409790.35, 5654289.9]}}, {"type": "Feature", "properties": {"k": "bench", "a": 309}, "geometry": {"type": "Point", "coordinates": [409789.8, 5654289.03]}}, {"type": "Feature", "properties": {"k": "bike", "a": 86, "n": 4}, "geometry": {"type": "Point", "coordinates": [408818.64, 5654922.75]}}, {"type": "Feature", "properties": {"k": "bike", "a": 356, "n": 2}, "geometry": {"type": "Point", "coordinates": [408831.03, 5654872.7]}}, {"type": "Feature", "properties": {"k": "bike", "a": 86, "n": 4}, "geometry": {"type": "Point", "coordinates": [408820.03, 5654885.9]}}, {"type": "Feature", "properties": {"k": "bike", "a": 266, "n": 4}, "geometry": {"type": "Point", "coordinates": [408790.44, 5655305.65]}}, {"type": "Feature", "properties": {"k": "bike", "a": 347, "n": 3}, "geometry": {"type": "Point", "coordinates": [408375.96, 5655839.67]}}, {"type": "Feature", "properties": {"k": "bike", "a": 347, "n": 3}, "geometry": {"type": "Point", "coordinates": [408336.16, 5655677.03]}}, {"type": "Feature", "properties": {"k": "playground"}, "geometry": {"type": "Polygon", "coordinates": [[[408740.0, 5655778.82], [408737.78, 5655780.39], [408736.24, 5655782.62], [408735.53, 5655785.24], [408735.76, 5655787.94], [408736.9, 5655790.41], [408738.62, 5655792.21], [408740.83, 5655793.4], [408743.3, 5655793.83], [408745.78, 5655793.48], [408748.02, 5655792.37], [408749.81, 5655790.61], [408750.95, 5655788.39], [408751.34, 5655785.92], [408750.94, 5655783.45], [408749.78, 5655781.23], [408747.81, 5655779.36], [408745.33, 5655778.27], [408742.62, 5655778.08], [408740.0, 5655778.82]]]}}, {"type": "Feature", "properties": {"k": "playground"}, "geometry": {"type": "Polygon", "coordinates": [[[408908.38, 5654964.77], [408915.74, 5654960.52], [408916.92, 5654956.22], [408920.97, 5654949.61], [408933.26, 5654945.11], [408940.38, 5654948.38], [408946.34, 5654945.63], [408943.54, 5654939.23], [408943.22, 5654928.16], [408947.8, 5654921.82], [408941.85, 5654914.84], [408935.44, 5654916.71], [408926.17, 5654913.73], [408921.66, 5654908.15], [408920.14, 5654901.12], [408913.67, 5654900.36], [408908.38, 5654964.77]]]}}, {"type": "Feature", "properties": {"k": "playground"}, "geometry": {"type": "Polygon", "coordinates": [[[409378.37, 5654208.06], [409376.47, 5654211.06], [409376.09, 5654214.51], [409377.51, 5654218.0], [409380.25, 5654220.31], [409383.61, 5654221.34], [409387.1, 5654220.69], [409409.82, 5654200.24], [409411.34, 5654197.95], [409411.21, 5654195.12], [409409.45, 5654192.71], [409406.78, 5654191.7], [409404.06, 5654192.11], [409378.37, 5654208.06]]]}}, {"type": "Feature", "properties": {"k": "playground"}, "geometry": {"type": "Polygon", "coordinates": [[[408311.68, 5655071.35], [408303.45, 5655070.79], [408302.83, 5655078.64], [408311.24, 5655079.1], [408311.68, 5655071.35]]]}}, {"type": "Feature", "properties": {"k": "playground"}, "geometry": {"type": "Polygon", "coordinates": [[[408100.02, 5654482.51], [408099.52, 5654481.55], [408093.21, 5654475.12], [408089.12, 5654484.26], [408107.23, 5654493.49], [408110.05, 5654493.17], [408112.09, 5654491.75], [408114.68, 5654485.62], [408102.42, 5654480.19], [408100.02, 5654482.51]]]}}, {"type": "Feature", "properties": {"k": "playground"}, "geometry": {"type": "Polygon", "coordinates": [[[409344.27, 5655575.2], [409347.51, 5655574.27], [409350.73, 5655571.8], [409352.08, 5655568.1], [409350.66, 5655565.27], [409346.92, 5655563.6], [409342.96, 5655563.32], [409339.07, 5655564.89], [409336.73, 5655566.69], [409336.59, 5655571.46], [409339.25, 5655574.33], [409344.27, 5655575.2]]]}}, {"type": "Feature", "properties": {"k": "playground"}, "geometry": {"type": "Polygon", "coordinates": [[[409320.7, 5655440.86], [409327.05, 5655434.19], [409320.99, 5655428.44], [409314.64, 5655435.13], [409320.7, 5655440.86]]]}}, {"type": "Feature", "properties": {"k": "playground"}, "geometry": {"type": "Polygon", "coordinates": [[[409256.38, 5655642.85], [409257.75, 5655657.57], [409258.48, 5655670.52], [409257.07, 5655703.77], [409220.57, 5655698.91], [409225.63, 5655640.28], [409256.38, 5655642.85]]]}}, {"type": "Feature", "properties": {"k": "playground"}, "geometry": {"type": "Polygon", "coordinates": [[[409167.47, 5655731.24], [409169.88, 5655704.54], [409198.4, 5655707.09], [409196.0, 5655733.79], [409167.47, 5655731.24]]]}}, {"type": "Feature", "properties": {"k": "playground"}, "geometry": {"type": "Polygon", "coordinates": [[[408895.49, 5655437.69], [408897.41, 5655415.63], [408926.52, 5655417.89], [408924.86, 5655439.73], [408895.49, 5655437.69]]]}}, {"type": "Feature", "properties": {"k": "playground"}, "geometry": {"type": "Polygon", "coordinates": [[[409199.93, 5655042.36], [409228.57, 5655051.91], [409226.04, 5655061.91], [409236.67, 5655075.03], [409222.08, 5655106.72], [409224.81, 5655110.53], [409240.38, 5655084.95], [409242.24, 5655079.73], [409254.44, 5655033.78], [409209.61, 5655017.46], [409207.46, 5655023.94], [409199.93, 5655042.36]]]}}, {"type": "Feature", "properties": {"k": "playground"}, "geometry": {"type": "Polygon", "coordinates": [[[408659.11, 5654771.38], [408693.76, 5654774.19], [408697.19, 5654733.04], [408687.91, 5654732.34], [408685.78, 5654753.13], [408660.82, 5654751.0], [408659.11, 5654771.38]]]}}, {"type": "Feature", "properties": {"k": "playground"}, "geometry": {"type": "Polygon", "coordinates": [[[408079.84, 5655514.57], [408082.83, 5655502.92], [408065.33, 5655498.46], [408062.35, 5655510.1], [408079.84, 5655514.57]]]}}, {"type": "Feature", "properties": {"k": "playground"}, "geometry": {"type": "Polygon", "coordinates": [[[408300.7, 5655768.38], [408300.13, 5655769.56], [408300.03, 5655770.65], [408300.35, 5655771.57], [408301.16, 5655772.34], [408355.23, 5655783.94], [408356.44, 5655783.63], [408357.25, 5655781.84], [408338.01, 5655751.55], [408335.28, 5655751.79], [408332.99, 5655751.52], [408330.4, 5655750.66], [408328.19, 5655749.35], [408300.7, 5655768.38]]]}}, {"type": "Feature", "properties": {"k": "playground"}, "geometry": {"type": "Polygon", "coordinates": [[[408339.58, 5655703.71], [408340.28, 5655706.07], [408341.87, 5655707.92], [408344.09, 5655708.97], [408346.54, 5655709.04], [408348.81, 5655708.09], [408350.51, 5655706.32], [408351.32, 5655704.01], [408351.12, 5655701.57], [408349.95, 5655699.42], [408348.0, 5655697.93], [408345.61, 5655697.36], [408343.2, 5655697.81], [408341.18, 5655699.2], [408339.9, 5655701.29], [408339.58, 5655703.71]]]}}, {"type": "Feature", "properties": {"k": "playground"}, "geometry": {"type": "Polygon", "coordinates": [[[408105.17, 5655805.81], [408104.76, 5655802.45], [408105.12, 5655801.23], [408105.98, 5655799.62], [408107.74, 5655798.35], [408111.45, 5655796.74], [408113.51, 5655796.35], [408119.54, 5655796.83], [408121.65, 5655797.85], [408122.69, 5655800.52], [408122.15, 5655802.48], [408118.76, 5655805.73], [408116.15, 5655806.99], [408113.58, 5655807.76], [408110.15, 5655808.2], [408108.57, 5655808.09], [408106.3, 5655807.33], [408105.17, 5655805.81]]]}}, {"type": "Feature", "properties": {"k": "playground"}, "geometry": {"type": "Polygon", "coordinates": [[[408879.64, 5655822.77], [408881.59, 5655822.05], [408883.69, 5655822.11], [408885.6, 5655822.93], [408887.08, 5655824.4], [408887.9, 5655826.31], [408887.97, 5655828.39], [408887.16, 5655830.48], [408885.6, 5655832.09], [408883.53, 5655832.94], [408881.28, 5655832.9], [408879.24, 5655831.98], [408877.73, 5655830.32], [408877.01, 5655828.3], [408877.12, 5655826.15], [408878.04, 5655824.21], [408879.64, 5655822.77]]]}}, {"type": "Feature", "properties": {"k": "playground"}, "geometry": {"type": "Polygon", "coordinates": [[[409132.38, 5655350.61], [409131.75, 5655363.32], [409143.22, 5655363.69], [409144.24, 5655345.43], [409132.38, 5655350.61]]]}}, {"type": "Feature", "properties": {"k": "playground"}, "geometry": {"type": "Polygon", "coordinates": [[[408674.91, 5654899.45], [408677.49, 5654864.47], [408697.86, 5654865.97], [408695.28, 5654900.94], [408674.91, 5654899.45]]]}}, {"type": "Feature", "properties": {"k": "playground"}, "geometry": {"type": "Polygon", "coordinates": [[[408301.74, 5655159.35], [408302.35, 5655154.42], [408309.19, 5655155.27], [408308.58, 5655160.19], [408301.74, 5655159.35]]]}}, {"type": "Feature", "properties": {"k": "playground"}, "geometry": {"type": "Polygon", "coordinates": [[[409040.01, 5654984.63], [409021.53, 5654970.59], [409021.35, 5654963.2], [409034.82, 5654947.52], [409040.55, 5654945.77], [409041.99, 5654951.24], [409040.01, 5654984.63]]]}}, {"type": "Feature", "properties": {"k": "playground"}, "geometry": {"type": "Polygon", "coordinates": [[[409038.27, 5654926.4], [409035.35, 5654924.16], [409029.69, 5654907.75], [409041.98, 5654898.11], [409041.65, 5654924.41], [409038.27, 5654926.4]]]}}, {"type": "Feature", "properties": {"k": "playground"}, "geometry": {"type": "Polygon", "coordinates": [[[408616.93, 5654608.54], [408617.57, 5654596.43], [408628.02, 5654596.98], [408627.38, 5654609.09], [408616.93, 5654608.54]]]}}, {"type": "Feature", "properties": {"k": "playground"}, "geometry": {"type": "Polygon", "coordinates": [[[408737.53, 5655266.82], [408736.16, 5655287.51], [408737.43, 5655288.9], [408745.85, 5655289.59], [408748.21, 5655288.76], [408749.84, 5655287.29], [408750.67, 5655285.04], [408751.76, 5655268.42], [408750.33, 5655266.82], [408739.24, 5655265.86], [408737.53, 5655266.82]]]}}, {"type": "Feature", "properties": {"k": "playground"}, "geometry": {"type": "Polygon", "coordinates": [[[408226.61, 5654933.02], [408226.88, 5654929.3], [408235.07, 5654929.87], [408234.8, 5654933.59], [408226.61, 5654933.02]]]}}, {"type": "Feature", "properties": {"k": "playground"}, "geometry": {"type": "Polygon", "coordinates": [[[408763.59, 5655041.02], [408791.87, 5655042.73], [408789.58, 5655070.21], [408781.72, 5655068.96], [408782.07, 5655056.42], [408777.96, 5655050.14], [408769.31, 5655050.53], [408765.02, 5655052.81], [408763.59, 5655041.02]]]}}, {"type": "Feature", "properties": {"k": "playground"}, "geometry": {"type": "Polygon", "coordinates": [[[408242.47, 5654937.58], [408256.16, 5654938.68], [408254.98, 5654953.15], [408241.3, 5654952.05], [408242.47, 5654937.58]]]}}, {"type": "Feature", "properties": {"k": "playground"}, "geometry": {"type": "Polygon", "coordinates": [[[408342.61, 5655705.89], [408341.7, 5655703.45], [408343.36, 5655699.86], [408347.54, 5655699.42], [408349.41, 5655701.23], [408349.47, 5655704.55], [408345.95, 5655707.18], [408342.61, 5655705.89]]]}}, {"type": "Feature", "properties": {"k": "playground"}, "geometry": {"type": "Polygon", "coordinates": [[[408219.23, 5655763.92], [408219.53, 5655760.11], [408223.74, 5655759.51], [408225.61, 5655762.71], [408222.57, 5655764.96], [408219.23, 5655763.92]]]}}, {"type": "Feature", "properties": {"k": "climb"}, "geometry": {"type": "Point", "coordinates": [408523.11, 5654808.15]}}, {"type": "Feature", "properties": {"k": "sandpit"}, "geometry": {"type": "Point", "coordinates": [408676.04, 5654759.06]}}, {"type": "Feature", "properties": {"k": "swing"}, "geometry": {"type": "Point", "coordinates": [408687.42, 5654764.75]}}, {"type": "Feature", "properties": {"k": "swing"}, "geometry": {"type": "Point", "coordinates": [408913.47, 5654951.38]}}, {"type": "Feature", "properties": {"k": "climb"}, "geometry": {"type": "Point", "coordinates": [408937.5, 5654932.52]}}, {"type": "Feature", "properties": {"k": "climb"}, "geometry": {"type": "Point", "coordinates": [408917.77, 5654906.28]}}, {"type": "Feature", "properties": {"k": "sandpit"}, "geometry": {"type": "Point", "coordinates": [409443.46, 5654160.81]}}, {"type": "Feature", "properties": {"k": "sandpit"}, "geometry": {"type": "Point", "coordinates": [408536.06, 5654691.35]}}, {"type": "Feature", "properties": {"k": "sandpit"}, "geometry": {"type": "Point", "coordinates": [408006.63, 5655066.58]}}, {"type": "Feature", "properties": {"k": "sandpit"}, "geometry": {"type": "Point", "coordinates": [408024.91, 5654960.93]}}, {"type": "Feature", "properties": {"k": "springy"}, "geometry": {"type": "Point", "coordinates": [408682.95, 5654768.24]}}, {"type": "Feature", "properties": {"k": "roundabout"}, "geometry": {"type": "Point", "coordinates": [408691.18, 5654741.69]}}, {"type": "Feature", "properties": {"k": "climb"}, "geometry": {"type": "Point", "coordinates": [408307.24, 5655074.87]}}, {"type": "Feature", "properties": {"k": "playhouse"}, "geometry": {"type": "Point", "coordinates": [408245.27, 5654950.2]}}, {"type": "Feature", "properties": {"k": "climb"}, "geometry": {"type": "Point", "coordinates": [409178.39, 5655723.57]}}, {"type": "Feature", "properties": {"k": "climb"}, "geometry": {"type": "Point", "coordinates": [409186.83, 5655711.51]}}, {"type": "Feature", "properties": {"k": "climb"}, "geometry": {"type": "Point", "coordinates": [409188.07, 5655723.3]}}, {"type": "Feature", "properties": {"k": "swing"}, "geometry": {"type": "Point", "coordinates": [409186.16, 5655716.4]}}, {"type": "Feature", "properties": {"k": "climb"}, "geometry": {"type": "Point", "coordinates": [409233.51, 5655040.47]}}, {"type": "Feature", "properties": {"k": "climb"}, "geometry": {"type": "Point", "coordinates": [409228.37, 5655045.77]}}, {"type": "Feature", "properties": {"k": "climb"}, "geometry": {"type": "Point", "coordinates": [409235.69, 5655050.45]}}, {"type": "Feature", "properties": {"k": "climb"}, "geometry": {"type": "Point", "coordinates": [409234.63, 5655059.1]}}, {"type": "Feature", "properties": {"k": "climb"}, "geometry": {"type": "Point", "coordinates": [409408.2, 5654196.03]}}, {"type": "Feature", "properties": {"k": "seesaw"}, "geometry": {"type": "Point", "coordinates": [409379.05, 5654210.39]}}, {"type": "Feature", "properties": {"k": "climb"}, "geometry": {"type": "Point", "coordinates": [409384.23, 5654213.67]}}, {"type": "Feature", "properties": {"k": "roundabout"}, "geometry": {"type": "Point", "coordinates": [409379.69, 5654216.43]}}, {"type": "Feature", "properties": {"k": "climb"}, "geometry": {"type": "Point", "coordinates": [408111.67, 5655804.82]}}, {"type": "Feature", "properties": {"k": "sandpit"}, "geometry": {"type": "Point", "coordinates": [408306.71, 5655157.96]}}, {"type": "Feature", "properties": {"k": "springy"}, "geometry": {"type": "Point", "coordinates": [408303.21, 5655157.55]}}, {"type": "Feature", "properties": {"k": "sandpit"}, "geometry": {"type": "Point", "coordinates": [408331.2, 5655767.94]}}, {"type": "Feature", "properties": {"k": "seesaw"}, "geometry": {"type": "Point", "coordinates": [408348.38, 5655778.07]}}, {"type": "Feature", "properties": {"k": "springy"}, "geometry": {"type": "Point", "coordinates": [408309.47, 5655769.15]}}, {"type": "Feature", "properties": {"k": "springy"}, "geometry": {"type": "Point", "coordinates": [408319.11, 5655763.64]}}, {"type": "Feature", "properties": {"k": "climb"}, "geometry": {"type": "Point", "coordinates": [408331.37, 5655766.09]}}, {"type": "Feature", "properties": {"k": "slide"}, "geometry": {"type": "Point", "coordinates": [408329.35, 5655765.71]}}, {"type": "Feature", "properties": {"k": "slide"}, "geometry": {"type": "Point", "coordinates": [409033.77, 5654961.37]}}, {"type": "Feature", "properties": {"k": "seesaw"}, "geometry": {"type": "Point", "coordinates": [408927.33, 5654931.47]}}, {"type": "Feature", "properties": {"k": "seesaw"}, "geometry": {"type": "Point", "coordinates": [409031.54, 5654969.77]}}, {"type": "Feature", "properties": {"k": "roundabout"}, "geometry": {"type": "Point", "coordinates": [409035.87, 5654975.23]}}, {"type": "Feature", "properties": {"k": "springy"}, "geometry": {"type": "Point", "coordinates": [409036.8, 5654959.12]}}, {"type": "Feature", "properties": {"k": "sandpit"}, "geometry": {"type": "Point", "coordinates": [408517.08, 5654891.23]}}, {"type": "Feature", "properties": {"k": "sandpit"}, "geometry": {"type": "Point", "coordinates": [409038.09, 5654917.92]}}, {"type": "Feature", "properties": {"k": "playhouse"}, "geometry": {"type": "Point", "coordinates": [409036.75, 5654905.75]}}, {"type": "Feature", "properties": {"k": "springy"}, "geometry": {"type": "Point", "coordinates": [409037.76, 5654910.05]}}, {"type": "Feature", "properties": {"k": "sandpit"}, "geometry": {"type": "Point", "coordinates": [408344.57, 5654862.01]}}, {"type": "Feature", "properties": {"k": "sandpit"}, "geometry": {"type": "Point", "coordinates": [408620.23, 5654601.91]}}, {"type": "Feature", "properties": {"k": "seesaw"}, "geometry": {"type": "Point", "coordinates": [408624.95, 5654602.76]}}, {"type": "Feature", "properties": {"k": "springy"}, "geometry": {"type": "Point", "coordinates": [408623.54, 5654597.51]}}, {"type": "Feature", "properties": {"k": "roundabout"}, "geometry": {"type": "Point", "coordinates": [408916.96, 5654934.52]}}, {"type": "Feature", "properties": {"k": "climb"}, "geometry": {"type": "Point", "coordinates": [408911.92, 5654959.4]}}, {"type": "Feature", "properties": {"k": "sandpit"}, "geometry": {"type": "Point", "coordinates": [408251.2, 5654985.04]}}, {"type": "Feature", "properties": {"k": "sandpit"}, "geometry": {"type": "Point", "coordinates": [408860.42, 5655819.92]}}, {"type": "Feature", "properties": {"k": "roundabout"}, "geometry": {"type": "Point", "coordinates": [408865.87, 5655824.01]}}, {"type": "Feature", "properties": {"k": "swing"}, "geometry": {"type": "Point", "coordinates": [408871.08, 5655828.53]}}, {"type": "Feature", "properties": {"k": "swing"}, "geometry": {"type": "Point", "coordinates": [408873.8, 5655828.52]}}, {"type": "Feature", "properties": {"k": "seesaw"}, "geometry": {"type": "Point", "coordinates": [408879.09, 5655813.33]}}, {"type": "Feature", "properties": {"k": "climb"}, "geometry": {"type": "Point", "coordinates": [408346.01, 5655703.25]}}, {"type": "Feature", "properties": {"k": "seesaw"}, "geometry": {"type": "Point", "coordinates": [408101.75, 5654489.08]}}, {"type": "Feature", "properties": {"k": "sandpit"}, "geometry": {"type": "Point", "coordinates": [408106.57, 5654487.06]}}, {"type": "Feature", "properties": {"k": "climb"}, "geometry": {"type": "Point", "coordinates": [408093.95, 5654480.5]}}, {"type": "Feature", "properties": {"k": "slide"}, "geometry": {"type": "Point", "coordinates": [409320.27, 5655434.35]}}, {"type": "Feature", "properties": {"k": "sandpit"}, "geometry": {"type": "Polygon", "coordinates": [[[408243.21, 5654950.38], [408243.67, 5654946.51], [408247.65, 5654946.66], [408247.4, 5654950.59], [408243.21, 5654950.38]]]}}, {"type": "Feature", "properties": {"k": "sandpit"}, "geometry": {"type": "Polygon", "coordinates": [[[408305.72, 5655076.82], [408306.13, 5655073.15], [408309.9, 5655073.46], [408309.49, 5655077.12], [408305.72, 5655076.82]]]}}, {"type": "Feature", "properties": {"k": "sandpit"}, "geometry": {"type": "Polygon", "coordinates": [[[409182.66, 5655725.65], [409185.47, 5655719.79], [409190.08, 5655719.62], [409193.14, 5655722.84], [409188.97, 5655726.1], [409182.66, 5655725.65]]]}}, {"type": "Feature", "properties": {"k": "sandpit"}, "geometry": {"type": "Polygon", "coordinates": [[[408748.65, 5654949.93], [408755.52, 5654935.95], [408759.68, 5654937.55], [408753.67, 5654951.98], [408748.65, 5654949.93]]]}}, {"type": "Feature", "properties": {"k": "sandpit"}, "geometry": {"type": "Polygon", "coordinates": [[[408234.49, 5654960.8], [408234.57, 5654958.88], [408236.46, 5654958.96], [408236.37, 5654960.88], [408234.49, 5654960.8]]]}}]}