{"type": "FeatureCollection", "crs": {"type": "name", "properties": {"name": "urn:ogc:def:crs:EPSG::25833"}}, "features": [{"type": "Feature", "properties": {"h": 5.0}, "geometry": {"type": "Point", "coordinates": [412215.5, 5655945.3]}}, {"type": "Feature", "properties": {"h": 5.0}, "geometry": {"type": "Point", "coordinates": [412180.6, 5655966.3]}}, {"type": "Feature", "properties": {"h": 5.0}, "geometry": {"type": "Point", "coordinates": [412139.7, 5655986.7]}}, {"type": "Feature", "properties": {"h": 5.0}, "geometry": {"type": "Point", "coordinates": [412158.2, 5656014.9]}}, {"type": "Feature", "properties": {"h": 5.0}, "geometry": {"type": "Point", "coordinates": [412114.1, 5655996.0]}}, {"type": "Feature", "properties": {"h": 5.0}, "geometry": {"type": "Point", "coordinates": [412131.6, 5656034.4]}}, {"type": "Feature", "properties": {"h": 5.0}, "geometry": {"type": "Point", "coordinates": [412291.4, 5656042.3]}}, {"type": "Feature", "properties": {"h": 5.0}, "geometry": {"type": "Point", "coordinates": [411942.9, 5655959.8]}}, {"type": "Feature", "properties": {"h": 5.0}, "geometry": {"type": "Point", "coordinates": [411955.7, 5655984.6]}}, {"type": "Feature", "properties": {"h": 5.0}, "geometry": {"type": "Point", "coordinates": [411966.6, 5656004.3]}}, {"type": "Feature", "properties": {"h": 5.0}, "geometry": {"type": "Point", "coordinates": [411956.0, 5656456.6]}}, {"type": "Feature", "properties": {"h": 5.0}, "geometry": {"type": "Point", "coordinates": [411948.7, 5656461.3]}}, {"type": "Feature", "properties": {"h": 5.0}, "geometry": {"type": "Point", "coordinates": [411943.8, 5656466.5]}}, {"type": "Feature", "properties": {"h": 5.0}, "geometry": {"type": "Point", "coordinates": [411940.0, 5656474.2]}}, {"type": "Feature", "properties": {"h": 5.0}, "geometry": {"type": "Point", "coordinates": [411950.1, 5656510.6]}}, {"type": "Feature", "properties": {"h": 5.0}, "geometry": {"type": "Point", "coordinates": [412124.7, 5656520.0]}}, {"type": "Feature", "properties": {"h": 5.0}, "geometry": {"type": "Point", "coordinates": [412096.5, 5656520.7]}}, {"type": "Feature", "properties": {"h": 5.0}, "geometry": {"type": "Point", "coordinates": [412068.3, 5656522.4]}}, {"type": "Feature", "properties": {"h": 5.0}, "geometry": {"type": "Point", "coordinates": [412041.6, 5656523.9]}}, {"type": "Feature", "properties": {"h": 5.0}, "geometry": {"type": "Point", "coordinates": [412013.7, 5656525.4]}}, {"type": "Feature", "properties": {"h": 5.0}, "geometry": {"type": "Point", "coordinates": [411984.6, 5656527.5]}}, {"type": "Feature", "properties": {"h": 5.0}, "geometry": {"type": "Point", "coordinates": [411958.0, 5656528.6]}}, {"type": "Feature", "properties": {"h": 5.0}, "geometry": {"type": "Point", "coordinates": [411971.3, 5656459.0]}}, {"type": "Feature", "properties": {"h": 5.0}, "geometry": {"type": "Point", "coordinates": [411970.3, 5656506.3]}}, {"type": "Feature", "properties": {"h": 5.0}, "geometry": {"type": "Point", "coordinates": [411952.7, 5656507.6]}}, {"type": "Feature", "properties": {"h": 5.0}, "geometry": {"type": "Point", "coordinates": [412076.6, 5656387.8]}}, {"type": "Feature", "properties": {"h": 5.0}, "geometry": {"type": "Point", "coordinates": [412098.4, 5656066.4]}}, {"type": "Feature", "properties": {"h": 5.0}, "geometry": {"type": "Point", "coordinates": [412015.8, 5656155.3]}}, {"type": "Feature", "properties": {"h": 5.0}, "geometry": {"type": "Point", "coordinates": [412038.4, 5656199.9]}}, {"type": "Feature", "properties": {"h": 5.0}, "geometry": {"type": "Point", "coordinates": [412015.3, 5656213.5]}}, {"type": "Feature", "properties": {"h": 5.0}, "geometry": {"type": "Point", "coordinates": [411990.7, 5656165.0]}}, {"type": "Feature", "properties": {"h": 5.0}, "geometry": {"type": "Point", "coordinates": [411973.3, 5656133.6]}}, {"type": "Feature", "properties": {"h": 5.0}, "geometry": {"type": "Point", "coordinates": [412088.6, 5656207.5]}}, {"type": "Feature", "properties": {"h": 5.0}, "geometry": {"type": "Point", "coordinates": [412072.2, 5656179.1]}}, {"type": "Feature", "properties": {"h": 5.0}, "geometry": {"type": "Point", "coordinates": [412046.6, 5656151.3]}}, {"type": "Feature", "properties": {"h": 5.0}, "geometry": {"type": "Point", "coordinates": [411996.9, 5656119.8]}}, {"type": "Feature", "properties": {"h": 5.0}, "geometry": {"type": "Point", "coordinates": [412060.7, 5656103.0]}}, {"type": "Feature", "properties": {"h": 5.0}, "geometry": {"type": "Point", "coordinates": [412042.4, 5656113.1]}}, {"type": "Feature", "properties": {"h": 5.0}, "geometry": {"type": "Point", "coordinates": [412072.8, 5656124.7]}}, {"type": "Feature", "properties": {"h": 5.0}, "geometry": {"type": "Point", "coordinates": [412057.8, 5656133.4]}}, {"type": "Feature", "properties": {"h": 5.0}, "geometry": {"type": "Point", "coordinates": [412085.2, 5656147.0]}}, {"type": "Feature", "properties": {"h": 5.0}, "geometry": {"type": "Point", "coordinates": [412095.7, 5656170.9]}}, {"type": "Feature", "properties": {"h": 5.0}, "geometry": {"type": "Point", "coordinates": [412109.5, 5656196.2]}}, {"type": "Feature", "properties": {"h": 5.0}, "geometry": {"type": "Point", "coordinates": [412135.5, 5656240.9]}}, {"type": "Feature", "properties": {"h": 5.0}, "geometry": {"type": "Point", "coordinates": [412246.4, 5656284.4]}}, {"type": "Feature", "properties": {"h": 5.0}, "geometry": {"type": "Point", "coordinates": [412241.4, 5656262.6]}}, {"type": "Feature", "properties": {"h": 5.0}, "geometry": {"type": "Point", "coordinates": [412270.4, 5656269.8]}}, {"type": "Feature", "properties": {"h": 5.0}, "geometry": {"type": "Point", "coordinates": [412263.4, 5656258.0]}}, {"type": "Feature", "properties": {"h": 5.0}, "geometry": {"type": "Point", "coordinates": [412286.6, 5656253.6]}}, {"type": "Feature", "properties": {"h": 5.0}, "geometry": {"type": "Point", "coordinates": [412287.8, 5656263.8]}}, {"type": "Feature", "properties": {"h": 5.0}, "geometry": {"type": "Point", "coordinates": [412340.0, 5656242.8]}}, {"type": "Feature", "properties": {"h": 5.0}, "geometry": {"type": "Point", "coordinates": [412341.6, 5656249.2]}}, {"type": "Feature", "properties": {"h": 5.0}, "geometry": {"type": "Point", "coordinates": [412275.3, 5656051.5]}}, {"type": "Feature", "properties": {"h": 5.0}, "geometry": {"type": "Point", "coordinates": [412259.2, 5656061.0]}}, {"type": "Feature", "properties": {"h": 5.0}, "geometry": {"type": "Point", "coordinates": [412243.4, 5656070.3]}}, {"type": "Feature", "properties": {"h": 5.0}, "geometry": {"type": "Point", "coordinates": [412227.2, 5656079.5]}}, {"type": "Feature", "properties": {"h": 5.0}, "geometry": {"type": "Point", "coordinates": [412211.6, 5656089.1]}}, {"type": "Feature", "properties": {"h": 5.0}, "geometry": {"type": "Point", "coordinates": [412175.9, 5656106.8]}}, {"type": "Feature", "properties": {"h": 5.0}, "geometry": {"type": "Point", "coordinates": [412179.5, 5656107.5]}}, {"type": "Feature", "properties": {"h": 5.0}, "geometry": {"type": "Point", "coordinates": [412163.1, 5656114.0]}}, {"type": "Feature", "properties": {"h": 5.0}, "geometry": {"type": "Point", "coordinates": [412146.1, 5656123.8]}}, {"type": "Feature", "properties": {"h": 5.0}, "geometry": {"type": "Point", "coordinates": [412166.6, 5656091.4]}}, {"type": "Feature", "properties": {"h": 5.0}, "geometry": {"type": "Point", "coordinates": [412174.1, 5656075.1]}}, {"type": "Feature", "properties": {"h": 5.0}, "geometry": {"type": "Point", "coordinates": [412169.2, 5656058.5]}}, {"type": "Feature", "properties": {"h": 5.0}, "geometry": {"type": "Point", "coordinates": [412171.4, 5656063.5]}}, {"type": "Feature", "properties": {"h": 5.0}, "geometry": {"type": "Point", "coordinates": [412217.2, 5656166.7]}}, {"type": "Feature", "properties": {"h": 5.0}, "geometry": {"type": "Point", "coordinates": [412201.6, 5656138.4]}}, {"type": "Feature", "properties": {"h": 5.0}, "geometry": {"type": "Point", "coordinates": [412234.5, 5656196.7]}}, {"type": "Feature", "properties": {"h": 5.0}, "geometry": {"type": "Point", "coordinates": [412296.4, 5656199.9]}}, {"type": "Feature", "properties": {"h": 5.0}, "geometry": {"type": "Point", "coordinates": [411952.2, 5656411.1]}}, {"type": "Feature", "properties": {"h": 5.0}, "geometry": {"type": "Point", "coordinates": [411956.6, 5656444.0]}}, {"type": "Feature", "properties": {"h": 5.0}, "geometry": {"type": "Point", "coordinates": [411938.2, 5656423.3]}}, {"type": "Feature", "properties": {"h": 5.0}, "geometry": {"type": "Point", "coordinates": [412039.9, 5656411.7]}}, {"type": "Feature", "properties": {"h": 5.0}, "geometry": {"type": "Point", "coordinates": [412035.1, 5656432.0]}}, {"type": "Feature", "properties": {"h": 5.0}, "geometry": {"type": "Point", "coordinates": [412055.5, 5656426.7]}}, {"type": "Feature", "properties": {"h": 5.0}, "geometry": {"type": "Point", "coordinates": [412050.8, 5656438.7]}}, {"type": "Feature", "properties": {"h": 5.0}, "geometry": {"type": "Point", "coordinates": [412023.4, 5656392.4]}}, {"type": "Feature", "properties": {"h": 5.0}, "geometry": {"type": "Point", "coordinates": [412047.3, 5656394.5]}}, {"type": "Feature", "properties": {"h": 5.0}, "geometry": {"type": "Point", "coordinates": [411998.1, 5656444.5]}}, {"type": "Feature", "properties": {"h": 5.0}, "geometry": {"type": "Point", "coordinates": [412008.5, 5656480.1]}}, {"type": "Feature", "properties": {"h": 5.0}, "geometry": {"type": "Point", "coordinates": [412046.9, 5656473.1]}}, {"type": "Feature", "properties": {"h": 5.0}, "geometry": {"type": "Point", "coordinates": [412058.9, 5656452.8]}}, {"type": "Feature", "properties": {"h": 5.0}, "geometry": {"type": "Point", "coordinates": [411985.1, 5656436.3]}}, {"type": "Feature", "properties": {"h": 5.0}, "geometry": {"type": "Point", "coordinates": [411982.1, 5656466.2]}}, {"type": "Feature", "properties": {"h": 5.0}, "geometry": {"type": "Point", "coordinates": [411958.5, 5656474.0]}}, {"type": "Feature", "properties": {"h": 5.0}, "geometry": {"type": "Point", "coordinates": [411945.3, 5656486.2]}}, {"type": "Feature", "properties": {"h": 5.0}, "geometry": {"type": "Point", "coordinates": [412768.1, 5656033.0]}}, {"type": "Feature", "properties": {"h": 5.0}, "geometry": {"type": "Point", "coordinates": [412731.5, 5656034.8]}}, {"type": "Feature", "properties": {"h": 5.0}, "geometry": {"type": "Point", "coordinates": [412713.1, 5655980.0]}}, {"type": "Feature", "properties": {"h": 5.0}, "geometry": {"type": "Point", "coordinates": [412707.6, 5655963.4]}}, {"type": "Feature", "properties": {"h": 5.0}, "geometry": {"type": "Point", "coordinates": [412513.8, 5655936.9]}}, {"type": "Feature", "properties": {"h": 5.0}, "geometry": {"type": "Point", "coordinates": [412452.0, 5655958.7]}}, {"type": "Feature", "properties": {"h": 5.0}, "geometry": {"type": "Point", "coordinates": [412420.4, 5655970.9]}}, {"type": "Feature", "properties": {"h": 5.0}, "geometry": {"type": "Point", "coordinates": [412391.0, 5655982.0]}}, {"type": "Feature", "properties": {"h": 5.0}, "geometry": {"type": "Point", "coordinates": [412362.2, 5655993.5]}}, {"type": "Feature", "properties": {"h": 5.0}, "geometry": {"type": "Point", "coordinates": [412445.3, 5656043.1]}}, {"type": "Feature", "properties": {"h": 5.0}, "geometry": {"type": "Point", "coordinates": [412549.9, 5655996.0]}}, {"type": "Feature", "properties": {"h": 5.0}, "geometry": {"type": "Point", "coordinates": [412541.8, 5655971.2]}}, {"type": "Feature", "properties": {"h": 5.0}, "geometry": {"type": "Point", "coordinates": [412531.9, 5655943.7]}}, {"type": "Feature", "properties": {"h": 5.0}, "geometry": {"type": "Point", "coordinates": [412819.5, 5655941.9]}}, {"type": "Feature", "properties": {"h": 5.0}, "geometry": {"type": "Point", "coordinates": [412846.0, 5655964.5]}}, {"type": "Feature", "properties": {"h": 5.0}, "geometry": {"type": "Point", "coordinates": [412831.7, 5655969.2]}}, {"type": "Feature", "properties": {"h": 5.0}, "geometry": {"type": "Point", "coordinates": [412842.2, 5655997.7]}}, {"type": "Feature", "properties": {"h": 5.0}, "geometry": {"type": "Point", "coordinates": [412868.1, 5656019.6]}}, {"type": "Feature", "properties": {"h": 5.0}, "geometry": {"type": "Point", "coordinates": [412789.3, 5656114.0]}}, {"type": "Feature", "properties": {"h": 5.0}, "geometry": {"type": "Point", "coordinates": [412770.3, 5656113.8]}}, {"type": "Feature", "properties": {"h": 5.0}, "geometry": {"type": "Point", "coordinates": [412756.0, 5656121.3]}}, {"type": "Feature", "properties": {"h": 5.0}, "geometry": {"type": "Point", "coordinates": [412736.6, 5656124.7]}}, {"type": "Feature", "properties": {"h": 5.0}, "geometry": {"type": "Point", "coordinates": [412697.5, 5656132.9]}}, {"type": "Feature", "properties": {"h": 5.0}, "geometry": {"type": "Point", "coordinates": [412678.7, 5656137.4]}}, {"type": "Feature", "properties": {"h": 5.0}, "geometry": {"type": "Point", "coordinates": [412659.4, 5656142.7]}}, {"type": "Feature", "properties": {"h": 5.0}, "geometry": {"type": "Point", "coordinates": [412640.2, 5656147.7]}}, {"type": "Feature", "properties": {"h": 5.0}, "geometry": {"type": "Point", "coordinates": [412580.5, 5656165.5]}}, {"type": "Feature", "properties": {"h": 5.0}, "geometry": {"type": "Point", "coordinates": [412560.6, 5656173.2]}}, {"type": "Feature", "properties": {"h": 5.0}, "geometry": {"type": "Point", "coordinates": [412541.4, 5656180.7]}}, {"type": "Feature", "properties": {"h": 5.0}, "geometry": {"type": "Point", "coordinates": [412523.4, 5656187.8]}}, {"type": "Feature", "properties": {"h": 5.0}, "geometry": {"type": "Point", "coordinates": [412504.7, 5656195.7]}}, {"type": "Feature", "properties": {"h": 5.0}, "geometry": {"type": "Point", "coordinates": [412468.9, 5656208.7]}}, {"type": "Feature", "properties": {"h": 5.0}, "geometry": {"type": "Point", "coordinates": [412701.3, 5656207.0]}}, {"type": "Feature", "properties": {"h": 5.0}, "geometry": {"type": "Point", "coordinates": [412435.2, 5656215.9]}}, {"type": "Feature", "properties": {"h": 5.0}, "geometry": {"type": "Point", "coordinates": [412669.1, 5656214.8]}}, {"type": "Feature", "properties": {"h": 5.0}, "geometry": {"type": "Point", "coordinates": [412400.6, 5656222.7]}}, {"type": "Feature", "properties": {"h": 5.0}, "geometry": {"type": "Point", "coordinates": [412635.9, 5656220.4]}}, {"type": "Feature", "properties": {"h": 5.0}, "geometry": {"type": "Point", "coordinates": [412648.2, 5656272.1]}}, {"type": "Feature", "properties": {"h": 5.0}, "geometry": {"type": "Point", "coordinates": [412660.5, 5656323.3]}}, {"type": "Feature", "properties": {"h": 5.0}, "geometry": {"type": "Point", "coordinates": [412731.0, 5656323.9]}}, {"type": "Feature", "properties": {"h": 5.0}, "geometry": {"type": "Point", "coordinates": [412662.8, 5656405.4]}}, {"type": "Feature", "properties": {"h": 5.0}, "geometry": {"type": "Point", "coordinates": [412668.9, 5656455.0]}}, {"type": "Feature", "properties": {"h": 5.0}, "geometry": {"type": "Point", "coordinates": [412704.8, 5656468.9]}}, {"type": "Feature", "properties": {"h": 5.0}, "geometry": {"type": "Point", "coordinates": [412740.5, 5656482.8]}}, {"type": "Feature", "properties": {"h": 5.0}, "geometry": {"type": "Point", "coordinates": [412776.7, 5656495.5]}}, {"type": "Feature", "properties": {"h": 5.0}, "geometry": {"type": "Point", "coordinates": [412753.6, 5656410.4]}}, {"type": "Feature", "properties": {"h": 5.0}, "geometry": {"type": "Point", "coordinates": [412644.7, 5656439.5]}}, {"type": "Feature", "properties": {"h": 5.0}, "geometry": {"type": "Point", "coordinates": [412367.1, 5656238.3]}}, {"type": "Feature", "properties": {"h": 5.0}, "geometry": {"type": "Point", "coordinates": [412423.7, 5656241.4]}}, {"type": "Feature", "properties": {"h": 5.0}, "geometry": {"type": "Point", "coordinates": [412441.4, 5656263.8]}}, {"type": "Feature", "properties": {"h": 5.0}, "geometry": {"type": "Point", "coordinates": [412460.8, 5656258.8]}}, {"type": "Feature", "properties": {"h": 5.0}, "geometry": {"type": "Point", "coordinates": [412478.7, 5656254.5]}}, {"type": "Feature", "properties": {"h": 5.0}, "geometry": {"type": "Point", "coordinates": [412479.4, 5656236.5]}}, {"type": "Feature", "properties": {"h": 5.0}, "geometry": {"type": "Point", "coordinates": [412461.0, 5656241.0]}}, {"type": "Feature", "properties": {"h": 5.0}, "geometry": {"type": "Point", "coordinates": [412444.2, 5656245.2]}}, {"type": "Feature", "properties": {"h": 5.0}, "geometry": {"type": "Point", "coordinates": [412429.2, 5656249.0]}}, {"type": "Feature", "properties": {"h": 5.0}, "geometry": {"type": "Point", "coordinates": [412510.4, 5656264.1]}}, {"type": "Feature", "properties": {"h": 5.0}, "geometry": {"type": "Point", "coordinates": [412500.6, 5656281.1]}}, {"type": "Feature", "properties": {"h": 5.0}, "geometry": {"type": "Point", "coordinates": [412507.2, 5656320.1]}}, {"type": "Feature", "properties": {"h": 5.0}, "geometry": {"type": "Point", "coordinates": [412789.7, 5656048.8]}}, {"type": "Feature", "properties": {"h": 5.0}, "geometry": {"type": "Point", "coordinates": [412750.8, 5656092.4]}}, {"type": "Feature", "properties": {"h": 5.0}, "geometry": {"type": "Point", "coordinates": [412415.6, 5656098.6]}}, {"type": "Feature", "properties": {"h": 5.0}, "geometry": {"type": "Point", "coordinates": [412444.4, 5656088.2]}}, {"type": "Feature", "properties": {"h": 5.0}, "geometry": {"type": "Point", "coordinates": [412460.8, 5656103.6]}}, {"type": "Feature", "properties": {"h": 5.0}, "geometry": {"type": "Point", "coordinates": [412492.6, 5656090.9]}}, {"type": "Feature", "properties": {"h": 5.0}, "geometry": {"type": "Point", "coordinates": [412403.0, 5656058.9]}}, {"type": "Feature", "properties": {"h": 5.0}, "geometry": {"type": "Point", "coordinates": [412361.2, 5656074.4]}}, {"type": "Feature", "properties": {"h": 5.0}, "geometry": {"type": "Point", "coordinates": [412863.7, 5656053.7]}}, {"type": "Feature", "properties": {"h": 5.0}, "geometry": {"type": "Point", "coordinates": [412888.3, 5656075.3]}}, {"type": "Feature", "properties": {"h": 5.0}, "geometry": {"type": "Point", "coordinates": [412865.8, 5656089.0]}}, {"type": "Feature", "properties": {"h": 5.0}, "geometry": {"type": "Point", "coordinates": [412846.4, 5656095.3]}}, {"type": "Feature", "properties": {"h": 5.0}, "geometry": {"type": "Point", "coordinates": [412808.4, 5656107.5]}}, {"type": "Feature", "properties": {"h": 5.0}, "geometry": {"type": "Point", "coordinates": [412814.6, 5656509.1]}}, {"type": "Feature", "properties": {"h": 5.0}, "geometry": {"type": "Point", "coordinates": [412903.6, 5656078.6]}}, {"type": "Feature", "properties": {"h": 5.0}, "geometry": {"type": "Point", "coordinates": [413175.1, 5656426.9]}}, {"type": "Feature", "properties": {"h": 5.0}, "geometry": {"type": "Point", "coordinates": [413170.6, 5656397.5]}}, {"type": "Feature", "properties": {"h": 5.0}, "geometry": {"type": "Point", "coordinates": [413127.5, 5656381.2]}}, {"type": "Feature", "properties": {"h": 5.0}, "geometry": {"type": "Point", "coordinates": [413133.8, 5656411.0]}}, {"type": "Feature", "properties": {"h": 5.0}, "geometry": {"type": "Point", "coordinates": [413138.1, 5656434.3]}}, {"type": "Feature", "properties": {"h": 5.0}, "geometry": {"type": "Point", "coordinates": [413155.4, 5656375.4]}}, {"type": "Feature", "properties": {"h": 5.0}, "geometry": {"type": "Point", "coordinates": [413112.4, 5656415.7]}}, {"type": "Feature", "properties": {"h": 5.0}, "geometry": {"type": "Point", "coordinates": [413109.6, 5656399.7]}}, {"type": "Feature", "properties": {"h": 5.0}, "geometry": {"type": "Point", "coordinates": [413115.7, 5656431.7]}}, {"type": "Feature", "properties": {"h": 5.0}, "geometry": {"type": "Point", "coordinates": [413219.1, 5656707.2]}}, {"type": "Feature", "properties": {"h": 5.0}, "geometry": {"type": "Point", "coordinates": [413310.4, 5656339.6]}}, {"type": "Feature", "properties": {"h": 5.0}, "geometry": {"type": "Point", "coordinates": [413293.5, 5656343.2]}}, {"type": "Feature", "properties": {"h": 5.0}, "geometry": {"type": "Point", "coordinates": [413269.5, 5656349.8]}}, {"type": "Feature", "properties": {"h": 5.0}, "geometry": {"type": "Point", "coordinates": [412122.9, 5657205.3]}}, {"type": "Feature", "properties": {"h": 5.0}, "geometry": {"type": "Point", "coordinates": [412358.0, 5657162.1]}}, {"type": "Feature", "properties": {"h": 5.0}, "geometry": {"type": "Point", "coordinates": [412356.0, 5657138.4]}}, {"type": "Feature", "properties": {"h": 5.0}, "geometry": {"type": "Point", "coordinates": [412327.9, 5657115.5]}}, {"type": "Feature", "properties": {"h": 5.0}, "geometry": {"type": "Point", "coordinates": [412310.7, 5657100.6]}}, {"type": "Feature", "properties": {"h": 5.0}, "geometry": {"type": "Point", "coordinates": [412312.6, 5657073.7]}}, {"type": "Feature", "properties": {"h": 5.0}, "geometry": {"type": "Point", "coordinates": [412289.4, 5657089.2]}}, {"type": "Feature", "properties": {"h": 5.0}, "geometry": {"type": "Point", "coordinates": [412274.1, 5657108.4]}}, {"type": "Feature", "properties": {"h": 5.0}, "geometry": {"type": "Point", "coordinates": [412237.9, 5657149.9]}}, {"type": "Feature", "properties": {"h": 5.0}, "geometry": {"type": "Point", "coordinates": [412243.6, 5657166.2]}}, {"type": "Feature", "properties": {"h": 5.0}, "geometry": {"type": "Point", "coordinates": [412244.7, 5657130.5]}}, {"type": "Feature", "properties": {"h": 5.0}, "geometry": {"type": "Point", "coordinates": [412228.5, 5657116.4]}}, {"type": "Feature", "properties": {"h": 5.0}, "geometry": {"type": "Point", "coordinates": [412211.9, 5657112.2]}}, {"type": "Feature", "properties": {"h": 5.0}, "geometry": {"type": "Point", "coordinates": [412197.6, 5657100.2]}}, {"type": "Feature", "properties": {"h": 5.0}, "geometry": {"type": "Point", "coordinates": [412173.1, 5657076.5]}}, {"type": "Feature", "properties": {"h": 5.0}, "geometry": {"type": "Point", "coordinates": [412186.4, 5657081.9]}}, {"type": "Feature", "properties": {"h": 5.0}, "geometry": {"type": "Point", "coordinates": [412090.3, 5657510.2]}}, {"type": "Feature", "properties": {"h": 5.0}, "geometry": {"type": "Point", "coordinates": [412128.5, 5657498.3]}}, {"type": "Feature", "properties": {"h": 5.0}, "geometry": {"type": "Point", "coordinates": [412102.8, 5657496.5]}}, {"type": "Feature", "properties": {"h": 5.0}, "geometry": {"type": "Point", "coordinates": [412154.6, 5657491.2]}}, {"type": "Feature", "properties": {"h": 5.0}, "geometry": {"type": "Point", "coordinates": [412174.9, 5657499.6]}}, {"type": "Feature", "properties": {"h": 5.0}, "geometry": {"type": "Point", "coordinates": [412194.5, 5657330.2]}}, {"type": "Feature", "properties": {"h": 5.0}, "geometry": {"type": "Point", "coordinates": [412170.1, 5657315.2]}}, {"type": "Feature", "properties": {"h": 5.0}, "geometry": {"type": "Point", "coordinates": [412121.7, 5657336.3]}}, {"type": "Feature", "properties": {"h": 5.0}, "geometry": {"type": "Point", "coordinates": [412119.7, 5657392.1]}}, {"type": "Feature", "properties": {"h": 5.0}, "geometry": {"type": "Point", "coordinates": [412114.1, 5657449.2]}}, {"type": "Feature", "properties": {"h": 5.0}, "geometry": {"type": "Point", "coordinates": [412112.4, 5657477.8]}}, {"type": "Feature", "properties": {"h": 5.0}, "geometry": {"type": "Point", "coordinates": [412123.2, 5657279.4]}}, {"type": "Feature", "properties": {"h": 5.0}, "geometry": {"type": "Point", "coordinates": [412139.5, 5657260.4]}}, {"type": "Feature", "properties": {"h": 5.0}, "geometry": {"type": "Point", "coordinates": [412105.2, 5657226.5]}}, {"type": "Feature", "properties": {"h": 5.0}, "geometry": {"type": "Point", "coordinates": [412102.8, 5657265.8]}}, {"type": "Feature", "properties": {"h": 5.0}, "geometry": {"type": "Point", "coordinates": [412108.8, 5657253.3]}}, {"type": "Feature", "properties": {"h": 5.0}, "geometry": {"type": "Point", "coordinates": [412090.0, 5657275.7]}}, {"type": "Feature", "properties": {"h": 5.0}, "geometry": {"type": "Point", "coordinates": [412058.6, 5657294.6]}}, {"type": "Feature", "properties": {"h": 5.0}, "geometry": {"type": "Point", "coordinates": [412028.2, 5657318.0]}}, {"type": "Feature", "properties": {"h": 5.0}, "geometry": {"type": "Point", "coordinates": [412007.6, 5657332.9]}}, {"type": "Feature", "properties": {"h": 5.0}, "geometry": {"type": "Point", "coordinates": [411978.1, 5657354.1]}}, {"type": "Feature", "properties": {"h": 5.0}, "geometry": {"type": "Point", "coordinates": [411961.1, 5657365.9]}}, {"type": "Feature", "properties": {"h": 5.0}, "geometry": {"type": "Point", "coordinates": [412140.6, 5657227.8]}}, {"type": "Feature", "properties": {"h": 5.0}, "geometry": {"type": "Point", "coordinates": [412104.1, 5657199.2]}}, {"type": "Feature", "properties": {"h": 5.0}, "geometry": {"type": "Point", "coordinates": [412123.4, 5657166.8]}}, {"type": "Feature", "properties": {"h": 5.0}, "geometry": {"type": "Point", "coordinates": [412128.6, 5657114.5]}}, {"type": "Feature", "properties": {"h": 5.0}, "geometry": {"type": "Point", "coordinates": [412175.3, 5657044.1]}}, {"type": "Feature", "properties": {"h": 5.0}, "geometry": {"type": "Point", "coordinates": [412196.0, 5657068.0]}}, {"type": "Feature", "properties": {"h": 5.0}, "geometry": {"type": "Point", "coordinates": [412197.5, 5657083.9]}}, {"type": "Feature", "properties": {"h": 5.0}, "geometry": {"type": "Point", "coordinates": [412189.0, 5657031.4]}}, {"type": "Feature", "properties": {"h": 5.0}, "geometry": {"type": "Point", "coordinates": [412218.6, 5657053.6]}}, {"type": "Feature", "properties": {"h": 5.0}, "geometry": {"type": "Point", "coordinates": [412236.5, 5657069.6]}}, {"type": "Feature", "properties": {"h": 5.0}, "geometry": {"type": "Point", "coordinates": [412254.6, 5657086.1]}}, {"type": "Feature", "properties": {"h": 5.0}, "geometry": {"type": "Point", "coordinates": [412244.0, 5657099.1]}}, {"type": "Feature", "properties": {"h": 5.0}, "geometry": {"type": "Point", "coordinates": [412258.9, 5657126.6]}}, {"type": "Feature", "properties": {"h": 5.0}, "geometry": {"type": "Point", "coordinates": [412094.9, 5657022.6]}}, {"type": "Feature", "properties": {"h": 5.0}, "geometry": {"type": "Point", "coordinates": [412065.7, 5656997.7]}}, {"type": "Feature", "properties": {"h": 5.0}, "geometry": {"type": "Point", "coordinates": [412015.4, 5657012.3]}}, {"type": "Feature", "properties": {"h": 5.0}, "geometry": {"type": "Point", "coordinates": [412042.0, 5657012.5]}}, {"type": "Feature", "properties": {"h": 5.0}, "geometry": {"type": "Point", "coordinates": [412069.1, 5657013.3]}}, {"type": "Feature", "properties": {"h": 5.0}, "geometry": {"type": "Point", "coordinates": [412088.2, 5657040.8]}}, {"type": "Feature", "properties": {"h": 5.0}, "geometry": {"type": "Point", "coordinates": [412088.1, 5657065.9]}}, {"type": "Feature", "properties": {"h": 5.0}, "geometry": {"type": "Point", "coordinates": [412088.0, 5657089.3]}}, {"type": "Feature", "properties": {"h": 5.0}, "geometry": {"type": "Point", "coordinates": [412087.8, 5657113.8]}}, {"type": "Feature", "properties": {"h": 5.0}, "geometry": {"type": "Point", "coordinates": [412087.6, 5657138.4]}}, {"type": "Feature", "properties": {"h": 5.0}, "geometry": {"type": "Point", "coordinates": [412087.3, 5657161.9]}}, {"type": "Feature", "properties": {"h": 5.0}, "geometry": {"type": "Point", "coordinates": [412087.1, 5657185.9]}}, {"type": "Feature", "properties": {"h": 5.0}, "geometry": {"type": "Point", "coordinates": [412087.2, 5657219.4]}}, {"type": "Feature", "properties": {"h": 5.0}, "geometry": {"type": "Point", "coordinates": [412062.7, 5657236.5]}}, {"type": "Feature", "properties": {"h": 5.0}, "geometry": {"type": "Point", "coordinates": [412032.6, 5657258.2]}}, {"type": "Feature", "properties": {"h": 5.0}, "geometry": {"type": "Point", "coordinates": [412013.8, 5657271.6]}}, {"type": "Feature", "properties": {"h": 5.0}, "geometry": {"type": "Point", "coordinates": [411977.4, 5657283.6]}}, {"type": "Feature", "properties": {"h": 5.0}, "geometry": {"type": "Point", "coordinates": [412006.3, 5657263.3]}}, {"type": "Feature", "properties": {"h": 5.0}, "geometry": {"type": "Point", "coordinates": [412370.8, 5657763.3]}}, {"type": "Feature", "properties": {"h": 5.0}, "geometry": {"type": "Point", "coordinates": [412333.7, 5657708.6]}}, {"type": "Feature", "properties": {"h": 5.0}, "geometry": {"type": "Point", "coordinates": [412317.3, 5657683.3]}}, {"type": "Feature", "properties": {"h": 5.0}, "geometry": {"type": "Point", "coordinates": [412298.9, 5657654.8]}}, {"type": "Feature", "properties": {"h": 5.0}, "geometry": {"type": "Point", "coordinates": [412353.4, 5657738.9]}}, {"type": "Feature", "properties": {"h": 5.0}, "geometry": {"type": "Point", "coordinates": [411995.5, 5657557.0]}}, {"type": "Feature", "properties": {"h": 5.0}, "geometry": {"type": "Point", "coordinates": [412054.5, 5657557.1]}}, {"type": "Feature", "properties": {"h": 5.0}, "geometry": {"type": "Point", "coordinates": [412030.8, 5657556.9]}}, {"type": "Feature", "properties": {"h": 5.0}, "geometry": {"type": "Point", "coordinates": [411970.1, 5657556.7]}}, {"type": "Feature", "properties": {"h": 5.0}, "geometry": {"type": "Point", "coordinates": [412125.0, 5657520.9]}}, {"type": "Feature", "properties": {"h": 5.0}, "geometry": {"type": "Point", "coordinates": [412139.2, 5657541.6]}}, {"type": "Feature", "properties": {"h": 5.0}, "geometry": {"type": "Point", "coordinates": [412158.8, 5657570.8]}}, {"type": "Feature", "properties": {"h": 5.0}, "geometry": {"type": "Point", "coordinates": [412174.8, 5657595.1]}}, {"type": "Feature", "properties": {"h": 5.0}, "geometry": {"type": "Point", "coordinates": [412189.5, 5657608.9]}}, {"type": "Feature", "properties": {"h": 5.0}, "geometry": {"type": "Point", "coordinates": [412140.9, 5657583.0]}}, {"type": "Feature", "properties": {"h": 5.0}, "geometry": {"type": "Point", "coordinates": [412157.1, 5657606.7]}}, {"type": "Feature", "properties": {"h": 5.0}, "geometry": {"type": "Point", "coordinates": [412121.4, 5657553.3]}}, {"type": "Feature", "properties": {"h": 5.0}, "geometry": {"type": "Point", "coordinates": [412107.7, 5657532.3]}}, {"type": "Feature", "properties": {"h": 5.0}, "geometry": {"type": "Point", "coordinates": [412134.1, 5657635.2]}}, {"type": "Feature", "properties": {"h": 5.0}, "geometry": {"type": "Point", "coordinates": [412113.6, 5657627.2]}}, {"type": "Feature", "properties": {"h": 5.0}, "geometry": {"type": "Point", "coordinates": [412093.4, 5657610.8]}}, {"type": "Feature", "properties": {"h": 5.0}, "geometry": {"type": "Point", "coordinates": [412080.3, 5657593.1]}}, {"type": "Feature", "properties": {"h": 5.0}, "geometry": {"type": "Point", "coordinates": [412072.3, 5657572.5]}}, {"type": "Feature", "properties": {"h": 5.0}, "geometry": {"type": "Point", "coordinates": [412076.7, 5657530.4]}}, {"type": "Feature", "properties": {"h": 5.0}, "geometry": {"type": "Point", "coordinates": [412199.9, 5657516.7]}}, {"type": "Feature", "properties": {"h": 5.0}, "geometry": {"type": "Point", "coordinates": [412211.2, 5657560.9]}}, {"type": "Feature", "properties": {"h": 5.0}, "geometry": {"type": "Point", "coordinates": [412202.7, 5657536.6]}}, {"type": "Feature", "properties": {"h": 5.0}, "geometry": {"type": "Point", "coordinates": [412215.5, 5657586.6]}}, {"type": "Feature", "properties": {"h": 5.0}, "geometry": {"type": "Point", "coordinates": [412231.9, 5657611.4]}}, {"type": "Feature", "properties": {"h": 5.0}, "geometry": {"type": "Point", "coordinates": [412238.4, 5657626.1]}}, {"type": "Feature", "properties": {"h": 5.0}, "geometry": {"type": "Point", "coordinates": [412265.1, 5657616.5]}}, {"type": "Feature", "properties": {"h": 5.0}, "geometry": {"type": "Point", "coordinates": [412295.6, 5657608.0]}}, {"type": "Feature", "properties": {"h": 5.0}, "geometry": {"type": "Point", "coordinates": [412332.1, 5657575.2]}}, {"type": "Feature", "properties": {"h": 5.0}, "geometry": {"type": "Point", "coordinates": [412322.1, 5657604.0]}}, {"type": "Feature", "properties": {"h": 5.0}, "geometry": {"type": "Point", "coordinates": [412318.2, 5657561.8]}}, {"type": "Feature", "properties": {"h": 5.0}, "geometry": {"type": "Point", "coordinates": [412286.3, 5657536.3]}}, {"type": "Feature", "properties": {"h": 5.0}, "geometry": {"type": "Point", "coordinates": [411969.3, 5657739.9]}}, {"type": "Feature", "properties": {"h": 5.0}, "geometry": {"type": "Point", "coordinates": [411974.3, 5657754.6]}}, {"type": "Feature", "properties": {"h": 5.0}, "geometry": {"type": "Point", "coordinates": [412014.9, 5657739.2]}}, {"type": "Feature", "properties": {"h": 5.0}, "geometry": {"type": "Point", "coordinates": [412009.7, 5657724.8]}}, {"type": "Feature", "properties": {"h": 5.0}, "geometry": {"type": "Point", "coordinates": [412051.5, 5657708.9]}}, {"type": "Feature", "properties": {"h": 5.0}, "geometry": {"type": "Point", "coordinates": [412056.7, 5657723.6]}}, {"type": "Feature", "properties": {"h": 5.0}, "geometry": {"type": "Point", "coordinates": [412098.9, 5657707.7]}}, {"type": "Feature", "properties": {"h": 5.0}, "geometry": {"type": "Point", "coordinates": [412094.0, 5657692.8]}}, {"type": "Feature", "properties": {"h": 5.0}, "geometry": {"type": "Point", "coordinates": [412742.3, 5657129.2]}}, {"type": "Feature", "properties": {"h": 5.0}, "geometry": {"type": "Point", "coordinates": [412646.7, 5657047.7]}}, {"type": "Feature", "properties": {"h": 5.0}, "geometry": {"type": "Point", "coordinates": [412793.8, 5656781.4]}}, {"type": "Feature", "properties": {"h": 5.0}, "geometry": {"type": "Point", "coordinates": [412664.2, 5657020.9]}}, {"type": "Feature", "properties": {"h": 5.0}, "geometry": {"type": "Point", "coordinates": [412686.6, 5656988.7]}}, {"type": "Feature", "properties": {"h": 5.0}, "geometry": {"type": "Point", "coordinates": [412767.2, 5656866.6]}}, {"type": "Feature", "properties": {"h": 5.0}, "geometry": {"type": "Point", "coordinates": [412788.2, 5656833.7]}}, {"type": "Feature", "properties": {"h": 5.0}, "geometry": {"type": "Point", "coordinates": [412805.7, 5656807.1]}}, {"type": "Feature", "properties": {"h": 5.0}, "geometry": {"type": "Point", "coordinates": [412787.5, 5656795.1]}}, {"type": "Feature", "properties": {"h": 5.0}, "geometry": {"type": "Point", "coordinates": [412769.9, 5656821.7]}}, {"type": "Feature", "properties": {"h": 5.0}, "geometry": {"type": "Point", "coordinates": [412747.7, 5656854.1]}}, {"type": "Feature", "properties": {"h": 5.0}, "geometry": {"type": "Point", "coordinates": [412667.1, 5656975.7]}}, {"type": "Feature", "properties": {"h": 5.0}, "geometry": {"type": "Point", "coordinates": [412646.2, 5657009.0]}}, {"type": "Feature", "properties": {"h": 5.0}, "geometry": {"type": "Point", "coordinates": [412628.6, 5657035.7]}}, {"type": "Feature", "properties": {"h": 5.0}, "geometry": {"type": "Point", "coordinates": [412420.1, 5657092.9]}}, {"type": "Feature", "properties": {"h": 5.0}, "geometry": {"type": "Point", "coordinates": [412400.3, 5657109.5]}}, {"type": "Feature", "properties": {"h": 5.0}, "geometry": {"type": "Point", "coordinates": [412380.6, 5657134.3]}}, {"type": "Feature", "properties": {"h": 5.0}, "geometry": {"type": "Point", "coordinates": [412366.0, 5657231.7]}}, {"type": "Feature", "properties": {"h": 5.0}, "geometry": {"type": "Point", "coordinates": [412904.9, 5657236.3]}}, {"type": "Feature", "properties": {"h": 5.0}, "geometry": {"type": "Point", "coordinates": [412851.8, 5657193.5]}}, {"type": "Feature", "properties": {"h": 5.0}, "geometry": {"type": "Point", "coordinates": [412838.5, 5657185.0]}}, {"type": "Feature", "properties": {"h": 5.0}, "geometry": {"type": "Point", "coordinates": [412816.4, 5656795.6]}}, {"type": "Feature", "properties": {"h": 5.0}, "geometry": {"type": "Point", "coordinates": [412384.7, 5657785.1]}}, {"type": "Feature", "properties": {"h": 5.0}, "geometry": {"type": "Point", "coordinates": [412401.1, 5657810.1]}}, {"type": "Feature", "properties": {"h": 5.0}, "geometry": {"type": "Point", "coordinates": [412446.9, 5657882.0]}}, {"type": "Feature", "properties": {"h": 5.0}, "geometry": {"type": "Point", "coordinates": [412460.5, 5657902.9]}}, {"type": "Feature", "properties": {"h": 5.0}, "geometry": {"type": "Point", "coordinates": [412477.1, 5657927.7]}}, {"type": "Feature", "properties": {"h": 5.0}, "geometry": {"type": "Point", "coordinates": [412489.0, 5657945.7]}}, {"type": "Feature", "properties": {"h": 5.0}, "geometry": {"type": "Point", "coordinates": [412507.5, 5657971.6]}}, {"type": "Feature", "properties": {"h": 5.0}, "geometry": {"type": "Point", "coordinates": [412525.2, 5657998.1]}}, {"type": "Feature", "properties": {"h": 5.0}, "geometry": {"type": "Point", "coordinates": [412415.8, 5657835.3]}}, {"type": "Feature", "properties": {"h": 5.0}, "geometry": {"type": "Point", "coordinates": [412433.1, 5657859.0]}}, {"type": "Feature", "properties": {"h": 5.0}, "geometry": {"type": "Point", "coordinates": [412785.2, 5658038.9]}}, {"type": "Feature", "properties": {"h": 5.0}, "geometry": {"type": "Point", "coordinates": [412440.8, 5657630.3]}}, {"type": "Feature", "properties": {"h": 5.0}, "geometry": {"type": "Point", "coordinates": [413217.2, 5657681.1]}}, {"type": "Feature", "properties": {"h": 5.0}, "geometry": {"type": "Point", "coordinates": [413648.9, 5657212.3]}}, {"type": "Feature", "properties": {"h": 5.0}, "geometry": {"type": "Point", "coordinates": [413639.2, 5657241.8]}}, {"type": "Feature", "properties": {"h": 5.0}, "geometry": {"type": "Point", "coordinates": [413628.0, 5657270.5]}}, {"type": "Feature", "properties": {"h": 5.0}, "geometry": {"type": "Point", "coordinates": [413614.8, 5657299.8]}}, {"type": "Feature", "properties": {"h": 5.0}, "geometry": {"type": "Point", "coordinates": [413495.5, 5657321.5]}}, {"type": "Feature", "properties": {"h": 5.0}, "geometry": {"type": "Point", "coordinates": [413601.2, 5657327.9]}}, {"type": "Feature", "properties": {"h": 5.0}, "geometry": {"type": "Point", "coordinates": [413529.8, 5657339.0]}}, {"type": "Feature", "properties": {"h": 5.0}, "geometry": {"type": "Point", "coordinates": [413589.5, 5657359.3]}}, {"type": "Feature", "properties": {"h": 5.0}, "geometry": {"type": "Point", "coordinates": [413594.6, 5657366.8]}}, {"type": "Feature", "properties": {"h": 5.0}, "geometry": {"type": "Point", "coordinates": [413568.2, 5657392.6]}}, {"type": "Feature", "properties": {"h": 5.0}, "geometry": {"type": "Point", "coordinates": [413579.4, 5657396.4]}}, {"type": "Feature", "properties": {"h": 5.0}, "geometry": {"type": "Point", "coordinates": [413981.6, 5656771.4]}}, {"type": "Feature", "properties": {"h": 5.0}, "geometry": {"type": "Point", "coordinates": [413979.5, 5656811.5]}}, {"type": "Feature", "properties": {"h": 5.0}, "geometry": {"type": "Point", "coordinates": [413974.9, 5656927.1]}}, {"type": "Feature", "properties": {"h": 5.0}, "geometry": {"type": "Point", "coordinates": [413975.9, 5656887.5]}}, {"type": "Feature", "properties": {"h": 5.0}, "geometry": {"type": "Point", "coordinates": [413487.1, 5657544.9]}}, {"type": "Feature", "properties": {"h": 5.0}, "geometry": {"type": "Point", "coordinates": [413473.5, 5657558.0]}}, {"type": "Feature", "properties": {"h": 5.0}, "geometry": {"type": "Point", "coordinates": [413459.0, 5657577.6]}}]}