{"type": "FeatureCollection", "attribution": "\u00a9 OpenStreetMap contributors (ODbL)", "crs": {"type": "name", "properties": {"name": "urn:ogc:def:crs:EPSG::25833"}}, "features": [{"type": "Feature", "properties": {"kind": "hedge", "h": 1.5, "w": 1.0, "src": "osm"}, "geometry": {"type": "LineString", "coordinates": [[416199.6, 5656749.8], [416152.8, 5656786.8], [416095.1, 5656831.3], [416069.7, 5656802.8]]}}, {"type": "Feature", "properties": {"kind": "hedge", "h": 1.5, "w": 1.0, "src": "osm"}, "geometry": {"type": "LineString", "coordinates": [[416015.7, 5657758.2], [416010.2, 5657758.9], [416004.2, 5657759.8]]}}, {"type": "Feature", "properties": {"kind": "hedge", "h": 1.5, "w": 1.0, "src": "osm"}, "geometry": {"type": "LineString", "coordinates": [[416027.0, 5657770.9], [416027.5, 5657778.6], [416019.8, 5657779.4], [416019.0, 5657776.0], [416017.4, 5657774.2], [416012.9, 5657774.7], [416009.2, 5657775.3]]}}, {"type": "Feature", "properties": {"kind": "hedge", "h": 1.5, "w": 1.0, "src": "osm"}, "geometry": {"type": "LineString", "coordinates": [[416729.0, 5656005.1], [416684.3, 5656087.9], [416657.8, 5656132.6], [416637.0, 5656165.0]]}}, {"type": "Feature", "properties": {"kind": "hedge", "h": 1.5, "w": 1.0, "src": "osm"}, "geometry": {"type": "LineString", "coordinates": [[416731.7, 5656000.0], [416730.4, 5656002.4]]}}, {"type": "Feature", "properties": {"kind": "hedge", "h": 1.5, "w": 1.0, "src": "osm"}, "geometry": {"type": "LineString", "coordinates": [[417142.8, 5656071.0], [417151.1, 5656075.4]]}}, {"type": "Feature", "properties": {"kind": "hedge", "h": 1.5, "w": 1.0, "src": "osm"}, "geometry": {"type": "LineString", "coordinates": [[417156.8, 5656078.3], [417171.2, 5656085.8]]}}, {"type": "Feature", "properties": {"kind": "hedge", "h": 1.5, "w": 1.0, "src": "osm"}, "geometry": {"type": "LineString", "coordinates": [[417235.0, 5656027.0], [417216.2, 5656061.3]]}}, {"type": "Feature", "properties": {"kind": "hedge", "h": 1.5, "w": 1.0, "src": "osm"}, "geometry": {"type": "LineString", "coordinates": [[416491.1, 5656325.8], [416494.6, 5656321.4], [416497.2, 5656323.4]]}}, {"type": "Feature", "properties": {"kind": "hedge", "h": 1.5, "w": 1.0, "src": "osm"}, "geometry": {"type": "LineString", "coordinates": [[416501.8, 5656323.9], [416504.1, 5656320.8]]}}]}