{"type": "FeatureCollection", "attribution": "Quelle: GeoSN, dl-de/by-2-0; \u00a9 OpenStreetMap contributors (ODbL)", "crs": {"type": "name", "properties": {"name": "urn:ogc:def:crs:EPSG::25833"}}, "features": [{"type": "Feature", "properties": {"kind": "fountain", "source": "osm", "style": "basin", "figure": false}, "geometry": {"type": "Polygon", "coordinates": [[[412700.94, 5658830.2], [412701.11, 5658831.22], [412700.94, 5658831.72], [412700.16, 5658832.43], [412699.65, 5658832.56], [412698.63, 5658832.3], [412697.98, 5658831.47], [412697.98, 5658830.42], [412698.64, 5658829.59], [412699.66, 5658829.34], [412700.62, 5658829.77], [412700.94, 5658830.2]], [[412700.61, 5658830.34], [412700.39, 5658830.05], [412699.63, 5658829.71], [412698.84, 5658829.9], [412698.33, 5658830.55], [412698.33, 5658831.35], [412698.83, 5658831.99], [412699.65, 5658832.2], [412699.99, 5658832.12], [412700.63, 5658831.52], [412700.75, 5658831.19], [412700.61, 5658830.34]]]}}, {"type": "Feature", "properties": {"kind": "fountain", "source": "osm", "name": "Springbrunnen am Alaunplatz", "style": "basin", "figure": false}, "geometry": {"type": "Polygon", "coordinates": [[[412933.57, 5658607.02], [412932.91, 5658607.68], [412932.07, 5658608.1], [412931.14, 5658608.19], [412930.23, 5658607.97], [412929.45, 5658607.45], [412928.94, 5658606.78], [412928.66, 5658605.98], [412928.64, 5658605.13], [412928.89, 5658604.32], [412929.38, 5658603.63], [412930.05, 5658603.12], [412930.86, 5658602.85], [412931.71, 5658602.83], [412932.52, 5658603.08], [412933.21, 5658603.57], [412933.76, 5658604.33], [412934.01, 5658605.23], [412933.94, 5658606.16], [412933.57, 5658607.02]], [[412933.27, 5658606.82], [412933.6, 5658606.08], [412933.66, 5658605.26], [412933.44, 5658604.49], [412932.96, 5658603.83], [412932.36, 5658603.4], [412931.66, 5658603.18], [412930.92, 5658603.19], [412930.22, 5658603.43], [412929.63, 5658603.87], [412929.21, 5658604.48], [412928.99, 5658605.18], [412929.01, 5658605.91], [412929.25, 5658606.61], [412929.7, 5658607.19], [412930.38, 5658607.65], [412931.16, 5658607.84], [412931.97, 5658607.76], [412932.7, 5658607.4], [412933.27, 5658606.82]]]}}, {"type": "Feature", "properties": {"kind": "fountain", "source": "osm", "style": "splash", "figure": false}, "geometry": {"type": "Polygon", "coordinates": [[[413228.48, 5659459.35], [413225.97, 5659459.9], [413224.06, 5659461.63], [413223.28, 5659464.08], [413223.82, 5659466.58], [413225.55, 5659468.49], [413228.01, 5659469.27], [413230.53, 5659468.73], [413232.43, 5659466.99], [413233.22, 5659464.53], [413232.66, 5659462.03], [413230.93, 5659460.13], [413228.48, 5659459.35]], [[413228.46, 5659459.71], [413226.13, 5659460.23], [413224.37, 5659461.82], [413223.64, 5659464.09], [413224.14, 5659466.42], [413225.75, 5659468.18], [413228.03, 5659468.91], [413230.36, 5659468.4], [413232.13, 5659466.8], [413232.86, 5659464.52], [413232.34, 5659462.19], [413230.74, 5659460.44], [413228.46, 5659459.71]]]}}, {"type": "Feature", "properties": {"kind": "fountain", "source": "osm", "style": "splash", "figure": false}, "geometry": {"type": "Polygon", "coordinates": [[[413234.54, 5659453.9], [413235.46, 5659454.92], [413235.72, 5659456.26], [413235.24, 5659457.55], [413234.16, 5659458.4], [413232.94, 5659458.58], [413231.77, 5659458.16], [413230.94, 5659457.25], [413230.64, 5659456.06], [413230.94, 5659454.86], [413231.89, 5659453.87], [413233.22, 5659453.51], [413234.54, 5659453.9]], [[413234.35, 5659454.21], [413233.21, 5659453.87], [413232.08, 5659454.18], [413231.26, 5659455.03], [413231.01, 5659456.05], [413231.26, 5659457.08], [413231.97, 5659457.86], [413232.97, 5659458.22], [413234.02, 5659458.07], [413234.94, 5659457.33], [413235.36, 5659456.23], [413235.13, 5659455.08], [413234.35, 5659454.21]]]}}, {"type": "Feature", "properties": {"kind": "fountain", "source": "osm", "style": "splash", "figure": false}, "geometry": {"type": "Polygon", "coordinates": [[[413243.16, 5659455.36], [413239.96, 5659456.24], [413237.62, 5659458.6], [413236.77, 5659461.79], [413237.61, 5659464.99], [413240.0, 5659467.39], [413243.27, 5659468.26], [413246.54, 5659467.36], [413248.89, 5659464.92], [413249.7, 5659461.65], [413248.77, 5659458.46], [413246.38, 5659456.17], [413243.16, 5659455.36]], [[413243.16, 5659455.72], [413240.14, 5659456.56], [413237.94, 5659458.78], [413237.13, 5659461.79], [413237.93, 5659464.81], [413240.18, 5659467.07], [413243.27, 5659467.89], [413246.35, 5659467.04], [413248.57, 5659464.75], [413249.34, 5659461.66], [413248.46, 5659458.65], [413246.2, 5659456.49], [413243.16, 5659455.72]]]}}, {"type": "Feature", "properties": {"kind": "fountain", "source": "osm", "style": "basin", "figure": false}, "geometry": {"type": "Polygon", "coordinates": [[[413272.63, 5659521.01], [413275.21, 5659525.62], [413297.2, 5659514.01], [413294.72, 5659509.28], [413272.63, 5659521.01]], [[413273.11, 5659521.15], [413275.34, 5659525.15], [413296.73, 5659513.86], [413294.58, 5659509.75], [413273.11, 5659521.15]]]}}, {"type": "Feature", "properties": {"kind": "statue", "source": "dlm", "name": "Kriegsdenkmal"}, "geometry": {"type": "Point", "coordinates": [412656.5, 5658530.03]}}, {"type": "Feature", "properties": {"kind": "statue", "source": "dlm", "name": "Ehrenmal"}, "geometry": {"type": "Point", "coordinates": [412981.44, 5659090.98]}}, {"type": "Feature", "properties": {"kind": "statue", "source": "dlm", "name": "Pionierdenkmal"}, "geometry": {"type": "Point", "coordinates": [413396.91, 5658799.68]}}, {"type": "Feature", "properties": {"kind": "statue", "source": "dlm"}, "geometry": {"type": "Point", "coordinates": [413550.55, 5659086.65]}}, {"type": "Feature", "properties": {"kind": "statue", "source": "dlm", "name": "Wilhelm-August-Roth-Denkmal"}, "geometry": {"type": "Point", "coordinates": [413802.17, 5659144.86]}}, {"type": "Feature", "properties": {"kind": "statue", "source": "dlm", "name": "Graf-Stauffenberg-Denkmal"}, "geometry": {"type": "Point", "coordinates": [413842.4, 5658945.64]}}, {"type": "Feature", "properties": {"kind": "statue", "source": "dlm", "name": "Ehrenmal"}, "geometry": {"type": "Point", "coordinates": [413912.8, 5658559.78]}}, {"type": "Feature", "properties": {"kind": "stone", "source": "dlm", "name": "Weichbildstein"}, "geometry": {"type": "Point", "coordinates": [412218.87, 5658082.38]}}, {"type": "Feature", "properties": {"kind": "stone", "source": "dlm", "name": "Grenzstein"}, "geometry": {"type": "Point", "coordinates": [413148.72, 5659109.08]}}, {"type": "Feature", "properties": {"kind": "stone", "source": "dlm", "name": "Gedenkstein"}, "geometry": {"type": "Point", "coordinates": [413822.5, 5659019.13]}}]}