{"type": "FeatureCollection", "attribution": "Quelle: GeoSN, dl-de/by-2-0", "crs": {"type": "name", "properties": {"name": "urn:ogc:def:crs:EPSG::25833"}}, "features": [{"type": "Feature", "properties": {"kind": "statue", "source": "dlm", "name": "K\u00f6nig-Albert-Denkmal"}, "geometry": {"type": "Point", "coordinates": [416136.26, 5658148.61]}}, {"type": "Feature", "properties": {"kind": "stone", "source": "dlm", "name": "Martin-Luther-Gedenkstein"}, "geometry": {"type": "Point", "coordinates": [416398.06, 5658775.1]}}, {"type": "Feature", "properties": {"kind": "stone", "source": "dlm", "name": "N-Stein"}, "geometry": {"type": "Point", "coordinates": [417443.99, 5659012.74]}}]}