{"type": "FeatureCollection", "attribution": "\u00a9 OpenStreetMap contributors (ODbL)", "crs": {"type": "name", "properties": {"name": "urn:ogc:def:crs:EPSG::25833"}}, "features": [{"type": "Feature", "properties": {"k": "label", "name": "Alemannenstra\u00dfe", "c": "minor"}, "geometry": {"type": "LineString", "coordinates": [[415177.57, 5656222.82], [415176.37, 5656258.4], [415180.08, 5656291.83], [415184.3, 5656304.93]]}}, {"type": "Feature", "properties": {"k": "label", "name": "Augsburger Stra\u00dfe", "c": "main"}, "geometry": {"type": "LineString", "coordinates": [[414623.39, 5656379.94], [414645.61, 5656364.0], [414696.12, 5656324.62]]}}, {"type": "Feature", "properties": {"k": "label", "name": "Augsburger Stra\u00dfe", "c": "main"}, "geometry": {"type": "LineString", "coordinates": [[415000.24, 5656087.18], [415072.97, 5656031.82]]}}, {"type": "Feature", "properties": {"k": "label", "name": "Bautzner Stra\u00dfe", "c": "main"}, "geometry": {"type": "LineString", "coordinates": [[415538.8, 5657903.19], [415517.52, 5657912.04], [415499.06, 5657918.39], [415460.25, 5657929.66]]}}, {"type": "Feature", "properties": {"k": "label", "name": "Bautzner Stra\u00dfe", "c": "main"}, "geometry": {"type": "LineString", "coordinates": [[414761.99, 5657990.6], [414708.51, 5657993.53], [414700.51, 5657992.73], [414679.88, 5657987.07]]}}, {"type": "Feature", "properties": {"k": "label", "name": "Bautzner Stra\u00dfe", "c": "main"}, "geometry": {"type": "LineString", "coordinates": [[415202.09, 5657997.61], [415179.96, 5657997.5], [415119.59, 5657989.76]]}}, {"type": "Feature", "properties": {"k": "label", "name": "Blasewitzer Stra\u00dfe", "c": "main"}, "geometry": {"type": "LineString", "coordinates": [[414028.0, 5656372.15], [414122.6, 5656385.95]]}}, {"type": "Feature", "properties": {"k": "label", "name": "Blasewitzer Stra\u00dfe", "c": "main"}, "geometry": {"type": "LineString", "coordinates": [[414570.8, 5656451.14], [414665.43, 5656464.71]]}}, {"type": "Feature", "properties": {"k": "label", "name": "Brockhausstra\u00dfe", "c": "minor"}, "geometry": {"type": "LineString", "coordinates": [[415257.39, 5657862.64], [415203.43, 5657842.4], [415180.57, 5657831.4]]}}, {"type": "Feature", "properties": {"k": "label", "name": "Burckhardtstra\u00dfe", "c": "minor"}, "geometry": {"type": "LineString", "coordinates": [[413983.49, 5657086.69], [414068.46, 5657106.28]]}}, {"type": "Feature", "properties": {"k": "label", "name": "D\u00fcrerstra\u00dfe", "c": "minor"}, "geometry": {"type": "LineString", "coordinates": [[414161.06, 5656189.11], [414227.16, 5656185.93]]}}, {"type": "Feature", "properties": {"k": "label", "name": "Fetscherstra\u00dfe", "c": "main"}, "geometry": {"type": "LineString", "coordinates": [[414099.02, 5656051.95], [414141.76, 5656118.14]]}}, {"type": "Feature", "properties": {"k": "label", "name": "Fetscherstra\u00dfe", "c": "main"}, "geometry": {"type": "LineString", "coordinates": [[414335.79, 5656436.75], [414342.54, 5656502.99], [414342.94, 5656515.19]]}}, {"type": "Feature", "properties": {"k": "label", "name": "Fetscherstra\u00dfe", "c": "main"}, "geometry": {"type": "LineString", "coordinates": [[414244.55, 5657215.37], [414174.38, 5657212.59], [414166.08, 5657214.68]]}}, {"type": "Feature", "properties": {"k": "label", "name": "Fetscherstra\u00dfe", "c": "main"}, "geometry": {"type": "LineString", "coordinates": [[414333.86, 5656816.24], [414329.64, 5656894.93]]}}, {"type": "Feature", "properties": {"k": "label", "name": "Fiedlerstra\u00dfe", "c": "minor"}, "geometry": {"type": "LineString", "coordinates": [[414382.92, 5656537.99], [414456.77, 5656548.53]]}}, {"type": "Feature", "properties": {"k": "label", "name": "Fiedlerstra\u00dfe", "c": "minor"}, "geometry": {"type": "LineString", "coordinates": [[414703.77, 5656581.22], [414773.51, 5656590.44], [414777.66, 5656589.47]]}}, {"type": "Feature", "properties": {"k": "label", "name": "Forsthausstra\u00dfe", "c": "main"}, "geometry": {"type": "LineString", "coordinates": [[415022.8, 5656462.05], [415022.13, 5656379.05]]}}, {"type": "Feature", "properties": {"k": "label", "name": "Frankenstra\u00dfe", "c": "minor"}, "geometry": {"type": "LineString", "coordinates": [[415464.32, 5656267.66], [415466.5, 5656236.42], [415475.69, 5656194.12]]}}, {"type": "Feature", "properties": {"k": "label", "name": "Gabelsbergerstra\u00dfe", "c": "main"}, "geometry": {"type": "LineString", "coordinates": [[414085.71, 5656078.38], [414096.09, 5656076.18], [414113.21, 5656073.94], [414175.78, 5656048.03]]}}, {"type": "Feature", "properties": {"k": "label", "name": "Gluckstra\u00dfe", "c": "minor"}, "geometry": {"type": "LineString", "coordinates": [[414335.45, 5656245.58], [414342.73, 5656311.38]]}}, {"type": "Feature", "properties": {"k": "label", "name": "Goetheallee", "c": "main"}, "geometry": {"type": "LineString", "coordinates": [[415179.08, 5657038.17], [415243.1, 5657021.33]]}}, {"type": "Feature", "properties": {"k": "label", "name": "Goetheallee", "c": "main"}, "geometry": {"type": "LineString", "coordinates": [[415752.99, 5656862.96], [415811.06, 5656831.17]]}}, {"type": "Feature", "properties": {"k": "label", "name": "Hassestra\u00dfe", "c": "minor"}, "geometry": {"type": "LineString", "coordinates": [[414400.82, 5656292.32], [414466.9, 5656288.28]]}}, {"type": "Feature", "properties": {"k": "label", "name": "Huttenstra\u00dfe", "c": "minor"}, "geometry": {"type": "LineString", "coordinates": [[414433.3, 5656165.05], [414476.49, 5656220.65]]}}, {"type": "Feature", "properties": {"k": "label", "name": "H\u00e4ndelallee", "c": "minor"}, "geometry": {"type": "LineString", "coordinates": [[415016.97, 5656894.42], [415017.96, 5656828.22]]}}, {"type": "Feature", "properties": {"k": "label", "name": "H\u00fcblerstra\u00dfe", "c": "main"}, "geometry": {"type": "LineString", "coordinates": [[416030.85, 5656158.24], [415963.0, 5656139.48]]}}, {"type": "Feature", "properties": {"k": "label", "name": "H\u00fcblerstra\u00dfe", "c": "main"}, "geometry": {"type": "LineString", "coordinates": [[415530.64, 5656016.14], [415464.78, 5655991.27]]}}, {"type": "Feature", "properties": {"k": "label", "name": "Kreutzerstra\u00dfe", "c": "minor"}, "geometry": {"type": "LineString", "coordinates": [[414089.41, 5656213.18], [414109.04, 5656289.47]]}}, {"type": "Feature", "properties": {"k": "label", "name": "Kyffh\u00e4userstra\u00dfe", "c": "minor"}, "geometry": {"type": "LineString", "coordinates": [[415335.5, 5656147.69], [415420.57, 5656128.53]]}}, {"type": "Feature", "properties": {"k": "label", "name": "K\u00e4the-Kollwitz-Ufer", "c": "main"}, "geometry": {"type": "LineString", "coordinates": [[414105.87, 5657282.33], [414204.91, 5657294.58]]}}, {"type": "Feature", "properties": {"k": "label", "name": "K\u00e4the-Kollwitz-Ufer", "c": "main"}, "geometry": {"type": "LineString", "coordinates": [[414568.42, 5657295.02], [414641.59, 5657289.38], [414667.82, 5657286.28]]}}, {"type": "Feature", "properties": {"k": "label", "name": "K\u00e4the-Kollwitz-Ufer", "c": "main"}, "geometry": {"type": "LineString", "coordinates": [[415022.13, 5657207.27], [415120.11, 5657188.31]]}}, {"type": "Feature", "properties": {"k": "label", "name": "K\u00e4the-Kollwitz-Ufer", "c": "main"}, "geometry": {"type": "LineString", "coordinates": [[415472.61, 5657097.77], [415553.87, 5657072.55], [415567.61, 5657067.3]]}}, {"type": "Feature", "properties": {"k": "label", "name": "K\u00e4the-Kollwitz-Ufer", "c": "main"}, "geometry": {"type": "LineString", "coordinates": [[415893.96, 5656907.05], [415966.07, 5656854.26], [415973.99, 5656847.47]]}}, {"type": "Feature", "properties": {"k": "label", "name": "K\u00f6nigsheimplatz", "c": "main"}, "geometry": {"type": "LineString", "coordinates": [[414916.3, 5656501.21], [414998.36, 5656513.65]]}}, {"type": "Feature", "properties": {"k": "label", "name": "K\u00f6rnerweg", "c": "minor"}, "geometry": {"type": "LineString", "coordinates": [[414164.24, 5657845.57], [414221.21, 5657855.29]]}}, {"type": "Feature", "properties": {"k": "label", "name": "K\u00f6rnerweg", "c": "minor"}, "geometry": {"type": "LineString", "coordinates": [[415461.17, 5657604.81], [415517.43, 5657591.56]]}}, {"type": "Feature", "properties": {"k": "label", "name": "Lene-Glatzer-Stra\u00dfe", "c": "minor"}, "geometry": {"type": "LineString", "coordinates": [[415262.64, 5656038.33], [415286.44, 5656135.24]]}}, {"type": "Feature", "properties": {"k": "label", "name": "Lene-Glatzer-Stra\u00dfe", "c": "minor"}, "geometry": {"type": "LineString", "coordinates": [[415356.62, 5656484.43], [415336.91, 5656386.59]]}}, {"type": "Feature", "properties": {"k": "label", "name": "Loschwitzer Stra\u00dfe", "c": "main"}, "geometry": {"type": "LineString", "coordinates": [[415267.44, 5656502.48], [415362.97, 5656499.02]]}}, {"type": "Feature", "properties": {"k": "label", "name": "Loschwitzer Stra\u00dfe", "c": "main"}, "geometry": {"type": "LineString", "coordinates": [[415845.2, 5656393.48], [415938.36, 5656372.04]]}}, {"type": "Feature", "properties": {"k": "label", "name": "Lothringer Weg", "c": "minor"}, "geometry": {"type": "LineString", "coordinates": [[415351.12, 5656849.76], [415350.11, 5656810.69], [415351.56, 5656780.3], [415352.99, 5656771.12]]}}, {"type": "Feature", "properties": {"k": "label", "name": "L\u00f6scherstra\u00dfe", "c": "minor"}, "geometry": {"type": "LineString", "coordinates": [[414756.3, 5656177.48], [414710.34, 5656118.72]]}}, {"type": "Feature", "properties": {"k": "label", "name": "Mendelssohnallee", "c": "minor"}, "geometry": {"type": "LineString", "coordinates": [[415488.43, 5656290.94], [415508.48, 5656296.18], [415538.69, 5656305.45], [415570.45, 5656319.78]]}}, {"type": "Feature", "properties": {"k": "label", "name": "Mendelssohnallee", "c": "minor"}, "geometry": {"type": "LineString", "coordinates": [[415103.27, 5656394.0], [415129.65, 5656369.62], [415171.49, 5656339.98]]}}, {"type": "Feature", "properties": {"k": "label", "name": "Mildred-Scheel-Stra\u00dfe", "c": "minor"}, "geometry": {"type": "LineString", "coordinates": [[414777.43, 5656560.69], [414791.58, 5656453.42]]}}, {"type": "Feature", "properties": {"k": "label", "name": "Neubertstra\u00dfe", "c": "minor"}, "geometry": {"type": "LineString", "coordinates": [[414106.27, 5657046.01], [414110.1, 5656971.51]]}}, {"type": "Feature", "properties": {"k": "label", "name": "Oberkiesweg", "c": "minor"}, "geometry": {"type": "LineString", "coordinates": [[414182.63, 5657940.25], [414210.52, 5657965.22], [414219.42, 5657971.16], [414235.89, 5657978.57]]}}, {"type": "Feature", "properties": {"k": "label", "name": "Paul-Gerhardt-Stra\u00dfe", "c": "minor"}, "geometry": {"type": "LineString", "coordinates": [[414559.33, 5656121.92], [414623.24, 5656203.97]]}}, {"type": "Feature", "properties": {"k": "label", "name": "Pfotenhauerstra\u00dfe", "c": "main"}, "geometry": {"type": "LineString", "coordinates": [[414142.91, 5657012.57], [414229.96, 5657040.44]]}}, {"type": "Feature", "properties": {"k": "label", "name": "Pfotenhauerstra\u00dfe", "c": "main"}, "geometry": {"type": "LineString", "coordinates": [[414637.79, 5657103.41], [414728.62, 5657113.57]]}}, {"type": "Feature", "properties": {"k": "label", "name": "Prellerstra\u00dfe", "c": "minor"}, "geometry": {"type": "LineString", "coordinates": [[415770.86, 5656356.3], [415820.22, 5656412.23]]}}, {"type": "Feature", "properties": {"k": "label", "name": "Regerstra\u00dfe", "c": "minor"}, "geometry": {"type": "LineString", "coordinates": [[415885.06, 5656286.99], [415932.17, 5656333.5]]}}, {"type": "Feature", "properties": {"k": "label", "name": "Schubertstra\u00dfe", "c": "minor"}, "geometry": {"type": "LineString", "coordinates": [[414899.9, 5656822.5], [414900.95, 5656878.13], [414903.23, 5656901.18]]}}, {"type": "Feature", "properties": {"k": "label", "name": "Senefelderstra\u00dfe", "c": "minor"}, "geometry": {"type": "LineString", "coordinates": [[414949.74, 5656408.72], [414955.76, 5656495.71]]}}, {"type": "Feature", "properties": {"k": "label", "name": "Sickingenstra\u00dfe", "c": "minor"}, "geometry": {"type": "LineString", "coordinates": [[415401.65, 5656053.48], [415318.72, 5656049.98]]}}, {"type": "Feature", "properties": {"k": "label", "name": "Tatzberg", "c": "minor"}, "geometry": {"type": "LineString", "coordinates": [[414031.33, 5656754.8], [414084.89, 5656756.94]]}}, {"type": "Feature", "properties": {"k": "label", "name": "Teutoburgstra\u00dfe", "c": "minor"}, "geometry": {"type": "LineString", "coordinates": [[414907.62, 5656336.53], [414973.2, 5656285.66]]}}, {"type": "Feature", "properties": {"k": "label", "name": "Tittmannstra\u00dfe", "c": "main"}, "geometry": {"type": "LineString", "coordinates": [[414884.34, 5656146.63], [414837.03, 5656083.61]]}}, {"type": "Feature", "properties": {"k": "label", "name": "Treidelpfad", "c": "minor"}, "geometry": {"type": "LineString", "coordinates": [[415214.65, 5657640.41], [415279.54, 5657627.31]]}}, {"type": "Feature", "properties": {"k": "label", "name": "Treidelpfad", "c": "minor"}, "geometry": {"type": "LineString", "coordinates": [[415659.75, 5657532.18], [415722.27, 5657510.44]]}}, {"type": "Feature", "properties": {"k": "label", "name": "Vogesenweg", "c": "minor"}, "geometry": {"type": "LineString", "coordinates": [[415805.15, 5656682.25], [415782.88, 5656656.04], [415762.72, 5656637.17]]}}, {"type": "Feature", "properties": {"k": "label", "name": "Waldparkstra\u00dfe", "c": "minor"}, "geometry": {"type": "LineString", "coordinates": [[415993.15, 5656577.14], [415927.73, 5656621.08]]}}, {"type": "Feature", "properties": {"k": "label", "name": "Waldschl\u00f6\u00dfchenbr\u00fccke", "c": "main"}, "geometry": {"type": "LineString", "coordinates": [[414286.94, 5657654.79], [414291.27, 5657550.88]]}}, {"type": "Feature", "properties": {"k": "label", "name": "Wartburgstra\u00dfe", "c": "minor"}, "geometry": {"type": "LineString", "coordinates": [[414600.93, 5656115.78], [414571.75, 5656137.46], [414539.09, 5656164.57]]}}, {"type": "Feature", "properties": {"k": "label", "name": "Wittenberger Stra\u00dfe", "c": "minor"}, "geometry": {"type": "LineString", "coordinates": [[414775.42, 5656088.6], [414696.83, 5656150.11]]}}, {"type": "Feature", "properties": {"k": "label", "name": "Wormser Stra\u00dfe", "c": "minor"}, "geometry": {"type": "LineString", "coordinates": [[414353.34, 5656059.94], [414416.1, 5656012.3]]}}, {"type": "Feature", "properties": {"k": "label", "name": "W\u00e4gnerstra\u00dfe", "c": "minor"}, "geometry": {"type": "LineString", "coordinates": [[415954.29, 5656134.12], [415897.71, 5656176.01]]}}, {"type": "Feature", "properties": {"k": "label", "name": "Waldschl\u00f6\u00dfchenbr\u00fccke", "c": "bridge"}, "geometry": {"type": "LineString", "coordinates": [[414289.38, 5657669.95], [414293.83, 5657566.04]]}}, {"type": "Feature", "properties": {"k": "way", "name": "Alemannenstra\u00dfe"}, "geometry": {"type": "LineString", "coordinates": [[415115.75, 5656000.0], [415172.64, 5656181.98], [415177.75, 5656217.46], [415176.37, 5656258.4], [415180.08, 5656291.83], [415208.07, 5656380.14], [415218.41, 5656459.79], [415220.16, 5656504.2]]}}, {"type": "Feature", "properties": {"k": "way", "name": "Am Brauhaus"}, "geometry": {"type": "LineString", "coordinates": [[414499.3, 5658000.0], [414488.32, 5657978.11]]}}, {"type": "Feature", "properties": {"k": "way", "name": "Angelikastra\u00dfe"}, "geometry": {"type": "LineString", "coordinates": [[414700.51, 5657992.73], [414700.19, 5658000.0]]}}, {"type": "Feature", "properties": {"k": "way", "name": "Auf dem Meisenberg"}, "geometry": {"type": "LineString", "coordinates": [[414549.3, 5658000.0], [414545.88, 5657963.7]]}}, {"type": "Feature", "properties": {"k": "way", "name": "Aufgang Lingnerschlo\u00df"}, "geometry": {"type": "LineString", "coordinates": [[415746.56, 5657530.64], [415758.73, 5657526.41], [415754.47, 5657514.99]]}}, {"type": "Feature", "properties": {"k": "way", "name": "Augsburger Stra\u00dfe"}, "geometry": {"type": "LineString", "coordinates": [[414585.63, 5656566.47], [414610.25, 5656389.37], [414645.61, 5656364.0], [414739.44, 5656291.96], [414803.9, 5656240.75], [414876.54, 5656186.16], [414998.24, 5656088.7], [415114.83, 5656000.0]]}}, {"type": "Feature", "properties": {"k": "way", "name": "Bautzner Stra\u00dfe"}, "geometry": {"type": "LineString", "coordinates": [[414979.85, 5657966.33], [414966.67, 5657968.57], [414948.46, 5657967.75], [414936.64, 5657969.28], [414910.38, 5657976.88], [414891.63, 5657980.07], [414782.82, 5657989.1], [414708.51, 5657993.53], [414700.51, 5657992.73], [414636.33, 5657975.33], [414591.5, 5657965.06], [414565.05, 5657962.77], [414545.88, 5657963.7], [414521.19, 5657967.58], [414495.78, 5657975.22], [414473.34, 5657985.16], [414451.96, 5658000.0]]}}, {"type": "Feature", "properties": {"k": "way", "name": "Bautzner Stra\u00dfe"}, "geometry": {"type": "LineString", "coordinates": [[414118.51, 5658000.0], [414000.0, 5657969.31]]}}, {"type": "Feature", "properties": {"k": "way", "name": "Bautzner Stra\u00dfe"}, "geometry": {"type": "LineString", "coordinates": [[414000.0, 5657958.64], [414091.9, 5657978.75], [414169.1, 5658000.0]]}}, {"type": "Feature", "properties": {"k": "way", "name": "Bautzner Stra\u00dfe"}, "geometry": {"type": "LineString", "coordinates": [[414341.42, 5658000.0], [414378.24, 5657992.0], [414440.98, 5657986.69], [414461.6, 5657980.25], [414491.22, 5657967.04], [414540.77, 5657948.03], [414565.43, 5657944.14], [414590.82, 5657946.07], [414667.99, 5657965.25], [414728.46, 5657973.7], [414890.11, 5657964.33], [414922.45, 5657959.73], [414942.17, 5657958.83], [414966.95, 5657959.72], [414979.85, 5657966.33]]}}, {"type": "Feature", "properties": {"k": "way", "name": "Bautzner Stra\u00dfe"}, "geometry": {"type": "LineString", "coordinates": [[415070.71, 5657977.93], [414979.85, 5657966.33]]}}, {"type": "Feature", "properties": {"k": "way", "name": "Bautzner Stra\u00dfe"}, "geometry": {"type": "LineString", "coordinates": [[415248.06, 5657981.98], [415236.98, 5657991.24], [415232.48, 5657992.66], [415212.23, 5657996.59], [415190.12, 5657997.92], [415088.6, 5657985.56], [415077.42, 5657982.56], [415070.71, 5657977.93]]}}, {"type": "Feature", "properties": {"k": "way", "name": "Bautzner Stra\u00dfe"}, "geometry": {"type": "LineString", "coordinates": [[415070.71, 5657977.93], [415085.56, 5657973.83], [415188.54, 5657986.03], [415208.37, 5657985.05], [415229.75, 5657981.78], [415248.06, 5657981.98]]}}, {"type": "Feature", "properties": {"k": "way", "name": "Bautzner Stra\u00dfe"}, "geometry": {"type": "LineString", "coordinates": [[416000.0, 5657836.67], [415703.32, 5657850.88], [415682.29, 5657852.11], [415652.24, 5657856.45], [415622.29, 5657865.12], [415527.89, 5657907.89], [415477.13, 5657925.21], [415248.06, 5657981.98]]}}, {"type": "Feature", "properties": {"k": "way", "name": "Blasewitzer Stra\u00dfe"}, "geometry": {"type": "LineString", "coordinates": [[414000.0, 5656368.14], [414891.56, 5656497.62]]}}, {"type": "Feature", "properties": {"k": "way", "name": "Blumenstra\u00dfe"}, "geometry": {"type": "LineString", "coordinates": [[414000.0, 5657173.03], [414097.61, 5657192.65]]}}, {"type": "Feature", "properties": {"k": "way", "name": "Brockhausstra\u00dfe"}, "geometry": {"type": "LineString", "coordinates": [[415248.06, 5657981.98], [415247.39, 5657974.86], [415257.62, 5657862.73], [415203.43, 5657842.4], [415152.42, 5657817.87], [415094.05, 5657784.97]]}}, {"type": "Feature", "properties": {"k": "way", "name": "Burckhardtstra\u00dfe"}, "geometry": {"type": "LineString", "coordinates": [[414000.0, 5657090.49], [414102.76, 5657114.18]]}}, {"type": "Feature", "properties": {"k": "way", "name": "D\u00fcrerstra\u00dfe"}, "geometry": {"type": "LineString", "coordinates": [[414000.0, 5656197.78], [414328.46, 5656180.96], [414440.11, 5656173.72]]}}, {"type": "Feature", "properties": {"k": "way", "name": "Fensterchen"}, "geometry": {"type": "LineString", "coordinates": [[415958.6, 5657839.53], [416000.0, 5657867.1]]}}, {"type": "Feature", "properties": {"k": "way", "name": "Fetscherstra\u00dfe"}, "geometry": {"type": "LineString", "coordinates": [[414065.44, 5656000.0], [414293.5, 5656353.05]]}}, {"type": "Feature", "properties": {"k": "way", "name": "Fetscherstra\u00dfe"}, "geometry": {"type": "LineString", "coordinates": [[414284.51, 5657217.05], [414174.38, 5657212.59], [414156.09, 5657218.26], [414146.08, 5657224.07], [414129.92, 5657241.63], [414124.38, 5657255.57], [414120.1, 5657284.33]]}}, {"type": "Feature", "properties": {"k": "way", "name": "Fetscherstra\u00dfe"}, "geometry": {"type": "LineString", "coordinates": [[414259.28, 5656405.7], [414279.23, 5656398.29], [414290.95, 5656388.51], [414295.24, 5656371.5], [414293.5, 5656353.05]]}}, {"type": "Feature", "properties": {"k": "way", "name": "Fetscherstra\u00dfe"}, "geometry": {"type": "LineString", "coordinates": [[414284.51, 5657217.05], [414304.53, 5657236.54], [414304.76, 5657212.47]]}}, {"type": "Feature", "properties": {"k": "way", "name": "Fetscherstra\u00dfe"}, "geometry": {"type": "LineString", "coordinates": [[414284.51, 5657217.05], [414293.76, 5657212.84], [414304.76, 5657212.47]]}}, {"type": "Feature", "properties": {"k": "way", "name": "Fetscherstra\u00dfe"}, "geometry": {"type": "LineString", "coordinates": [[414293.5, 5656353.05], [414326.7, 5656404.18], [414332.32, 5656417.79], [414334.81, 5656428.99], [414342.91, 5656513.88], [414340.25, 5656607.25]]}}, {"type": "Feature", "properties": {"k": "way", "name": "Fetscherstra\u00dfe"}, "geometry": {"type": "LineString", "coordinates": [[414304.76, 5657212.47], [414311.66, 5657087.46], [414317.39, 5657068.17]]}}, {"type": "Feature", "properties": {"k": "way", "name": "Fetscherstra\u00dfe"}, "geometry": {"type": "LineString", "coordinates": [[414312.67, 5657223.24], [414309.66, 5657288.64]]}}, {"type": "Feature", "properties": {"k": "way", "name": "Fetscherstra\u00dfe"}, "geometry": {"type": "LineString", "coordinates": [[414313.95, 5657198.49], [414312.67, 5657223.24]]}}, {"type": "Feature", "properties": {"k": "way", "name": "Fetscherstra\u00dfe"}, "geometry": {"type": "LineString", "coordinates": [[414335.4, 5657219.55], [414323.64, 5657222.71], [414312.67, 5657223.24]]}}, {"type": "Feature", "properties": {"k": "way", "name": "Fetscherstra\u00dfe"}, "geometry": {"type": "LineString", "coordinates": [[414313.95, 5657198.49], [414323.75, 5657210.68], [414335.4, 5657219.55]]}}, {"type": "Feature", "properties": {"k": "way", "name": "Fetscherstra\u00dfe"}, "geometry": {"type": "LineString", "coordinates": [[414317.39, 5657068.17], [414323.07, 5657088.05], [414321.14, 5657124.28], [414316.27, 5657159.52], [414313.95, 5657198.49]]}}, {"type": "Feature", "properties": {"k": "way", "name": "Fetscherstra\u00dfe"}, "geometry": {"type": "LineString", "coordinates": [[414322.18, 5656942.59], [414317.04, 5657041.72], [414317.39, 5657068.17]]}}, {"type": "Feature", "properties": {"k": "way", "name": "Fetscherstra\u00dfe"}, "geometry": {"type": "LineString", "coordinates": [[414322.18, 5656942.59], [414318.95, 5656915.34], [414325.57, 5656784.05], [414331.29, 5656766.81]]}}, {"type": "Feature", "properties": {"k": "way", "name": "Fetscherstra\u00dfe"}, "geometry": {"type": "LineString", "coordinates": [[414331.29, 5656766.81], [414335.56, 5656784.57], [414328.53, 5656915.75], [414322.18, 5656942.59]]}}, {"type": "Feature", "properties": {"k": "way", "name": "Fetscherstra\u00dfe"}, "geometry": {"type": "LineString", "coordinates": [[414332.65, 5656739.35], [414331.29, 5656766.81]]}}, {"type": "Feature", "properties": {"k": "way", "name": "Fetscherstra\u00dfe"}, "geometry": {"type": "LineString", "coordinates": [[414332.65, 5656739.35], [414329.35, 5656716.8], [414334.71, 5656621.32], [414340.25, 5656607.25]]}}, {"type": "Feature", "properties": {"k": "way", "name": "Fetscherstra\u00dfe"}, "geometry": {"type": "LineString", "coordinates": [[414340.25, 5656607.25], [414344.01, 5656620.79], [414339.03, 5656717.08], [414332.65, 5656739.35]]}}, {"type": "Feature", "properties": {"k": "way", "name": "Fetscherstra\u00dfe"}, "geometry": {"type": "LineString", "coordinates": [[414335.4, 5657219.55], [414390.38, 5657221.63], [414410.04, 5657224.89], [414421.51, 5657228.46], [414432.97, 5657235.52], [414447.94, 5657248.16], [414458.17, 5657262.64], [414465.06, 5657280.88], [414467.03, 5657301.65]]}}, {"type": "Feature", "properties": {"k": "way", "name": "Fetscherstra\u00dfe"}, "geometry": {"type": "LineString", "coordinates": [[414343.34, 5657213.1], [414397.4, 5657214.79], [414411.46, 5657217.27], [414426.63, 5657222.69], [414440.86, 5657230.81], [414453.69, 5657242.13], [414464.18, 5657255.38], [414478.94, 5657283.89]]}}, {"type": "Feature", "properties": {"k": "way", "name": "Fiedlerstra\u00dfe"}, "geometry": {"type": "LineString", "coordinates": [[414000.0, 5656481.13], [414112.67, 5656499.69], [414516.91, 5656557.12], [414649.2, 5656574.38]]}}, {"type": "Feature", "properties": {"k": "way", "name": "Fiedlerstra\u00dfe"}, "geometry": {"type": "LineString", "coordinates": [[414649.2, 5656574.38], [414773.51, 5656590.44], [414893.55, 5656563.78]]}}, {"type": "Feature", "properties": {"k": "way", "name": "Fiedlerstra\u00dfe"}, "geometry": {"type": "LineString", "coordinates": [[414649.2, 5656574.38], [414651.07, 5656693.97]]}}, {"type": "Feature", "properties": {"k": "way", "name": "Fischhausstra\u00dfe"}, "geometry": {"type": "LineString", "coordinates": [[414907.7, 5657962.53], [414912.04, 5657986.48], [414917.36, 5658000.0]]}}, {"type": "Feature", "properties": {"k": "way", "name": "Forsthausstra\u00dfe"}, "geometry": {"type": "LineString", "coordinates": [[415023.09, 5656517.05], [415021.8, 5656360.47], [415014.31, 5656323.73]]}}, {"type": "Feature", "properties": {"k": "way", "name": "Frankenstra\u00dfe"}, "geometry": {"type": "LineString", "coordinates": [[415498.28, 5656474.03], [415468.91, 5656345.23], [415463.16, 5656284.35], [415466.5, 5656236.42], [415476.19, 5656191.81], [415475.69, 5656178.45], [415453.8, 5656079.05], [415451.61, 5656055.59], [415453.57, 5656018.93], [415457.65, 5656000.0]]}}, {"type": "Feature", "properties": {"k": "way", "name": "Friedensplatz"}, "geometry": {"type": "LineString", "coordinates": [[415340.07, 5656279.58], [415352.82, 5656349.96], [415350.71, 5656355.62], [415345.56, 5656361.18], [415332.9, 5656367.09], [415326.77, 5656367.6], [415319.86, 5656365.84], [415313.16, 5656361.95], [415308.13, 5656354.61], [415292.93, 5656287.77]]}}, {"type": "Feature", "properties": {"k": "way", "name": "Friedensplatz"}, "geometry": {"type": "LineString", "coordinates": [[415292.93, 5656287.77], [415291.54, 5656281.66], [415292.25, 5656274.54], [415296.98, 5656263.19], [415303.52, 5656258.27], [415310.1, 5656256.58], [415322.16, 5656256.91], [415330.97, 5656260.03], [415338.43, 5656271.01], [415340.07, 5656279.58]]}}, {"type": "Feature", "properties": {"k": "way", "name": "Friedensplatz"}, "geometry": {"type": "LineString", "coordinates": [[415292.93, 5656287.77], [415340.07, 5656279.58]]}}, {"type": "Feature", "properties": {"k": "way", "name": "Gabelsbergerstra\u00dfe"}, "geometry": {"type": "LineString", "coordinates": [[414000.0, 5656090.95], [414113.21, 5656073.94], [414291.84, 5656000.0]]}}, {"type": "Feature", "properties": {"k": "way", "name": "Gluckstra\u00dfe"}, "geometry": {"type": "LineString", "coordinates": [[414328.46, 5656180.96], [414349.49, 5656380.26]]}}, {"type": "Feature", "properties": {"k": "way", "name": "Goetheallee"}, "geometry": {"type": "LineString", "coordinates": [[414932.18, 5657133.16], [415069.65, 5657072.34], [415116.0, 5657056.38], [415195.84, 5657033.33], [415654.28, 5656915.92], [415861.79, 5656803.4], [415906.38, 5656773.29], [416000.0, 5656705.77]]}}, {"type": "Feature", "properties": {"k": "way", "name": "Hassestra\u00dfe"}, "geometry": {"type": "LineString", "coordinates": [[414340.94, 5656296.13], [414526.08, 5656284.14]]}}, {"type": "Feature", "properties": {"k": "way", "name": "Heilst\u00e4ttenweg"}, "geometry": {"type": "LineString", "coordinates": [[416000.0, 5657466.37], [415967.07, 5657452.95], [415955.68, 5657442.79], [415944.27, 5657423.89]]}}, {"type": "Feature", "properties": {"k": "way", "name": "Huttenstra\u00dfe"}, "geometry": {"type": "LineString", "coordinates": [[414302.1, 5656000.0], [414326.07, 5656028.07], [414526.08, 5656284.14], [414610.25, 5656389.37]]}}, {"type": "Feature", "properties": {"k": "way", "name": "H\u00e4mmerchen"}, "geometry": {"type": "LineString", "coordinates": [[415641.99, 5658000.0], [415614.08, 5657981.93], [415600.52, 5657983.35]]}}, {"type": "Feature", "properties": {"k": "way", "name": "H\u00e4ndelallee"}, "geometry": {"type": "LineString", "coordinates": [[415057.66, 5657200.44], [415028.17, 5657081.72], [415016.86, 5656901.79], [415021.1, 5656543.5], [415023.09, 5656517.05]]}}, {"type": "Feature", "properties": {"k": "way", "name": "H\u00fcblerplatz"}, "geometry": {"type": "LineString", "coordinates": [[415502.24, 5656000.0], [415500.51, 5656004.82]]}}, {"type": "Feature", "properties": {"k": "way", "name": "H\u00fcblerstra\u00dfe"}, "geometry": {"type": "LineString", "coordinates": [[416000.0, 5656149.79], [415951.57, 5656136.2], [415886.58, 5656120.82], [415864.51, 5656116.43], [415786.99, 5656106.9], [415750.75, 5656096.64], [415709.19, 5656082.96], [415487.73, 5656000.0]]}}, {"type": "Feature", "properties": {"k": "way", "name": "Jacobistra\u00dfe"}, "geometry": {"type": "LineString", "coordinates": [[415643.92, 5656000.0], [415671.98, 5656041.9], [415671.07, 5656068.49]]}}, {"type": "Feature", "properties": {"k": "way", "name": "Justinenstra\u00dfe"}, "geometry": {"type": "LineString", "coordinates": [[416000.0, 5656231.54], [415924.42, 5656156.47]]}}, {"type": "Feature", "properties": {"k": "way", "name": "Klarastra\u00dfe"}, "geometry": {"type": "LineString", "coordinates": [[414655.03, 5658000.0], [414658.33, 5657994.17], [414661.79, 5657982.27]]}}, {"type": "Feature", "properties": {"k": "way", "name": "Kreutzerstra\u00dfe"}, "geometry": {"type": "LineString", "coordinates": [[414087.24, 5656193.36], [414090.23, 5656217.17], [414112.63, 5656304.2]]}}, {"type": "Feature", "properties": {"k": "way", "name": "Kyffh\u00e4userstra\u00dfe"}, "geometry": {"type": "LineString", "coordinates": [[415080.88, 5656198.45], [415089.81, 5656198.84], [415292.0, 5656157.48], [415462.36, 5656119.12], [415640.51, 5656082.07], [415668.29, 5656075.58], [415671.07, 5656068.49]]}}, {"type": "Feature", "properties": {"k": "way", "name": "K\u00e4the-Kollwitz-Ufer"}, "geometry": {"type": "LineString", "coordinates": [[414000.0, 5657266.83], [414120.1, 5657284.33], [414213.87, 5657295.69], [414293.13, 5657302.74], [414348.47, 5657304.77], [414484.32, 5657300.96], [414641.59, 5657289.38], [414751.62, 5657275.87], [414827.65, 5657263.14], [414940.96, 5657225.53], [414969.48, 5657217.4], [415201.91, 5657172.42], [415250.45, 5657161.62], [415402.79, 5657119.44], [415553.87, 5657072.55], [415603.63, 5657053.56], [415676.66, 5657021.43], [415802.42, 5656961.64], [415885.99, 5656912.77], [415966.07, 5656854.26], [415988.48, 5656834.75], [416000.0, 5656820.83]]}}, {"type": "Feature", "properties": {"k": "way", "name": "K\u00f6nigsheimplatz"}, "geometry": {"type": "LineString", "coordinates": [[414891.56, 5656497.62], [415023.09, 5656517.05]]}}, {"type": "Feature", "properties": {"k": "way", "name": "K\u00f6rnerweg"}, "geometry": {"type": "LineString", "coordinates": [[414000.0, 5657813.71], [414071.9, 5657824.87], [414191.93, 5657850.7], [414232.33, 5657857.03], [414266.87, 5657860.35], [414307.41, 5657860.8], [414344.17, 5657858.28], [414379.14, 5657853.84], [414457.7, 5657838.84]]}}, {"type": "Feature", "properties": {"k": "way", "name": "K\u00f6rnerweg"}, "geometry": {"type": "LineString", "coordinates": [[415057.16, 5657719.3], [415246.55, 5657664.99], [415317.38, 5657646.23], [415420.45, 5657614.48], [415577.91, 5657577.49], [415790.37, 5657502.35], [415878.19, 5657460.35], [415906.78, 5657449.64]]}}, {"type": "Feature", "properties": {"k": "way", "name": "Lene-Glatzer-Stra\u00dfe"}, "geometry": {"type": "LineString", "coordinates": [[415254.9, 5656000.0], [415264.53, 5656047.69], [415292.0, 5656157.48], [415310.1, 5656256.58]]}}, {"type": "Feature", "properties": {"k": "way", "name": "Lene-Glatzer-Stra\u00dfe"}, "geometry": {"type": "LineString", "coordinates": [[415359.53, 5656499.14], [415332.9, 5656367.09]]}}, {"type": "Feature", "properties": {"k": "way", "name": "Lortzingstra\u00dfe"}, "geometry": {"type": "LineString", "coordinates": [[414006.13, 5656482.21], [414021.78, 5656371.25], [414000.0, 5656287.24]]}}, {"type": "Feature", "properties": {"k": "way", "name": "Loschwitzer Stra\u00dfe"}, "geometry": {"type": "LineString", "coordinates": [[415023.09, 5656517.05], [415041.58, 5656518.34], [415220.16, 5656504.2], [415395.41, 5656497.23], [416000.0, 5656357.15]]}}, {"type": "Feature", "properties": {"k": "way", "name": "Lothringer Weg"}, "geometry": {"type": "LineString", "coordinates": [[415402.79, 5657119.44], [415375.57, 5656987.69], [415356.89, 5656909.87], [415351.51, 5656864.87], [415350.11, 5656810.69], [415351.56, 5656780.3], [415356.19, 5656750.55], [415373.45, 5656684.69], [415376.96, 5656652.1], [415377.02, 5656615.61], [415373.47, 5656580.82], [415359.53, 5656499.14]]}}, {"type": "Feature", "properties": {"k": "way", "name": "L\u00f6scherstra\u00dfe"}, "geometry": {"type": "LineString", "coordinates": [[415022.33, 5656389.97], [414948.74, 5656393.75], [414935.74, 5656393.13], [414925.55, 5656390.13], [414916.06, 5656384.92], [414619.54, 5656000.0]]}}, {"type": "Feature", "properties": {"k": "way", "name": "Mendelssohnallee"}, "geometry": {"type": "LineString", "coordinates": [[415067.87, 5656516.28], [415065.8, 5656450.53], [415072.4, 5656429.2], [415096.56, 5656400.2], [415129.65, 5656369.62], [415191.1, 5656326.08], [415246.22, 5656301.92], [415292.93, 5656287.77]]}}, {"type": "Feature", "properties": {"k": "way", "name": "Mendelssohnallee"}, "geometry": {"type": "LineString", "coordinates": [[415340.07, 5656279.58], [415386.05, 5656276.29], [415430.43, 5656277.77], [415463.16, 5656284.35], [415508.48, 5656296.18], [415538.69, 5656305.45], [415569.4, 5656318.98], [415605.52, 5656348.74], [415625.35, 5656372.97], [415640.87, 5656441.37]]}}, {"type": "Feature", "properties": {"k": "way", "name": "Mildred-Scheel-Stra\u00dfe"}, "geometry": {"type": "LineString", "coordinates": [[414773.51, 5656590.44], [414795.64, 5656423.14]]}}, {"type": "Feature", "properties": {"k": "way", "name": "Neubertstra\u00dfe"}, "geometry": {"type": "LineString", "coordinates": [[414095.64, 5657259.69], [414092.5, 5657253.78], [414092.13, 5657248.27], [414097.61, 5657192.65], [414102.76, 5657114.18], [414121.04, 5656758.38]]}}, {"type": "Feature", "properties": {"k": "way", "name": "Niederwaldstra\u00dfe"}, "geometry": {"type": "LineString", "coordinates": [[415773.59, 5656000.0], [415671.07, 5656068.49]]}}, {"type": "Feature", "properties": {"k": "way", "name": "Oberkiesweg"}, "geometry": {"type": "LineString", "coordinates": [[414078.21, 5657847.0], [414210.52, 5657965.22], [414219.42, 5657971.16], [414236.82, 5657978.95], [414265.82, 5657985.53], [414290.1, 5657985.75], [414310.02, 5657982.12], [414312.1, 5657989.49], [414321.4, 5657986.92], [414347.54, 5657960.96], [414457.77, 5657841.15], [414457.7, 5657838.84]]}}, {"type": "Feature", "properties": {"k": "way", "name": "Paul-Gerhardt-Stra\u00dfe"}, "geometry": {"type": "LineString", "coordinates": [[414461.22, 5656000.0], [414471.57, 5656012.85]]}}, {"type": "Feature", "properties": {"k": "way", "name": "Paul-Gerhardt-Stra\u00dfe"}, "geometry": {"type": "LineString", "coordinates": [[414471.57, 5656012.85], [414571.75, 5656137.46], [414707.98, 5656315.38]]}}, {"type": "Feature", "properties": {"k": "way", "name": "Paul-Gerhardt-Stra\u00dfe"}, "geometry": {"type": "LineString", "coordinates": [[414471.57, 5656012.85], [414450.83, 5656030.32], [414490.88, 5656081.74]]}}, {"type": "Feature", "properties": {"k": "way", "name": "Paulusplatz"}, "geometry": {"type": "LineString", "coordinates": [[415886.58, 5656120.82], [415924.42, 5656156.47]]}}, {"type": "Feature", "properties": {"k": "way", "name": "Pfotenhauerstra\u00dfe"}, "geometry": {"type": "LineString", "coordinates": [[414000.0, 5656966.65], [414317.39, 5657068.17], [414916.99, 5657134.49], [414932.18, 5657133.16]]}}, {"type": "Feature", "properties": {"k": "way", "name": "Pohlandstra\u00dfe"}, "geometry": {"type": "LineString", "coordinates": [[415959.94, 5656129.82], [415872.8, 5656000.0]]}}, {"type": "Feature", "properties": {"k": "way", "name": "Prellerstra\u00dfe"}, "geometry": {"type": "LineString", "coordinates": [[415631.96, 5656054.09], [415629.18, 5656060.19], [415671.93, 5656142.69], [415701.63, 5656251.67], [415710.67, 5656278.71], [415722.55, 5656302.2], [415811.11, 5656401.38], [415976.15, 5656596.58], [416000.0, 5656631.64]]}}, {"type": "Feature", "properties": {"k": "way", "name": "Regerstra\u00dfe"}, "geometry": {"type": "LineString", "coordinates": [[415750.75, 5656096.64], [415746.39, 5656110.37], [415825.87, 5656228.56], [415963.97, 5656364.89], [416000.0, 5656395.23]]}}, {"type": "Feature", "properties": {"k": "way", "name": "Schubertstra\u00dfe"}, "geometry": {"type": "LineString", "coordinates": [[414891.56, 5656497.62], [414900.95, 5656878.13], [414932.18, 5657133.16], [414958.79, 5657220.44]]}}, {"type": "Feature", "properties": {"k": "way", "name": "Senefelderstra\u00dfe"}, "geometry": {"type": "LineString", "coordinates": [[414948.74, 5656393.75], [414956.72, 5656507.07]]}}, {"type": "Feature", "properties": {"k": "way", "name": "Sickingenstra\u00dfe"}, "geometry": {"type": "LineString", "coordinates": [[415451.61, 5656055.59], [415264.53, 5656047.69]]}}, {"type": "Feature", "properties": {"k": "way", "name": "Spenerstra\u00dfe"}, "geometry": {"type": "LineString", "coordinates": [[414933.25, 5656000.0], [415080.88, 5656198.45]]}}, {"type": "Feature", "properties": {"k": "way", "name": "Tatzberg"}, "geometry": {"type": "LineString", "coordinates": [[414000.0, 5656753.54], [414331.29, 5656766.81]]}}, {"type": "Feature", "properties": {"k": "way", "name": "Terscheckstra\u00dfe"}, "geometry": {"type": "LineString", "coordinates": [[414115.48, 5656866.74], [414084.59, 5656865.7]]}}, {"type": "Feature", "properties": {"k": "way", "name": "Teutoburgstra\u00dfe"}, "geometry": {"type": "LineString", "coordinates": [[414852.5, 5656379.67], [415027.14, 5656244.16]]}}, {"type": "Feature", "properties": {"k": "way", "name": "Thielaustra\u00dfe"}, "geometry": {"type": "LineString", "coordinates": [[415971.25, 5656000.0], [416000.0, 5656038.59]]}}, {"type": "Feature", "properties": {"k": "way", "name": "Tittmannstra\u00dfe"}, "geometry": {"type": "LineString", "coordinates": [[415014.31, 5656323.73], [415002.95, 5656301.96], [414984.54, 5656276.86], [414773.49, 5656000.0]]}}, {"type": "Feature", "properties": {"k": "way", "name": "Treidelpfad"}, "geometry": {"type": "LineString", "coordinates": [[415019.2, 5657679.61], [415052.6, 5657673.97], [415097.37, 5657664.02], [415116.14, 5657663.6], [415131.22, 5657657.89], [415175.56, 5657647.73], [415308.44, 5657621.61], [415550.86, 5657565.35], [415616.24, 5657546.36], [415680.56, 5657525.41], [415764.09, 5657495.43], [415874.42, 5657448.46], [415896.65, 5657444.39], [415906.78, 5657449.64]]}}, {"type": "Feature", "properties": {"k": "way", "name": "Tzschimmerstra\u00dfe"}, "geometry": {"type": "LineString", "coordinates": [[415763.63, 5656006.66], [415759.08, 5656000.0]]}}, {"type": "Feature", "properties": {"k": "way", "name": "Vogesenweg"}, "geometry": {"type": "LineString", "coordinates": [[415912.45, 5656893.77], [415867.11, 5656809.57], [415858.8, 5656797.19], [415853.19, 5656761.65], [415849.66, 5656752.27], [415842.7, 5656736.75], [415819.18, 5656699.09], [415782.88, 5656656.04], [415760.53, 5656635.12], [415726.51, 5656610.92], [415701.96, 5656588.87], [415672.35, 5656553.41], [415665.13, 5656540.3], [415659.89, 5656525.25], [415640.87, 5656441.37]]}}, {"type": "Feature", "properties": {"k": "way", "name": "Waldparkstra\u00dfe"}, "geometry": {"type": "LineString", "coordinates": [[416000.0, 5656572.54], [415925.74, 5656622.42], [415819.18, 5656699.09]]}}, {"type": "Feature", "properties": {"k": "way", "name": "Waldschl\u00f6\u00dfchenbr\u00fccke"}, "geometry": {"type": "LineString", "coordinates": [[414261.68, 5657982.85], [414272.14, 5657969.43]]}}, {"type": "Feature", "properties": {"k": "way", "name": "Waldschl\u00f6\u00dfchenbr\u00fccke"}, "geometry": {"type": "LineString", "coordinates": [[414271.23, 5657983.44], [414272.14, 5657969.43]]}}, {"type": "Feature", "properties": {"k": "way", "name": "Waldschl\u00f6\u00dfchenbr\u00fccke"}, "geometry": {"type": "LineString", "coordinates": [[414272.14, 5657969.43], [414276.81, 5657897.98], [414304.53, 5657236.54]]}}, {"type": "Feature", "properties": {"k": "way", "name": "Waldschl\u00f6\u00dfchenbr\u00fccke"}, "geometry": {"type": "LineString", "coordinates": [[414281.75, 5657970.02], [414281.23, 5657984.03]]}}, {"type": "Feature", "properties": {"k": "way", "name": "Waldschl\u00f6\u00dfchenbr\u00fccke"}, "geometry": {"type": "LineString", "coordinates": [[414281.75, 5657970.02], [414285.89, 5657983.74]]}}, {"type": "Feature", "properties": {"k": "way", "name": "Waldschl\u00f6\u00dfchenbr\u00fccke"}, "geometry": {"type": "LineString", "coordinates": [[414309.66, 5657288.64], [414281.75, 5657970.02]]}}, {"type": "Feature", "properties": {"k": "way", "name": "Waldschl\u00f6\u00dfchentunnel"}, "geometry": {"type": "LineString", "coordinates": [[414269.76, 5658000.0], [414271.23, 5657983.44]]}}, {"type": "Feature", "properties": {"k": "way", "name": "Wartburgstra\u00dfe"}, "geometry": {"type": "LineString", "coordinates": [[414471.76, 5656096.95], [414415.17, 5656141.98]]}}, {"type": "Feature", "properties": {"k": "way", "name": "Wartburgstra\u00dfe"}, "geometry": {"type": "LineString", "coordinates": [[414440.11, 5656173.72], [414448.82, 5656164.63], [414496.59, 5656127.77]]}}, {"type": "Feature", "properties": {"k": "way", "name": "Wartburgstra\u00dfe"}, "geometry": {"type": "LineString", "coordinates": [[414496.59, 5656127.77], [414471.76, 5656096.95]]}}, {"type": "Feature", "properties": {"k": "way", "name": "Wartburgstra\u00dfe"}, "geometry": {"type": "LineString", "coordinates": [[414490.88, 5656081.74], [414471.76, 5656096.95]]}}, {"type": "Feature", "properties": {"k": "way", "name": "Wartburgstra\u00dfe"}, "geometry": {"type": "LineString", "coordinates": [[414669.16, 5656065.08], [414571.75, 5656137.46], [414474.54, 5656218.15]]}}, {"type": "Feature", "properties": {"k": "way", "name": "Wartburgstra\u00dfe"}, "geometry": {"type": "LineString", "coordinates": [[414496.59, 5656127.77], [414661.87, 5656000.0]]}}, {"type": "Feature", "properties": {"k": "way", "name": "Wilhelminenstra\u00dfe"}, "geometry": {"type": "LineString", "coordinates": [[415179.03, 5658000.0], [415182.41, 5657993.26], [415188.54, 5657986.03]]}}, {"type": "Feature", "properties": {"k": "way", "name": "Wittenberger Stra\u00dfe"}, "geometry": {"type": "LineString", "coordinates": [[414888.87, 5656000.0], [414624.45, 5656205.54], [414526.08, 5656284.14]]}}, {"type": "Feature", "properties": {"k": "way", "name": "Wormser Stra\u00dfe"}, "geometry": {"type": "LineString", "coordinates": [[414186.62, 5656187.59], [414227.08, 5656154.71], [414432.31, 5656000.0]]}}, {"type": "Feature", "properties": {"k": "way", "name": "W\u00e4gnerstra\u00dfe"}, "geometry": {"type": "LineString", "coordinates": [[416000.0, 5656095.0], [415959.94, 5656129.82], [415924.42, 5656156.47], [415625.35, 5656372.97]]}}]}