{"type": "FeatureCollection", "attribution": "\u00a9 OpenStreetMap contributors (ODbL)", "crs": {"type": "name", "properties": {"name": "urn:ogc:def:crs:EPSG::25833"}}, "features": [{"type": "Feature", "properties": {"k": "label", "name": "17", "c": "minor"}, "geometry": {"type": "LineString", "coordinates": [[415907.21, 5659848.47], [415922.58, 5659824.59]]}}, {"type": "Feature", "properties": {"k": "label", "name": "18", "c": "minor"}, "geometry": {"type": "LineString", "coordinates": [[415447.52, 5659772.21], [415432.56, 5659796.35]]}}, {"type": "Feature", "properties": {"k": "label", "name": "18", "c": "minor"}, "geometry": {"type": "LineString", "coordinates": [[415786.92, 5659244.05], [415801.88, 5659219.91]]}}, {"type": "Feature", "properties": {"k": "label", "name": "19", "c": "minor"}, "geometry": {"type": "LineString", "coordinates": [[414890.77, 5659846.93], [414905.92, 5659822.91]]}}, {"type": "Feature", "properties": {"k": "label", "name": "19", "c": "minor"}, "geometry": {"type": "LineString", "coordinates": [[415165.95, 5659418.93], [415181.57, 5659395.21]]}}, {"type": "Feature", "properties": {"k": "label", "name": "19", "c": "minor"}, "geometry": {"type": "LineString", "coordinates": [[415438.88, 5658990.54], [415453.47, 5658966.17]]}}, {"type": "Feature", "properties": {"k": "label", "name": "19", "c": "minor"}, "geometry": {"type": "LineString", "coordinates": [[415872.83, 5658292.88], [415859.97, 5658318.21]]}}, {"type": "Feature", "properties": {"k": "label", "name": "Alte 4", "c": "minor"}, "geometry": {"type": "LineString", "coordinates": [[415044.44, 5658821.16], [415060.94, 5658837.57], [415075.56, 5658853.84]]}}, {"type": "Feature", "properties": {"k": "label", "name": "Alte 4", "c": "minor"}, "geometry": {"type": "LineString", "coordinates": [[415457.51, 5659190.52], [415495.2, 5659215.48]]}}, {"type": "Feature", "properties": {"k": "label", "name": "Alte 4", "c": "minor"}, "geometry": {"type": "LineString", "coordinates": [[415866.4, 5659409.05], [415897.02, 5659442.29]]}}, {"type": "Feature", "properties": {"k": "label", "name": "Alte 8", "c": "minor"}, "geometry": {"type": "LineString", "coordinates": [[415924.36, 5658780.48], [415969.26, 5658785.69]]}}, {"type": "Feature", "properties": {"k": "label", "name": "Alte Radeberger Stra\u00dfe", "c": "minor"}, "geometry": {"type": "LineString", "coordinates": [[415568.42, 5659084.62], [415512.48, 5659182.1]]}}, {"type": "Feature", "properties": {"k": "label", "name": "Alte Radeberger Stra\u00dfe", "c": "minor"}, "geometry": {"type": "LineString", "coordinates": [[415658.38, 5659445.62], [415702.47, 5659450.79], [415769.21, 5659463.86]]}}, {"type": "Feature", "properties": {"k": "label", "name": "Alter Kannenhenkel", "c": "minor"}, "geometry": {"type": "LineString", "coordinates": [[414583.55, 5659943.94], [414517.97, 5659874.39]]}}, {"type": "Feature", "properties": {"k": "label", "name": "Am Brauhaus", "c": "minor"}, "geometry": {"type": "LineString", "coordinates": [[414423.66, 5658148.34], [414488.41, 5658134.57]]}}, {"type": "Feature", "properties": {"k": "label", "name": "Am J\u00e4gerpark", "c": "minor"}, "geometry": {"type": "LineString", "coordinates": [[415098.65, 5658667.62], [415081.06, 5658657.51], [415036.18, 5658635.21]]}}, {"type": "Feature", "properties": {"k": "label", "name": "Am Waldschl\u00f6\u00dfchen", "c": "minor"}, "geometry": {"type": "LineString", "coordinates": [[414457.77, 5658250.87], [414448.71, 5658207.16], [414436.84, 5658161.93]]}}, {"type": "Feature", "properties": {"k": "label", "name": "Angelikastra\u00dfe", "c": "minor"}, "geometry": {"type": "LineString", "coordinates": [[414741.86, 5658088.16], [414775.97, 5658159.19]]}}, {"type": "Feature", "properties": {"k": "label", "name": "Arndtstra\u00dfe", "c": "minor"}, "geometry": {"type": "LineString", "coordinates": [[414067.51, 5658109.4], [414080.96, 5658115.76], [414130.46, 5658129.33]]}}, {"type": "Feature", "properties": {"k": "label", "name": "Auf dem Meisenberg", "c": "minor"}, "geometry": {"type": "LineString", "coordinates": [[414594.63, 5658172.01], [414566.88, 5658080.53]]}}, {"type": "Feature", "properties": {"k": "label", "name": "Bautzner Stra\u00dfe", "c": "main"}, "geometry": {"type": "LineString", "coordinates": [[414267.86, 5658040.89], [414187.86, 5658018.81]]}}, {"type": "Feature", "properties": {"k": "label", "name": "Bettinastra\u00dfe", "c": "minor"}, "geometry": {"type": "LineString", "coordinates": [[414679.26, 5658160.89], [414743.54, 5658123.02]]}}, {"type": "Feature", "properties": {"k": "label", "name": "Bl\u00fcmpenweg", "c": "minor"}, "geometry": {"type": "LineString", "coordinates": [[415827.14, 5659059.72], [415807.15, 5659032.53], [415786.68, 5659013.06]]}}, {"type": "Feature", "properties": {"k": "label", "name": "Bl\u00fcmpenweg", "c": "minor"}, "geometry": {"type": "LineString", "coordinates": [[415782.82, 5659826.92], [415829.82, 5659786.5]]}}, {"type": "Feature", "properties": {"k": "label", "name": "B\u00f6hmertstra\u00dfe", "c": "minor"}, "geometry": {"type": "LineString", "coordinates": [[414861.82, 5658175.14], [414864.41, 5658172.75], [414875.41, 5658166.33], [414885.54, 5658162.21], [414930.45, 5658147.03]]}}, {"type": "Feature", "properties": {"k": "label", "name": "Charlottenstra\u00dfe", "c": "main"}, "geometry": {"type": "LineString", "coordinates": [[414556.29, 5658302.05], [414640.35, 5658278.87]]}}, {"type": "Feature", "properties": {"k": "label", "name": "Doppel E", "c": "minor"}, "geometry": {"type": "LineString", "coordinates": [[415960.41, 5658879.72], [415909.21, 5658863.86]]}}, {"type": "Feature", "properties": {"k": "label", "name": "E-Fl\u00fcgel", "c": "minor"}, "geometry": {"type": "LineString", "coordinates": [[414730.91, 5659311.41], [414777.04, 5659338.71]]}}, {"type": "Feature", "properties": {"k": "label", "name": "E-Fl\u00fcgel", "c": "minor"}, "geometry": {"type": "LineString", "coordinates": [[415188.55, 5659599.0], [415234.18, 5659627.13]]}}, {"type": "Feature", "properties": {"k": "label", "name": "E-Fl\u00fcgel", "c": "minor"}, "geometry": {"type": "LineString", "coordinates": [[415638.68, 5659892.81], [415683.64, 5659921.98]]}}, {"type": "Feature", "properties": {"k": "label", "name": "Fischhausstra\u00dfe", "c": "main"}, "geometry": {"type": "LineString", "coordinates": [[414982.04, 5658147.53], [414999.55, 5658181.61], [415025.98, 5658217.62]]}}, {"type": "Feature", "properties": {"k": "label", "name": "Fischhausstra\u00dfe", "c": "main"}, "geometry": {"type": "LineString", "coordinates": [[415291.61, 5658526.41], [415296.55, 5658531.22], [415355.46, 5658579.41]]}}, {"type": "Feature", "properties": {"k": "label", "name": "Gabel", "c": "minor"}, "geometry": {"type": "LineString", "coordinates": [[415181.82, 5659919.38], [415140.86, 5659920.74]]}}, {"type": "Feature", "properties": {"k": "label", "name": "Heideblick", "c": "minor"}, "geometry": {"type": "LineString", "coordinates": [[415088.32, 5658359.86], [415070.47, 5658374.7], [415051.48, 5658395.63], [415043.37, 5658402.34]]}}, {"type": "Feature", "properties": {"k": "label", "name": "Heideparkstra\u00dfe", "c": "main"}, "geometry": {"type": "LineString", "coordinates": [[414868.79, 5658248.61], [414951.61, 5658243.19]]}}, {"type": "Feature", "properties": {"k": "label", "name": "Hopfenweg", "c": "minor"}, "geometry": {"type": "LineString", "coordinates": [[414504.7, 5658184.57], [414505.18, 5658242.36]]}}, {"type": "Feature", "properties": {"k": "label", "name": "H\u00e4mmerchen", "c": "minor"}, "geometry": {"type": "LineString", "coordinates": [[415854.97, 5658056.92], [415826.01, 5658047.12], [415795.15, 5658041.28]]}}, {"type": "Feature", "properties": {"k": "label", "name": "Judeichstra\u00dfe", "c": "minor"}, "geometry": {"type": "LineString", "coordinates": [[414811.6, 5658095.08], [414856.77, 5658078.24], [414880.36, 5658066.4]]}}, {"type": "Feature", "properties": {"k": "label", "name": "J\u00e4gerpark", "c": "minor"}, "geometry": {"type": "LineString", "coordinates": [[414599.14, 5658519.78], [414614.96, 5658567.7], [414617.66, 5658573.01], [414618.83, 5658573.75]]}}, {"type": "Feature", "properties": {"k": "label", "name": "Klarastra\u00dfe", "c": "minor"}, "geometry": {"type": "LineString", "coordinates": [[414666.1, 5658152.24], [414645.28, 5658089.4]]}}, {"type": "Feature", "properties": {"k": "label", "name": "Kuhschwanz", "c": "minor"}, "geometry": {"type": "LineString", "coordinates": [[415819.64, 5659896.48], [415763.47, 5659870.25]]}}, {"type": "Feature", "properties": {"k": "label", "name": "Kuhschwanz", "c": "minor"}, "geometry": {"type": "LineString", "coordinates": [[415346.26, 5659664.51], [415307.04, 5659619.58], [415304.73, 5659619.08]]}}, {"type": "Feature", "properties": {"k": "label", "name": "Kuhschwanz", "c": "minor"}, "geometry": {"type": "LineString", "coordinates": [[414862.76, 5659250.44], [414841.19, 5659238.75], [414809.22, 5659219.24]]}}, {"type": "Feature", "properties": {"k": "label", "name": "Louis-Braille-Stra\u00dfe", "c": "minor"}, "geometry": {"type": "LineString", "coordinates": [[414067.81, 5658165.98], [414080.96, 5658115.76], [414095.56, 5658065.77]]}}, {"type": "Feature", "properties": {"k": "label", "name": "Marienallee", "c": "minor"}, "geometry": {"type": "LineString", "coordinates": [[414143.48, 5659361.7], [414118.92, 5659300.22]]}}, {"type": "Feature", "properties": {"k": "label", "name": "Mathias-Oeder-Stra\u00dfe", "c": "minor"}, "geometry": {"type": "LineString", "coordinates": [[415089.79, 5658492.8], [415165.4, 5658537.51], [415179.76, 5658544.89]]}}, {"type": "Feature", "properties": {"k": "label", "name": "Moritzburg-Pillnitzer Weg", "c": "minor"}, "geometry": {"type": "LineString", "coordinates": [[415058.97, 5659364.12], [415049.18, 5659384.57], [415034.03, 5659423.72], [415013.88, 5659450.19], [415002.05, 5659474.55]]}}, {"type": "Feature", "properties": {"k": "label", "name": "Moritzburg-Pillnitzer Weg", "c": "minor"}, "geometry": {"type": "LineString", "coordinates": [[415305.47, 5658945.45], [415229.8, 5659026.7], [415221.61, 5659038.02]]}}, {"type": "Feature", "properties": {"k": "label", "name": "Neuer Br\u00fcckenweg", "c": "minor"}, "geometry": {"type": "LineString", "coordinates": [[414191.17, 5659525.63], [414146.64, 5659474.52], [414130.98, 5659463.14]]}}, {"type": "Feature", "properties": {"k": "label", "name": "Pillnitz-Moritzburger Weg", "c": "minor"}, "geometry": {"type": "LineString", "coordinates": [[415887.11, 5658731.67], [415938.27, 5658632.15], [415943.71, 5658620.24]]}}, {"type": "Feature", "properties": {"k": "label", "name": "Pillnitz-Moritzburger Weg", "c": "minor"}, "geometry": {"type": "LineString", "coordinates": [[415628.24, 5658866.1], [415564.78, 5658872.23], [415505.37, 5658887.08]]}}, {"type": "Feature", "properties": {"k": "label", "name": "Prie\u00dfnitzgrundweg", "c": "minor"}, "geometry": {"type": "LineString", "coordinates": [[414019.2, 5659881.94], [414022.48, 5659871.72], [414045.41, 5659818.17], [414048.58, 5659795.99]]}}, {"type": "Feature", "properties": {"k": "label", "name": "Radeberger Landstra\u00dfe", "c": "main"}, "geometry": {"type": "LineString", "coordinates": [[415862.61, 5658969.07], [415771.1, 5658911.33]]}}, {"type": "Feature", "properties": {"k": "label", "name": "Radeberger Stra\u00dfe", "c": "main"}, "geometry": {"type": "LineString", "coordinates": [[414170.75, 5658285.92], [414259.26, 5658308.69]]}}, {"type": "Feature", "properties": {"k": "label", "name": "Radeberger Stra\u00dfe", "c": "main"}, "geometry": {"type": "LineString", "coordinates": [[414413.51, 5658485.97], [414365.29, 5658523.11], [414341.62, 5658542.36]]}}, {"type": "Feature", "properties": {"k": "label", "name": "Radeberger Stra\u00dfe", "c": "main"}, "geometry": {"type": "LineString", "coordinates": [[414590.26, 5658400.54], [414681.57, 5658396.42]]}}, {"type": "Feature", "properties": {"k": "label", "name": "Sch\u00fctzenweg", "c": "minor"}, "geometry": {"type": "LineString", "coordinates": [[414478.78, 5659486.76], [414502.72, 5659472.1], [414530.63, 5659451.5], [414532.75, 5659448.79]]}}, {"type": "Feature", "properties": {"k": "label", "name": "Sch\u00fctzenweg", "c": "minor"}, "geometry": {"type": "LineString", "coordinates": [[414713.77, 5658885.75], [414749.23, 5658829.85]]}}, {"type": "Feature", "properties": {"k": "label", "name": "Stauffenbergallee", "c": "main"}, "geometry": {"type": "LineString", "coordinates": [[414130.37, 5658365.76], [414050.53, 5658410.27]]}}, {"type": "Feature", "properties": {"k": "label", "name": "Sudhausweg", "c": "minor"}, "geometry": {"type": "LineString", "coordinates": [[414377.32, 5658267.1], [414322.39, 5658250.22], [414319.61, 5658248.67], [414318.96, 5658247.49]]}}, {"type": "Feature", "properties": {"k": "label", "name": "Waldschl\u00f6\u00dfchenstra\u00dfe", "c": "main"}, "geometry": {"type": "LineString", "coordinates": [[414250.55, 5658180.03], [414254.42, 5658157.8], [414264.54, 5658077.01]]}}, {"type": "Feature", "properties": {"k": "label", "name": "Waldschl\u00f6\u00dfchentunnel", "c": "main"}, "geometry": {"type": "LineString", "coordinates": [[414214.78, 5658275.04], [414221.23, 5658263.38], [414230.29, 5658241.25], [414235.43, 5658221.77], [414243.71, 5658175.9]]}}, {"type": "Feature", "properties": {"k": "label", "name": "Waldschl\u00f6\u00dfchentunnel", "c": "main"}, "geometry": {"type": "LineString", "coordinates": [[414111.42, 5658369.9], [414084.21, 5658383.91], [414020.2, 5658419.82]]}}, {"type": "Feature", "properties": {"k": "label", "name": "Wilhelminenstra\u00dfe", "c": "minor"}, "geometry": {"type": "LineString", "coordinates": [[415048.14, 5658090.53], [415124.81, 5658040.78]]}}, {"type": "Feature", "properties": {"k": "way", "name": "17"}, "geometry": {"type": "LineString", "coordinates": [[415807.72, 5660000.0], [415866.54, 5659911.67], [416000.0, 5659703.85]]}}, {"type": "Feature", "properties": {"k": "way", "name": "18"}, "geometry": {"type": "LineString", "coordinates": [[415610.15, 5659520.15], [415440.06, 5659783.98], [415333.83, 5659959.02], [415307.42, 5660000.0]]}}, {"type": "Feature", "properties": {"k": "way", "name": "18"}, "geometry": {"type": "LineString", "coordinates": [[415656.29, 5659445.37], [415838.24, 5659164.97], [415858.49, 5659131.82], [415897.09, 5659061.79], [415928.78, 5659012.61]]}}, {"type": "Feature", "properties": {"k": "way", "name": "19"}, "geometry": {"type": "LineString", "coordinates": [[414794.03, 5660000.0], [414908.47, 5659818.88], [415094.71, 5659534.49], [415140.46, 5659457.63], [415295.04, 5659220.68], [415353.59, 5659121.82], [415405.94, 5659045.56], [415490.18, 5658904.84], [415503.1, 5658887.65], [415562.08, 5658792.82], [415581.93, 5658764.94]]}}, {"type": "Feature", "properties": {"k": "way", "name": "19"}, "geometry": {"type": "LineString", "coordinates": [[416000.0, 5658107.7], [415936.25, 5658204.74], [415877.55, 5658283.58], [415838.83, 5658359.85], [415811.47, 5658409.89], [415756.34, 5658500.66], [415708.5, 5658567.72], [415699.58, 5658586.16]]}}, {"type": "Feature", "properties": {"k": "way", "name": "2 Sandy Hlls"}, "geometry": {"type": "LineString", "coordinates": [[414848.73, 5659671.41], [414845.19, 5659674.16], [414844.29, 5659677.63], [414838.37, 5659682.34], [414832.76, 5659684.2], [414834.37, 5659692.2]]}}, {"type": "Feature", "properties": {"k": "way", "name": "Alte 4"}, "geometry": {"type": "LineString", "coordinates": [[414825.02, 5658708.62], [414859.49, 5658720.08], [414871.35, 5658739.63], [414876.56, 5658741.76], [414892.67, 5658746.75], [414943.34, 5658749.66], [414971.69, 5658754.79], [415006.55, 5658781.69], [415060.94, 5658837.57], [415074.98, 5658852.64], [415082.33, 5658867.84], [415117.59, 5658906.9], [415170.04, 5658955.59], [415210.69, 5658998.21], [415212.13, 5659006.79], [415243.39, 5659043.24], [415296.05, 5659079.19], [415353.59, 5659121.82], [415493.52, 5659214.33], [415710.15, 5659362.72]]}}, {"type": "Feature", "properties": {"k": "way", "name": "Alte 4"}, "geometry": {"type": "LineString", "coordinates": [[415764.93, 5659279.57], [415824.15, 5659364.78], [415951.49, 5659501.89], [416000.0, 5659539.5]]}}, {"type": "Feature", "properties": {"k": "way", "name": "Alte 8"}, "geometry": {"type": "LineString", "coordinates": [[415847.91, 5658755.29], [415865.22, 5658772.94], [415889.39, 5658780.44], [415924.64, 5658780.48], [416000.0, 5658789.75]]}}, {"type": "Feature", "properties": {"k": "way", "name": "Alte Radeberger Stra\u00dfe"}, "geometry": {"type": "LineString", "coordinates": [[415673.24, 5658926.68], [415651.5, 5658963.2], [415640.77, 5658985.85], [415568.77, 5659084.01], [415493.52, 5659214.33], [415488.2, 5659254.77], [415489.77, 5659294.56], [415494.13, 5659332.89], [415502.35, 5659367.15], [415514.12, 5659388.98], [415531.82, 5659405.48], [415634.09, 5659440.63], [415656.29, 5659445.37], [415702.47, 5659450.79], [415951.49, 5659501.89]]}}, {"type": "Feature", "properties": {"k": "way", "name": "Alter Kannenhenkel"}, "geometry": {"type": "LineString", "coordinates": [[414619.94, 5660000.0], [414615.13, 5659985.94], [414607.92, 5659972.75], [414581.99, 5659942.24], [414456.03, 5659808.56], [414441.83, 5659799.21], [414431.23, 5659798.52]]}}, {"type": "Feature", "properties": {"k": "way", "name": "Am Brauhaus"}, "geometry": {"type": "LineString", "coordinates": [[414253.41, 5658163.09], [414331.65, 5658173.77], [414339.68, 5658168.38], [414432.72, 5658146.2], [414498.6, 5658132.44], [414502.56, 5658130.03], [414504.68, 5658126.52], [414505.71, 5658119.01], [414505.81, 5658021.66], [414499.3, 5658000.0]]}}, {"type": "Feature", "properties": {"k": "way", "name": "Am J\u00e4gerpark"}, "geometry": {"type": "LineString", "coordinates": [[415276.53, 5658932.82], [415268.58, 5658938.03], [415256.01, 5658937.29], [415183.45, 5658910.0], [415177.3, 5658905.47], [415111.67, 5658803.39], [415110.82, 5658794.82], [415113.09, 5658784.62], [415145.14, 5658700.67], [415108.9, 5658673.93], [415081.06, 5658657.51], [414914.33, 5658575.57], [414854.96, 5658538.41], [414816.08, 5658508.62], [414794.55, 5658489.7], [414771.33, 5658465.67], [414746.08, 5658431.48], [414743.62, 5658422.29], [414743.54, 5658401.57], [414738.82, 5658395.39]]}}, {"type": "Feature", "properties": {"k": "way", "name": "Am Waldschl\u00f6\u00dfchen"}, "geometry": {"type": "LineString", "coordinates": [[414457.27, 5658335.37], [414446.5, 5658312.0], [414444.06, 5658298.65], [414444.44, 5658286.96], [414456.67, 5658260.66], [414457.79, 5658250.95], [414448.71, 5658207.16], [414432.72, 5658146.2]]}}, {"type": "Feature", "properties": {"k": "way", "name": "Angelikastra\u00dfe"}, "geometry": {"type": "LineString", "coordinates": [[414700.19, 5658000.0], [414809.4, 5658229.23], [414816.56, 5658234.62], [414825.2, 5658251.46]]}}, {"type": "Feature", "properties": {"k": "way", "name": "Arndtstra\u00dfe"}, "geometry": {"type": "LineString", "coordinates": [[414000.0, 5658077.46], [414080.96, 5658115.76], [414253.41, 5658163.09]]}}, {"type": "Feature", "properties": {"k": "way", "name": "Auf dem Meisenberg"}, "geometry": {"type": "LineString", "coordinates": [[414628.02, 5658282.06], [414553.98, 5658038.02], [414549.3, 5658000.0]]}}, {"type": "Feature", "properties": {"k": "way", "name": "Bautzner Stra\u00dfe"}, "geometry": {"type": "LineString", "coordinates": [[414451.96, 5658000.0], [414414.09, 5658024.94], [414392.66, 5658035.24], [414371.25, 5658042.66], [414344.92, 5658047.35], [414328.35, 5658048.51], [414307.34, 5658047.81], [414278.48, 5658043.52], [414118.51, 5658000.0]]}}, {"type": "Feature", "properties": {"k": "way", "name": "Bautzner Stra\u00dfe"}, "geometry": {"type": "LineString", "coordinates": [[414169.1, 5658000.0], [414243.64, 5658019.89], [414261.35, 5658020.67], [414284.8, 5658018.85], [414341.42, 5658000.0]]}}, {"type": "Feature", "properties": {"k": "way", "name": "Bettinastra\u00dfe"}, "geometry": {"type": "LineString", "coordinates": [[414670.65, 5658165.96], [414755.38, 5658116.04]]}}, {"type": "Feature", "properties": {"k": "way", "name": "Bl\u00fcmpenweg"}, "geometry": {"type": "LineString", "coordinates": [[416000.0, 5659255.46], [415987.05, 5659237.62], [415959.55, 5659206.13], [415880.99, 5659156.94], [415860.14, 5659140.94], [415855.01, 5659106.18], [415846.44, 5659085.99], [415807.15, 5659032.53], [415760.22, 5658987.91], [415747.16, 5658986.31], [415673.24, 5658926.68], [415635.75, 5658893.49], [415619.79, 5658884.34], [415607.63, 5658882.8], [415493.7, 5658899.77]]}}, {"type": "Feature", "properties": {"k": "way", "name": "Bl\u00fcmpenweg"}, "geometry": {"type": "LineString", "coordinates": [[415705.67, 5660000.0], [415713.36, 5659985.87], [415724.98, 5659948.79], [415735.81, 5659907.32], [415745.18, 5659857.34], [415819.11, 5659796.16], [415869.99, 5659750.29], [415892.67, 5659731.9], [415935.79, 5659714.53], [415963.21, 5659708.68], [415986.17, 5659707.86], [416000.0, 5659710.6]]}}, {"type": "Feature", "properties": {"k": "way", "name": "B\u00f6hmertstra\u00dfe"}, "geometry": {"type": "LineString", "coordinates": [[414816.56, 5658234.62], [414851.59, 5658184.57], [414864.41, 5658172.75], [414885.54, 5658162.21], [414974.75, 5658132.67]]}}, {"type": "Feature", "properties": {"k": "way", "name": "Charlottenstra\u00dfe"}, "geometry": {"type": "LineString", "coordinates": [[414418.75, 5658347.94], [414552.59, 5658303.08], [414678.34, 5658269.06], [414718.68, 5658259.95], [414748.6, 5658256.45], [414780.26, 5658254.89]]}}, {"type": "Feature", "properties": {"k": "way", "name": "Charlottenstra\u00dfe"}, "geometry": {"type": "LineString", "coordinates": [[414780.26, 5658254.89], [414788.02, 5658250.65], [414804.18, 5658249.45], [414813.92, 5658252.45], [414804.42, 5658257.47], [414788.36, 5658258.05], [414780.26, 5658254.89]]}}, {"type": "Feature", "properties": {"k": "way", "name": "Doppel E"}, "geometry": {"type": "LineString", "coordinates": [[416000.0, 5658883.03], [415966.97, 5658881.71], [415854.79, 5658846.08], [415825.09, 5658839.48]]}}, {"type": "Feature", "properties": {"k": "way", "name": "E-Fl\u00fcgel"}, "geometry": {"type": "LineString", "coordinates": [[414528.03, 5659183.26], [414600.95, 5659231.5], [414809.24, 5659357.77], [414998.31, 5659482.25], [415094.71, 5659534.49], [415164.43, 5659584.12], [415348.7, 5659697.75], [415448.49, 5659770.67], [415804.85, 5660000.0]]}}, {"type": "Feature", "properties": {"k": "way", "name": "Fischhausstra\u00dfe"}, "geometry": {"type": "LineString", "coordinates": [[414917.36, 5658000.0], [414974.75, 5658132.67], [414992.55, 5658168.95], [414999.55, 5658181.61], [415030.43, 5658223.37], [415271.19, 5658506.56], [415296.55, 5658531.22], [415510.75, 5658706.21]]}}, {"type": "Feature", "properties": {"k": "way", "name": "Fischhausstra\u00dfe"}, "geometry": {"type": "LineString", "coordinates": [[415510.75, 5658706.21], [415480.23, 5658744.44]]}}, {"type": "Feature", "properties": {"k": "way", "name": "Fischhausstra\u00dfe"}, "geometry": {"type": "LineString", "coordinates": [[415550.08, 5658738.72], [415510.75, 5658706.21]]}}, {"type": "Feature", "properties": {"k": "way", "name": "Gabel"}, "geometry": {"type": "LineString", "coordinates": [[415422.62, 5660000.0], [415409.8, 5659989.38], [415388.46, 5659983.02], [415358.82, 5659971.06], [415254.98, 5659918.27], [415247.87, 5659916.05], [415231.05, 5659915.77], [415215.67, 5659917.82], [415148.39, 5659920.91], [415134.24, 5659920.59], [415115.95, 5659916.11], [415090.42, 5659914.19], [415080.02, 5659916.48], [415073.21, 5659920.37], [415037.12, 5659949.33], [415029.92, 5659950.01], [415022.52, 5659947.57], [415007.45, 5659938.36], [414972.55, 5659923.67], [414959.4, 5659922.47], [414951.23, 5659919.82], [414940.06, 5659913.45], [414921.66, 5659906.63], [414905.96, 5659906.11], [414847.14, 5659916.06]]}}, {"type": "Feature", "properties": {"k": "way", "name": "Heideblick"}, "geometry": {"type": "LineString", "coordinates": [[415123.33, 5658331.58], [415070.47, 5658374.7], [415051.48, 5658395.63], [415019.18, 5658422.29], [415014.08, 5658427.94], [415011.93, 5658434.18]]}}, {"type": "Feature", "properties": {"k": "way", "name": "Heideparkstra\u00dfe"}, "geometry": {"type": "LineString", "coordinates": [[414813.92, 5658252.45], [415004.71, 5658240.62]]}}, {"type": "Feature", "properties": {"k": "way", "name": "Heideparkstra\u00dfe"}, "geometry": {"type": "LineString", "coordinates": [[415038.26, 5658232.32], [415028.4, 5658238.75], [415020.07, 5658241.64], [415004.71, 5658240.62]]}}, {"type": "Feature", "properties": {"k": "way", "name": "Heideparkstra\u00dfe"}, "geometry": {"type": "LineString", "coordinates": [[415004.71, 5658240.62], [415030.43, 5658223.37]]}}, {"type": "Feature", "properties": {"k": "way", "name": "Hopfenweg"}, "geometry": {"type": "LineString", "coordinates": [[414502.56, 5658130.03], [414504.7, 5658134.77], [414505.25, 5658249.6], [414497.66, 5658260.79], [414493.32, 5658264.49], [414483.94, 5658268.35], [414473.8, 5658268.26], [414468.01, 5658265.43], [414466.97, 5658262.77]]}}, {"type": "Feature", "properties": {"k": "way", "name": "H\u00e4mmerchen"}, "geometry": {"type": "LineString", "coordinates": [[416000.0, 5658106.01], [415826.01, 5658047.12], [415796.53, 5658041.29], [415732.55, 5658040.82], [415676.18, 5658022.14], [415641.99, 5658000.0]]}}, {"type": "Feature", "properties": {"k": "way", "name": "Judeichstra\u00dfe"}, "geometry": {"type": "LineString", "coordinates": [[414755.38, 5658116.04], [414856.77, 5658078.24], [414896.01, 5658058.55], [414932.8, 5658035.49]]}}, {"type": "Feature", "properties": {"k": "way", "name": "J\u00e4gerpark"}, "geometry": {"type": "LineString", "coordinates": [[414558.27, 5658401.83], [414560.12, 5658409.88], [414569.41, 5658430.1], [414617.66, 5658573.01], [414675.76, 5658609.99], [414759.13, 5658680.63]]}}, {"type": "Feature", "properties": {"k": "way", "name": "Klarastra\u00dfe"}, "geometry": {"type": "LineString", "coordinates": [[414718.68, 5658259.95], [414670.65, 5658165.96], [414630.01, 5658043.34], [414655.03, 5658000.0]]}}, {"type": "Feature", "properties": {"k": "way", "name": "Kuhschwanz"}, "geometry": {"type": "LineString", "coordinates": [[416000.0, 5659938.07], [415987.48, 5659931.49], [415919.43, 5659913.24], [415866.54, 5659911.67], [415850.32, 5659908.19], [415828.02, 5659900.31], [415762.93, 5659870.0], [415701.23, 5659823.3], [415692.01, 5659810.7], [415633.69, 5659783.55], [415603.06, 5659772.05], [415555.35, 5659750.72], [415536.38, 5659744.81], [415516.16, 5659744.24], [415496.81, 5659732.93], [415475.36, 5659731.04], [415445.6, 5659723.98], [415387.77, 5659703.88], [415369.23, 5659690.83], [415307.04, 5659619.58], [415295.95, 5659618.16], [415291.02, 5659612.21], [415287.4, 5659600.78], [415254.06, 5659574.32], [415244.89, 5659562.31], [415235.43, 5659561.43], [415233.5, 5659559.61], [415168.33, 5659474.5], [415140.46, 5659457.63], [415120.55, 5659439.85], [415068.14, 5659413.45], [415026.74, 5659348.61], [415002.82, 5659331.38], [414976.75, 5659317.84], [414952.0, 5659298.8], [414841.19, 5659238.75], [414809.33, 5659219.4], [414805.36, 5659213.79], [414779.25, 5659195.53], [414660.51, 5659117.86], [414636.84, 5659104.02], [414626.22, 5659102.91], [414596.67, 5659105.95], [414581.83, 5659110.83], [414572.99, 5659107.3]]}}, {"type": "Feature", "properties": {"k": "way", "name": "Louis-Braille-Stra\u00dfe"}, "geometry": {"type": "LineString", "coordinates": [[414051.34, 5658228.86], [414080.96, 5658115.76], [414114.69, 5658000.0]]}}, {"type": "Feature", "properties": {"k": "way", "name": "Marienallee"}, "geometry": {"type": "LineString", "coordinates": [[414237.82, 5659587.76], [414218.6, 5659545.8], [414082.24, 5659208.4], [414070.88, 5659190.63], [414065.32, 5659184.98], [414055.69, 5659177.14], [414045.1, 5659171.97], [414027.13, 5659168.88], [414000.0, 5659170.13]]}}, {"type": "Feature", "properties": {"k": "way", "name": "Mathias-Oeder-Stra\u00dfe"}, "geometry": {"type": "LineString", "coordinates": [[415011.93, 5658434.18], [415015.97, 5658445.8], [415019.9, 5658449.95], [415165.4, 5658537.51], [415183.88, 5658546.62], [415189.92, 5658547.73], [415196.48, 5658546.59], [415212.44, 5658534.52], [415221.79, 5658525.08], [415252.08, 5658484.61]]}}, {"type": "Feature", "properties": {"k": "way", "name": "Mathias-Oeder-Stra\u00dfe"}, "geometry": {"type": "LineString", "coordinates": [[415118.06, 5658584.72], [415117.25, 5658602.33], [415119.27, 5658612.97], [415129.6, 5658636.8], [415131.59, 5658648.35], [415130.71, 5658654.35], [415126.9, 5658662.16], [415115.73, 5658679.12]]}}, {"type": "Feature", "properties": {"k": "way", "name": "Moritzburg-Pillnitzer Weg"}, "geometry": {"type": "LineString", "coordinates": [[414834.37, 5659692.2], [414829.37, 5659745.5], [414846.36, 5659778.1], [414850.24, 5659798.38], [414845.22, 5659844.88], [414838.73, 5659880.75], [414816.95, 5659912.76], [414812.71, 5659916.53], [414811.39, 5659921.32], [414812.56, 5659929.62]]}}, {"type": "Feature", "properties": {"k": "way", "name": "Moritzburg-Pillnitzer Weg"}, "geometry": {"type": "LineString", "coordinates": [[415163.42, 5659126.53], [415150.28, 5659160.35], [415130.65, 5659218.57], [415049.18, 5659384.57], [415034.03, 5659423.72], [415013.88, 5659450.19], [414998.31, 5659482.25], [414910.98, 5659630.24], [414896.83, 5659627.67], [414885.78, 5659635.32], [414877.03, 5659650.84], [414868.55, 5659660.82], [414848.73, 5659671.41]]}}, {"type": "Feature", "properties": {"k": "way", "name": "Moritzburg-Pillnitzer Weg"}, "geometry": {"type": "LineString", "coordinates": [[415374.47, 5658873.07], [415229.8, 5659026.7], [415166.31, 5659118.52], [415165.17, 5659122.65]]}}, {"type": "Feature", "properties": {"k": "way", "name": "Neuer Br\u00fcckenweg"}, "geometry": {"type": "LineString", "coordinates": [[414218.6, 5659545.8], [414208.94, 5659542.88], [414201.65, 5659537.61], [414146.64, 5659474.52], [414133.61, 5659464.46], [414108.91, 5659452.07], [414095.84, 5659453.25], [414082.97, 5659460.16], [414058.21, 5659466.05], [414034.12, 5659469.46], [414000.0, 5659469.88]]}}, {"type": "Feature", "properties": {"k": "way", "name": "Pillnitz-Moritzburger Weg"}, "geometry": {"type": "LineString", "coordinates": [[415628.24, 5658866.1], [415564.78, 5658872.23], [415503.1, 5658887.65]]}}, {"type": "Feature", "properties": {"k": "way", "name": "Pillnitz-Moritzburger Weg"}, "geometry": {"type": "LineString", "coordinates": [[415700.1, 5658860.79], [415725.94, 5658856.24], [415792.56, 5658854.25], [415813.36, 5658841.62], [415865.22, 5658772.94], [415938.27, 5658632.15], [416000.0, 5658497.37]]}}, {"type": "Feature", "properties": {"k": "way", "name": "Prie\u00dfnitzgrundweg"}, "geometry": {"type": "LineString", "coordinates": [[414005.23, 5660000.0], [414011.14, 5659974.38], [414011.81, 5659941.64], [414015.56, 5659893.26], [414022.48, 5659871.72], [414045.41, 5659818.17], [414048.47, 5659798.26], [414049.9, 5659769.65], [414049.36, 5659745.26], [414029.76, 5659703.39], [414012.77, 5659659.33], [414000.0, 5659636.04]]}}, {"type": "Feature", "properties": {"k": "way", "name": "Radeberger Landstra\u00dfe"}, "geometry": {"type": "LineString", "coordinates": [[416000.0, 5659093.94], [415967.03, 5659048.73], [415946.28, 5659027.21], [415933.55, 5659016.27], [415899.26, 5658991.93], [415769.47, 5658910.3], [415717.5, 5658874.33], [415669.3, 5658836.82], [415550.08, 5658738.72]]}}, {"type": "Feature", "properties": {"k": "way", "name": "Radeberger Stra\u00dfe"}, "geometry": {"type": "LineString", "coordinates": [[414000.0, 5658195.71], [414051.34, 5658228.86], [414117.72, 5658267.08], [414135.65, 5658275.17], [414151.42, 5658280.8], [414331.41, 5658328.32], [414391.09, 5658350.26], [414408.6, 5658350.93], [414418.75, 5658347.94], [414423.21, 5658362.03], [414425.79, 5658365.48], [414491.04, 5658396.35]]}}, {"type": "Feature", "properties": {"k": "way", "name": "Radeberger Stra\u00dfe"}, "geometry": {"type": "LineString", "coordinates": [[414491.04, 5658396.35], [414457.13, 5658449.39], [414445.7, 5658460.72], [414345.79, 5658539.6], [414281.3, 5658580.74], [414232.78, 5658602.29]]}}, {"type": "Feature", "properties": {"k": "way", "name": "Radeberger Stra\u00dfe"}, "geometry": {"type": "LineString", "coordinates": [[414491.04, 5658396.35], [414506.04, 5658401.14], [414558.27, 5658401.83], [414736.43, 5658394.51], [414783.97, 5658399.14]]}}, {"type": "Feature", "properties": {"k": "way", "name": "Radeberger Stra\u00dfe"}, "geometry": {"type": "LineString", "coordinates": [[414963.9, 5658493.82], [414968.18, 5658487.64]]}}, {"type": "Feature", "properties": {"k": "way", "name": "Sch\u00fctzenweg"}, "geometry": {"type": "LineString", "coordinates": [[414237.82, 5659587.76], [414260.81, 5659587.75], [414285.26, 5659581.56], [414343.07, 5659563.28], [414382.31, 5659545.82], [414502.72, 5659472.1], [414530.63, 5659451.5], [414541.78, 5659438.14], [414547.16, 5659427.9], [414551.42, 5659410.09], [414563.29, 5659345.2], [414563.07, 5659337.09], [414553.88, 5659320.12], [414515.82, 5659276.37], [414511.47, 5659262.43], [414515.98, 5659222.24], [414523.63, 5659192.54], [414530.77, 5659178.19], [414572.99, 5659107.3], [414797.01, 5658754.53], [414814.12, 5658725.29], [414878.74, 5658624.76], [414914.33, 5658575.57]]}}, {"type": "Feature", "properties": {"k": "way", "name": "Stauffenbergallee"}, "geometry": {"type": "LineString", "coordinates": [[414000.0, 5658414.43], [414070.61, 5658375.61], [414208.67, 5658295.97]]}}, {"type": "Feature", "properties": {"k": "way", "name": "Stauffenbergallee"}, "geometry": {"type": "LineString", "coordinates": [[414223.29, 5658299.84], [414216.0, 5658309.71], [414207.55, 5658317.48], [414179.81, 5658338.2], [414000.0, 5658438.44]]}}, {"type": "Feature", "properties": {"k": "way", "name": "Sudhausweg"}, "geometry": {"type": "LineString", "coordinates": [[414444.44, 5658286.96], [414319.61, 5658248.67], [414318.27, 5658243.95], [414322.29, 5658204.93], [414330.35, 5658199.95], [414332.48, 5658196.79], [414331.65, 5658173.77]]}}, {"type": "Feature", "properties": {"k": "way", "name": "Waldschl\u00f6\u00dfchenstra\u00dfe"}, "geometry": {"type": "LineString", "coordinates": [[414208.67, 5658295.97], [414223.43, 5658280.53], [414229.73, 5658271.62], [414233.8, 5658263.59], [414243.41, 5658234.57]]}}, {"type": "Feature", "properties": {"k": "way", "name": "Waldschl\u00f6\u00dfchenstra\u00dfe"}, "geometry": {"type": "LineString", "coordinates": [[414243.41, 5658234.57], [414240.43, 5658269.19], [414223.29, 5658299.84]]}}, {"type": "Feature", "properties": {"k": "way", "name": "Waldschl\u00f6\u00dfchenstra\u00dfe"}, "geometry": {"type": "LineString", "coordinates": [[414243.41, 5658234.57], [414261.38, 5658105.27], [414268.77, 5658041.17], [414270.63, 5658031.8], [414275.49, 5658020.49]]}}, {"type": "Feature", "properties": {"k": "way", "name": "Waldschl\u00f6\u00dfchentunnel"}, "geometry": {"type": "LineString", "coordinates": [[414000.0, 5658422.24], [414137.54, 5658344.67], [414170.11, 5658323.28], [414190.49, 5658306.13], [414214.25, 5658276.0], [414225.98, 5658252.49], [414235.43, 5658221.77], [414263.56, 5658051.61], [414269.76, 5658000.0]]}}, {"type": "Feature", "properties": {"k": "way", "name": "Waldschl\u00f6\u00dfchentunnel"}, "geometry": {"type": "LineString", "coordinates": [[414167.69, 5658337.41], [414142.52, 5658352.96], [414000.0, 5658431.16]]}}, {"type": "Feature", "properties": {"k": "way", "name": "Wilhelminenstra\u00dfe"}, "geometry": {"type": "LineString", "coordinates": [[414974.75, 5658132.67], [414994.92, 5658125.06], [415172.68, 5658009.73], [415176.34, 5658006.7], [415179.03, 5658000.0]]}}]}