{"type": "FeatureCollection", "attribution": "\u00a9 OpenStreetMap contributors (ODbL)", "crs": {"type": "name", "properties": {"name": "urn:ogc:def:crs:EPSG::25833"}}, "features": [{"type": "Feature", "properties": {"k": "label", "name": "Altenberger Stra\u00dfe", "c": "main"}, "geometry": {"type": "LineString", "coordinates": [[416336.14, 5655201.4], [416303.29, 5655111.62]]}}, {"type": "Feature", "properties": {"k": "label", "name": "Altenberger Stra\u00dfe", "c": "main"}, "geometry": {"type": "LineString", "coordinates": [[416302.69, 5654749.59], [416310.44, 5654716.08], [416326.62, 5654657.05]]}}, {"type": "Feature", "properties": {"k": "label", "name": "Altenberger Stra\u00dfe", "c": "main"}, "geometry": {"type": "LineString", "coordinates": [[416471.49, 5654090.76], [416487.43, 5654025.0], [416485.69, 5653997.12]]}}, {"type": "Feature", "properties": {"k": "label", "name": "Am Steinberg", "c": "minor"}, "geometry": {"type": "LineString", "coordinates": [[417976.87, 5654996.76], [417979.39, 5654989.0], [417981.71, 5654943.66], [417982.73, 5654929.88], [417983.96, 5654927.12]]}}, {"type": "Feature", "properties": {"k": "label", "name": "Ankerstra\u00dfe", "c": "minor"}, "geometry": {"type": "LineString", "coordinates": [[416816.12, 5654509.71], [416779.07, 5654454.85]]}}, {"type": "Feature", "properties": {"k": "label", "name": "Anna-Angermann-Stra\u00dfe", "c": "minor"}, "geometry": {"type": "LineString", "coordinates": [[417304.44, 5655855.0], [417327.84, 5655801.1], [417346.12, 5655755.17]]}}, {"type": "Feature", "properties": {"k": "label", "name": "Augsburger Stra\u00dfe", "c": "main"}, "geometry": {"type": "LineString", "coordinates": [[416049.45, 5655361.9], [416125.18, 5655310.72]]}}, {"type": "Feature", "properties": {"k": "label", "name": "Aussiger Stra\u00dfe", "c": "minor"}, "geometry": {"type": "LineString", "coordinates": [[416571.29, 5654136.71], [416549.66, 5654216.85]]}}, {"type": "Feature", "properties": {"k": "label", "name": "Behrischstra\u00dfe", "c": "minor"}, "geometry": {"type": "LineString", "coordinates": [[416086.18, 5655342.42], [416130.57, 5655407.53]]}}, {"type": "Feature", "properties": {"k": "label", "name": "Bellingrathstra\u00dfe", "c": "minor"}, "geometry": {"type": "LineString", "coordinates": [[417607.24, 5654127.24], [417552.12, 5654200.15]]}}, {"type": "Feature", "properties": {"k": "label", "name": "Berggartenstra\u00dfe", "c": "main"}, "geometry": {"type": "LineString", "coordinates": [[416571.35, 5655690.91], [416618.68, 5655617.68]]}}, {"type": "Feature", "properties": {"k": "label", "name": "Berggie\u00dfh\u00fcbler Stra\u00dfe", "c": "minor"}, "geometry": {"type": "LineString", "coordinates": [[416630.34, 5654410.58], [416668.3, 5654467.66], [416690.97, 5654500.18]]}}, {"type": "Feature", "properties": {"k": "label", "name": "Bockem\u00fchlstra\u00dfe", "c": "minor"}, "geometry": {"type": "LineString", "coordinates": [[417148.81, 5654325.94], [417149.29, 5654327.02], [417224.42, 5654294.6]]}}, {"type": "Feature", "properties": {"k": "label", "name": "B\u00e4rensteiner Stra\u00dfe", "c": "minor"}, "geometry": {"type": "LineString", "coordinates": [[416165.74, 5654742.4], [416142.05, 5654712.61], [416108.18, 5654661.0]]}}, {"type": "Feature", "properties": {"k": "label", "name": "Calberlastra\u00dfe", "c": "minor"}, "geometry": {"type": "LineString", "coordinates": [[417377.13, 5656026.2], [417379.6, 5656018.58], [417385.95, 5655973.27], [417388.18, 5655962.39], [417393.11, 5655949.42]]}}, {"type": "Feature", "properties": {"k": "label", "name": "Crottendorfer Stra\u00dfe", "c": "minor"}, "geometry": {"type": "LineString", "coordinates": [[417021.24, 5653988.73], [416999.55, 5654012.05], [416942.52, 5654056.23]]}}, {"type": "Feature", "properties": {"k": "label", "name": "Draesekestra\u00dfe", "c": "minor"}, "geometry": {"type": "LineString", "coordinates": [[416618.55, 5655657.69], [416558.6, 5655606.54]]}}, {"type": "Feature", "properties": {"k": "label", "name": "Eibenstocker Stra\u00dfe", "c": "minor"}, "geometry": {"type": "LineString", "coordinates": [[416069.98, 5654362.74], [416069.82, 5654363.96], [416065.07, 5654367.85], [415987.8, 5654418.56]]}}, {"type": "Feature", "properties": {"k": "label", "name": "Eisenacher Stra\u00dfe", "c": "minor"}, "geometry": {"type": "LineString", "coordinates": [[416111.37, 5655565.37], [416187.5, 5655514.8]]}}, {"type": "Feature", "properties": {"k": "label", "name": "Elberadweg", "c": "minor"}, "geometry": {"type": "LineString", "coordinates": [[417812.19, 5654488.25], [417797.88, 5654495.85], [417761.32, 5654523.42]]}}, {"type": "Feature", "properties": {"k": "label", "name": "Elberadweg", "c": "minor"}, "geometry": {"type": "LineString", "coordinates": [[417442.61, 5654750.6], [417412.95, 5654771.31], [417392.34, 5654786.86]]}}, {"type": "Feature", "properties": {"k": "label", "name": "Enderstra\u00dfe", "c": "main"}, "geometry": {"type": "LineString", "coordinates": [[416210.35, 5654121.1], [416247.05, 5654176.19]]}}, {"type": "Feature", "properties": {"k": "label", "name": "Ferdinand-Avenarius-Stra\u00dfe", "c": "minor"}, "geometry": {"type": "LineString", "coordinates": [[416675.64, 5655787.8], [416788.87, 5655850.03]]}}, {"type": "Feature", "properties": {"k": "label", "name": "Finkenweg", "c": "minor"}, "geometry": {"type": "LineString", "coordinates": [[416285.12, 5654023.97], [416332.85, 5653991.36]]}}, {"type": "Feature", "properties": {"k": "label", "name": "Friedrich-Press-Stra\u00dfe", "c": "minor"}, "geometry": {"type": "LineString", "coordinates": [[417193.33, 5655799.17], [417291.56, 5655853.78]]}}, {"type": "Feature", "properties": {"k": "label", "name": "Glasewaldtstra\u00dfe", "c": "minor"}, "geometry": {"type": "LineString", "coordinates": [[416002.66, 5655389.95], [416050.08, 5655463.13]]}}, {"type": "Feature", "properties": {"k": "label", "name": "Glash\u00fctter Stra\u00dfe", "c": "main"}, "geometry": {"type": "LineString", "coordinates": [[416156.42, 5654835.27], [416076.96, 5654880.44]]}}, {"type": "Feature", "properties": {"k": "label", "name": "Gustav-Freytag-Stra\u00dfe", "c": "minor"}, "geometry": {"type": "LineString", "coordinates": [[416613.66, 5655348.22], [416679.79, 5655262.58]]}}, {"type": "Feature", "properties": {"k": "label", "name": "Hausdorfer Stra\u00dfe", "c": "minor"}, "geometry": {"type": "LineString", "coordinates": [[416480.45, 5654075.79], [416567.14, 5654098.47], [416568.6, 5654099.5]]}}, {"type": "Feature", "properties": {"k": "label", "name": "Heinrich-Sch\u00fctz-Stra\u00dfe", "c": "minor"}, "geometry": {"type": "LineString", "coordinates": [[416638.14, 5655577.13], [416723.74, 5655649.98]]}}, {"type": "Feature", "properties": {"k": "label", "name": "Helfenberger Stra\u00dfe", "c": "minor"}, "geometry": {"type": "LineString", "coordinates": [[416861.92, 5655469.93], [416942.71, 5655528.52]]}}, {"type": "Feature", "properties": {"k": "label", "name": "Hepkestra\u00dfe", "c": "minor"}, "geometry": {"type": "LineString", "coordinates": [[416308.0, 5654032.57], [416363.06, 5653995.82]]}}, {"type": "Feature", "properties": {"k": "label", "name": "Hermann-Gl\u00f6ckner-Stra\u00dfe", "c": "minor"}, "geometry": {"type": "LineString", "coordinates": [[417227.8, 5655987.63], [417231.08, 5655975.21], [417254.68, 5655929.2], [417271.76, 5655880.05]]}}, {"type": "Feature", "properties": {"k": "label", "name": "Himmelsleiter", "c": "minor"}, "geometry": {"type": "LineString", "coordinates": [[418000.15, 5655263.9], [417942.97, 5655215.99]]}}, {"type": "Feature", "properties": {"k": "label", "name": "Hofmannstra\u00dfe", "c": "minor"}, "geometry": {"type": "LineString", "coordinates": [[416615.03, 5655086.73], [416663.12, 5655143.76]]}}, {"type": "Feature", "properties": {"k": "label", "name": "Josef-Hegenbarth-Weg", "c": "minor"}, "geometry": {"type": "LineString", "coordinates": [[417572.49, 5655853.29], [417594.22, 5655804.18], [417601.68, 5655780.92], [417609.82, 5655757.77], [417610.8, 5655756.88]]}}, {"type": "Feature", "properties": {"k": "label", "name": "Josef-Herrmann-Stra\u00dfe", "c": "minor"}, "geometry": {"type": "LineString", "coordinates": [[417789.82, 5655121.41], [417794.04, 5655122.9], [417801.18, 5655128.84], [417824.84, 5655144.8], [417853.3, 5655160.3], [417881.96, 5655177.57]]}}, {"type": "Feature", "properties": {"k": "label", "name": "J\u00fcngststra\u00dfe", "c": "minor"}, "geometry": {"type": "LineString", "coordinates": [[416437.19, 5655813.36], [416457.09, 5655836.47], [416488.62, 5655860.92]]}}, {"type": "Feature", "properties": {"k": "label", "name": "Kahlebergstra\u00dfe", "c": "minor"}, "geometry": {"type": "LineString", "coordinates": [[416196.26, 5654566.56], [416230.51, 5654622.98], [416240.7, 5654636.59]]}}, {"type": "Feature", "properties": {"k": "label", "name": "Kipsdorfer Stra\u00dfe", "c": "minor"}, "geometry": {"type": "LineString", "coordinates": [[416172.39, 5654695.4], [416252.61, 5654651.61]]}}, {"type": "Feature", "properties": {"k": "label", "name": "Kipsdorfer Stra\u00dfe", "c": "minor"}, "geometry": {"type": "LineString", "coordinates": [[416697.18, 5654449.0], [416774.59, 5654400.4]]}}, {"type": "Feature", "properties": {"k": "label", "name": "Kipsdorfer Stra\u00dfe", "c": "minor"}, "geometry": {"type": "LineString", "coordinates": [[417205.98, 5654132.56], [417283.68, 5654084.42]]}}, {"type": "Feature", "properties": {"k": "label", "name": "Kipsdorfer Weg", "c": "minor"}, "geometry": {"type": "LineString", "coordinates": [[417306.2, 5654171.19], [417264.12, 5654104.56]]}}, {"type": "Feature", "properties": {"k": "label", "name": "Kretschmerstra\u00dfe", "c": "main"}, "geometry": {"type": "LineString", "coordinates": [[416303.3, 5656017.99], [416246.11, 5655952.18]]}}, {"type": "Feature", "properties": {"k": "label", "name": "K\u00fcgelgenstra\u00dfe", "c": "minor"}, "geometry": {"type": "LineString", "coordinates": [[417539.88, 5655794.58], [417574.38, 5655723.74]]}}, {"type": "Feature", "properties": {"k": "label", "name": "Lauensteiner Stra\u00dfe", "c": "minor"}, "geometry": {"type": "LineString", "coordinates": [[416161.76, 5655116.04], [416219.53, 5655197.42]]}}, {"type": "Feature", "properties": {"k": "label", "name": "Lengefelder Stra\u00dfe", "c": "minor"}, "geometry": {"type": "LineString", "coordinates": [[417061.43, 5654100.64], [417011.81, 5654018.93]]}}, {"type": "Feature", "properties": {"k": "label", "name": "Loschwitzer Wiesenweg", "c": "minor"}, "geometry": {"type": "LineString", "coordinates": [[417555.66, 5654968.43], [417500.91, 5655026.86], [417480.38, 5655046.08]]}}, {"type": "Feature", "properties": {"k": "label", "name": "Loschwitzer Wiesenweg", "c": "minor"}, "geometry": {"type": "LineString", "coordinates": [[417268.77, 5655373.16], [417240.33, 5655434.65], [417226.21, 5655472.55]]}}, {"type": "Feature", "properties": {"k": "label", "name": "Loschwitzer Wiesenweg", "c": "minor"}, "geometry": {"type": "LineString", "coordinates": [[417081.51, 5655839.36], [417070.26, 5655863.06], [417038.08, 5655938.44]]}}, {"type": "Feature", "properties": {"k": "label", "name": "Ludwig-Hartmann-Stra\u00dfe", "c": "minor"}, "geometry": {"type": "LineString", "coordinates": [[416694.0, 5655028.53], [416626.8, 5654938.43]]}}, {"type": "Feature", "properties": {"k": "label", "name": "Marienberger Stra\u00dfe", "c": "minor"}, "geometry": {"type": "LineString", "coordinates": [[417513.26, 5654064.73], [417417.81, 5654035.6]]}}, {"type": "Feature", "properties": {"k": "label", "name": "Maystra\u00dfe", "c": "minor"}, "geometry": {"type": "LineString", "coordinates": [[416550.0, 5655171.98], [416584.98, 5655125.97]]}}, {"type": "Feature", "properties": {"k": "label", "name": "M\u00fchlbacher Stra\u00dfe", "c": "minor"}, "geometry": {"type": "LineString", "coordinates": [[416569.15, 5654480.45], [416518.17, 5654404.59]]}}, {"type": "Feature", "properties": {"k": "label", "name": "Niederwaldplatz", "c": "main"}, "geometry": {"type": "LineString", "coordinates": [[416362.69, 5655400.67], [416410.9, 5655468.23]]}}, {"type": "Feature", "properties": {"k": "label", "name": "Niederwaldstra\u00dfe", "c": "minor"}, "geometry": {"type": "LineString", "coordinates": [[416304.42, 5655645.41], [416231.91, 5655693.84]]}}, {"type": "Feature", "properties": {"k": "label", "name": "Oehmestra\u00dfe", "c": "main"}, "geometry": {"type": "LineString", "coordinates": [[416658.29, 5655876.54], [416629.69, 5655858.45], [416614.84, 5655851.83], [416607.31, 5655847.53], [416601.53, 5655842.92]]}}, {"type": "Feature", "properties": {"k": "label", "name": "Oehmestra\u00dfe", "c": "main"}, "geometry": {"type": "LineString", "coordinates": [[416501.57, 5655664.82], [416487.56, 5655600.12]]}}, {"type": "Feature", "properties": {"k": "label", "name": "Pillnitzer Landstra\u00dfe", "c": "main"}, "geometry": {"type": "LineString", "coordinates": [[417883.36, 5654761.9], [417873.09, 5654770.64], [417847.76, 5654796.13], [417831.86, 5654813.7], [417810.51, 5654841.53]]}}, {"type": "Feature", "properties": {"k": "label", "name": "Pillnitzer Landstra\u00dfe", "c": "main"}, "geometry": {"type": "LineString", "coordinates": [[417621.59, 5655245.44], [417609.78, 5655267.97], [417576.98, 5655325.02], [417570.87, 5655340.81]]}}, {"type": "Feature", "properties": {"k": "label", "name": "Pillnitzer Landstra\u00dfe", "c": "main"}, "geometry": {"type": "LineString", "coordinates": [[417412.11, 5655760.07], [417373.17, 5655861.01]]}}, {"type": "Feature", "properties": {"k": "label", "name": "Polenzstra\u00dfe", "c": "minor"}, "geometry": {"type": "LineString", "coordinates": [[416484.99, 5655044.17], [416516.0, 5654980.97]]}}, {"type": "Feature", "properties": {"k": "label", "name": "Pre\u00dfgasse", "c": "minor"}, "geometry": {"type": "LineString", "coordinates": [[417773.58, 5655006.86], [417784.55, 5655009.28], [417800.29, 5655011.39], [417814.22, 5655010.96], [417830.81, 5655013.24]]}}, {"type": "Feature", "properties": {"k": "label", "name": "Reinhold-Becker-Stra\u00dfe", "c": "minor"}, "geometry": {"type": "LineString", "coordinates": [[416399.33, 5655871.21], [416428.05, 5655897.09], [416484.28, 5655944.79]]}}, {"type": "Feature", "properties": {"k": "label", "name": "Rittershausstra\u00dfe", "c": "minor"}, "geometry": {"type": "LineString", "coordinates": [[417273.16, 5654205.07], [417265.94, 5654207.47], [417188.64, 5654239.8]]}}, {"type": "Feature", "properties": {"k": "label", "name": "Salbachstra\u00dfe", "c": "minor"}, "geometry": {"type": "LineString", "coordinates": [[417520.39, 5654213.09], [417492.85, 5654143.76]]}}, {"type": "Feature", "properties": {"k": "label", "name": "Scariastra\u00dfe", "c": "minor"}, "geometry": {"type": "LineString", "coordinates": [[416481.56, 5655377.91], [416525.51, 5655322.91]]}}, {"type": "Feature", "properties": {"k": "label", "name": "Schandauer Stra\u00dfe", "c": "main"}, "geometry": {"type": "LineString", "coordinates": [[416255.07, 5654909.33], [416276.77, 5654896.56], [416283.57, 5654891.43], [416306.3, 5654872.99], [416327.61, 5654854.18]]}}, {"type": "Feature", "properties": {"k": "label", "name": "Schaufu\u00dfstra\u00dfe", "c": "minor"}, "geometry": {"type": "LineString", "coordinates": [[416743.69, 5654941.24], [416700.13, 5654875.58]]}}, {"type": "Feature", "properties": {"k": "label", "name": "Schellerhauer Weg", "c": "minor"}, "geometry": {"type": "LineString", "coordinates": [[416251.33, 5654508.05], [416205.11, 5654436.49], [416200.7, 5654432.12]]}}, {"type": "Feature", "properties": {"k": "label", "name": "Schlottwitzer Stra\u00dfe", "c": "minor"}, "geometry": {"type": "LineString", "coordinates": [[416559.72, 5654330.82], [416481.32, 5654379.09], [416472.86, 5654387.42]]}}, {"type": "Feature", "properties": {"k": "label", "name": "Schl\u00f6milchstra\u00dfe", "c": "minor"}, "geometry": {"type": "LineString", "coordinates": [[417043.43, 5654298.69], [417065.83, 5654332.34], [417090.52, 5654372.07]]}}, {"type": "Feature", "properties": {"k": "label", "name": "Schmiedeberger Stra\u00dfe", "c": "minor"}, "geometry": {"type": "LineString", "coordinates": [[416166.64, 5654301.69], [416226.95, 5654391.52]]}}, {"type": "Feature", "properties": {"k": "label", "name": "Sebastian-Bach-Stra\u00dfe", "c": "minor"}, "geometry": {"type": "LineString", "coordinates": [[416310.29, 5655872.77], [416369.45, 5655935.7], [416385.73, 5655950.25]]}}, {"type": "Feature", "properties": {"k": "label", "name": "Simrockstra\u00dfe", "c": "minor"}, "geometry": {"type": "LineString", "coordinates": [[416762.62, 5655405.72], [416804.32, 5655343.87]]}}, {"type": "Feature", "properties": {"k": "label", "name": "Spohrstra\u00dfe", "c": "minor"}, "geometry": {"type": "LineString", "coordinates": [[416819.45, 5655609.68], [416876.1, 5655643.94]]}}, {"type": "Feature", "properties": {"k": "label", "name": "S\u00e4chsischer Weinwanderweg", "c": "minor"}, "geometry": {"type": "LineString", "coordinates": [[417886.21, 5655354.29], [417894.99, 5655304.86], [417899.29, 5655292.31], [417906.39, 5655277.29], [417913.23, 5655260.26], [417917.35, 5655234.01]]}}, {"type": "Feature", "properties": {"k": "label", "name": "Tauscherstra\u00dfe", "c": "minor"}, "geometry": {"type": "LineString", "coordinates": [[416540.84, 5655216.17], [416598.82, 5655269.54]]}}, {"type": "Feature", "properties": {"k": "label", "name": "Tolkewitzer Stra\u00dfe", "c": "main"}, "geometry": {"type": "LineString", "coordinates": [[417429.44, 5654425.69], [417388.31, 5654511.99]]}}, {"type": "Feature", "properties": {"k": "label", "name": "Tolkewitzer Stra\u00dfe", "c": "main"}, "geometry": {"type": "LineString", "coordinates": [[417196.9, 5654832.07], [417147.02, 5654913.63]]}}, {"type": "Feature", "properties": {"k": "label", "name": "Tolkewitzer Stra\u00dfe", "c": "main"}, "geometry": {"type": "LineString", "coordinates": [[416966.23, 5655242.12], [416927.75, 5655325.54], [416926.93, 5655329.18]]}}, {"type": "Feature", "properties": {"k": "label", "name": "Tolkewitzer Stra\u00dfe", "c": "main"}, "geometry": {"type": "LineString", "coordinates": [[416757.34, 5655660.75], [416750.0, 5655672.25], [416701.5, 5655738.3]]}}, {"type": "Feature", "properties": {"k": "label", "name": "Traubestra\u00dfe", "c": "minor"}, "geometry": {"type": "LineString", "coordinates": [[416432.31, 5654896.67], [416382.24, 5654946.16]]}}, {"type": "Feature", "properties": {"k": "label", "name": "Treidelpfad", "c": "minor"}, "geometry": {"type": "LineString", "coordinates": [[417835.89, 5654647.76], [417781.15, 5654684.98]]}}, {"type": "Feature", "properties": {"k": "label", "name": "Treidelpfad", "c": "minor"}, "geometry": {"type": "LineString", "coordinates": [[417445.67, 5654981.87], [417409.6, 5655018.72], [417400.16, 5655026.66], [417399.1, 5655028.7]]}}, {"type": "Feature", "properties": {"k": "label", "name": "Treidelpfad", "c": "minor"}, "geometry": {"type": "LineString", "coordinates": [[417158.84, 5655465.49], [417134.17, 5655526.92]]}}, {"type": "Feature", "properties": {"k": "label", "name": "Treidelpfad", "c": "minor"}, "geometry": {"type": "LineString", "coordinates": [[416941.38, 5655962.65], [416931.58, 5655981.62], [416909.03, 5656020.39]]}}, {"type": "Feature", "properties": {"k": "label", "name": "Voglerstra\u00dfe", "c": "minor"}, "geometry": {"type": "LineString", "coordinates": [[416258.68, 5655446.26], [416218.66, 5655388.34]]}}, {"type": "Feature", "properties": {"k": "label", "name": "Wachwitzer Weinberg", "c": "minor"}, "geometry": {"type": "LineString", "coordinates": [[417768.3, 5655760.25], [417761.24, 5655726.3], [417756.37, 5655686.39], [417755.34, 5655661.5]]}}, {"type": "Feature", "properties": {"k": "label", "name": "Wachwitzer Weinberg", "c": "minor"}, "geometry": {"type": "LineString", "coordinates": [[417789.5, 5655554.35], [417792.39, 5655548.6], [417812.69, 5655516.89], [417828.32, 5655484.56], [417838.05, 5655467.32]]}}, {"type": "Feature", "properties": {"k": "label", "name": "Weesensteiner Stra\u00dfe", "c": "main"}, "geometry": {"type": "LineString", "coordinates": [[416549.95, 5654249.28], [416593.43, 5654259.15], [416641.29, 5654272.17], [416649.85, 5654276.9]]}}, {"type": "Feature", "properties": {"k": "label", "name": "Wehlener Stra\u00dfe", "c": "main"}, "geometry": {"type": "LineString", "coordinates": [[416678.22, 5654621.02], [416753.75, 5654586.63]]}}, {"type": "Feature", "properties": {"k": "label", "name": "Wehlener Stra\u00dfe", "c": "main"}, "geometry": {"type": "LineString", "coordinates": [[417165.89, 5654397.44], [417242.18, 5654364.75]]}}, {"type": "Feature", "properties": {"k": "label", "name": "Wehlener Stra\u00dfe", "c": "main"}, "geometry": {"type": "LineString", "coordinates": [[417658.53, 5654208.89], [417680.67, 5654202.38], [417698.63, 5654195.98], [417714.96, 5654187.13], [417733.54, 5654174.89]]}}, {"type": "Feature", "properties": {"k": "label", "name": "Wittenberger Stra\u00dfe", "c": "minor"}, "geometry": {"type": "LineString", "coordinates": [[416097.87, 5655170.19], [416014.6, 5655225.19]]}}, {"type": "Feature", "properties": {"k": "label", "name": "Wollnerstra\u00dfe", "c": "minor"}, "geometry": {"type": "LineString", "coordinates": [[417834.39, 5654941.68], [417860.02, 5654952.38], [417872.08, 5654954.62], [417901.25, 5654963.66], [417904.57, 5654965.92]]}}, {"type": "Feature", "properties": {"k": "label", "name": "Zinnwalder Stra\u00dfe", "c": "minor"}, "geometry": {"type": "LineString", "coordinates": [[416071.08, 5654613.45], [416151.0, 5654569.09]]}}, {"type": "Feature", "properties": {"k": "label", "name": "Zum Tal", "c": "minor"}, "geometry": {"type": "LineString", "coordinates": [[416195.87, 5654052.38], [416168.52, 5654011.25]]}}, {"type": "Feature", "properties": {"k": "label", "name": "Emanuel-Goldberg-Platz", "c": "square"}, "geometry": {"type": "LineString", "coordinates": [[416274.21, 5654837.32], [416286.77, 5654949.01]]}}, {"type": "Feature", "properties": {"k": "way", "name": "Albert-Venus-Weg"}, "geometry": {"type": "LineString", "coordinates": [[417869.7, 5655977.18], [417871.54, 5655987.37], [417867.28, 5656000.0]]}}, {"type": "Feature", "properties": {"k": "way", "name": "Altenberger Platz"}, "geometry": {"type": "LineString", "coordinates": [[416362.06, 5654349.98], [416385.46, 5654385.27]]}}, {"type": "Feature", "properties": {"k": "way", "name": "Altenberger Platz"}, "geometry": {"type": "LineString", "coordinates": [[416374.04, 5654480.81], [416387.26, 5654428.58], [416390.99, 5654407.54], [416389.99, 5654399.09], [416385.46, 5654385.27]]}}, {"type": "Feature", "properties": {"k": "way", "name": "Altenberger Platz"}, "geometry": {"type": "LineString", "coordinates": [[416385.46, 5654385.27], [416398.78, 5654375.48], [416407.86, 5654342.85]]}}, {"type": "Feature", "properties": {"k": "way", "name": "Altenberger Stra\u00dfe"}, "geometry": {"type": "LineString", "coordinates": [[416398.0, 5655370.43], [416283.81, 5655058.14], [416282.14, 5655044.22], [416283.32, 5654894.36], [416298.56, 5654771.16], [416310.44, 5654716.08], [416356.95, 5654539.31], [416374.04, 5654480.81]]}}, {"type": "Feature", "properties": {"k": "way", "name": "Altenberger Stra\u00dfe"}, "geometry": {"type": "LineString", "coordinates": [[416407.86, 5654342.85], [416487.43, 5654025.0], [416485.87, 5654000.0]]}}, {"type": "Feature", "properties": {"k": "way", "name": "Alttolkewitz"}, "geometry": {"type": "LineString", "coordinates": [[417984.48, 5654000.0], [417955.29, 5654021.03], [417921.99, 5654035.3]]}}, {"type": "Feature", "properties": {"k": "way", "name": "Am Steinberg"}, "geometry": {"type": "LineString", "coordinates": [[417914.5, 5655185.75], [417930.14, 5655142.22], [417948.42, 5655065.68], [417964.69, 5655028.63], [417967.83, 5655014.11], [417974.72, 5655003.37], [417979.39, 5654989.0], [417982.73, 5654929.88], [417990.99, 5654914.74], [418000.0, 5654904.06]]}}, {"type": "Feature", "properties": {"k": "way", "name": "Amselweg"}, "geometry": {"type": "LineString", "coordinates": [[416279.11, 5654000.0], [416294.27, 5654017.72]]}}, {"type": "Feature", "properties": {"k": "way", "name": "Ankerstra\u00dfe"}, "geometry": {"type": "LineString", "coordinates": [[416841.16, 5654547.1], [416768.08, 5654438.5], [416748.73, 5654416.26]]}}, {"type": "Feature", "properties": {"k": "way", "name": "Anna-Angermann-Stra\u00dfe"}, "geometry": {"type": "LineString", "coordinates": [[417302.45, 5655859.59], [417349.7, 5655746.22]]}}, {"type": "Feature", "properties": {"k": "way", "name": "Augsburger Stra\u00dfe"}, "geometry": {"type": "LineString", "coordinates": [[416000.0, 5655395.44], [416154.17, 5655291.23], [416337.67, 5655205.57]]}}, {"type": "Feature", "properties": {"k": "way", "name": "Aussiger Stra\u00dfe"}, "geometry": {"type": "LineString", "coordinates": [[416573.83, 5654103.23], [416577.61, 5654113.59], [416541.66, 5654247.06]]}}, {"type": "Feature", "properties": {"k": "way", "name": "Behrischstra\u00dfe"}, "geometry": {"type": "LineString", "coordinates": [[416000.0, 5655216.01], [416296.93, 5655650.41]]}}, {"type": "Feature", "properties": {"k": "way", "name": "Bellingrathstra\u00dfe"}, "geometry": {"type": "LineString", "coordinates": [[417627.96, 5654099.05], [417536.35, 5654220.82], [417525.55, 5654225.37]]}}, {"type": "Feature", "properties": {"k": "way", "name": "Berggartenstra\u00dfe"}, "geometry": {"type": "LineString", "coordinates": [[416312.66, 5656000.0], [416506.36, 5655780.67]]}}, {"type": "Feature", "properties": {"k": "way", "name": "Berggartenstra\u00dfe"}, "geometry": {"type": "LineString", "coordinates": [[416506.36, 5655780.67], [416506.48, 5655775.98], [416513.34, 5655764.57]]}}, {"type": "Feature", "properties": {"k": "way", "name": "Berggartenstra\u00dfe"}, "geometry": {"type": "LineString", "coordinates": [[416520.17, 5655770.34], [416510.43, 5655779.88], [416506.36, 5655780.67]]}}, {"type": "Feature", "properties": {"k": "way", "name": "Berggartenstra\u00dfe"}, "geometry": {"type": "LineString", "coordinates": [[416527.42, 5655757.77], [416663.92, 5655547.58]]}}, {"type": "Feature", "properties": {"k": "way", "name": "Berggie\u00dfh\u00fcbler Stra\u00dfe"}, "geometry": {"type": "LineString", "coordinates": [[416571.75, 5654323.47], [416668.3, 5654467.66], [416751.17, 5654587.88]]}}, {"type": "Feature", "properties": {"k": "way", "name": "Blumeng\u00e4\u00dfchen"}, "geometry": {"type": "LineString", "coordinates": [[416177.15, 5654024.92], [416197.38, 5654000.0]]}}, {"type": "Feature", "properties": {"k": "way", "name": "Bockem\u00fchlstra\u00dfe"}, "geometry": {"type": "LineString", "coordinates": [[417083.57, 5654208.02], [417121.13, 5654268.04], [417149.29, 5654327.02], [417306.17, 5654259.34]]}}, {"type": "Feature", "properties": {"k": "way", "name": "Brucknerstra\u00dfe"}, "geometry": {"type": "LineString", "coordinates": [[416037.17, 5655823.91], [416148.84, 5655971.06], [416172.63, 5656000.0]]}}, {"type": "Feature", "properties": {"k": "way", "name": "B\u00e4rensteiner Stra\u00dfe"}, "geometry": {"type": "LineString", "coordinates": [[416283.57, 5654891.43], [416142.05, 5654712.61], [416000.0, 5654492.95]]}}, {"type": "Feature", "properties": {"k": "way", "name": "Calberlastra\u00dfe"}, "geometry": {"type": "LineString", "coordinates": [[417382.48, 5656000.0], [417385.95, 5655973.27], [417392.27, 5655950.6], [417406.06, 5655933.54], [417413.86, 5655926.38], [417436.7, 5655915.23], [417449.18, 5655915.94], [417462.81, 5655921.9], [417471.87, 5655920.99], [417478.43, 5655916.48], [417491.05, 5655894.66], [417506.31, 5655874.28], [417519.03, 5655872.06], [417531.83, 5655876.35], [417554.6, 5655894.59], [417564.7, 5655907.59], [417566.63, 5655914.77], [417561.6, 5655939.46], [417543.77, 5656000.0]]}}, {"type": "Feature", "properties": {"k": "way", "name": "Crottendorfer Stra\u00dfe"}, "geometry": {"type": "LineString", "coordinates": [[417010.66, 5654000.0], [416999.55, 5654012.05], [416944.78, 5654054.75], [416928.32, 5654065.79]]}}, {"type": "Feature", "properties": {"k": "way", "name": "Dornbl\u00fcthstra\u00dfe"}, "geometry": {"type": "LineString", "coordinates": [[416100.17, 5655781.84], [416000.0, 5655636.79]]}}, {"type": "Feature", "properties": {"k": "way", "name": "Draesekestra\u00dfe"}, "geometry": {"type": "LineString", "coordinates": [[416705.5, 5655732.95], [416478.45, 5655538.31], [416467.19, 5655538.08]]}}, {"type": "Feature", "properties": {"k": "way", "name": "Drosselweg"}, "geometry": {"type": "LineString", "coordinates": [[416250.41, 5654015.52], [416268.61, 5654035.26]]}}, {"type": "Feature", "properties": {"k": "way", "name": "Eibenstocker Stra\u00dfe"}, "geometry": {"type": "LineString", "coordinates": [[416000.0, 5654249.35], [416069.3, 5654352.21], [416070.54, 5654358.58], [416069.82, 5654363.96], [416065.07, 5654367.85], [416000.0, 5654410.2]]}}, {"type": "Feature", "properties": {"k": "way", "name": "Eichstra\u00dfe"}, "geometry": {"type": "LineString", "coordinates": [[416000.0, 5655921.33], [416054.54, 5656000.0]]}}, {"type": "Feature", "properties": {"k": "way", "name": "Eisenacher Stra\u00dfe"}, "geometry": {"type": "LineString", "coordinates": [[416000.0, 5655638.56], [416361.4, 5655398.85]]}}, {"type": "Feature", "properties": {"k": "way", "name": "Elberadweg"}, "geometry": {"type": "LineString", "coordinates": [[418000.0, 5654402.23], [417797.88, 5654495.85], [417664.27, 5654594.27], [417412.95, 5654771.31], [417337.57, 5654828.49], [417299.42, 5654860.64], [417268.23, 5654891.37], [417245.6, 5654917.96]]}}, {"type": "Feature", "properties": {"k": "way", "name": "Emanuel-Goldberg-Platz"}, "geometry": {"type": "LineString", "coordinates": [[416289.6, 5654846.36], [416319.94, 5654861.24]]}}, {"type": "Feature", "properties": {"k": "way", "name": "Enderstra\u00dfe"}, "geometry": {"type": "LineString", "coordinates": [[416135.53, 5654000.0], [416208.63, 5654118.46], [416362.06, 5654349.98]]}}, {"type": "Feature", "properties": {"k": "way", "name": "Ferdinand-Avenarius-Stra\u00dfe"}, "geometry": {"type": "LineString", "coordinates": [[416666.88, 5655782.97], [416797.74, 5655854.93]]}}, {"type": "Feature", "properties": {"k": "way", "name": "Finkenweg"}, "geometry": {"type": "LineString", "coordinates": [[416268.61, 5654035.26], [416320.21, 5654000.0]]}}, {"type": "Feature", "properties": {"k": "way", "name": "Friedrich-Press-Stra\u00dfe"}, "geometry": {"type": "LineString", "coordinates": [[417122.04, 5655762.89], [417203.19, 5655804.29], [417302.45, 5655859.59], [417362.35, 5655888.41]]}}, {"type": "Feature", "properties": {"k": "way", "name": "Glasewaldtstra\u00dfe"}, "geometry": {"type": "LineString", "coordinates": [[416000.0, 5655386.09], [416210.4, 5655708.2]]}}, {"type": "Feature", "properties": {"k": "way", "name": "Glash\u00fctter Stra\u00dfe"}, "geometry": {"type": "LineString", "coordinates": [[416012.03, 5654913.68], [416010.64, 5654917.27], [416000.0, 5654924.65]]}}, {"type": "Feature", "properties": {"k": "way", "name": "Glash\u00fctter Stra\u00dfe"}, "geometry": {"type": "LineString", "coordinates": [[416212.86, 5654803.02], [416025.95, 5654909.49], [416021.88, 5654913.15], [416020.73, 5654916.31]]}}, {"type": "Feature", "properties": {"k": "way", "name": "Gustav-Freytag-Stra\u00dfe"}, "geometry": {"type": "LineString", "coordinates": [[416467.19, 5655538.08], [416472.8, 5655527.29], [416516.33, 5655473.39], [416719.59, 5655210.73], [416782.76, 5655147.12], [416847.38, 5655088.39]]}}, {"type": "Feature", "properties": {"k": "way", "name": "Hausdorfer Stra\u00dfe"}, "geometry": {"type": "LineString", "coordinates": [[416475.6, 5654074.59], [416567.14, 5654098.47], [416573.83, 5654103.23]]}}, {"type": "Feature", "properties": {"k": "way", "name": "Heinrich-Sch\u00fctz-Stra\u00dfe"}, "geometry": {"type": "LineString", "coordinates": [[416516.33, 5655473.39], [416759.15, 5655679.71], [416862.04, 5655735.1]]}}, {"type": "Feature", "properties": {"k": "way", "name": "Helfenberger Stra\u00dfe"}, "geometry": {"type": "LineString", "coordinates": [[416861.92, 5655469.93], [416945.75, 5655530.73]]}}, {"type": "Feature", "properties": {"k": "way", "name": "Hepkestra\u00dfe"}, "geometry": {"type": "LineString", "coordinates": [[416000.0, 5654231.13], [416086.11, 5654181.11], [416208.63, 5654118.46]]}}, {"type": "Feature", "properties": {"k": "way", "name": "Hepkestra\u00dfe"}, "geometry": {"type": "LineString", "coordinates": [[416199.72, 5654104.5], [416356.81, 5654000.0]]}}, {"type": "Feature", "properties": {"k": "way", "name": "Hermann-Gl\u00f6ckner-Stra\u00dfe"}, "geometry": {"type": "LineString", "coordinates": [[417225.39, 5656000.0], [417231.08, 5655975.21], [417254.68, 5655929.2], [417282.56, 5655848.97]]}}, {"type": "Feature", "properties": {"k": "way", "name": "Himmelsleiter"}, "geometry": {"type": "LineString", "coordinates": [[418000.0, 5655263.78], [417936.45, 5655210.48]]}}, {"type": "Feature", "properties": {"k": "way", "name": "Hofmannstra\u00dfe"}, "geometry": {"type": "LineString", "coordinates": [[416369.31, 5654817.15], [416519.75, 5654973.31], [416554.69, 5655016.96], [416731.25, 5655224.71], [416810.44, 5655334.48], [416894.26, 5655421.68]]}}, {"type": "Feature", "properties": {"k": "way", "name": "Josef-Hegenbarth-Weg"}, "geometry": {"type": "LineString", "coordinates": [[417494.95, 5655552.71], [417516.19, 5655548.9]]}}, {"type": "Feature", "properties": {"k": "way", "name": "Josef-Hegenbarth-Weg"}, "geometry": {"type": "LineString", "coordinates": [[417516.19, 5655548.9], [417505.19, 5655531.41]]}}, {"type": "Feature", "properties": {"k": "way", "name": "Josef-Hegenbarth-Weg"}, "geometry": {"type": "LineString", "coordinates": [[417516.19, 5655548.9], [417522.55, 5655550.14], [417560.54, 5655571.63], [417586.16, 5655571.09], [417621.41, 5655567.38], [417645.56, 5655568.38], [417653.35, 5655573.25], [417666.8, 5655587.33], [417685.16, 5655594.95], [417692.49, 5655595.11], [417694.56, 5655613.48], [417692.62, 5655622.42], [417682.81, 5655642.6], [417672.34, 5655657.82]]}}, {"type": "Feature", "properties": {"k": "way", "name": "Josef-Hegenbarth-Weg"}, "geometry": {"type": "LineString", "coordinates": [[417554.6, 5655894.59], [417594.22, 5655804.18], [417609.82, 5655757.77], [417616.08, 5655753.98], [417625.05, 5655756.52], [417647.79, 5655706.69], [417672.34, 5655657.82]]}}, {"type": "Feature", "properties": {"k": "way", "name": "Josef-Hegenbarth-Weg"}, "geometry": {"type": "LineString", "coordinates": [[417672.34, 5655657.82], [417683.87, 5655629.47]]}}, {"type": "Feature", "properties": {"k": "way", "name": "Josef-Herrmann-Stra\u00dfe"}, "geometry": {"type": "LineString", "coordinates": [[417643.41, 5655157.55], [417668.32, 5655167.74], [417721.11, 5655200.9], [417729.58, 5655192.89], [417745.95, 5655167.77], [417754.08, 5655159.01], [417768.61, 5655128.66], [417774.59, 5655123.79], [417786.2, 5655120.98], [417794.04, 5655122.9], [417824.84, 5655144.8], [417905.67, 5655191.79], [417909.66, 5655193.52], [417914.5, 5655185.75]]}}, {"type": "Feature", "properties": {"k": "way", "name": "J\u00fcngststra\u00dfe"}, "geometry": {"type": "LineString", "coordinates": [[416296.93, 5655650.41], [416457.09, 5655836.47], [416576.74, 5655928.67], [416663.53, 5655982.07]]}}, {"type": "Feature", "properties": {"k": "way", "name": "Kahlebergstra\u00dfe"}, "geometry": {"type": "LineString", "coordinates": [[416185.88, 5654549.46], [416230.51, 5654622.98], [416252.14, 5654651.87]]}}, {"type": "Feature", "properties": {"k": "way", "name": "Kipsdorfer Stra\u00dfe"}, "geometry": {"type": "LineString", "coordinates": [[416000.0, 5654792.57], [416258.33, 5654648.48], [416330.98, 5654665.77], [416406.69, 5654627.91], [416500.27, 5654568.92], [416668.3, 5654467.66], [416748.73, 5654416.26], [416926.88, 5654307.03], [417083.57, 5654208.02], [417419.93, 5654000.0]]}}, {"type": "Feature", "properties": {"k": "way", "name": "Kipsdorfer Weg"}, "geometry": {"type": "LineString", "coordinates": [[417311.54, 5654179.64], [417260.43, 5654098.72]]}}, {"type": "Feature", "properties": {"k": "way", "name": "Kotzschweg"}, "geometry": {"type": "LineString", "coordinates": [[417687.19, 5655792.45], [417664.02, 5655842.98]]}}, {"type": "Feature", "properties": {"k": "way", "name": "Kotzschweg"}, "geometry": {"type": "LineString", "coordinates": [[417869.7, 5655977.18], [417909.99, 5656000.0]]}}, {"type": "Feature", "properties": {"k": "way", "name": "Kretschmerstra\u00dfe"}, "geometry": {"type": "LineString", "coordinates": [[416287.71, 5656000.0], [416100.17, 5655781.84]]}}, {"type": "Feature", "properties": {"k": "way", "name": "K\u00fcgelgenstra\u00dfe"}, "geometry": {"type": "LineString", "coordinates": [[417507.36, 5655860.53], [417506.31, 5655874.28]]}}, {"type": "Feature", "properties": {"k": "way", "name": "K\u00fcgelgenstra\u00dfe"}, "geometry": {"type": "LineString", "coordinates": [[417527.37, 5655811.52], [417530.25, 5655806.89], [417533.14, 5655807.98]]}}, {"type": "Feature", "properties": {"k": "way", "name": "K\u00fcgelgenstra\u00dfe"}, "geometry": {"type": "LineString", "coordinates": [[417533.14, 5655807.98], [417581.38, 5655709.25]]}}, {"type": "Feature", "properties": {"k": "way", "name": "Lauensteiner Stra\u00dfe"}, "geometry": {"type": "LineString", "coordinates": [[416000.0, 5654892.08], [416011.75, 5654909.07], [416012.03, 5654913.68]]}}, {"type": "Feature", "properties": {"k": "way", "name": "Lauensteiner Stra\u00dfe"}, "geometry": {"type": "LineString", "coordinates": [[416020.73, 5654916.31], [416024.17, 5654924.76], [416084.27, 5655004.38], [416361.4, 5655398.85]]}}, {"type": "Feature", "properties": {"k": "way", "name": "Lengefelder Stra\u00dfe"}, "geometry": {"type": "LineString", "coordinates": [[417069.26, 5654113.43], [417004.5, 5654006.91]]}}, {"type": "Feature", "properties": {"k": "way", "name": "Lengefelder Stra\u00dfe"}, "geometry": {"type": "LineString", "coordinates": [[417069.26, 5654113.43], [417077.29, 5654116.16], [417079.27, 5654119.24], [417079.86, 5654125.05], [417078.39, 5654129.94]]}}, {"type": "Feature", "properties": {"k": "way", "name": "Lengefelder Stra\u00dfe"}, "geometry": {"type": "LineString", "coordinates": [[417078.39, 5654129.94], [417071.88, 5654126.98], [417068.41, 5654121.33], [417067.83, 5654115.75], [417069.26, 5654113.43]]}}, {"type": "Feature", "properties": {"k": "way", "name": "Lengefelder Stra\u00dfe"}, "geometry": {"type": "LineString", "coordinates": [[417110.32, 5654191.82], [417084.74, 5654138.61], [417078.39, 5654129.94]]}}, {"type": "Feature", "properties": {"k": "way", "name": "Leuschkestra\u00dfe"}, "geometry": {"type": "LineString", "coordinates": [[417594.22, 5655804.18], [417546.23, 5655781.96]]}}, {"type": "Feature", "properties": {"k": "way", "name": "Lewickistra\u00dfe"}, "geometry": {"type": "LineString", "coordinates": [[417453.2, 5654046.37], [417423.28, 5654000.0]]}}, {"type": "Feature", "properties": {"k": "way", "name": "Loschwitzer Wiesenweg"}, "geometry": {"type": "LineString", "coordinates": [[417703.58, 5654834.14], [417625.41, 5654900.28], [417583.51, 5654938.33], [417500.91, 5655026.86], [417474.49, 5655051.59], [417367.95, 5655191.8], [417345.41, 5655227.8], [417317.1, 5655276.48], [417279.66, 5655350.06], [417246.05, 5655421.34], [417213.9, 5655505.61], [417155.04, 5655678.79], [417122.04, 5655762.89], [417114.47, 5655773.88], [417070.26, 5655863.06], [417010.61, 5656000.0]]}}, {"type": "Feature", "properties": {"k": "way", "name": "Ludwig-Hartmann-Stra\u00dfe"}, "geometry": {"type": "LineString", "coordinates": [[416927.75, 5655325.54], [416918.12, 5655322.82], [416914.97, 5655319.99], [416782.76, 5655147.12], [416586.18, 5654883.61], [416404.78, 5654628.8]]}}, {"type": "Feature", "properties": {"k": "way", "name": "Marienberger Stra\u00dfe"}, "geometry": {"type": "LineString", "coordinates": [[417731.61, 5654176.44], [417681.22, 5654133.9], [417642.75, 5654104.0], [417299.83, 5654000.0]]}}, {"type": "Feature", "properties": {"k": "way", "name": "Maystra\u00dfe"}, "geometry": {"type": "LineString", "coordinates": [[416398.0, 5655370.43], [416614.92, 5655086.61], [416739.92, 5654935.89]]}}, {"type": "Feature", "properties": {"k": "way", "name": "M\u00fchlbacher Stra\u00dfe"}, "geometry": {"type": "LineString", "coordinates": [[416591.24, 5654513.79], [416494.56, 5654370.47]]}}, {"type": "Feature", "properties": {"k": "way", "name": "Niederwaldplatz"}, "geometry": {"type": "LineString", "coordinates": [[416467.19, 5655538.08], [416451.96, 5655501.16]]}}, {"type": "Feature", "properties": {"k": "way", "name": "Niederwaldplatz"}, "geometry": {"type": "LineString", "coordinates": [[416451.96, 5655501.16], [416435.97, 5655462.43], [416398.0, 5655370.43], [416361.4, 5655398.85], [416437.98, 5655506.61], [416451.96, 5655501.16]]}}, {"type": "Feature", "properties": {"k": "way", "name": "Niederwaldstra\u00dfe"}, "geometry": {"type": "LineString", "coordinates": [[416467.19, 5655538.08], [416450.77, 5655547.67], [416000.0, 5655848.75]]}}, {"type": "Feature", "properties": {"k": "way", "name": "Oehmestra\u00dfe"}, "geometry": {"type": "LineString", "coordinates": [[416515.81, 5655733.34], [416481.11, 5655571.23], [416467.19, 5655538.08]]}}, {"type": "Feature", "properties": {"k": "way", "name": "Oehmestra\u00dfe"}, "geometry": {"type": "LineString", "coordinates": [[416515.81, 5655733.34], [416519.34, 5655736.61], [416524.17, 5655755.19]]}}, {"type": "Feature", "properties": {"k": "way", "name": "Oehmestra\u00dfe"}, "geometry": {"type": "LineString", "coordinates": [[416515.9, 5655756.38], [416513.44, 5655737.95], [416515.81, 5655733.34]]}}, {"type": "Feature", "properties": {"k": "way", "name": "Oehmestra\u00dfe"}, "geometry": {"type": "LineString", "coordinates": [[416522.65, 5655770.21], [416517.78, 5655769.7], [416514.24, 5655766.63], [416513.4, 5655760.12], [416515.9, 5655756.38]]}}, {"type": "Feature", "properties": {"k": "way", "name": "Oehmestra\u00dfe"}, "geometry": {"type": "LineString", "coordinates": [[416515.9, 5655756.38], [416520.07, 5655754.58], [416524.17, 5655755.19]]}}, {"type": "Feature", "properties": {"k": "way", "name": "Oehmestra\u00dfe"}, "geometry": {"type": "LineString", "coordinates": [[416539.87, 5655780.89], [416534.98, 5655780.06], [416522.65, 5655770.21]]}}, {"type": "Feature", "properties": {"k": "way", "name": "Oehmestra\u00dfe"}, "geometry": {"type": "LineString", "coordinates": [[416528.94, 5655762.86], [416526.89, 5655767.77], [416522.65, 5655770.21]]}}, {"type": "Feature", "properties": {"k": "way", "name": "Oehmestra\u00dfe"}, "geometry": {"type": "LineString", "coordinates": [[416524.17, 5655755.19], [416527.42, 5655757.77], [416528.94, 5655762.86]]}}, {"type": "Feature", "properties": {"k": "way", "name": "Oehmestra\u00dfe"}, "geometry": {"type": "LineString", "coordinates": [[416528.94, 5655762.86], [416539.37, 5655776.11], [416539.87, 5655780.89]]}}, {"type": "Feature", "properties": {"k": "way", "name": "Oehmestra\u00dfe"}, "geometry": {"type": "LineString", "coordinates": [[416710.16, 5655906.7], [416629.69, 5655858.45], [416614.84, 5655851.83], [416603.12, 5655844.56], [416539.87, 5655780.89]]}}, {"type": "Feature", "properties": {"k": "way", "name": "Pillnitzer Landstra\u00dfe"}, "geometry": {"type": "LineString", "coordinates": [[418000.0, 5654687.76], [417962.16, 5654706.02], [417931.66, 5654724.78], [417902.13, 5654745.94], [417873.09, 5654770.64], [417831.86, 5654813.7], [417771.93, 5654894.65], [417723.99, 5655011.85], [417701.08, 5655062.72], [417675.21, 5655107.49], [417649.03, 5655146.47], [417643.41, 5655157.55], [417635.93, 5655177.34], [417628.19, 5655224.91], [417624.41, 5655238.62], [417619.79, 5655249.8], [417576.98, 5655325.02], [417539.96, 5655433.02], [417519.92, 5655505.56], [417499.45, 5655541.83], [417489.81, 5655564.38], [417419.89, 5655739.31], [417318.85, 5656000.0]]}}, {"type": "Feature", "properties": {"k": "way", "name": "Pillnitzer Landstra\u00dfe"}, "geometry": {"type": "LineString", "coordinates": [[417295.0, 5656000.0], [417300.52, 5655972.71]]}}, {"type": "Feature", "properties": {"k": "way", "name": "Polenzstra\u00dfe"}, "geometry": {"type": "LineString", "coordinates": [[416337.67, 5655205.57], [416443.11, 5655129.28], [416541.7, 5654929.14], [416550.73, 5654914.59], [416561.12, 5654902.41], [416584.86, 5654884.42], [416669.53, 5654829.21]]}}, {"type": "Feature", "properties": {"k": "way", "name": "Pre\u00dfgasse"}, "geometry": {"type": "LineString", "coordinates": [[417744.49, 5654962.33], [417755.13, 5654977.86], [417760.12, 5654994.21], [417765.54, 5655001.98], [417771.22, 5655006.41], [417800.29, 5655011.39], [417814.22, 5655010.96], [417834.28, 5655013.75], [417845.48, 5655017.41], [417857.2, 5655024.18]]}}, {"type": "Feature", "properties": {"k": "way", "name": "Reinhold-Becker-Stra\u00dfe"}, "geometry": {"type": "LineString", "coordinates": [[416228.14, 5655696.36], [416292.66, 5655770.21], [416341.1, 5655818.28], [416428.05, 5655897.09], [416548.68, 5656000.0]]}}, {"type": "Feature", "properties": {"k": "way", "name": "Rittershausstra\u00dfe"}, "geometry": {"type": "LineString", "coordinates": [[417336.19, 5654324.59], [417306.17, 5654259.34], [417285.28, 5654209.26], [417282.41, 5654205.99], [417275.41, 5654204.32], [417265.94, 5654207.47], [417121.13, 5654268.04]]}}, {"type": "Feature", "properties": {"k": "way", "name": "Salbachstra\u00dfe"}, "geometry": {"type": "LineString", "coordinates": [[417460.92, 5654062.88], [417453.2, 5654046.37]]}}, {"type": "Feature", "properties": {"k": "way", "name": "Salbachstra\u00dfe"}, "geometry": {"type": "LineString", "coordinates": [[417460.92, 5654062.88], [417473.35, 5654086.14], [417476.54, 5654102.87]]}}, {"type": "Feature", "properties": {"k": "way", "name": "Salbachstra\u00dfe"}, "geometry": {"type": "LineString", "coordinates": [[417476.54, 5654102.87], [417466.96, 5654086.53], [417460.92, 5654062.88]]}}, {"type": "Feature", "properties": {"k": "way", "name": "Salbachstra\u00dfe"}, "geometry": {"type": "LineString", "coordinates": [[417524.64, 5654249.66], [417527.47, 5654247.31], [417529.86, 5654236.53], [417476.54, 5654102.87]]}}, {"type": "Feature", "properties": {"k": "way", "name": "Scariastra\u00dfe"}, "geometry": {"type": "LineString", "coordinates": [[416428.49, 5655444.3], [416580.95, 5655253.54]]}}, {"type": "Feature", "properties": {"k": "way", "name": "Schandauer Stra\u00dfe"}, "geometry": {"type": "LineString", "coordinates": [[416000.0, 5655053.46], [416276.77, 5654896.56], [416306.3, 5654872.99], [416474.64, 5654726.33]]}}, {"type": "Feature", "properties": {"k": "way", "name": "Schaufu\u00dfstra\u00dfe"}, "geometry": {"type": "LineString", "coordinates": [[416970.32, 5655233.24], [416847.38, 5655088.39], [416739.92, 5654935.89], [416500.27, 5654568.92]]}}, {"type": "Feature", "properties": {"k": "way", "name": "Schellerhauer Weg"}, "geometry": {"type": "LineString", "coordinates": [[416254.05, 5654512.25], [416205.11, 5654436.49], [416200.39, 5654431.82], [416195.71, 5654432.94], [416179.02, 5654443.31], [416175.41, 5654447.34], [416176.47, 5654452.84], [416225.0, 5654527.23]]}}, {"type": "Feature", "properties": {"k": "way", "name": "Schlottwitzer Stra\u00dfe"}, "geometry": {"type": "LineString", "coordinates": [[416649.66, 5654276.64], [416494.56, 5654370.47], [416481.32, 5654379.09], [416473.88, 5654385.89], [416469.08, 5654393.05], [416450.57, 5654460.51], [416447.4, 5654477.13], [416448.79, 5654487.63], [416457.28, 5654505.16], [416466.78, 5654517.16], [416500.27, 5654568.92]]}}, {"type": "Feature", "properties": {"k": "way", "name": "Schl\u00f6milchstra\u00dfe"}, "geometry": {"type": "LineString", "coordinates": [[417012.96, 5654252.9], [417065.83, 5654332.34], [417118.92, 5654418.05]]}}, {"type": "Feature", "properties": {"k": "way", "name": "Schmiedeberger Stra\u00dfe"}, "geometry": {"type": "LineString", "coordinates": [[416086.11, 5654181.11], [416280.96, 5654472.68], [416297.61, 5654498.67], [416301.42, 5654512.52]]}}, {"type": "Feature", "properties": {"k": "way", "name": "Schwenkstra\u00dfe"}, "geometry": {"type": "LineString", "coordinates": [[417985.66, 5654923.29], [418000.0, 5654930.12]]}}, {"type": "Feature", "properties": {"k": "way", "name": "Sebastian-Bach-Stra\u00dfe"}, "geometry": {"type": "LineString", "coordinates": [[416176.73, 5655730.7], [416369.45, 5655935.7], [416441.26, 5656000.0]]}}, {"type": "Feature", "properties": {"k": "way", "name": "Simrockstra\u00dfe"}, "geometry": {"type": "LineString", "coordinates": [[416754.17, 5655418.11], [416810.44, 5655334.48]]}}, {"type": "Feature", "properties": {"k": "way", "name": "Sonnenleite"}, "geometry": {"type": "LineString", "coordinates": [[416197.42, 5654054.64], [416240.18, 5654000.0]]}}, {"type": "Feature", "properties": {"k": "way", "name": "Spohrstra\u00dfe"}, "geometry": {"type": "LineString", "coordinates": [[416793.9, 5655593.99], [416900.43, 5655658.65]]}}, {"type": "Feature", "properties": {"k": "way", "name": "S\u00e4chsischer Weinwanderweg"}, "geometry": {"type": "LineString", "coordinates": [[417877.12, 5655408.51], [417894.99, 5655304.86], [417913.23, 5655260.26], [417917.95, 5655230.36], [417924.41, 5655207.41], [417918.9, 5655189.66], [417914.5, 5655185.75]]}}, {"type": "Feature", "properties": {"k": "way", "name": "Tauscherstra\u00dfe"}, "geometry": {"type": "LineString", "coordinates": [[416283.32, 5655002.72], [416289.86, 5655005.08], [416308.67, 5655019.51], [416443.11, 5655129.28], [416526.53, 5655202.83], [416643.64, 5655309.67], [416840.61, 5655504.27]]}}, {"type": "Feature", "properties": {"k": "way", "name": "Theodor-Friedrich-Weg"}, "geometry": {"type": "LineString", "coordinates": [[417409.12, 5654203.92], [417416.29, 5654210.28], [417416.83, 5654216.77], [417413.19, 5654222.72], [417406.68, 5654225.25], [417403.16, 5654224.83], [417397.42, 5654220.85], [417395.77, 5654217.59], [417396.05, 5654210.4], [417400.78, 5654204.95], [417409.12, 5654203.92]]}}, {"type": "Feature", "properties": {"k": "way", "name": "Theodor-Friedrich-Weg"}, "geometry": {"type": "LineString", "coordinates": [[417480.77, 5654113.89], [417464.8, 5654123.01], [417409.12, 5654203.92]]}}, {"type": "Feature", "properties": {"k": "way", "name": "Toeplerstra\u00dfe"}, "geometry": {"type": "LineString", "coordinates": [[417533.04, 5654000.0], [417565.94, 5654038.01], [417616.01, 5654089.0], [417627.96, 5654099.05]]}}, {"type": "Feature", "properties": {"k": "way", "name": "Tolkewitzer Stra\u00dfe"}, "geometry": {"type": "LineString", "coordinates": [[417511.15, 5654254.18], [417388.54, 5654511.58], [417366.45, 5654551.53], [417125.89, 5654948.16], [417081.12, 5655011.86], [417062.74, 5655042.92], [416970.32, 5655233.24], [416927.75, 5655325.54], [416918.87, 5655377.35], [416912.08, 5655395.49], [416861.92, 5655469.93], [416840.61, 5655504.27], [416776.22, 5655627.38], [416750.0, 5655672.25], [416624.93, 5655840.53], [416599.39, 5655880.35], [416591.86, 5655896.02], [416561.82, 5656000.0]]}}, {"type": "Feature", "properties": {"k": "way", "name": "Traubestra\u00dfe"}, "geometry": {"type": "LineString", "coordinates": [[416527.83, 5654801.28], [416308.67, 5655019.51], [416288.83, 5655038.47], [416282.14, 5655040.36]]}}, {"type": "Feature", "properties": {"k": "way", "name": "Treidelpfad"}, "geometry": {"type": "LineString", "coordinates": [[418000.0, 5654562.01], [417930.45, 5654593.36], [417844.08, 5654642.21], [417782.62, 5654683.87], [417701.08, 5654745.6], [417674.79, 5654763.7], [417628.89, 5654803.41], [417469.94, 5654957.06], [417409.6, 5655018.72], [417400.16, 5655026.66], [417395.88, 5655034.89], [417343.59, 5655093.7], [417311.47, 5655140.91], [417279.48, 5655195.9], [417251.64, 5655249.26], [417172.15, 5655432.24], [417102.81, 5655604.16], [417067.99, 5655696.94], [417033.73, 5655777.64], [416981.24, 5655884.32], [416920.89, 5656000.0]]}}, {"type": "Feature", "properties": {"k": "way", "name": "Viktor-B\u00f6hmert-Weg"}, "geometry": {"type": "LineString", "coordinates": [[417978.3, 5655034.81], [417987.51, 5655034.56], [418000.0, 5655042.75]]}}, {"type": "Feature", "properties": {"k": "way", "name": "Voglerstra\u00dfe"}, "geometry": {"type": "LineString", "coordinates": [[416514.36, 5655758.08], [416375.3, 5655617.97], [416217.94, 5655387.3], [416154.17, 5655291.23], [416078.55, 5655182.95], [416000.0, 5655064.09]]}}, {"type": "Feature", "properties": {"k": "way", "name": "Wachwitzer Weinberg"}, "geometry": {"type": "LineString", "coordinates": [[417560.54, 5655571.63], [417574.15, 5655593.62], [417581.15, 5655613.91], [417583.66, 5655643.01], [417586.25, 5655654.97], [417595.41, 5655665.28], [417607.76, 5655669.22], [417619.05, 5655667.39], [417626.47, 5655658.33], [417634.03, 5655639.44], [417641.18, 5655632.91], [417656.83, 5655626.05], [417666.91, 5655624.72], [417675.68, 5655625.91], [417683.87, 5655629.47]]}}, {"type": "Feature", "properties": {"k": "way", "name": "Wachwitzer Weinberg"}, "geometry": {"type": "LineString", "coordinates": [[417778.91, 5655793.58], [417768.95, 5655763.09], [417761.24, 5655726.3], [417756.37, 5655686.39], [417755.11, 5655655.72], [417755.15, 5655640.46], [417757.84, 5655626.09]]}}, {"type": "Feature", "properties": {"k": "way", "name": "Wachwitzer Weinberg"}, "geometry": {"type": "LineString", "coordinates": [[417768.06, 5655313.82], [417775.22, 5655328.62], [417788.77, 5655340.41]]}}, {"type": "Feature", "properties": {"k": "way", "name": "Wachwitzer Weinberg"}, "geometry": {"type": "LineString", "coordinates": [[417789.5, 5655554.35], [417812.69, 5655516.89], [417839.22, 5655465.24], [417833.97, 5655461.13], [417799.55, 5655448.24]]}}, {"type": "Feature", "properties": {"k": "way", "name": "Weesensteiner Stra\u00dfe"}, "geometry": {"type": "LineString", "coordinates": [[416438.03, 5654222.87], [416593.43, 5654259.15], [416641.29, 5654272.17], [416649.66, 5654276.64], [416748.73, 5654416.26]]}}, {"type": "Feature", "properties": {"k": "way", "name": "Wehlener Stra\u00dfe"}, "geometry": {"type": "LineString", "coordinates": [[416474.64, 5654726.33], [416515.39, 5654697.06], [416544.83, 5654680.96], [416926.71, 5654508.54], [417062.45, 5654443.75], [417178.77, 5654391.83], [417424.0, 5654287.84], [417511.15, 5654254.18], [417698.63, 5654195.98], [417723.38, 5654182.04], [417736.43, 5654172.58], [417820.46, 5654094.39], [417840.01, 5654078.93], [417870.74, 5654059.35], [417921.99, 5654035.3]]}}, {"type": "Feature", "properties": {"k": "way", "name": "Wittenberger Stra\u00dfe"}, "geometry": {"type": "LineString", "coordinates": [[416282.76, 5655051.22], [416264.18, 5655060.67], [416166.71, 5655123.17], [416000.0, 5655234.84]]}}, {"type": "Feature", "properties": {"k": "way", "name": "Wollnerstra\u00dfe"}, "geometry": {"type": "LineString", "coordinates": [[417752.7, 5654942.9], [417761.3, 5654945.75], [417767.45, 5654945.9], [417811.75, 5654934.34], [417818.65, 5654935.11], [417860.02, 5654952.38], [417872.08, 5654954.62], [417901.25, 5654963.66], [417917.01, 5654974.4], [417944.09, 5655003.4], [417967.83, 5655014.11]]}}, {"type": "Feature", "properties": {"k": "way", "name": "W\u00e4gnerstra\u00dfe"}, "geometry": {"type": "LineString", "coordinates": [[416214.86, 5655915.76], [416113.46, 5656000.0]]}}, {"type": "Feature", "properties": {"k": "way", "name": "Zinnwalder Stra\u00dfe"}, "geometry": {"type": "LineString", "coordinates": [[416000.0, 5654653.46], [416245.05, 5654515.7], [416254.05, 5654512.25], [416266.62, 5654509.76], [416287.13, 5654509.89], [416360.66, 5654527.69]]}}, {"type": "Feature", "properties": {"k": "way", "name": "Zum Tal"}, "geometry": {"type": "LineString", "coordinates": [[416206.6, 5654069.25], [416161.43, 5654000.0]]}}]}