{"type": "FeatureCollection", "attribution": "\u00a9 OpenStreetMap contributors (ODbL)", "crs": {"type": "name", "properties": {"name": "urn:ogc:def:crs:EPSG::25833"}}, "features": [{"type": "Feature", "properties": {"k": "label", "name": "Altonaer Stra\u00dfe", "c": "minor"}, "geometry": {"type": "LineString", "coordinates": [[409513.37, 5656119.4], [409567.58, 5656078.41], [409580.54, 5656070.78]]}}, {"type": "Feature", "properties": {"k": "label", "name": "Am Lerchenberg", "c": "minor"}, "geometry": {"type": "LineString", "coordinates": [[408745.96, 5655994.19], [408699.26, 5656057.66]]}}, {"type": "Feature", "properties": {"k": "label", "name": "Behringstra\u00dfe", "c": "minor"}, "geometry": {"type": "LineString", "coordinates": [[409737.33, 5656275.78], [409689.43, 5656218.6]]}}, {"type": "Feature", "properties": {"k": "label", "name": "Behringstra\u00dfe", "c": "minor"}, "geometry": {"type": "LineString", "coordinates": [[409975.19, 5656621.94], [409939.38, 5656556.5]]}}, {"type": "Feature", "properties": {"k": "label", "name": "Behringstra\u00dfe", "c": "minor"}, "geometry": {"type": "LineString", "coordinates": [[409759.25, 5656473.94], [409685.04, 5656481.53]]}}, {"type": "Feature", "properties": {"k": "label", "name": "Berliner Stra\u00dfe", "c": "minor"}, "geometry": {"type": "LineString", "coordinates": [[409768.3, 5656876.16], [409840.8, 5656835.77]]}}, {"type": "Feature", "properties": {"k": "label", "name": "Birkenhainer Stra\u00dfe", "c": "minor"}, "geometry": {"type": "LineString", "coordinates": [[408089.33, 5656501.67], [408188.27, 5656514.73]]}}, {"type": "Feature", "properties": {"k": "label", "name": "Bremer Stra\u00dfe", "c": "main"}, "geometry": {"type": "LineString", "coordinates": [[408793.75, 5657427.27], [408868.13, 5657432.96]]}}, {"type": "Feature", "properties": {"k": "label", "name": "Bremer Stra\u00dfe", "c": "main"}, "geometry": {"type": "LineString", "coordinates": [[409442.52, 5657470.71], [409517.09, 5657468.67]]}}, {"type": "Feature", "properties": {"k": "label", "name": "Burgkstra\u00dfe", "c": "minor"}, "geometry": {"type": "LineString", "coordinates": [[408663.9, 5655984.12], [408649.12, 5656048.65]]}}, {"type": "Feature", "properties": {"k": "label", "name": "Carl-Immermann-Stra\u00dfe", "c": "minor"}, "geometry": {"type": "LineString", "coordinates": [[408020.17, 5656721.84], [408021.03, 5656725.61], [408022.23, 5656746.72], [408029.01, 5656786.15], [408036.84, 5656825.7], [408038.15, 5656828.23]]}}, {"type": "Feature", "properties": {"k": "label", "name": "Cottaer Stra\u00dfe", "c": "minor"}, "geometry": {"type": "LineString", "coordinates": [[409574.11, 5656286.79], [409645.66, 5656253.78]]}}, {"type": "Feature", "properties": {"k": "label", "name": "Drescherh\u00e4user", "c": "minor"}, "geometry": {"type": "LineString", "coordinates": [[408952.05, 5656099.65], [408989.5, 5656124.32], [409018.84, 5656141.42]]}}, {"type": "Feature", "properties": {"k": "label", "name": "Elberadweg", "c": "minor"}, "geometry": {"type": "LineString", "coordinates": [[409080.87, 5657931.08], [409130.88, 5657943.96], [409141.11, 5657945.57]]}}, {"type": "Feature", "properties": {"k": "label", "name": "Elberadweg", "c": "minor"}, "geometry": {"type": "LineString", "coordinates": [[409666.97, 5657955.56], [409704.88, 5657953.06], [409728.7, 5657950.1]]}}, {"type": "Feature", "properties": {"k": "label", "name": "Elberadweg", "c": "minor"}, "geometry": {"type": "LineString", "coordinates": [[408539.15, 5657716.12], [408556.54, 5657720.73], [408598.18, 5657734.98]]}}, {"type": "Feature", "properties": {"k": "label", "name": "Emerich-Ambros-Ufer", "c": "main"}, "geometry": {"type": "LineString", "coordinates": [[409231.28, 5656120.64], [409225.29, 5656131.95], [409212.74, 5656201.45], [409208.66, 5656217.31]]}}, {"type": "Feature", "properties": {"k": "label", "name": "Emerich-Ambros-Ufer", "c": "main"}, "geometry": {"type": "LineString", "coordinates": [[408962.91, 5656433.41], [408867.0, 5656461.02]]}}, {"type": "Feature", "properties": {"k": "label", "name": "Emerich-Ambros-Ufer", "c": "main"}, "geometry": {"type": "LineString", "coordinates": [[408529.66, 5656557.25], [408433.82, 5656585.05]]}}, {"type": "Feature", "properties": {"k": "label", "name": "Emerich-Ambros-Ufer", "c": "main"}, "geometry": {"type": "LineString", "coordinates": [[408232.39, 5656838.04], [408229.76, 5656848.97], [408217.56, 5656884.97], [408198.99, 5656931.99]]}}, {"type": "Feature", "properties": {"k": "label", "name": "Fl\u00fcgelweg", "c": "main"}, "geometry": {"type": "LineString", "coordinates": [[408207.42, 5657408.6], [408219.41, 5657465.13]]}}, {"type": "Feature", "properties": {"k": "label", "name": "Fl\u00fcgelweg", "c": "main"}, "geometry": {"type": "LineString", "coordinates": [[408131.11, 5657124.6], [408145.62, 5657180.54]]}}, {"type": "Feature", "properties": {"k": "label", "name": "Fl\u00fcgelwegbr\u00fccke", "c": "main"}, "geometry": {"type": "LineString", "coordinates": [[408211.53, 5657720.38], [408201.95, 5657802.83]]}}, {"type": "Feature", "properties": {"k": "label", "name": "Friedrichstra\u00dfe", "c": "minor"}, "geometry": {"type": "LineString", "coordinates": [[409961.39, 5657377.85], [409887.84, 5657416.31]]}}, {"type": "Feature", "properties": {"k": "label", "name": "Fr\u00f6belstra\u00dfe", "c": "main"}, "geometry": {"type": "LineString", "coordinates": [[409196.39, 5656275.01], [409261.75, 5656301.16]]}}, {"type": "Feature", "properties": {"k": "label", "name": "Fr\u00f6belstra\u00dfe", "c": "main"}, "geometry": {"type": "LineString", "coordinates": [[408867.17, 5656176.57], [408932.69, 5656202.31]]}}, {"type": "Feature", "properties": {"k": "label", "name": "Fr\u00f6belstra\u00dfe", "c": "main"}, "geometry": {"type": "LineString", "coordinates": [[409675.62, 5656421.95], [409709.79, 5656421.82], [409745.96, 5656420.03]]}}, {"type": "Feature", "properties": {"k": "label", "name": "Fr\u00f6belstra\u00dfe", "c": "main"}, "geometry": {"type": "LineString", "coordinates": [[409962.78, 5656305.08], [410010.81, 5656253.61]]}}, {"type": "Feature", "properties": {"k": "label", "name": "Gambrinusstra\u00dfe", "c": "minor"}, "geometry": {"type": "LineString", "coordinates": [[409563.04, 5656235.21], [409585.03, 5656281.81], [409600.12, 5656309.43]]}}, {"type": "Feature", "properties": {"k": "label", "name": "Gohliser Stra\u00dfe", "c": "minor"}, "geometry": {"type": "LineString", "coordinates": [[408515.93, 5656091.51], [408497.68, 5656172.48]]}}, {"type": "Feature", "properties": {"k": "label", "name": "Hafenbr\u00fccke", "c": "minor"}, "geometry": {"type": "LineString", "coordinates": [[408785.06, 5657789.29], [408845.74, 5657815.77]]}}, {"type": "Feature", "properties": {"k": "label", "name": "Hafenweg", "c": "minor"}, "geometry": {"type": "LineString", "coordinates": [[409126.07, 5657921.09], [409178.99, 5657929.63]]}}, {"type": "Feature", "properties": {"k": "label", "name": "Hafenweg", "c": "minor"}, "geometry": {"type": "LineString", "coordinates": [[409752.3, 5657929.38], [409805.58, 5657923.59]]}}, {"type": "Feature", "properties": {"k": "label", "name": "Hafenweg", "c": "minor"}, "geometry": {"type": "LineString", "coordinates": [[409873.16, 5657694.17], [409923.75, 5657690.7], [409926.61, 5657691.11]]}}, {"type": "Feature", "properties": {"k": "label", "name": "Hamburger Stra\u00dfe", "c": "main"}, "geometry": {"type": "LineString", "coordinates": [[409408.04, 5657123.61], [409322.85, 5657142.23]]}}, {"type": "Feature", "properties": {"k": "label", "name": "Hamburger Stra\u00dfe", "c": "main"}, "geometry": {"type": "LineString", "coordinates": [[408939.58, 5657226.35], [408854.46, 5657245.28]]}}, {"type": "Feature", "properties": {"k": "label", "name": "Hamburger Stra\u00dfe", "c": "main"}, "geometry": {"type": "LineString", "coordinates": [[408272.79, 5657481.93], [408250.44, 5657487.56], [408211.44, 5657502.7], [408190.32, 5657509.86]]}}, {"type": "Feature", "properties": {"k": "label", "name": "Hamburger Stra\u00dfe", "c": "main"}, "geometry": {"type": "LineString", "coordinates": [[408531.51, 5657374.41], [408611.64, 5657340.02]]}}, {"type": "Feature", "properties": {"k": "label", "name": "Hohenthalplatz", "c": "minor"}, "geometry": {"type": "LineString", "coordinates": [[409876.84, 5657155.74], [409839.34, 5657086.43]]}}, {"type": "Feature", "properties": {"k": "label", "name": "H\u00f6lderlinstra\u00dfe", "c": "minor"}, "geometry": {"type": "LineString", "coordinates": [[408084.13, 5656126.32], [408086.67, 5656108.23], [408098.73, 5656044.63]]}}, {"type": "Feature", "properties": {"k": "label", "name": "H\u00f6lderlinstra\u00dfe", "c": "minor"}, "geometry": {"type": "LineString", "coordinates": [[408029.85, 5656493.82], [408043.01, 5656417.11], [408044.8, 5656412.37]]}}, {"type": "Feature", "properties": {"k": "label", "name": "H\u00fchndorfer Stra\u00dfe", "c": "minor"}, "geometry": {"type": "LineString", "coordinates": [[408331.81, 5656261.02], [408241.25, 5656248.68]]}}, {"type": "Feature", "properties": {"k": "label", "name": "Klopstockstra\u00dfe", "c": "minor"}, "geometry": {"type": "LineString", "coordinates": [[408127.85, 5656677.54], [408143.31, 5656604.12], [408144.25, 5656596.21]]}}, {"type": "Feature", "properties": {"k": "label", "name": "Klopstockstra\u00dfe", "c": "minor"}, "geometry": {"type": "LineString", "coordinates": [[408187.73, 5656231.33], [408197.55, 5656148.91]]}}, {"type": "Feature", "properties": {"k": "label", "name": "Leutewitzer Stra\u00dfe", "c": "minor"}, "geometry": {"type": "LineString", "coordinates": [[408069.23, 5656874.62], [407973.69, 5656878.0]]}}, {"type": "Feature", "properties": {"k": "label", "name": "L\u00f6btauer Br\u00fccke", "c": "main"}, "geometry": {"type": "LineString", "coordinates": [[409252.19, 5655999.28], [409234.56, 5656080.38]]}}, {"type": "Feature", "properties": {"k": "label", "name": "L\u00f6btauer Stra\u00dfe", "c": "main"}, "geometry": {"type": "LineString", "coordinates": [[409932.59, 5656351.84], [409906.56, 5656328.97], [409868.77, 5656298.82]]}}, {"type": "Feature", "properties": {"k": "label", "name": "L\u00f6btauer Stra\u00dfe", "c": "main"}, "geometry": {"type": "LineString", "coordinates": [[409640.35, 5656032.69], [409695.31, 5656094.88]]}}, {"type": "Feature", "properties": {"k": "label", "name": "L\u00fcbecker Stra\u00dfe", "c": "main"}, "geometry": {"type": "LineString", "coordinates": [[408495.99, 5656288.49], [408440.04, 5656349.78]]}}, {"type": "Feature", "properties": {"k": "label", "name": "L\u00fcbecker Stra\u00dfe", "c": "main"}, "geometry": {"type": "LineString", "coordinates": [[408209.9, 5656722.43], [408199.07, 5656779.6], [408194.36, 5656795.87], [408190.61, 5656802.79]]}}, {"type": "Feature", "properties": {"k": "label", "name": "L\u00fcbecker Stra\u00dfe", "c": "main"}, "geometry": {"type": "LineString", "coordinates": [[408817.78, 5656005.52], [408746.11, 5656047.38]]}}, {"type": "Feature", "properties": {"k": "label", "name": "Magdeburger Stra\u00dfe", "c": "main"}, "geometry": {"type": "LineString", "coordinates": [[409624.12, 5657643.89], [409528.71, 5657650.0]]}}, {"type": "Feature", "properties": {"k": "label", "name": "Magdeburger Stra\u00dfe", "c": "main"}, "geometry": {"type": "LineString", "coordinates": [[409045.6, 5657683.03], [408950.21, 5657689.32]]}}, {"type": "Feature", "properties": {"k": "label", "name": "Magdeburger Stra\u00dfe", "c": "main"}, "geometry": {"type": "LineString", "coordinates": [[409900.69, 5657609.6], [409995.97, 5657601.75]]}}, {"type": "Feature", "properties": {"k": "label", "name": "Manitiusstra\u00dfe", "c": "minor"}, "geometry": {"type": "LineString", "coordinates": [[409935.44, 5656919.46], [409972.81, 5656988.83]]}}, {"type": "Feature", "properties": {"k": "label", "name": "Menageriestra\u00dfe", "c": "minor"}, "geometry": {"type": "LineString", "coordinates": [[409853.32, 5656908.7], [409860.97, 5656922.49], [409867.29, 5656930.03], [409894.71, 5656980.42]]}}, {"type": "Feature", "properties": {"k": "label", "name": "Pennricher Stra\u00dfe", "c": "minor"}, "geometry": {"type": "LineString", "coordinates": [[408299.64, 5656096.41], [408321.25, 5656094.35], [408389.71, 5656081.42]]}}, {"type": "Feature", "properties": {"k": "label", "name": "Potthoffstra\u00dfe", "c": "minor"}, "geometry": {"type": "LineString", "coordinates": [[408957.37, 5656652.99], [409033.07, 5656631.11]]}}, {"type": "Feature", "properties": {"k": "label", "name": "Raimundstra\u00dfe", "c": "main"}, "geometry": {"type": "LineString", "coordinates": [[408010.06, 5656958.43], [408014.62, 5656967.43], [408021.7, 5657002.88], [408028.54, 5657022.99], [408031.95, 5657029.22]]}}, {"type": "Feature", "properties": {"k": "label", "name": "Rennersdorfer Stra\u00dfe", "c": "minor"}, "geometry": {"type": "LineString", "coordinates": [[408123.0, 5656418.98], [408226.09, 5656432.63]]}}, {"type": "Feature", "properties": {"k": "label", "name": "Rudolf-Renner-Stra\u00dfe", "c": "main"}, "geometry": {"type": "LineString", "coordinates": [[408311.66, 5656157.59], [408298.96, 5656260.81]]}}, {"type": "Feature", "properties": {"k": "label", "name": "Sachsdorfer Stra\u00dfe", "c": "minor"}, "geometry": {"type": "LineString", "coordinates": [[408190.73, 5656338.5], [408285.48, 5656351.24]]}}, {"type": "Feature", "properties": {"k": "label", "name": "Sch\u00e4ferstra\u00dfe", "c": "main"}, "geometry": {"type": "LineString", "coordinates": [[409857.11, 5656934.12], [409791.7, 5656969.98]]}}, {"type": "Feature", "properties": {"k": "label", "name": "Semmelweisstra\u00dfe", "c": "minor"}, "geometry": {"type": "LineString", "coordinates": [[409390.75, 5656282.9], [409407.23, 5656216.91], [409409.76, 5656197.89]]}}, {"type": "Feature", "properties": {"k": "label", "name": "Tonbergstra\u00dfe", "c": "main"}, "geometry": {"type": "LineString", "coordinates": [[408058.79, 5657042.17], [408035.06, 5657033.55], [408006.12, 5657031.25], [407986.0, 5657028.58]]}}, {"type": "Feature", "properties": {"k": "label", "name": "Treidelpfad", "c": "minor"}, "geometry": {"type": "LineString", "coordinates": [[408401.43, 5657876.31], [408336.21, 5657864.99]]}}, {"type": "Feature", "properties": {"k": "label", "name": "Tunnel Bramschstra\u00dfe", "c": "main"}, "geometry": {"type": "LineString", "coordinates": [[408551.97, 5656044.2], [408451.48, 5656017.43]]}}, {"type": "Feature", "properties": {"k": "label", "name": "Unkersdorfer Stra\u00dfe", "c": "minor"}, "geometry": {"type": "LineString", "coordinates": [[408294.98, 5656176.1], [408393.74, 5656190.47]]}}, {"type": "Feature", "properties": {"k": "label", "name": "Vorwerkstra\u00dfe", "c": "minor"}, "geometry": {"type": "LineString", "coordinates": [[409768.56, 5656956.76], [409804.09, 5657022.35]]}}, {"type": "Feature", "properties": {"k": "label", "name": "Vorwerkstra\u00dfe", "c": "minor"}, "geometry": {"type": "LineString", "coordinates": [[409924.74, 5657245.31], [409959.9, 5657311.1]]}}, {"type": "Feature", "properties": {"k": "label", "name": "Wachsbleichstra\u00dfe", "c": "minor"}, "geometry": {"type": "LineString", "coordinates": [[409705.99, 5657155.67], [409786.62, 5657112.62]]}}, {"type": "Feature", "properties": {"k": "label", "name": "Wachsbleichstra\u00dfe", "c": "minor"}, "geometry": {"type": "LineString", "coordinates": [[409948.43, 5657026.82], [410029.12, 5656983.88]]}}, {"type": "Feature", "properties": {"k": "label", "name": "Waltherstra\u00dfe", "c": "main"}, "geometry": {"type": "LineString", "coordinates": [[409494.1, 5656791.01], [409516.16, 5656862.28]]}}, {"type": "Feature", "properties": {"k": "label", "name": "Waltherstra\u00dfe", "c": "main"}, "geometry": {"type": "LineString", "coordinates": [[409736.88, 5657335.03], [409771.24, 5657401.24]]}}, {"type": "Feature", "properties": {"k": "label", "name": "Waltherstra\u00dfe", "c": "main"}, "geometry": {"type": "LineString", "coordinates": [[409402.67, 5656357.25], [409410.41, 5656430.71]]}}, {"type": "Feature", "properties": {"k": "label", "name": "Wei\u00dferitz-Gr\u00fcnzug", "c": "minor"}, "geometry": {"type": "LineString", "coordinates": [[409864.99, 5656005.28], [409886.25, 5656022.12], [409935.41, 5656063.52]]}}, {"type": "Feature", "properties": {"k": "label", "name": "Werkst\u00e4ttenstra\u00dfe", "c": "minor"}, "geometry": {"type": "LineString", "coordinates": [[408123.22, 5656599.61], [408212.39, 5656619.65]]}}, {"type": "Feature", "properties": {"k": "label", "name": "Waltherstra\u00dfenbr\u00fccke", "c": "bridge"}, "geometry": {"type": "LineString", "coordinates": [[409454.7, 5656665.96], [409485.54, 5656765.28]]}}, {"type": "Feature", "properties": {"k": "way", "name": "Altcotta"}, "geometry": {"type": "LineString", "coordinates": [[408000.0, 5656960.2], [408007.61, 5656954.1], [408000.0, 5656953.21]]}}, {"type": "Feature", "properties": {"k": "way", "name": "Altonaer Stra\u00dfe"}, "geometry": {"type": "LineString", "coordinates": [[409341.01, 5656121.82], [409345.27, 5656120.96], [409418.85, 5656129.26], [409498.53, 5656127.31], [409509.71, 5656122.16], [409567.58, 5656078.41], [409640.56, 5656035.38], [409676.61, 5656000.0]]}}, {"type": "Feature", "properties": {"k": "way", "name": "Am Lerchenberg"}, "geometry": {"type": "LineString", "coordinates": [[408741.68, 5656000.0], [408695.6, 5656062.64]]}}, {"type": "Feature", "properties": {"k": "way", "name": "Am Ostravorwerk"}, "geometry": {"type": "LineString", "coordinates": [[409977.78, 5657458.51], [410000.0, 5657461.25]]}}, {"type": "Feature", "properties": {"k": "way", "name": "Behringstra\u00dfe"}, "geometry": {"type": "LineString", "coordinates": [[409861.91, 5656418.29], [409854.98, 5656405.94], [409834.64, 5656389.12], [409815.14, 5656367.07], [409698.09, 5656228.52], [409567.58, 5656078.41]]}}, {"type": "Feature", "properties": {"k": "way", "name": "Behringstra\u00dfe"}, "geometry": {"type": "LineString", "coordinates": [[409861.91, 5656418.29], [409809.66, 5656458.69], [409789.48, 5656470.84], [409568.77, 5656493.43]]}}, {"type": "Feature", "properties": {"k": "way", "name": "Behringstra\u00dfe"}, "geometry": {"type": "LineString", "coordinates": [[410000.0, 5656667.25], [409861.91, 5656418.29]]}}, {"type": "Feature", "properties": {"k": "way", "name": "Berliner Stra\u00dfe"}, "geometry": {"type": "LineString", "coordinates": [[409557.07, 5656989.99], [409735.45, 5656895.1], [410000.0, 5656747.87]]}}, {"type": "Feature", "properties": {"k": "way", "name": "Birkenhainer Stra\u00dfe"}, "geometry": {"type": "LineString", "coordinates": [[408029.85, 5656493.82], [408252.48, 5656523.2]]}}, {"type": "Feature", "properties": {"k": "way", "name": "Bramschstra\u00dfe"}, "geometry": {"type": "LineString", "coordinates": [[408365.23, 5656000.0], [408527.56, 5656038.44]]}}, {"type": "Feature", "properties": {"k": "way", "name": "Braunsdorfer Stra\u00dfe"}, "geometry": {"type": "LineString", "coordinates": [[408761.95, 5656000.0], [408778.87, 5656028.2]]}}, {"type": "Feature", "properties": {"k": "way", "name": "Bremer Stra\u00dfe"}, "geometry": {"type": "LineString", "coordinates": [[408509.8, 5657403.96], [408533.75, 5657407.35], [408635.19, 5657413.94], [408775.44, 5657425.97], [409382.62, 5657472.62], [409802.46, 5657458.49]]}}, {"type": "Feature", "properties": {"k": "way", "name": "Burgkstra\u00dfe"}, "geometry": {"type": "LineString", "coordinates": [[408660.26, 5656000.0], [408641.69, 5656081.08]]}}, {"type": "Feature", "properties": {"k": "way", "name": "Carl-Immermann-Stra\u00dfe"}, "geometry": {"type": "LineString", "coordinates": [[408000.0, 5656695.07], [408001.23, 5656698.93], [408012.82, 5656709.72], [408019.54, 5656719.1], [408022.23, 5656746.72], [408036.84, 5656825.7], [408042.21, 5656836.05], [408069.37, 5656874.61]]}}, {"type": "Feature", "properties": {"k": "way", "name": "Cottaer Stra\u00dfe"}, "geometry": {"type": "LineString", "coordinates": [[409403.02, 5656356.95], [409428.3, 5656350.18], [409446.01, 5656343.24]]}}, {"type": "Feature", "properties": {"k": "way", "name": "Cottaer Stra\u00dfe"}, "geometry": {"type": "LineString", "coordinates": [[409446.01, 5656343.24], [409435.1, 5656353.91], [409433.59, 5656358.51], [409437.91, 5656369.94]]}}, {"type": "Feature", "properties": {"k": "way", "name": "Cottaer Stra\u00dfe"}, "geometry": {"type": "LineString", "coordinates": [[409446.01, 5656343.24], [409491.44, 5656324.42], [409686.74, 5656234.86], [409704.68, 5656223.85], [409764.63, 5656173.19]]}}, {"type": "Feature", "properties": {"k": "way", "name": "Drescherh\u00e4user"}, "geometry": {"type": "LineString", "coordinates": [[408937.65, 5656000.0], [408919.57, 5656067.05], [408919.96, 5656074.98], [408922.89, 5656080.47], [408989.5, 5656124.32], [409065.46, 5656168.59], [409131.78, 5656210.11], [409136.32, 5656215.17], [409134.39, 5656220.53], [409135.73, 5656222.95], [409143.69, 5656217.3], [409151.62, 5656227.29]]}}, {"type": "Feature", "properties": {"k": "way", "name": "Elberadweg"}, "geometry": {"type": "LineString", "coordinates": [[408365.27, 5657664.47], [408368.7, 5657660.27], [408378.83, 5657665.32], [408382.39, 5657665.58], [408387.09, 5657664.55], [408389.66, 5657661.77], [408452.48, 5657683.94], [408473.54, 5657689.15], [408483.54, 5657693.67], [408492.57, 5657694.49], [408503.62, 5657701.64], [408524.84, 5657707.64], [408533.21, 5657714.54], [408556.54, 5657720.73], [408602.95, 5657736.61], [408626.47, 5657747.64], [408695.88, 5657766.69], [408720.02, 5657766.92], [408754.2, 5657781.02], [408768.1, 5657781.95], [408775.9, 5657785.29]]}}, {"type": "Feature", "properties": {"k": "way", "name": "Elberadweg"}, "geometry": {"type": "LineString", "coordinates": [[408851.8, 5657818.41], [408857.99, 5657821.97], [408864.16, 5657833.9], [408870.87, 5657841.09], [408920.12, 5657869.06], [408978.07, 5657897.15], [409025.0, 5657916.69], [409130.88, 5657943.96], [409293.0, 5657969.59], [409371.83, 5657973.42], [409509.66, 5657971.67], [409622.54, 5657959.09], [409704.88, 5657953.06], [409853.88, 5657934.54], [409985.5, 5657906.64]]}}, {"type": "Feature", "properties": {"k": "way", "name": "Elberadweg"}, "geometry": {"type": "LineString", "coordinates": [[409985.5, 5657906.64], [409990.44, 5657897.49]]}}, {"type": "Feature", "properties": {"k": "way", "name": "Elberadweg"}, "geometry": {"type": "LineString", "coordinates": [[409985.5, 5657906.64], [410000.0, 5657904.34]]}}, {"type": "Feature", "properties": {"k": "way", "name": "Emerich-Ambros-Ufer"}, "geometry": {"type": "LineString", "coordinates": [[409260.38, 5656000.0], [409237.6, 5656105.53], [409225.29, 5656131.95], [409212.74, 5656201.45], [409193.9, 5656274.0], [409185.31, 5656292.47], [409167.56, 5656319.77], [409139.68, 5656351.42], [409095.87, 5656384.15], [409065.55, 5656401.33], [409051.04, 5656407.62], [409028.04, 5656414.7], [408407.28, 5656592.68], [408370.42, 5656605.28], [408348.3, 5656616.56], [408318.01, 5656637.4], [408295.41, 5656660.94], [408279.77, 5656682.15], [408269.34, 5656701.58], [408258.07, 5656731.27], [408229.76, 5656848.97], [408217.56, 5656884.97], [408197.87, 5656934.8], [408147.81, 5657037.57], [408127.57, 5657074.81], [408117.4, 5657086.98]]}}, {"type": "Feature", "properties": {"k": "way", "name": "Emerich-Ambros-Ufer"}, "geometry": {"type": "LineString", "coordinates": [[408215.58, 5656691.72], [408224.6, 5656681.35], [408250.8, 5656641.87], [408263.48, 5656625.9], [408281.8, 5656607.4], [408306.22, 5656587.44], [408320.96, 5656577.59], [408352.09, 5656561.99], [409009.96, 5656370.98], [409032.75, 5656362.89], [409049.99, 5656354.41], [409086.95, 5656329.22]]}}, {"type": "Feature", "properties": {"k": "way", "name": "Emerich-Ambros-Ufer"}, "geometry": {"type": "LineString", "coordinates": [[409086.95, 5656329.22], [409086.67, 5656320.28], [409105.3, 5656299.92], [409107.4, 5656293.2], [409107.2, 5656276.93], [409104.36, 5656269.07]]}}, {"type": "Feature", "properties": {"k": "way", "name": "Emerich-Ambros-Ufer"}, "geometry": {"type": "LineString", "coordinates": [[409086.95, 5656329.22], [409102.53, 5656315.98], [409115.12, 5656302.3], [409128.62, 5656283.77], [409138.29, 5656264.91], [409151.62, 5656227.29], [409193.23, 5656046.75], [409191.19, 5656024.51], [409192.2, 5656000.0]]}}, {"type": "Feature", "properties": {"k": "way", "name": "Fl\u00fcgelweg"}, "geometry": {"type": "LineString", "coordinates": [[408093.2, 5657062.07], [408114.94, 5657083.64], [408125.03, 5657103.15], [408144.9, 5657177.38], [408157.24, 5657231.05], [408165.27, 5657254.29]]}}, {"type": "Feature", "properties": {"k": "way", "name": "Fl\u00fcgelweg"}, "geometry": {"type": "LineString", "coordinates": [[408165.27, 5657254.29], [408180.72, 5657269.68], [408188.68, 5657283.37], [408191.56, 5657292.14], [408224.38, 5657421.96], [408235.92, 5657493.21]]}}, {"type": "Feature", "properties": {"k": "way", "name": "Fl\u00fcgelweg"}, "geometry": {"type": "LineString", "coordinates": [[408165.27, 5657254.29], [408172.46, 5657273.06]]}}, {"type": "Feature", "properties": {"k": "way", "name": "Fl\u00fcgelweg"}, "geometry": {"type": "LineString", "coordinates": [[408172.46, 5657273.06], [408187.24, 5657325.11], [408205.91, 5657401.73], [408221.78, 5657479.17], [408225.23, 5657513.91], [408225.19, 5657546.71], [408218.58, 5657609.37]]}}, {"type": "Feature", "properties": {"k": "way", "name": "Fl\u00fcgelweg"}, "geometry": {"type": "LineString", "coordinates": [[408211.44, 5657502.7], [408207.34, 5657460.62], [408177.04, 5657330.58], [408173.33, 5657305.65], [408172.46, 5657273.06]]}}, {"type": "Feature", "properties": {"k": "way", "name": "Fl\u00fcgelweg"}, "geometry": {"type": "LineString", "coordinates": [[408206.36, 5657656.32], [408213.54, 5657620.14], [408218.58, 5657609.37]]}}, {"type": "Feature", "properties": {"k": "way", "name": "Fl\u00fcgelweg"}, "geometry": {"type": "LineString", "coordinates": [[408218.58, 5657609.37], [408220.4, 5657620.97], [408218.34, 5657642.88], [408218.8, 5657657.75]]}}, {"type": "Feature", "properties": {"k": "way", "name": "Fl\u00fcgelweg"}, "geometry": {"type": "LineString", "coordinates": [[408264.69, 5657564.92], [408251.77, 5657560.45], [408244.58, 5657562.69], [408235.72, 5657570.75]]}}, {"type": "Feature", "properties": {"k": "way", "name": "Fl\u00fcgelweg"}, "geometry": {"type": "LineString", "coordinates": [[408238.54, 5657526.49], [408261.37, 5657557.06], [408264.69, 5657564.92]]}}, {"type": "Feature", "properties": {"k": "way", "name": "Fl\u00fcgelweg"}, "geometry": {"type": "LineString", "coordinates": [[408264.69, 5657564.92], [408303.07, 5657603.71], [408325.63, 5657621.64]]}}, {"type": "Feature", "properties": {"k": "way", "name": "Fl\u00fcgelwegbr\u00fccke"}, "geometry": {"type": "LineString", "coordinates": [[408168.33, 5658000.0], [408170.09, 5657969.5], [408206.36, 5657656.32], [408203.76, 5657641.61], [408202.92, 5657607.99], [408209.11, 5657551.81]]}}, {"type": "Feature", "properties": {"k": "way", "name": "Fl\u00fcgelwegbr\u00fccke"}, "geometry": {"type": "LineString", "coordinates": [[408235.92, 5657493.21], [408238.34, 5657507.51], [408238.54, 5657526.49], [408233.2, 5657593.45], [408229.35, 5657624.97], [408224.41, 5657644.11], [408218.8, 5657657.75], [408179.34, 5658000.0]]}}, {"type": "Feature", "properties": {"k": "way", "name": "Fl\u00fcgelwegbr\u00fccke"}, "geometry": {"type": "LineString", "coordinates": [[408209.11, 5657551.81], [408203.75, 5657530.74], [408198.96, 5657522.29], [408194.05, 5657518.19], [408181.58, 5657512.62]]}}, {"type": "Feature", "properties": {"k": "way", "name": "Fl\u00fcgelwegbr\u00fccke"}, "geometry": {"type": "LineString", "coordinates": [[408209.11, 5657551.81], [408211.74, 5657517.67], [408211.44, 5657502.7]]}}, {"type": "Feature", "properties": {"k": "way", "name": "Friedrichstra\u00dfe"}, "geometry": {"type": "LineString", "coordinates": [[410000.0, 5657357.71], [409836.11, 5657443.93], [409802.46, 5657458.49]]}}, {"type": "Feature", "properties": {"k": "way", "name": "Fr\u00f6belstra\u00dfe"}, "geometry": {"type": "LineString", "coordinates": [[408663.06, 5656103.3], [408667.57, 5656105.48], [408673.23, 5656101.57], [408679.68, 5656103.79], [409104.36, 5656269.07], [409097.98, 5656258.79], [409083.28, 5656244.1]]}}, {"type": "Feature", "properties": {"k": "way", "name": "Fr\u00f6belstra\u00dfe"}, "geometry": {"type": "LineString", "coordinates": [[408800.83, 5656135.15], [408777.72, 5656125.78], [408759.53, 5656115.47], [408705.38, 5656071.22]]}}, {"type": "Feature", "properties": {"k": "way", "name": "Fr\u00f6belstra\u00dfe"}, "geometry": {"type": "LineString", "coordinates": [[408712.53, 5656067.03], [408730.5, 5656084.06], [408745.39, 5656093.78], [408754.38, 5656096.99], [408775.01, 5656100.39], [408797.71, 5656106.3], [408811.92, 5656111.27]]}}, {"type": "Feature", "properties": {"k": "way", "name": "Fr\u00f6belstra\u00dfe"}, "geometry": {"type": "LineString", "coordinates": [[408985.89, 5656201.35], [408969.48, 5656200.05], [408947.61, 5656192.57], [408800.83, 5656135.15]]}}, {"type": "Feature", "properties": {"k": "way", "name": "Fr\u00f6belstra\u00dfe"}, "geometry": {"type": "LineString", "coordinates": [[408800.83, 5656135.15], [408797.41, 5656126.98], [408797.54, 5656121.76], [408804.16, 5656113.33], [408811.92, 5656111.27]]}}, {"type": "Feature", "properties": {"k": "way", "name": "Fr\u00f6belstra\u00dfe"}, "geometry": {"type": "LineString", "coordinates": [[408985.89, 5656201.35], [408959.02, 5656188.8], [408803.32, 5656128.05]]}}, {"type": "Feature", "properties": {"k": "way", "name": "Fr\u00f6belstra\u00dfe"}, "geometry": {"type": "LineString", "coordinates": [[408809.36, 5656118.29], [408922.92, 5656163.0], [408956.98, 5656173.69]]}}, {"type": "Feature", "properties": {"k": "way", "name": "Fr\u00f6belstra\u00dfe"}, "geometry": {"type": "LineString", "coordinates": [[408811.92, 5656111.27], [408925.02, 5656155.4], [408956.98, 5656173.69]]}}, {"type": "Feature", "properties": {"k": "way", "name": "Fr\u00f6belstra\u00dfe"}, "geometry": {"type": "LineString", "coordinates": [[408956.98, 5656173.69], [409142.58, 5656254.09], [409371.41, 5656346.38], [409422.75, 5656363.75], [409503.03, 5656395.35]]}}, {"type": "Feature", "properties": {"k": "way", "name": "Fr\u00f6belstra\u00dfe"}, "geometry": {"type": "LineString", "coordinates": [[409083.28, 5656244.1], [409034.52, 5656224.35], [408985.89, 5656201.35]]}}, {"type": "Feature", "properties": {"k": "way", "name": "Fr\u00f6belstra\u00dfe"}, "geometry": {"type": "LineString", "coordinates": [[409503.03, 5656395.35], [409468.49, 5656388.21], [409369.26, 5656355.61], [409207.78, 5656290.83], [409083.28, 5656244.1]]}}, {"type": "Feature", "properties": {"k": "way", "name": "Fr\u00f6belstra\u00dfe"}, "geometry": {"type": "LineString", "coordinates": [[409503.03, 5656395.35], [409547.85, 5656406.15], [409610.58, 5656416.62], [409667.71, 5656421.76], [409735.11, 5656420.99], [409812.03, 5656413.1], [409854.98, 5656405.94], [409867.88, 5656401.49], [409878.72, 5656393.95], [409901.88, 5656369.09]]}}, {"type": "Feature", "properties": {"k": "way", "name": "Fr\u00f6belstra\u00dfe"}, "geometry": {"type": "LineString", "coordinates": [[409901.88, 5656369.09], [409911.36, 5656354.38], [409920.68, 5656347.25], [409925.6, 5656345.6]]}}, {"type": "Feature", "properties": {"k": "way", "name": "Fr\u00f6belstra\u00dfe"}, "geometry": {"type": "LineString", "coordinates": [[409925.6, 5656345.6], [409920.86, 5656356.63], [409911.23, 5656364.99], [409901.88, 5656369.09]]}}, {"type": "Feature", "properties": {"k": "way", "name": "Fr\u00f6belstra\u00dfe"}, "geometry": {"type": "LineString", "coordinates": [[409925.6, 5656345.6], [410000.0, 5656265.36]]}}, {"type": "Feature", "properties": {"k": "way", "name": "Gambrinusstra\u00dfe"}, "geometry": {"type": "LineString", "coordinates": [[409509.71, 5656122.16], [409585.03, 5656281.81], [409661.21, 5656421.36]]}}, {"type": "Feature", "properties": {"k": "way", "name": "Gohliser Stra\u00dfe"}, "geometry": {"type": "LineString", "coordinates": [[408536.33, 5656000.0], [408473.38, 5656280.34], [408469.0, 5656287.81], [408462.95, 5656313.77]]}}, {"type": "Feature", "properties": {"k": "way", "name": "Hafenbr\u00fccke"}, "geometry": {"type": "LineString", "coordinates": [[408775.9, 5657785.29], [408851.8, 5657818.41]]}}, {"type": "Feature", "properties": {"k": "way", "name": "Hafenweg"}, "geometry": {"type": "LineString", "coordinates": [[408864.16, 5657833.9], [408869.65, 5657825.03], [409027.64, 5657894.14], [409118.43, 5657919.86], [409270.57, 5657944.41], [409289.46, 5657950.18], [409315.83, 5657954.44], [409381.97, 5657956.24], [409504.44, 5657953.2], [409546.55, 5657950.42], [409821.15, 5657921.9], [409852.11, 5657917.14], [409871.5, 5657911.27], [409875.89, 5657905.17], [409870.15, 5657859.52], [409866.76, 5657797.49], [409858.2, 5657695.21]]}}, {"type": "Feature", "properties": {"k": "way", "name": "Hafenweg"}, "geometry": {"type": "LineString", "coordinates": [[409858.2, 5657695.21], [409854.48, 5657670.62], [409849.27, 5657661.93]]}}, {"type": "Feature", "properties": {"k": "way", "name": "Hafenweg"}, "geometry": {"type": "LineString", "coordinates": [[409858.2, 5657695.21], [409928.6, 5657691.39], [409932.9, 5657693.3], [409935.34, 5657696.62], [409951.0, 5657726.62]]}}, {"type": "Feature", "properties": {"k": "way", "name": "Hamburger Stra\u00dfe"}, "geometry": {"type": "LineString", "coordinates": [[408000.0, 5657529.38], [408115.31, 5657510.0], [408148.61, 5657500.89], [408190.32, 5657487.34], [408244.94, 5657465.02], [408390.91, 5657430.83], [408471.72, 5657399.9]]}}, {"type": "Feature", "properties": {"k": "way", "name": "Hamburger Stra\u00dfe"}, "geometry": {"type": "LineString", "coordinates": [[408509.8, 5657403.96], [408412.86, 5657443.27], [408327.09, 5657468.87], [408254.34, 5657486.37], [408177.03, 5657514.05], [408154.54, 5657519.82], [408050.61, 5657537.52], [408007.39, 5657545.89], [408000.0, 5657548.59]]}}, {"type": "Feature", "properties": {"k": "way", "name": "Hamburger Stra\u00dfe"}, "geometry": {"type": "LineString", "coordinates": [[408471.72, 5657399.9], [408509.8, 5657403.96]]}}, {"type": "Feature", "properties": {"k": "way", "name": "Hamburger Stra\u00dfe"}, "geometry": {"type": "LineString", "coordinates": [[408471.72, 5657399.9], [408648.95, 5657324.31], [408669.58, 5657320.08]]}}, {"type": "Feature", "properties": {"k": "way", "name": "Hamburger Stra\u00dfe"}, "geometry": {"type": "LineString", "coordinates": [[408669.58, 5657320.08], [408599.38, 5657365.06], [408509.8, 5657403.96]]}}, {"type": "Feature", "properties": {"k": "way", "name": "Hamburger Stra\u00dfe"}, "geometry": {"type": "LineString", "coordinates": [[409601.28, 5657073.97], [409580.45, 5657083.55], [409552.96, 5657091.31], [408855.16, 5657245.09], [408832.57, 5657251.56], [408669.58, 5657320.08]]}}, {"type": "Feature", "properties": {"k": "way", "name": "Hohenthalplatz"}, "geometry": {"type": "LineString", "coordinates": [[409936.85, 5657175.83], [409898.82, 5657196.8], [409838.52, 5657084.92], [409881.37, 5657060.75], [409926.38, 5657038.6]]}}, {"type": "Feature", "properties": {"k": "way", "name": "H\u00f6lderlinstra\u00dfe"}, "geometry": {"type": "LineString", "coordinates": [[408029.85, 5656493.82], [408043.01, 5656417.11], [408045.45, 5656411.57], [408048.46, 5656410.75]]}}, {"type": "Feature", "properties": {"k": "way", "name": "H\u00f6lderlinstra\u00dfe"}, "geometry": {"type": "LineString", "coordinates": [[408069.92, 5656225.31], [408086.67, 5656108.23], [408107.48, 5656000.0]]}}, {"type": "Feature", "properties": {"k": "way", "name": "H\u00fchndorfer Stra\u00dfe"}, "geometry": {"type": "LineString", "coordinates": [[408500.29, 5656283.71], [408069.92, 5656225.31]]}}, {"type": "Feature", "properties": {"k": "way", "name": "Institutsgasse"}, "geometry": {"type": "LineString", "coordinates": [[409981.07, 5656866.01], [410000.0, 5656902.17]]}}, {"type": "Feature", "properties": {"k": "way", "name": "Klipphausener Stra\u00dfe"}, "geometry": {"type": "LineString", "coordinates": [[408019.54, 5656719.1], [408029.12, 5656719.08]]}}, {"type": "Feature", "properties": {"k": "way", "name": "Klipphausener Stra\u00dfe"}, "geometry": {"type": "LineString", "coordinates": [[408029.12, 5656719.08], [408037.12, 5656721.69], [408072.1, 5656722.52], [408116.99, 5656729.15]]}}, {"type": "Feature", "properties": {"k": "way", "name": "Klipphausener Stra\u00dfe"}, "geometry": {"type": "LineString", "coordinates": [[408036.58, 5656655.92], [408029.12, 5656719.08]]}}, {"type": "Feature", "properties": {"k": "way", "name": "Klopstockstra\u00dfe"}, "geometry": {"type": "LineString", "coordinates": [[408131.88, 5656857.36], [408109.42, 5656782.45], [408108.84, 5656774.14], [408143.31, 5656604.12], [408215.56, 5656000.0]]}}, {"type": "Feature", "properties": {"k": "way", "name": "Leutewitzer Stra\u00dfe"}, "geometry": {"type": "LineString", "coordinates": [[408083.52, 5656895.06], [408069.37, 5656874.61], [408000.0, 5656877.05]]}}, {"type": "Feature", "properties": {"k": "way", "name": "L\u00f6btauer Br\u00fccke"}, "geometry": {"type": "LineString", "coordinates": [[409193.23, 5656046.75], [409204.35, 5656000.0]]}}, {"type": "Feature", "properties": {"k": "way", "name": "L\u00f6btauer Br\u00fccke"}, "geometry": {"type": "LineString", "coordinates": [[409252.03, 5656000.0], [409237.87, 5656063.03], [409225.29, 5656131.95]]}}, {"type": "Feature", "properties": {"k": "way", "name": "L\u00f6btauer Stra\u00dfe"}, "geometry": {"type": "LineString", "coordinates": [[409611.63, 5656000.0], [409770.61, 5656179.91]]}}, {"type": "Feature", "properties": {"k": "way", "name": "L\u00f6btauer Stra\u00dfe"}, "geometry": {"type": "LineString", "coordinates": [[409770.61, 5656179.91], [409783.16, 5656183.87], [409791.48, 5656191.5], [409860.5, 5656269.67], [409877.26, 5656286.58], [409957.22, 5656349.63], [410000.0, 5656391.52]]}}, {"type": "Feature", "properties": {"k": "way", "name": "L\u00f6btauer Stra\u00dfe"}, "geometry": {"type": "LineString", "coordinates": [[410000.0, 5656412.58], [409906.56, 5656328.97], [409856.07, 5656287.54], [409776.14, 5656197.88], [409771.47, 5656187.06], [409770.61, 5656179.91]]}}, {"type": "Feature", "properties": {"k": "way", "name": "L\u00f6nsweg"}, "geometry": {"type": "LineString", "coordinates": [[408000.0, 5657157.08], [408021.44, 5657143.62], [408033.34, 5657141.54], [408047.73, 5657141.94]]}}, {"type": "Feature", "properties": {"k": "way", "name": "L\u00fcbecker Stra\u00dfe"}, "geometry": {"type": "LineString", "coordinates": [[408653.39, 5656113.98], [408437.03, 5656352.96], [408397.4, 5656383.77], [408333.15, 5656417.77], [408299.74, 5656442.43], [408265.56, 5656473.01], [408229.4, 5656623.47], [408199.07, 5656779.6], [408194.36, 5656795.87], [408182.19, 5656815.55], [408170.14, 5656827.48], [408007.61, 5656954.1]]}}, {"type": "Feature", "properties": {"k": "way", "name": "L\u00fcbecker Stra\u00dfe"}, "geometry": {"type": "LineString", "coordinates": [[408653.39, 5656113.98], [408652.73, 5656100.37], [408649.1, 5656093.37], [408641.52, 5656088.91]]}}, {"type": "Feature", "properties": {"k": "way", "name": "L\u00fcbecker Stra\u00dfe"}, "geometry": {"type": "LineString", "coordinates": [[408827.24, 5656000.0], [408705.38, 5656071.22], [408673.3, 5656092.88], [408653.39, 5656113.98]]}}, {"type": "Feature", "properties": {"k": "way", "name": "Magdeburger Stra\u00dfe"}, "geometry": {"type": "LineString", "coordinates": [[409849.27, 5657661.93], [409831.81, 5657666.01], [409818.65, 5657665.12], [409812.6, 5657663.16], [409808.49, 5657660.26], [409789.47, 5657635.24], [409771.57, 5657633.59], [408710.92, 5657705.41]]}}, {"type": "Feature", "properties": {"k": "way", "name": "Magdeburger Stra\u00dfe"}, "geometry": {"type": "LineString", "coordinates": [[409846.96, 5657650.5], [409847.63, 5657643.63], [409844.15, 5657626.14]]}}, {"type": "Feature", "properties": {"k": "way", "name": "Magdeburger Stra\u00dfe"}, "geometry": {"type": "LineString", "coordinates": [[409846.96, 5657650.5], [409844.23, 5657643.85], [409843.02, 5657632.68], [409844.15, 5657626.14]]}}, {"type": "Feature", "properties": {"k": "way", "name": "Magdeburger Stra\u00dfe"}, "geometry": {"type": "LineString", "coordinates": [[409844.15, 5657626.14], [409844.16, 5657614.0], [409845.86, 5657607.2]]}}, {"type": "Feature", "properties": {"k": "way", "name": "Magdeburger Stra\u00dfe"}, "geometry": {"type": "LineString", "coordinates": [[409849.27, 5657661.93], [409846.96, 5657650.5]]}}, {"type": "Feature", "properties": {"k": "way", "name": "Magdeburger Stra\u00dfe"}, "geometry": {"type": "LineString", "coordinates": [[409856.09, 5657611.1], [409857.94, 5657651.29], [409856.55, 5657656.34], [409849.27, 5657661.93]]}}, {"type": "Feature", "properties": {"k": "way", "name": "Magdeburger Stra\u00dfe"}, "geometry": {"type": "LineString", "coordinates": [[409880.76, 5657611.3], [410000.0, 5657601.46]]}}, {"type": "Feature", "properties": {"k": "way", "name": "Manitiusstra\u00dfe"}, "geometry": {"type": "LineString", "coordinates": [[409923.58, 5656897.45], [409983.36, 5657008.41]]}}, {"type": "Feature", "properties": {"k": "way", "name": "Menageriestra\u00dfe"}, "geometry": {"type": "LineString", "coordinates": [[409819.58, 5656847.36], [409860.97, 5656922.49], [409867.29, 5656930.03], [409926.38, 5657038.6]]}}, {"type": "Feature", "properties": {"k": "way", "name": "Pennricher Stra\u00dfe"}, "geometry": {"type": "LineString", "coordinates": [[408085.57, 5656116.29], [408078.79, 5656121.89], [408000.0, 5656129.14]]}}, {"type": "Feature", "properties": {"k": "way", "name": "Pennricher Stra\u00dfe"}, "geometry": {"type": "LineString", "coordinates": [[408000.0, 5656118.64], [408078.38, 5656111.37], [408085.57, 5656116.29]]}}, {"type": "Feature", "properties": {"k": "way", "name": "Pennricher Stra\u00dfe"}, "geometry": {"type": "LineString", "coordinates": [[408085.57, 5656116.29], [408317.25, 5656094.9], [408375.39, 5656083.67], [408408.56, 5656079.83], [408607.34, 5656083.86]]}}, {"type": "Feature", "properties": {"k": "way", "name": "Pennricher Stra\u00dfe"}, "geometry": {"type": "LineString", "coordinates": [[408669.79, 5656095.87], [408641.52, 5656088.91], [408610.3, 5656085.32], [408607.34, 5656083.86]]}}, {"type": "Feature", "properties": {"k": "way", "name": "Pennricher Stra\u00dfe"}, "geometry": {"type": "LineString", "coordinates": [[408607.34, 5656083.86], [408610.71, 5656081.2], [408651.49, 5656081.34], [408682.43, 5656086.64]]}}, {"type": "Feature", "properties": {"k": "way", "name": "Potthoffstra\u00dfe"}, "geometry": {"type": "LineString", "coordinates": [[408615.87, 5656749.47], [408609.02, 5656753.75], [408601.32, 5656755.38], [408594.99, 5656753.62], [408591.47, 5656748.79], [408591.08, 5656743.93], [408593.79, 5656739.46], [408598.1, 5656737.31], [408603.48, 5656737.07], [408608.89, 5656739.53], [408615.87, 5656749.47]]}}, {"type": "Feature", "properties": {"k": "way", "name": "Potthoffstra\u00dfe"}, "geometry": {"type": "LineString", "coordinates": [[408615.87, 5656749.47], [408633.66, 5656746.54], [409370.47, 5656533.63]]}}, {"type": "Feature", "properties": {"k": "way", "name": "Potthoffstra\u00dfe"}, "geometry": {"type": "LineString", "coordinates": [[409384.37, 5656542.04], [409375.87, 5656540.39], [409370.47, 5656533.63]]}}, {"type": "Feature", "properties": {"k": "way", "name": "Potthoffstra\u00dfe"}, "geometry": {"type": "LineString", "coordinates": [[409370.47, 5656533.63], [409369.85, 5656529.32], [409373.06, 5656521.36], [409380.68, 5656517.36]]}}, {"type": "Feature", "properties": {"k": "way", "name": "Potthoffstra\u00dfe"}, "geometry": {"type": "LineString", "coordinates": [[409380.68, 5656517.36], [409377.48, 5656488.45], [409378.1, 5656480.87], [409380.23, 5656476.25]]}}, {"type": "Feature", "properties": {"k": "way", "name": "Potthoffstra\u00dfe"}, "geometry": {"type": "LineString", "coordinates": [[409380.23, 5656476.25], [409384.22, 5656468.16], [409398.88, 5656456.48], [409403.7, 5656450.46]]}}, {"type": "Feature", "properties": {"k": "way", "name": "Potthoffstra\u00dfe"}, "geometry": {"type": "LineString", "coordinates": [[409407.43, 5656478.42], [409401.12, 5656473.22], [409396.53, 5656471.67], [409385.25, 5656472.94], [409380.23, 5656476.25]]}}, {"type": "Feature", "properties": {"k": "way", "name": "Potthoffstra\u00dfe"}, "geometry": {"type": "LineString", "coordinates": [[409380.68, 5656517.36], [409388.97, 5656519.14], [409394.22, 5656525.79], [409394.01, 5656534.24], [409391.79, 5656537.92], [409384.37, 5656542.04]]}}, {"type": "Feature", "properties": {"k": "way", "name": "Potthoffstra\u00dfe"}, "geometry": {"type": "LineString", "coordinates": [[409384.37, 5656542.04], [409387.31, 5656573.66], [409389.65, 5656577.78], [409395.15, 5656582.19], [409406.79, 5656584.87], [409450.04, 5656577.79], [409462.38, 5656573.64], [409468.56, 5656564.01], [409469.34, 5656557.76], [409466.69, 5656514.15], [409464.31, 5656506.58], [409460.61, 5656501.54], [409455.63, 5656497.93], [409440.6, 5656494.39]]}}, {"type": "Feature", "properties": {"k": "way", "name": "Potthoffstra\u00dfe"}, "geometry": {"type": "LineString", "coordinates": [[409416.13, 5656485.94], [409426.16, 5656491.47], [409440.6, 5656494.39]]}}, {"type": "Feature", "properties": {"k": "way", "name": "Potthoffstra\u00dfe"}, "geometry": {"type": "LineString", "coordinates": [[409440.6, 5656494.39], [409427.03, 5656499.79], [409418.07, 5656505.53]]}}, {"type": "Feature", "properties": {"k": "way", "name": "Raimundstra\u00dfe"}, "geometry": {"type": "LineString", "coordinates": [[408007.61, 5656954.1], [408014.62, 5656967.43], [408020.35, 5656997.39], [408026.24, 5657016.65], [408035.06, 5657033.55]]}}, {"type": "Feature", "properties": {"k": "way", "name": "Raimundstra\u00dfe"}, "geometry": {"type": "LineString", "coordinates": [[408047.73, 5657141.94], [408050.36, 5657103.04], [408047.75, 5657075.92]]}}, {"type": "Feature", "properties": {"k": "way", "name": "Rennersdorfer Stra\u00dfe"}, "geometry": {"type": "LineString", "coordinates": [[408048.46, 5656410.75], [408164.65, 5656424.06], [408299.74, 5656442.43]]}}, {"type": "Feature", "properties": {"k": "way", "name": "Rudolf-Renner-Stra\u00dfe"}, "geometry": {"type": "LineString", "coordinates": [[408331.81, 5656000.0], [408299.58, 5656256.63], [408271.95, 5656439.03], [408265.56, 5656473.01]]}}, {"type": "Feature", "properties": {"k": "way", "name": "Sachsdorfer Stra\u00dfe"}, "geometry": {"type": "LineString", "coordinates": [[408066.85, 5656321.85], [408285.52, 5656351.25], [408399.4, 5656368.96], [408407.51, 5656376.44]]}}, {"type": "Feature", "properties": {"k": "way", "name": "Sch\u00e4ferstra\u00dfe"}, "geometry": {"type": "LineString", "coordinates": [[410000.0, 5656855.66], [409601.28, 5657073.97]]}}, {"type": "Feature", "properties": {"k": "way", "name": "Semmelweisstra\u00dfe"}, "geometry": {"type": "LineString", "coordinates": [[409369.78, 5656345.7], [409384.13, 5656333.22], [409386.77, 5656298.29], [409407.23, 5656216.91], [409418.85, 5656129.26]]}}, {"type": "Feature", "properties": {"k": "way", "name": "Tonbergstra\u00dfe"}, "geometry": {"type": "LineString", "coordinates": [[408093.2, 5657062.07], [408083.78, 5657054.42], [408070.47, 5657047.15], [408046.39, 5657037.31], [408035.06, 5657033.55], [408000.0, 5657030.58]]}}, {"type": "Feature", "properties": {"k": "way", "name": "Treidelpfad"}, "geometry": {"type": "LineString", "coordinates": [[408690.83, 5658000.0], [408624.99, 5657942.15], [408613.07, 5657933.46], [408591.72, 5657923.18], [408537.73, 5657905.66], [408484.58, 5657892.26], [408400.07, 5657876.04], [408215.08, 5657844.93], [408207.04, 5657837.53], [408176.82, 5657834.01], [408173.58, 5657836.28], [408168.07, 5657837.09], [408000.0, 5657815.74]]}}, {"type": "Feature", "properties": {"k": "way", "name": "Tunnel Bramschstra\u00dfe"}, "geometry": {"type": "LineString", "coordinates": [[408803.32, 5656128.05], [408568.76, 5656048.67], [408386.06, 5656000.0]]}}, {"type": "Feature", "properties": {"k": "way", "name": "Tunnel Bramschstra\u00dfe"}, "geometry": {"type": "LineString", "coordinates": [[408547.46, 5656000.0], [408587.76, 5656015.49], [408809.36, 5656118.29]]}}, {"type": "Feature", "properties": {"k": "way", "name": "Unkersdorfer Stra\u00dfe"}, "geometry": {"type": "LineString", "coordinates": [[408196.02, 5656161.69], [408401.4, 5656191.58], [408408.03, 5656194.83], [408489.91, 5656206.97]]}}, {"type": "Feature", "properties": {"k": "way", "name": "Vorwerkstra\u00dfe"}, "geometry": {"type": "LineString", "coordinates": [[409735.45, 5656895.1], [409838.52, 5657084.92]]}}, {"type": "Feature", "properties": {"k": "way", "name": "Vorwerkstra\u00dfe"}, "geometry": {"type": "LineString", "coordinates": [[409898.82, 5657196.8], [409988.2, 5657363.98]]}}, {"type": "Feature", "properties": {"k": "way", "name": "Wachsbleichstra\u00dfe"}, "geometry": {"type": "LineString", "coordinates": [[409657.49, 5657181.61], [409838.52, 5657084.92]]}}, {"type": "Feature", "properties": {"k": "way", "name": "Wachsbleichstra\u00dfe"}, "geometry": {"type": "LineString", "coordinates": [[409926.38, 5657038.6], [410000.0, 5656999.53]]}}, {"type": "Feature", "properties": {"k": "way", "name": "Waltherstra\u00dfe"}, "geometry": {"type": "LineString", "coordinates": [[409418.56, 5656542.44], [409421.64, 5656561.41], [409557.07, 5656989.99], [409784.85, 5657427.27], [409815.36, 5657481.38], [409821.02, 5657495.98], [409835.02, 5657577.95], [409842.53, 5657603.86], [409850.56, 5657609.77], [409856.09, 5657611.1], [409880.76, 5657611.3]]}}, {"type": "Feature", "properties": {"k": "way", "name": "Waltherstra\u00dfe"}, "geometry": {"type": "LineString", "coordinates": [[409418.56, 5656542.44], [409412.81, 5656524.35], [409394.52, 5656381.07], [409395.97, 5656364.76], [409403.02, 5656356.95], [409419.72, 5656524.07], [409418.56, 5656542.44]]}}, {"type": "Feature", "properties": {"k": "way", "name": "Wei\u00dferitz-Gr\u00fcnzug"}, "geometry": {"type": "LineString", "coordinates": [[409857.38, 5656000.0], [409886.25, 5656022.12], [409955.05, 5656080.04], [410000.0, 5656113.57]]}}, {"type": "Feature", "properties": {"k": "way", "name": "Werkst\u00e4ttenstra\u00dfe"}, "geometry": {"type": "LineString", "coordinates": [[408108.58, 5656596.32], [408229.4, 5656623.47]]}}, {"type": "Feature", "properties": {"k": "way", "name": "\u00dcbigauer F\u00e4hrweg"}, "geometry": {"type": "LineString", "coordinates": [[409509.66, 5657971.67], [409485.7, 5657992.24], [409471.46, 5658000.0]]}}]}