{"type": "FeatureCollection", "attribution": "\u00a9 OpenStreetMap contributors (ODbL)", "crs": {"type": "name", "properties": {"name": "urn:ogc:def:crs:EPSG::25833"}}, "features": [{"type": "Feature", "properties": {"k": "label", "name": "Agnes-Smedley-Stra\u00dfe", "c": "minor"}, "geometry": {"type": "LineString", "coordinates": [[409146.4, 5654276.28], [409133.22, 5654248.19], [409091.37, 5654188.41]]}}, {"type": "Feature", "properties": {"k": "label", "name": "Alfred-Schmieder-Stra\u00dfe", "c": "minor"}, "geometry": {"type": "LineString", "coordinates": [[408370.64, 5654185.4], [408395.3, 5654299.36]]}}, {"type": "Feature", "properties": {"k": "label", "name": "Altfrankener Stra\u00dfe", "c": "main"}, "geometry": {"type": "LineString", "coordinates": [[408795.82, 5654175.85], [408890.17, 5654208.37]]}}, {"type": "Feature", "properties": {"k": "label", "name": "Altl\u00f6btau", "c": "minor"}, "geometry": {"type": "LineString", "coordinates": [[408866.85, 5655839.7], [408854.91, 5655838.25], [408811.09, 5655825.03]]}}, {"type": "Feature", "properties": {"k": "label", "name": "Am Ro\u00dfthaler Bach", "c": "minor"}, "geometry": {"type": "LineString", "coordinates": [[408009.21, 5654735.61], [408009.1, 5654736.16], [408098.76, 5654750.81]]}}, {"type": "Feature", "properties": {"k": "label", "name": "Am T\u00e4lchen", "c": "minor"}, "geometry": {"type": "LineString", "coordinates": [[408444.94, 5654182.74], [408473.46, 5654237.78]]}}, {"type": "Feature", "properties": {"k": "label", "name": "Anton-Weck-Stra\u00dfe", "c": "minor"}, "geometry": {"type": "LineString", "coordinates": [[408956.23, 5655173.54], [409046.61, 5655187.11]]}}, {"type": "Feature", "properties": {"k": "label", "name": "Badweg", "c": "minor"}, "geometry": {"type": "LineString", "coordinates": [[408790.06, 5654986.44], [408745.84, 5654977.09]]}}, {"type": "Feature", "properties": {"k": "label", "name": "Baluschekstra\u00dfe", "c": "minor"}, "geometry": {"type": "LineString", "coordinates": [[409087.52, 5655686.88], [409170.11, 5655695.07]]}}, {"type": "Feature", "properties": {"k": "label", "name": "Bamberger Stra\u00dfe", "c": "minor"}, "geometry": {"type": "LineString", "coordinates": [[409686.78, 5654421.19], [409756.61, 5654368.98]]}}, {"type": "Feature", "properties": {"k": "label", "name": "Biedermannstra\u00dfe", "c": "minor"}, "geometry": {"type": "LineString", "coordinates": [[409286.14, 5654544.31], [409364.27, 5654505.59]]}}, {"type": "Feature", "properties": {"k": "label", "name": "Bienertstra\u00dfe", "c": "minor"}, "geometry": {"type": "LineString", "coordinates": [[409098.57, 5654220.77], [409148.93, 5654203.82], [409166.64, 5654191.74]]}}, {"type": "Feature", "properties": {"k": "label", "name": "Bienertstra\u00dfe", "c": "minor"}, "geometry": {"type": "LineString", "coordinates": [[409388.21, 5654038.63], [409327.06, 5654081.36]]}}, {"type": "Feature", "properties": {"k": "label", "name": "Binger Stra\u00dfe", "c": "minor"}, "geometry": {"type": "LineString", "coordinates": [[408033.99, 5654379.11], [408054.18, 5654307.29]]}}, {"type": "Feature", "properties": {"k": "label", "name": "Birnenweg", "c": "minor"}, "geometry": {"type": "LineString", "coordinates": [[408345.0, 5654745.17], [408349.96, 5654687.58]]}}, {"type": "Feature", "properties": {"k": "label", "name": "Bonhoefferplatz", "c": "minor"}, "geometry": {"type": "LineString", "coordinates": [[409057.45, 5654880.99], [409058.66, 5654881.08], [409053.09, 5654962.68]]}}, {"type": "Feature", "properties": {"k": "label", "name": "Bramschstra\u00dfe", "c": "minor"}, "geometry": {"type": "LineString", "coordinates": [[408283.43, 5655980.22], [408355.93, 5655997.8]]}}, {"type": "Feature", "properties": {"k": "label", "name": "Braunsdorfer Stra\u00dfe", "c": "main"}, "geometry": {"type": "LineString", "coordinates": [[408463.09, 5655921.12], [408560.28, 5655943.81]]}}, {"type": "Feature", "properties": {"k": "label", "name": "Braunsdorfer Stra\u00dfe", "c": "main"}, "geometry": {"type": "LineString", "coordinates": [[408193.76, 5655868.78], [408094.17, 5655862.31]]}}, {"type": "Feature", "properties": {"k": "label", "name": "Brombeerweg", "c": "minor"}, "geometry": {"type": "LineString", "coordinates": [[408271.61, 5654753.53], [408277.48, 5654687.59]]}}, {"type": "Feature", "properties": {"k": "label", "name": "Burgkstra\u00dfe", "c": "minor"}, "geometry": {"type": "LineString", "coordinates": [[408695.26, 5655847.13], [408710.04, 5655782.6]]}}, {"type": "Feature", "properties": {"k": "label", "name": "B\u00fcnauplatz", "c": "minor"}, "geometry": {"type": "LineString", "coordinates": [[408812.3, 5655154.78], [408874.14, 5655159.22]]}}, {"type": "Feature", "properties": {"k": "label", "name": "B\u00fcnaustra\u00dfe", "c": "minor"}, "geometry": {"type": "LineString", "coordinates": [[408812.2, 5654886.41], [408807.46, 5654952.44]]}}, {"type": "Feature", "properties": {"k": "label", "name": "B\u00fcnaustra\u00dfe", "c": "minor"}, "geometry": {"type": "LineString", "coordinates": [[408777.78, 5655354.54], [408782.55, 5655288.51]]}}, {"type": "Feature", "properties": {"k": "label", "name": "Chausseehausstra\u00dfe", "c": "minor"}, "geometry": {"type": "LineString", "coordinates": [[409075.29, 5655003.52], [409169.87, 5655017.42]]}}, {"type": "Feature", "properties": {"k": "label", "name": "Chemnitzer Stra\u00dfe", "c": "main"}, "geometry": {"type": "LineString", "coordinates": [[409826.45, 5654539.65], [409772.14, 5654466.13]]}}, {"type": "Feature", "properties": {"k": "label", "name": "Chemnitzer Stra\u00dfe", "c": "main"}, "geometry": {"type": "LineString", "coordinates": [[409518.84, 5654122.56], [409464.54, 5654049.04]]}}, {"type": "Feature", "properties": {"k": "label", "name": "Clara-Viebig-Stra\u00dfe", "c": "minor"}, "geometry": {"type": "LineString", "coordinates": [[409088.58, 5654883.32], [409188.1, 5654890.75]]}}, {"type": "Feature", "properties": {"k": "label", "name": "Clara-Zetkin-Stra\u00dfe", "c": "main"}, "geometry": {"type": "LineString", "coordinates": [[408698.14, 5654854.14], [408598.62, 5654846.71]]}}, {"type": "Feature", "properties": {"k": "label", "name": "Clara-Zetkin-Stra\u00dfe", "c": "main"}, "geometry": {"type": "LineString", "coordinates": [[408196.34, 5654816.47], [408098.14, 5654798.69]]}}, {"type": "Feature", "properties": {"k": "label", "name": "Columbusstra\u00dfe", "c": "main"}, "geometry": {"type": "LineString", "coordinates": [[409209.34, 5655728.95], [409215.52, 5655650.39]]}}, {"type": "Feature", "properties": {"k": "label", "name": "Conertplatz", "c": "main"}, "geometry": {"type": "LineString", "coordinates": [[408393.49, 5655731.01], [408378.32, 5655795.45]]}}, {"type": "Feature", "properties": {"k": "label", "name": "Deubener Stra\u00dfe", "c": "minor"}, "geometry": {"type": "LineString", "coordinates": [[408352.49, 5655158.76], [408359.86, 5655076.09]]}}, {"type": "Feature", "properties": {"k": "label", "name": "Dienstgehsteig", "c": "minor"}, "geometry": {"type": "LineString", "coordinates": [[409708.63, 5655039.52], [409644.4, 5655085.17]]}}, {"type": "Feature", "properties": {"k": "label", "name": "D\u00f6hlener Stra\u00dfe", "c": "minor"}, "geometry": {"type": "LineString", "coordinates": [[409036.06, 5655165.86], [409043.28, 5655083.18]]}}, {"type": "Feature", "properties": {"k": "label", "name": "D\u00f6lzschener Stra\u00dfe", "c": "main"}, "geometry": {"type": "LineString", "coordinates": [[408661.24, 5654660.85], [408668.29, 5654565.51]]}}, {"type": "Feature", "properties": {"k": "label", "name": "D\u00f6lzschener Stra\u00dfe", "c": "main"}, "geometry": {"type": "LineString", "coordinates": [[408693.43, 5654240.3], [408699.96, 5654144.97]]}}, {"type": "Feature", "properties": {"k": "label", "name": "Ebertplatz", "c": "main"}, "geometry": {"type": "LineString", "coordinates": [[409280.03, 5655352.92], [409274.66, 5655366.56], [409271.15, 5655379.77], [409266.23, 5655413.06]]}}, {"type": "Feature", "properties": {"k": "label", "name": "Eichendorffstra\u00dfe", "c": "minor"}, "geometry": {"type": "LineString", "coordinates": [[409131.55, 5655602.68], [409222.4, 5655612.75]]}}, {"type": "Feature", "properties": {"k": "label", "name": "Eifelweg", "c": "minor"}, "geometry": {"type": "LineString", "coordinates": [[407988.22, 5655012.83], [408040.91, 5655022.68]]}}, {"type": "Feature", "properties": {"k": "label", "name": "Emerich-Ambros-Ufer", "c": "main"}, "geometry": {"type": "LineString", "coordinates": [[409274.45, 5655892.26], [409269.84, 5655914.07], [409267.27, 5655960.47], [409265.49, 5655974.94], [409262.33, 5655991.06]]}}, {"type": "Feature", "properties": {"k": "label", "name": "Emil-Ueberall-Stra\u00dfe", "c": "minor"}, "geometry": {"type": "LineString", "coordinates": [[408330.5, 5655495.63], [408431.68, 5655519.68]]}}, {"type": "Feature", "properties": {"k": "label", "name": "Essener Stra\u00dfe", "c": "minor"}, "geometry": {"type": "LineString", "coordinates": [[408255.18, 5655011.64], [408185.33, 5655005.82], [408177.12, 5655002.93]]}}, {"type": "Feature", "properties": {"k": "label", "name": "Fabrikstra\u00dfe", "c": "main"}, "geometry": {"type": "LineString", "coordinates": [[409398.41, 5654995.94], [409398.7, 5654989.67], [409403.15, 5654973.19], [409420.84, 5654929.59]]}}, {"type": "Feature", "properties": {"k": "label", "name": "Fabrikstra\u00dfe", "c": "main"}, "geometry": {"type": "LineString", "coordinates": [[409632.9, 5655607.54], [409606.29, 5655542.36]]}}, {"type": "Feature", "properties": {"k": "label", "name": "Fliederweg", "c": "minor"}, "geometry": {"type": "LineString", "coordinates": [[408600.61, 5654153.96], [408558.54, 5654108.42]]}}, {"type": "Feature", "properties": {"k": "label", "name": "Frankenbergstra\u00dfe", "c": "minor"}, "geometry": {"type": "LineString", "coordinates": [[408900.75, 5654687.82], [408809.64, 5654680.58]]}}, {"type": "Feature", "properties": {"k": "label", "name": "Frankfurter Stra\u00dfe", "c": "minor"}, "geometry": {"type": "LineString", "coordinates": [[408885.89, 5654183.6], [408862.43, 5654090.92]]}}, {"type": "Feature", "properties": {"k": "label", "name": "Freiberger Stra\u00dfe", "c": "main"}, "geometry": {"type": "LineString", "coordinates": [[409437.19, 5655566.31], [409522.69, 5655598.64]]}}, {"type": "Feature", "properties": {"k": "label", "name": "Freiberger Stra\u00dfe", "c": "main"}, "geometry": {"type": "LineString", "coordinates": [[409863.89, 5655862.03], [409928.09, 5655927.09]]}}, {"type": "Feature", "properties": {"k": "label", "name": "Fritz-Schulze-Stra\u00dfe", "c": "minor"}, "geometry": {"type": "LineString", "coordinates": [[408884.91, 5654058.18], [408786.22, 5654080.81], [408784.22, 5654082.69]]}}, {"type": "Feature", "properties": {"k": "label", "name": "Frohe Zukunft", "c": "minor"}, "geometry": {"type": "LineString", "coordinates": [[408432.33, 5654684.33], [408426.51, 5654758.7]]}}, {"type": "Feature", "properties": {"k": "label", "name": "Glauchauer Stra\u00dfe", "c": "minor"}, "geometry": {"type": "LineString", "coordinates": [[409930.51, 5654915.31], [409994.14, 5654849.69]]}}, {"type": "Feature", "properties": {"k": "label", "name": "Gohliser Stra\u00dfe", "c": "minor"}, "geometry": {"type": "LineString", "coordinates": [[408569.47, 5655856.77], [408550.33, 5655937.53]]}}, {"type": "Feature", "properties": {"k": "label", "name": "Grenzallee", "c": "minor"}, "geometry": {"type": "LineString", "coordinates": [[408567.26, 5654010.53], [408539.39, 5654029.2], [408515.1, 5654044.02]]}}, {"type": "Feature", "properties": {"k": "label", "name": "Grenzallee", "c": "minor"}, "geometry": {"type": "LineString", "coordinates": [[408149.3, 5654025.34], [408109.72, 5653977.62]]}}, {"type": "Feature", "properties": {"k": "label", "name": "Grillenburger Stra\u00dfe", "c": "main"}, "geometry": {"type": "LineString", "coordinates": [[408149.2, 5655192.68], [408171.05, 5655195.15], [408252.8, 5655201.68]]}}, {"type": "Feature", "properties": {"k": "label", "name": "Grumbacher Stra\u00dfe", "c": "main"}, "geometry": {"type": "LineString", "coordinates": [[408489.93, 5655823.14], [408578.91, 5655843.99]]}}, {"type": "Feature", "properties": {"k": "label", "name": "Gr\u00f6belstra\u00dfe", "c": "minor"}, "geometry": {"type": "LineString", "coordinates": [[409014.27, 5655564.91], [409032.71, 5655499.16], [409031.97, 5655497.18]]}}, {"type": "Feature", "properties": {"k": "label", "name": "Hainsberger Stra\u00dfe", "c": "main"}, "geometry": {"type": "LineString", "coordinates": [[409075.23, 5654638.36], [409068.72, 5654733.74]]}}, {"type": "Feature", "properties": {"k": "label", "name": "Hegerstra\u00dfe", "c": "minor"}, "geometry": {"type": "LineString", "coordinates": [[409563.11, 5654072.97], [409616.34, 5654033.62]]}}, {"type": "Feature", "properties": {"k": "label", "name": "Hermsdorfer Stra\u00dfe", "c": "main"}, "geometry": {"type": "LineString", "coordinates": [[408606.04, 5655743.69], [408512.95, 5655721.9]]}}, {"type": "Feature", "properties": {"k": "label", "name": "Hersfelder Stra\u00dfe", "c": "minor"}, "geometry": {"type": "LineString", "coordinates": [[408155.0, 5654144.7], [408154.26, 5654147.36], [408155.2, 5654182.23], [408160.99, 5654235.67]]}}, {"type": "Feature", "properties": {"k": "label", "name": "Hirschfelder Stra\u00dfe", "c": "main"}, "geometry": {"type": "LineString", "coordinates": [[409621.42, 5655735.95], [409612.88, 5655750.74], [409598.71, 5655768.99], [409557.81, 5655812.36]]}}, {"type": "Feature", "properties": {"k": "label", "name": "Hofm\u00fchlenstra\u00dfe", "c": "minor"}, "geometry": {"type": "LineString", "coordinates": [[409192.54, 5654302.2], [409213.01, 5654382.63]]}}, {"type": "Feature", "properties": {"k": "label", "name": "Hohe Stra\u00dfe", "c": "main"}, "geometry": {"type": "LineString", "coordinates": [[409913.83, 5654319.0], [409953.33, 5654372.12]]}}, {"type": "Feature", "properties": {"k": "label", "name": "Jagdweg", "c": "minor"}, "geometry": {"type": "LineString", "coordinates": [[409990.4, 5655808.14], [409967.66, 5655852.0]]}}, {"type": "Feature", "properties": {"k": "label", "name": "Kaitzer Stra\u00dfe", "c": "minor"}, "geometry": {"type": "LineString", "coordinates": [[409836.09, 5654002.31], [409882.97, 5654065.65]]}}, {"type": "Feature", "properties": {"k": "label", "name": "Kasseler Stra\u00dfe", "c": "minor"}, "geometry": {"type": "LineString", "coordinates": [[408227.45, 5654214.11], [408235.93, 5654296.67]]}}, {"type": "Feature", "properties": {"k": "label", "name": "Kesselsdorfer Stra\u00dfe", "c": "main"}, "geometry": {"type": "LineString", "coordinates": [[408315.61, 5655399.88], [408417.8, 5655419.19]]}}, {"type": "Feature", "properties": {"k": "label", "name": "Kesselsdorfer Stra\u00dfe", "c": "main"}, "geometry": {"type": "LineString", "coordinates": [[408834.99, 5655483.16], [408911.34, 5655493.59], [408938.24, 5655494.72]]}}, {"type": "Feature", "properties": {"k": "label", "name": "Klingenberger Stra\u00dfe", "c": "minor"}, "geometry": {"type": "LineString", "coordinates": [[409350.52, 5654086.01], [409409.66, 5654171.55]]}}, {"type": "Feature", "properties": {"k": "label", "name": "Klingestra\u00dfe", "c": "minor"}, "geometry": {"type": "LineString", "coordinates": [[408740.2, 5654726.92], [408745.29, 5654656.7]]}}, {"type": "Feature", "properties": {"k": "label", "name": "Lange Stra\u00dfe", "c": "minor"}, "geometry": {"type": "LineString", "coordinates": [[408060.97, 5655067.9], [408051.11, 5655137.6]]}}, {"type": "Feature", "properties": {"k": "label", "name": "Leumerstra\u00dfe", "c": "minor"}, "geometry": {"type": "LineString", "coordinates": [[408810.3, 5654982.83], [408880.52, 5654987.81]]}}, {"type": "Feature", "properties": {"k": "label", "name": "Lilienweg", "c": "minor"}, "geometry": {"type": "LineString", "coordinates": [[408564.09, 5654181.92], [408525.16, 5654139.2]]}}, {"type": "Feature", "properties": {"k": "label", "name": "L\u00f6btauer Br\u00fccke", "c": "main"}, "geometry": {"type": "LineString", "coordinates": [[409281.53, 5655328.92], [409261.54, 5655361.51], [409250.51, 5655383.11], [409242.09, 5655401.8]]}}, {"type": "Feature", "properties": {"k": "label", "name": "L\u00f6btauer Br\u00fccke", "c": "main"}, "geometry": {"type": "LineString", "coordinates": [[409251.07, 5655829.97], [409250.57, 5655843.7], [409251.45, 5655863.67], [409258.7, 5655912.38]]}}, {"type": "Feature", "properties": {"k": "label", "name": "L\u00f6btauer Stra\u00dfe", "c": "main"}, "geometry": {"type": "LineString", "coordinates": [[409579.09, 5655962.87], [409633.82, 5656025.26]]}}, {"type": "Feature", "properties": {"k": "label", "name": "L\u00f6btauer Stra\u00dfe", "c": "main"}, "geometry": {"type": "LineString", "coordinates": [[409267.61, 5655616.63], [409239.92, 5655582.55], [409216.56, 5655551.21]]}}, {"type": "Feature", "properties": {"k": "label", "name": "L\u00f6btauer Stra\u00dfe", "c": "main"}, "geometry": {"type": "LineString", "coordinates": [[409409.21, 5655782.15], [409351.22, 5655722.77]]}}, {"type": "Feature", "properties": {"k": "label", "name": "L\u00fcbecker Stra\u00dfe", "c": "main"}, "geometry": {"type": "LineString", "coordinates": [[408989.49, 5655821.79], [408959.2, 5655899.07]]}}, {"type": "Feature", "properties": {"k": "label", "name": "Malterstra\u00dfe", "c": "minor"}, "geometry": {"type": "LineString", "coordinates": [[408212.87, 5655546.31], [408229.08, 5655477.8]]}}, {"type": "Feature", "properties": {"k": "label", "name": "Malterstra\u00dfe", "c": "minor"}, "geometry": {"type": "LineString", "coordinates": [[408274.02, 5655090.06], [408280.43, 5655019.96]]}}, {"type": "Feature", "properties": {"k": "label", "name": "Malterweg", "c": "minor"}, "geometry": {"type": "LineString", "coordinates": [[408308.88, 5654746.89], [408313.58, 5654689.28]]}}, {"type": "Feature", "properties": {"k": "label", "name": "Mittelweg", "c": "minor"}, "geometry": {"type": "LineString", "coordinates": [[408339.08, 5654713.47], [408281.41, 5654709.64]]}}, {"type": "Feature", "properties": {"k": "label", "name": "Mohorner Stra\u00dfe", "c": "main"}, "geometry": {"type": "LineString", "coordinates": [[408781.28, 5654526.86], [408864.09, 5654521.33]]}}, {"type": "Feature", "properties": {"k": "label", "name": "Nelkenweg", "c": "minor"}, "geometry": {"type": "LineString", "coordinates": [[408435.02, 5654041.25], [408395.96, 5653998.65]]}}, {"type": "Feature", "properties": {"k": "label", "name": "Nossener Br\u00fccke", "c": "main"}, "geometry": {"type": "LineString", "coordinates": [[409379.77, 5655207.34], [409439.75, 5655175.24], [409453.92, 5655170.44]]}}, {"type": "Feature", "properties": {"k": "label", "name": "Nossener Br\u00fccke", "c": "main"}, "geometry": {"type": "LineString", "coordinates": [[409771.23, 5654931.18], [409820.93, 5654864.73]]}}, {"type": "Feature", "properties": {"k": "label", "name": "Oederaner Stra\u00dfe", "c": "minor"}, "geometry": {"type": "LineString", "coordinates": [[409499.38, 5655491.07], [409446.96, 5655421.38]]}}, {"type": "Feature", "properties": {"k": "label", "name": "Oederaner Stra\u00dfe", "c": "minor"}, "geometry": {"type": "LineString", "coordinates": [[409219.27, 5655118.96], [409254.44, 5655165.9], [409261.93, 5655174.05], [409275.29, 5655185.28]]}}, {"type": "Feature", "properties": {"k": "label", "name": "Poststra\u00dfe", "c": "main"}, "geometry": {"type": "LineString", "coordinates": [[408861.76, 5655360.88], [408866.44, 5655299.06]]}}, {"type": "Feature", "properties": {"k": "label", "name": "Poststra\u00dfe", "c": "main"}, "geometry": {"type": "LineString", "coordinates": [[408880.8, 5655104.56], [408885.02, 5655042.7]]}}, {"type": "Feature", "properties": {"k": "label", "name": "Rabenaue", "c": "minor"}, "geometry": {"type": "LineString", "coordinates": [[408235.2, 5654753.66], [408239.75, 5654700.25]]}}, {"type": "Feature", "properties": {"k": "label", "name": "Rabenauer Stra\u00dfe", "c": "main"}, "geometry": {"type": "LineString", "coordinates": [[408186.48, 5654995.01], [408179.65, 5655081.94]]}}, {"type": "Feature", "properties": {"k": "label", "name": "Reisewitzer Stra\u00dfe", "c": "minor"}, "geometry": {"type": "LineString", "coordinates": [[408935.14, 5655455.52], [408942.55, 5655360.21]]}}, {"type": "Feature", "properties": {"k": "label", "name": "Reisewitzer Stra\u00dfe", "c": "minor"}, "geometry": {"type": "LineString", "coordinates": [[408969.13, 5655005.27], [408975.96, 5654909.91]]}}, {"type": "Feature", "properties": {"k": "label", "name": "Reisewitzer Stra\u00dfe", "c": "minor"}, "geometry": {"type": "LineString", "coordinates": [[408999.23, 5654551.99], [409000.06, 5654512.24], [408996.81, 5654456.49]]}}, {"type": "Feature", "properties": {"k": "label", "name": "Rennsteig", "c": "minor"}, "geometry": {"type": "LineString", "coordinates": [[408379.36, 5654772.65], [408384.11, 5654715.05]]}}, {"type": "Feature", "properties": {"k": "label", "name": "Roseng\u00e4\u00dfchen", "c": "minor"}, "geometry": {"type": "LineString", "coordinates": [[408563.74, 5654079.84], [408611.29, 5654131.75]]}}, {"type": "Feature", "properties": {"k": "label", "name": "Rosenstra\u00dfe", "c": "minor"}, "geometry": {"type": "LineString", "coordinates": [[410005.67, 5655723.28], [409944.08, 5655699.02]]}}, {"type": "Feature", "properties": {"k": "label", "name": "Rudolf-Renner-Stra\u00dfe", "c": "main"}, "geometry": {"type": "LineString", "coordinates": [[408444.48, 5655511.1], [408421.41, 5655612.51]]}}, {"type": "Feature", "properties": {"k": "label", "name": "Saalhausener Stra\u00dfe", "c": "main"}, "geometry": {"type": "LineString", "coordinates": [[408040.87, 5655173.98], [408110.01, 5655245.94]]}}, {"type": "Feature", "properties": {"k": "label", "name": "Saxoniastra\u00dfe", "c": "minor"}, "geometry": {"type": "LineString", "coordinates": [[409411.46, 5655432.06], [409358.91, 5655485.01]]}}, {"type": "Feature", "properties": {"k": "label", "name": "Schillingplatz", "c": "minor"}, "geometry": {"type": "LineString", "coordinates": [[408785.08, 5655322.86], [408863.71, 5655328.03]]}}, {"type": "Feature", "properties": {"k": "label", "name": "Schillingstra\u00dfe", "c": "minor"}, "geometry": {"type": "LineString", "coordinates": [[409026.4, 5655350.86], [408943.65, 5655344.42]]}}, {"type": "Feature", "properties": {"k": "label", "name": "Sonnenweg", "c": "minor"}, "geometry": {"type": "LineString", "coordinates": [[408339.65, 5654646.71], [408344.64, 5654589.13]]}}, {"type": "Feature", "properties": {"k": "label", "name": "Stollestra\u00dfe", "c": "minor"}, "geometry": {"type": "LineString", "coordinates": [[408338.62, 5655590.82], [408270.08, 5655574.74]]}}, {"type": "Feature", "properties": {"k": "label", "name": "Tharandter Stra\u00dfe", "c": "main"}, "geometry": {"type": "LineString", "coordinates": [[408999.57, 5654277.63], [409040.28, 5654359.47]]}}, {"type": "Feature", "properties": {"k": "label", "name": "Tharandter Stra\u00dfe", "c": "main"}, "geometry": {"type": "LineString", "coordinates": [[409206.74, 5654721.17], [409211.42, 5654759.18], [409214.99, 5654812.15]]}}, {"type": "Feature", "properties": {"k": "label", "name": "Tharandter Stra\u00dfe", "c": "main"}, "geometry": {"type": "LineString", "coordinates": [[409129.89, 5655197.83], [409107.17, 5655255.4], [409102.81, 5655268.62], [409100.47, 5655284.02]]}}, {"type": "Feature", "properties": {"k": "label", "name": "Tulpenweg", "c": "minor"}, "geometry": {"type": "LineString", "coordinates": [[408397.89, 5654059.23], [408358.6, 5654016.84]]}}, {"type": "Feature", "properties": {"k": "label", "name": "Tunnel Bramschstra\u00dfe", "c": "main"}, "geometry": {"type": "LineString", "coordinates": [[408444.6, 5655973.08], [408525.82, 5655991.68], [408545.12, 5655999.1]]}}, {"type": "Feature", "properties": {"k": "label", "name": "Veilchenweg", "c": "minor"}, "geometry": {"type": "LineString", "coordinates": [[408523.32, 5654192.07], [408477.7, 5654144.1]]}}, {"type": "Feature", "properties": {"k": "label", "name": "Waldheimer Stra\u00dfe", "c": "minor"}, "geometry": {"type": "LineString", "coordinates": [[408907.71, 5654739.44], [408914.84, 5654648.31]]}}, {"type": "Feature", "properties": {"k": "label", "name": "Wei\u00dferitz-Gr\u00fcnzug", "c": "minor"}, "geometry": {"type": "LineString", "coordinates": [[409609.28, 5655840.16], [409622.56, 5655855.74], [409633.53, 5655865.61], [409649.33, 5655874.97], [409680.14, 5655896.85]]}}, {"type": "Feature", "properties": {"k": "label", "name": "Wei\u00dferitz-Gr\u00fcnzug", "c": "minor"}, "geometry": {"type": "LineString", "coordinates": [[409464.91, 5655703.46], [409395.41, 5655644.11]]}}, {"type": "Feature", "properties": {"k": "label", "name": "Wernerstra\u00dfe", "c": "main"}, "geometry": {"type": "LineString", "coordinates": [[408824.69, 5655583.6], [408882.53, 5655623.73]]}}, {"type": "Feature", "properties": {"k": "label", "name": "Wernerstra\u00dfe", "c": "main"}, "geometry": {"type": "LineString", "coordinates": [[409102.28, 5655764.66], [409172.35, 5655771.5]]}}, {"type": "Feature", "properties": {"k": "label", "name": "Wiesbadener Stra\u00dfe", "c": "minor"}, "geometry": {"type": "LineString", "coordinates": [[408091.28, 5654406.93], [408124.52, 5654402.86], [408186.52, 5654399.33]]}}, {"type": "Feature", "properties": {"k": "label", "name": "Wiesbadener Stra\u00dfe", "c": "minor"}, "geometry": {"type": "LineString", "coordinates": [[408588.34, 5654295.7], [408643.15, 5654286.14], [408669.45, 5654278.51], [408681.06, 5654273.72]]}}, {"type": "Feature", "properties": {"k": "label", "name": "W\u00fcrzburger Stra\u00dfe", "c": "main"}, "geometry": {"type": "LineString", "coordinates": [[409290.73, 5654401.76], [409325.39, 5654385.61], [409371.64, 5654359.4]]}}, {"type": "Feature", "properties": {"k": "label", "name": "W\u00fcrzburger Stra\u00dfe", "c": "main"}, "geometry": {"type": "LineString", "coordinates": [[409715.94, 5654143.46], [409789.41, 5654089.09]]}}, {"type": "Feature", "properties": {"k": "label", "name": "Zauckeroder Stra\u00dfe", "c": "minor"}, "geometry": {"type": "LineString", "coordinates": [[408570.93, 5654734.34], [408578.15, 5654639.01]]}}, {"type": "Feature", "properties": {"k": "label", "name": "Zwickauer Platz", "c": "minor"}, "geometry": {"type": "LineString", "coordinates": [[409429.81, 5654200.47], [409361.99, 5654248.3]]}}, {"type": "Feature", "properties": {"k": "label", "name": "Zwickauer Stra\u00dfe", "c": "main"}, "geometry": {"type": "LineString", "coordinates": [[409419.7, 5654336.46], [409461.5, 5654412.98]]}}, {"type": "Feature", "properties": {"k": "label", "name": "Zwickauer Stra\u00dfe", "c": "main"}, "geometry": {"type": "LineString", "coordinates": [[409752.16, 5654819.71], [409816.75, 5654878.28]]}}, {"type": "Feature", "properties": {"k": "label", "name": "Zwickauer Stra\u00dfe", "c": "main"}, "geometry": {"type": "LineString", "coordinates": [[409217.86, 5654048.9], [409167.98, 5653977.37]]}}, {"type": "Feature", "properties": {"k": "way", "name": "Agnes-Smedley-Stra\u00dfe"}, "geometry": {"type": "LineString", "coordinates": [[409144.16, 5654463.28], [409142.17, 5654456.74], [409156.29, 5654361.86], [409158.18, 5654332.4], [409156.61, 5654311.42], [409148.86, 5654281.53], [409133.22, 5654248.19], [409030.5, 5654102.1], [409015.72, 5654083.31], [409011.39, 5654079.43], [409003.3, 5654077.08], [408963.83, 5654096.05]]}}, {"type": "Feature", "properties": {"k": "way", "name": "Alfred-Schmieder-Stra\u00dfe"}, "geometry": {"type": "LineString", "coordinates": [[408355.88, 5654116.97], [408412.06, 5654371.59]]}}, {"type": "Feature", "properties": {"k": "way", "name": "Altfrankener Stra\u00dfe"}, "geometry": {"type": "LineString", "coordinates": [[408713.76, 5654132.53], [408727.5, 5654148.42], [408742.57, 5654157.41], [408941.42, 5654225.61], [408973.0, 5654235.55], [408984.41, 5654235.36]]}}, {"type": "Feature", "properties": {"k": "way", "name": "Altl\u00f6btau"}, "geometry": {"type": "LineString", "coordinates": [[408974.78, 5655859.26], [408933.66, 5655847.85], [408854.91, 5655838.25], [408772.61, 5655813.46], [408706.43, 5655798.38]]}}, {"type": "Feature", "properties": {"k": "way", "name": "Altl\u00f6btau"}, "geometry": {"type": "LineString", "coordinates": [[408717.1, 5655751.74], [408855.71, 5655790.66]]}}, {"type": "Feature", "properties": {"k": "way", "name": "Altl\u00f6btau"}, "geometry": {"type": "LineString", "coordinates": [[408855.71, 5655790.66], [408888.24, 5655801.58], [408983.06, 5655838.0]]}}, {"type": "Feature", "properties": {"k": "way", "name": "Altl\u00f6btau"}, "geometry": {"type": "LineString", "coordinates": [[408918.28, 5655648.55], [408911.82, 5655659.76], [408898.82, 5655704.85], [408894.06, 5655710.7], [408881.64, 5655720.42], [408874.11, 5655730.77], [408855.71, 5655790.66]]}}, {"type": "Feature", "properties": {"k": "way", "name": "Altonaer Stra\u00dfe"}, "geometry": {"type": "LineString", "coordinates": [[409676.61, 5656000.0], [409715.35, 5655960.07]]}}, {"type": "Feature", "properties": {"k": "way", "name": "Altplauen"}, "geometry": {"type": "LineString", "coordinates": [[408962.17, 5654032.71], [408991.27, 5654000.0]]}}, {"type": "Feature", "properties": {"k": "way", "name": "Altplauen"}, "geometry": {"type": "LineString", "coordinates": [[408998.49, 5654000.0], [408974.24, 5654027.62], [408969.6, 5654037.3]]}}, {"type": "Feature", "properties": {"k": "way", "name": "Am Kirschberg"}, "geometry": {"type": "LineString", "coordinates": [[408541.91, 5654000.0], [408553.68, 5654019.74]]}}, {"type": "Feature", "properties": {"k": "way", "name": "Am Lerchenberg"}, "geometry": {"type": "LineString", "coordinates": [[408748.92, 5655990.16], [408741.68, 5656000.0]]}}, {"type": "Feature", "properties": {"k": "way", "name": "Am Ro\u00dfthaler Bach"}, "geometry": {"type": "LineString", "coordinates": [[408109.05, 5654696.97], [408018.95, 5654682.66], [408020.28, 5654675.07], [408000.0, 5654671.2]]}}, {"type": "Feature", "properties": {"k": "way", "name": "Am Ro\u00dfthaler Bach"}, "geometry": {"type": "LineString", "coordinates": [[408000.0, 5654726.35], [408010.61, 5654728.38], [408009.1, 5654736.16], [408105.48, 5654751.9]]}}, {"type": "Feature", "properties": {"k": "way", "name": "Am T\u00e4lchen"}, "geometry": {"type": "LineString", "coordinates": [[408404.1, 5654102.56], [408514.88, 5654318.55]]}}, {"type": "Feature", "properties": {"k": "way", "name": "Anton-Weck-Stra\u00dfe"}, "geometry": {"type": "LineString", "coordinates": [[408876.55, 5655166.4], [408957.08, 5655173.62], [409129.29, 5655199.37]]}}, {"type": "Feature", "properties": {"k": "way", "name": "Badweg"}, "geometry": {"type": "LineString", "coordinates": [[408804.81, 5654989.17], [408728.81, 5654973.19]]}}, {"type": "Feature", "properties": {"k": "way", "name": "Baluschekstra\u00dfe"}, "geometry": {"type": "LineString", "coordinates": [[409042.74, 5655682.43], [409211.68, 5655699.19]]}}, {"type": "Feature", "properties": {"k": "way", "name": "Baluschekstra\u00dfe"}, "geometry": {"type": "LineString", "coordinates": [[409047.31, 5655669.3], [409212.7, 5655686.25]]}}, {"type": "Feature", "properties": {"k": "way", "name": "Bamberger Stra\u00dfe"}, "geometry": {"type": "LineString", "coordinates": [[409529.82, 5654536.9], [410000.0, 5654190.06]]}}, {"type": "Feature", "properties": {"k": "way", "name": "Bayreuther Stra\u00dfe"}, "geometry": {"type": "LineString", "coordinates": [[409818.26, 5654528.56], [409831.81, 5654518.75], [409840.02, 5654516.23], [409849.13, 5654516.43], [409864.62, 5654520.23], [409871.21, 5654524.26], [409877.51, 5654531.81]]}}, {"type": "Feature", "properties": {"k": "way", "name": "Bayreuther Stra\u00dfe"}, "geometry": {"type": "LineString", "coordinates": [[409840.79, 5654559.07], [409877.51, 5654531.81]]}}, {"type": "Feature", "properties": {"k": "way", "name": "Bayreuther Stra\u00dfe"}, "geometry": {"type": "LineString", "coordinates": [[409863.81, 5654590.24], [409879.45, 5654574.18], [409884.56, 5654562.27], [409886.06, 5654554.72], [409885.23, 5654546.25], [409877.51, 5654531.81]]}}, {"type": "Feature", "properties": {"k": "way", "name": "Bayreuther Stra\u00dfe"}, "geometry": {"type": "LineString", "coordinates": [[409877.51, 5654531.81], [410000.0, 5654440.89]]}}, {"type": "Feature", "properties": {"k": "way", "name": "Biedermannstra\u00dfe"}, "geometry": {"type": "LineString", "coordinates": [[409277.24, 5654548.87], [409369.66, 5654502.91], [409373.06, 5654511.13]]}}, {"type": "Feature", "properties": {"k": "way", "name": "Bienertstra\u00dfe"}, "geometry": {"type": "LineString", "coordinates": [[408989.71, 5654257.8], [409148.93, 5654203.82], [409258.52, 5654128.72]]}}, {"type": "Feature", "properties": {"k": "way", "name": "Bienertstra\u00dfe"}, "geometry": {"type": "LineString", "coordinates": [[409433.34, 5654007.2], [409280.25, 5654113.24]]}}, {"type": "Feature", "properties": {"k": "way", "name": "Bienertstra\u00dfe"}, "geometry": {"type": "LineString", "coordinates": [[409460.29, 5654000.0], [409439.47, 5654015.41]]}}, {"type": "Feature", "properties": {"k": "way", "name": "Binger Stra\u00dfe"}, "geometry": {"type": "LineString", "coordinates": [[408046.47, 5654426.62], [408035.5, 5654400.5], [408033.36, 5654381.37], [408067.83, 5654258.72]]}}, {"type": "Feature", "properties": {"k": "way", "name": "Birnenweg"}, "geometry": {"type": "LineString", "coordinates": [[408342.23, 5654780.06], [408353.53, 5654649.49]]}}, {"type": "Feature", "properties": {"k": "way", "name": "Bodelschwinghstra\u00dfe"}, "geometry": {"type": "LineString", "coordinates": [[409437.14, 5655948.78], [409439.36, 5655934.53], [409499.68, 5655872.55]]}}, {"type": "Feature", "properties": {"k": "way", "name": "Bonhoefferplatz"}, "geometry": {"type": "LineString", "coordinates": [[408888.72, 5654988.39], [408897.58, 5654869.04], [409058.66, 5654881.08], [409050.56, 5654999.88], [408888.72, 5654988.39]]}}, {"type": "Feature", "properties": {"k": "way", "name": "Bramschstra\u00dfe"}, "geometry": {"type": "LineString", "coordinates": [[408112.98, 5655945.19], [408125.03, 5655943.06], [408131.12, 5655943.67], [408365.23, 5656000.0]]}}, {"type": "Feature", "properties": {"k": "way", "name": "Braunsdorfer Stra\u00dfe"}, "geometry": {"type": "LineString", "coordinates": [[408000.0, 5655828.28], [408036.97, 5655836.92], [408034.68, 5655863.1]]}}, {"type": "Feature", "properties": {"k": "way", "name": "Braunsdorfer Stra\u00dfe"}, "geometry": {"type": "LineString", "coordinates": [[408034.68, 5655863.1], [408000.0, 5655870.36]]}}, {"type": "Feature", "properties": {"k": "way", "name": "Braunsdorfer Stra\u00dfe"}, "geometry": {"type": "LineString", "coordinates": [[408061.13, 5655862.33], [408034.68, 5655863.1]]}}, {"type": "Feature", "properties": {"k": "way", "name": "Braunsdorfer Stra\u00dfe"}, "geometry": {"type": "LineString", "coordinates": [[408057.09, 5655924.18], [408061.13, 5655862.33]]}}, {"type": "Feature", "properties": {"k": "way", "name": "Braunsdorfer Stra\u00dfe"}, "geometry": {"type": "LineString", "coordinates": [[408228.68, 5655871.06], [408083.55, 5655861.62], [408061.13, 5655862.33]]}}, {"type": "Feature", "properties": {"k": "way", "name": "Braunsdorfer Stra\u00dfe"}, "geometry": {"type": "LineString", "coordinates": [[408228.68, 5655871.06], [408266.07, 5655875.02], [408549.48, 5655941.15], [408748.92, 5655990.16], [408761.95, 5656000.0]]}}, {"type": "Feature", "properties": {"k": "way", "name": "Braunsdorfer Stra\u00dfe"}, "geometry": {"type": "LineString", "coordinates": [[408228.68, 5655871.06], [408242.0, 5655809.43], [408259.84, 5655802.33], [408287.59, 5655808.81]]}}, {"type": "Feature", "properties": {"k": "way", "name": "Brombeerweg"}, "geometry": {"type": "LineString", "coordinates": [[408268.95, 5654783.42], [408280.08, 5654658.34]]}}, {"type": "Feature", "properties": {"k": "way", "name": "Budapester Stra\u00dfe"}, "geometry": {"type": "LineString", "coordinates": [[410000.0, 5654781.07], [409958.14, 5654724.44], [409954.19, 5654712.58]]}}, {"type": "Feature", "properties": {"k": "way", "name": "Budapester Stra\u00dfe"}, "geometry": {"type": "LineString", "coordinates": [[409966.74, 5654717.46], [409976.87, 5654725.82], [410000.0, 5654756.67]]}}, {"type": "Feature", "properties": {"k": "way", "name": "Burgkstra\u00dfe"}, "geometry": {"type": "LineString", "coordinates": [[408660.26, 5656000.0], [408752.77, 5655596.0], [408781.63, 5655554.44]]}}, {"type": "Feature", "properties": {"k": "way", "name": "B\u00fcnauplatz"}, "geometry": {"type": "LineString", "coordinates": [[408791.22, 5655168.32], [408792.36, 5655153.36], [408877.05, 5655159.43], [408875.96, 5655174.19], [408791.22, 5655168.32]]}}, {"type": "Feature", "properties": {"k": "way", "name": "B\u00fcnaustra\u00dfe"}, "geometry": {"type": "LineString", "coordinates": [[408769.09, 5655474.23], [408791.22, 5655168.32]]}}, {"type": "Feature", "properties": {"k": "way", "name": "B\u00fcnaustra\u00dfe"}, "geometry": {"type": "LineString", "coordinates": [[408826.84, 5654681.94], [408792.36, 5655153.36]]}}, {"type": "Feature", "properties": {"k": "way", "name": "Chausseehausstra\u00dfe"}, "geometry": {"type": "LineString", "coordinates": [[409050.56, 5654999.88], [409199.34, 5655021.76]]}}, {"type": "Feature", "properties": {"k": "way", "name": "Chemnitzer Stra\u00dfe"}, "geometry": {"type": "LineString", "coordinates": [[409954.19, 5654712.58], [409427.97, 5654000.0]]}}, {"type": "Feature", "properties": {"k": "way", "name": "Clara-Viebig-Stra\u00dfe"}, "geometry": {"type": "LineString", "coordinates": [[409058.66, 5654881.08], [409216.93, 5654892.91]]}}, {"type": "Feature", "properties": {"k": "way", "name": "Clara-Zetkin-Stra\u00dfe"}, "geometry": {"type": "LineString", "coordinates": [[408897.58, 5654869.04], [408198.44, 5654816.85], [408099.0, 5654798.86], [408000.0, 5654778.88]]}}, {"type": "Feature", "properties": {"k": "way", "name": "Colmnitzer Stra\u00dfe"}, "geometry": {"type": "LineString", "coordinates": [[408901.07, 5655956.9], [408884.69, 5655926.87], [408871.26, 5655916.03], [408860.18, 5655913.55]]}}, {"type": "Feature", "properties": {"k": "way", "name": "Columbusstra\u00dfe"}, "geometry": {"type": "LineString", "coordinates": [[409211.21, 5655818.44], [409205.74, 5655774.76], [409222.65, 5655559.65]]}}, {"type": "Feature", "properties": {"k": "way", "name": "Conertplatz"}, "geometry": {"type": "LineString", "coordinates": [[408300.0, 5655678.74], [408301.38, 5655672.99], [408401.79, 5655695.89], [408378.1, 5655796.36], [408278.02, 5655772.72], [408300.0, 5655678.74]]}}, {"type": "Feature", "properties": {"k": "way", "name": "Coventrystra\u00dfe"}, "geometry": {"type": "LineString", "coordinates": [[408164.96, 5655941.09], [408116.05, 5655930.32], [408090.16, 5655927.18], [408057.09, 5655924.18], [408000.0, 5655923.18]]}}, {"type": "Feature", "properties": {"k": "way", "name": "Coventrystra\u00dfe"}, "geometry": {"type": "LineString", "coordinates": [[408000.0, 5655910.94], [408057.71, 5655911.76], [408165.37, 5655917.55]]}}, {"type": "Feature", "properties": {"k": "way", "name": "Deubener Stra\u00dfe"}, "geometry": {"type": "LineString", "coordinates": [[408330.7, 5655402.79], [408381.77, 5654830.52]]}}, {"type": "Feature", "properties": {"k": "way", "name": "Dienstgehsteig"}, "geometry": {"type": "LineString", "coordinates": [[409720.86, 5655030.83], [409633.14, 5655093.18]]}}, {"type": "Feature", "properties": {"k": "way", "name": "Drescherh\u00e4user"}, "geometry": {"type": "LineString", "coordinates": [[408949.95, 5655919.1], [408952.44, 5655923.92], [408951.89, 5655940.15], [408937.65, 5656000.0]]}}, {"type": "Feature", "properties": {"k": "way", "name": "D\u00f6hlener Stra\u00dfe"}, "geometry": {"type": "LineString", "coordinates": [[409029.11, 5655245.56], [409050.56, 5654999.88]]}}, {"type": "Feature", "properties": {"k": "way", "name": "D\u00f6lzschener Stra\u00dfe"}, "geometry": {"type": "LineString", "coordinates": [[408647.14, 5654850.33], [408691.56, 5654269.08], [408699.5, 5654146.47], [408703.83, 5654137.96], [408713.76, 5654132.53], [408711.76, 5654116.91], [408713.34, 5654106.52], [408733.2, 5654040.12], [408737.92, 5654014.12], [408738.91, 5654000.0]]}}, {"type": "Feature", "properties": {"k": "way", "name": "Ebertplatz"}, "geometry": {"type": "LineString", "coordinates": [[409230.62, 5655442.2], [409255.65, 5655418.13], [409259.26, 5655392.48], [409260.02, 5655357.14]]}}, {"type": "Feature", "properties": {"k": "way", "name": "Ebertplatz"}, "geometry": {"type": "LineString", "coordinates": [[409232.46, 5655335.24], [409240.19, 5655340.6], [409246.44, 5655341.33], [409252.9, 5655340.62], [409261.33, 5655336.21]]}}, {"type": "Feature", "properties": {"k": "way", "name": "Ebertplatz"}, "geometry": {"type": "LineString", "coordinates": [[409260.02, 5655357.14], [409256.3, 5655357.62], [409249.29, 5655355.42], [409240.38, 5655350.31], [409235.72, 5655343.97], [409232.46, 5655335.24]]}}, {"type": "Feature", "properties": {"k": "way", "name": "Ebertplatz"}, "geometry": {"type": "LineString", "coordinates": [[409232.46, 5655335.24], [409230.85, 5655317.17], [409232.1, 5655269.59], [409234.92, 5655239.34], [409243.96, 5655205.85]]}}, {"type": "Feature", "properties": {"k": "way", "name": "Ebertplatz"}, "geometry": {"type": "LineString", "coordinates": [[409243.96, 5655205.85], [409248.49, 5655184.37]]}}, {"type": "Feature", "properties": {"k": "way", "name": "Ebertplatz"}, "geometry": {"type": "LineString", "coordinates": [[409256.04, 5655192.79], [409243.96, 5655205.85]]}}, {"type": "Feature", "properties": {"k": "way", "name": "Ebertplatz"}, "geometry": {"type": "LineString", "coordinates": [[409248.49, 5655184.37], [409246.32, 5655154.72]]}}, {"type": "Feature", "properties": {"k": "way", "name": "Ebertplatz"}, "geometry": {"type": "LineString", "coordinates": [[409248.49, 5655184.37], [409261.93, 5655174.05], [409256.04, 5655192.79]]}}, {"type": "Feature", "properties": {"k": "way", "name": "Ebertplatz"}, "geometry": {"type": "LineString", "coordinates": [[409271.44, 5655351.38], [409288.44, 5655337.22], [409279.01, 5655354.81], [409274.66, 5655366.56], [409271.15, 5655379.77], [409263.79, 5655429.57], [409255.52, 5655446.99]]}}, {"type": "Feature", "properties": {"k": "way", "name": "Ebertplatz"}, "geometry": {"type": "LineString", "coordinates": [[409279.09, 5655188.09], [409264.76, 5655189.92], [409256.04, 5655192.79]]}}, {"type": "Feature", "properties": {"k": "way", "name": "Ebertplatz"}, "geometry": {"type": "LineString", "coordinates": [[409271.44, 5655351.38], [409260.02, 5655357.14]]}}, {"type": "Feature", "properties": {"k": "way", "name": "Ebertplatz"}, "geometry": {"type": "LineString", "coordinates": [[409271.44, 5655351.38], [409265.0, 5655349.66], [409260.55, 5655345.21]]}}, {"type": "Feature", "properties": {"k": "way", "name": "Eichendorffstra\u00dfe"}, "geometry": {"type": "LineString", "coordinates": [[409093.43, 5655593.39], [409104.69, 5655599.73], [409249.82, 5655616.47], [409262.75, 5655610.59]]}}, {"type": "Feature", "properties": {"k": "way", "name": "Eifelweg"}, "geometry": {"type": "LineString", "coordinates": [[408000.0, 5655015.03], [408066.68, 5655027.5]]}}, {"type": "Feature", "properties": {"k": "way", "name": "Emerich-Ambros-Ufer"}, "geometry": {"type": "LineString", "coordinates": [[409327.33, 5655690.5], [409320.53, 5655698.04], [409314.51, 5655713.23], [409300.61, 5655782.81], [409270.91, 5655907.84], [409266.53, 5655967.06], [409260.38, 5656000.0]]}}, {"type": "Feature", "properties": {"k": "way", "name": "Emerich-Ambros-Ufer"}, "geometry": {"type": "LineString", "coordinates": [[409192.2, 5656000.0], [409195.72, 5655981.26], [409207.2, 5655948.09], [409218.02, 5655871.58], [409218.64, 5655856.79], [409211.21, 5655818.44]]}}, {"type": "Feature", "properties": {"k": "way", "name": "Emil-Ueberall-Stra\u00dfe"}, "geometry": {"type": "LineString", "coordinates": [[408009.45, 5655419.3], [408752.77, 5655596.0]]}}, {"type": "Feature", "properties": {"k": "way", "name": "Essener Stra\u00dfe"}, "geometry": {"type": "LineString", "coordinates": [[408364.79, 5655020.94], [408185.33, 5655005.82], [408111.94, 5654978.32], [408074.54, 5654971.94]]}}, {"type": "Feature", "properties": {"k": "way", "name": "Fabrikstra\u00dfe"}, "geometry": {"type": "LineString", "coordinates": [[409476.69, 5655221.67], [409472.5, 5655204.34], [409450.19, 5655149.75], [409400.39, 5655018.44], [409398.04, 5655004.17], [409398.7, 5654989.67], [409403.15, 5654973.19], [409421.62, 5654927.69], [409426.67, 5654905.42], [409427.82, 5654885.96], [409426.88, 5654861.41], [409421.41, 5654831.91], [409405.2, 5654779.26], [409382.48, 5654727.18], [409370.75, 5654704.05]]}}, {"type": "Feature", "properties": {"k": "way", "name": "Fabrikstra\u00dfe"}, "geometry": {"type": "LineString", "coordinates": [[409628.65, 5655640.68], [409634.28, 5655630.05], [409635.66, 5655620.37], [409634.2, 5655610.73], [409593.45, 5655511.82]]}}, {"type": "Feature", "properties": {"k": "way", "name": "Fliederweg"}, "geometry": {"type": "LineString", "coordinates": [[408651.4, 5654209.15], [408505.63, 5654049.79]]}}, {"type": "Feature", "properties": {"k": "way", "name": "Flo\u00dfhof-Terrasse"}, "geometry": {"type": "LineString", "coordinates": [[409331.05, 5655575.84], [409324.19, 5655574.15], [409317.73, 5655570.2], [409271.98, 5655525.52], [409268.75, 5655518.43], [409264.54, 5655492.94], [409260.09, 5655463.95], [409261.44, 5655460.94]]}}, {"type": "Feature", "properties": {"k": "way", "name": "Frankenbergstra\u00dfe"}, "geometry": {"type": "LineString", "coordinates": [[409204.89, 5654708.59], [409193.79, 5654709.64], [408510.35, 5654657.84]]}}, {"type": "Feature", "properties": {"k": "way", "name": "Frankfurter Stra\u00dfe"}, "geometry": {"type": "LineString", "coordinates": [[408888.66, 5654207.89], [408889.81, 5654199.49], [408856.06, 5654064.92]]}}, {"type": "Feature", "properties": {"k": "way", "name": "Freiberger Stra\u00dfe"}, "geometry": {"type": "LineString", "coordinates": [[409164.89, 5655472.01], [409182.1, 5655462.92], [409230.62, 5655442.2], [409245.35, 5655441.74], [409255.52, 5655446.99]]}}, {"type": "Feature", "properties": {"k": "way", "name": "Freiberger Stra\u00dfe"}, "geometry": {"type": "LineString", "coordinates": [[409255.52, 5655446.99], [409247.2, 5655453.53], [409235.39, 5655459.64], [409185.89, 5655481.37], [409171.06, 5655486.32]]}}, {"type": "Feature", "properties": {"k": "way", "name": "Freiberger Stra\u00dfe"}, "geometry": {"type": "LineString", "coordinates": [[409255.52, 5655446.99], [409267.27, 5655453.3], [409355.95, 5655530.35], [409372.47, 5655540.93], [409603.63, 5655628.46], [409622.25, 5655636.97], [409636.2, 5655645.82], [409661.6, 5655667.18], [409763.78, 5655761.87], [409935.71, 5655933.98], [409958.66, 5655950.5], [410000.0, 5655971.0]]}}, {"type": "Feature", "properties": {"k": "way", "name": "Fritz-Schulze-Stra\u00dfe"}, "geometry": {"type": "LineString", "coordinates": [[408923.9, 5654049.24], [408786.22, 5654080.81], [408782.68, 5654084.15], [408781.04, 5654088.61], [408781.5, 5654102.8], [408789.45, 5654140.42], [408797.93, 5654164.23], [408796.18, 5654175.98]]}}, {"type": "Feature", "properties": {"k": "way", "name": "Fritz-Schulze-Stra\u00dfe"}, "geometry": {"type": "LineString", "coordinates": [[408944.36, 5654051.85], [408923.9, 5654049.24]]}}, {"type": "Feature", "properties": {"k": "way", "name": "Fritz-Schulze-Stra\u00dfe"}, "geometry": {"type": "LineString", "coordinates": [[408923.9, 5654049.24], [408934.22, 5654044.15], [408944.6, 5654041.56]]}}, {"type": "Feature", "properties": {"k": "way", "name": "Frohe Zukunft"}, "geometry": {"type": "LineString", "coordinates": [[408432.38, 5654654.67], [408434.24, 5654661.23], [408424.41, 5654787.3]]}}, {"type": "Feature", "properties": {"k": "way", "name": "Gie\u00dfener Stra\u00dfe"}, "geometry": {"type": "LineString", "coordinates": [[408166.07, 5654282.5], [408202.11, 5654291.13], [408235.94, 5654296.72]]}}, {"type": "Feature", "properties": {"k": "way", "name": "Glauchauer Stra\u00dfe"}, "geometry": {"type": "LineString", "coordinates": [[409895.7, 5654951.2], [410000.0, 5654843.65]]}}, {"type": "Feature", "properties": {"k": "way", "name": "Gohliser Stra\u00dfe"}, "geometry": {"type": "LineString", "coordinates": [[408675.21, 5655481.56], [408596.5, 5655741.46], [408536.33, 5656000.0]]}}, {"type": "Feature", "properties": {"k": "way", "name": "Grenzallee"}, "geometry": {"type": "LineString", "coordinates": [[408580.8, 5654000.0], [408539.39, 5654029.2], [408465.69, 5654074.17], [408428.64, 5654092.08], [408404.1, 5654102.56], [408355.88, 5654116.97], [408322.19, 5654124.07], [408293.39, 5654128.09], [408273.91, 5654127.82], [408255.93, 5654123.42], [408239.95, 5654117.07], [408217.2, 5654100.06], [408192.51, 5654075.82], [408128.12, 5654000.0]]}}, {"type": "Feature", "properties": {"k": "way", "name": "Grillenburger Stra\u00dfe"}, "geometry": {"type": "LineString", "coordinates": [[408000.0, 5655179.75], [408035.52, 5655182.98], [408045.31, 5655178.64]]}}, {"type": "Feature", "properties": {"k": "way", "name": "Grillenburger Stra\u00dfe"}, "geometry": {"type": "LineString", "coordinates": [[408054.83, 5655188.59], [408065.26, 5655185.89], [408126.9, 5655190.16], [408171.05, 5655195.15], [408347.98, 5655209.38]]}}, {"type": "Feature", "properties": {"k": "way", "name": "Grumbacher Stra\u00dfe"}, "geometry": {"type": "LineString", "coordinates": [[408378.1, 5655796.36], [408690.02, 5655870.02]]}}, {"type": "Feature", "properties": {"k": "way", "name": "Gr\u00f6belstra\u00dfe"}, "geometry": {"type": "LineString", "coordinates": [[408976.25, 5655688.78], [408982.11, 5655679.55], [409032.71, 5655499.16], [409028.36, 5655488.45], [409027.78, 5655481.44], [409022.01, 5655350.56]]}}, {"type": "Feature", "properties": {"k": "way", "name": "Hainsberger Stra\u00dfe"}, "geometry": {"type": "LineString", "coordinates": [[409085.44, 5654488.71], [409058.66, 5654881.08]]}}, {"type": "Feature", "properties": {"k": "way", "name": "Hegerstra\u00dfe"}, "geometry": {"type": "LineString", "coordinates": [[409510.84, 5654111.61], [409661.82, 5654000.0]]}}, {"type": "Feature", "properties": {"k": "way", "name": "Hermsdorfer Stra\u00dfe"}, "geometry": {"type": "LineString", "coordinates": [[408713.14, 5655768.76], [408401.79, 5655695.89]]}}, {"type": "Feature", "properties": {"k": "way", "name": "Hersfelder Stra\u00dfe"}, "geometry": {"type": "LineString", "coordinates": [[408192.51, 5654075.82], [408172.34, 5654099.04], [408163.26, 5654114.65], [408154.26, 5654147.36], [408155.2, 5654182.23], [408166.07, 5654282.5]]}}, {"type": "Feature", "properties": {"k": "way", "name": "Hirschfelder Stra\u00dfe"}, "geometry": {"type": "LineString", "coordinates": [[409661.6, 5655667.18], [409643.58, 5655691.39], [409623.99, 5655731.5], [409612.88, 5655750.74], [409598.71, 5655768.99], [409499.68, 5655872.55]]}}, {"type": "Feature", "properties": {"k": "way", "name": "Hofm\u00fchlenstra\u00dfe"}, "geometry": {"type": "LineString", "coordinates": [[409005.54, 5654000.0], [409019.15, 5654037.4], [409056.01, 5654072.98], [409068.26, 5654087.07], [409152.16, 5654208.57], [409168.89, 5654236.9], [409186.19, 5654277.23], [409225.57, 5654432.12], [409277.24, 5654548.87], [409318.31, 5654624.24], [409370.75, 5654704.05]]}}, {"type": "Feature", "properties": {"k": "way", "name": "Hohe Stra\u00dfe"}, "geometry": {"type": "LineString", "coordinates": [[409677.41, 5654000.0], [410000.0, 5654434.87]]}}, {"type": "Feature", "properties": {"k": "way", "name": "H\u00f6lderlinstra\u00dfe"}, "geometry": {"type": "LineString", "coordinates": [[408107.48, 5656000.0], [408115.06, 5655960.12], [408112.98, 5655945.19]]}}, {"type": "Feature", "properties": {"k": "way", "name": "Jagdweg"}, "geometry": {"type": "LineString", "coordinates": [[410000.0, 5655789.64], [409928.51, 5655927.51]]}}, {"type": "Feature", "properties": {"k": "way", "name": "Kaitzer Stra\u00dfe"}, "geometry": {"type": "LineString", "coordinates": [[409834.38, 5654000.0], [410000.0, 5654223.79]]}}, {"type": "Feature", "properties": {"k": "way", "name": "Kasseler Stra\u00dfe"}, "geometry": {"type": "LineString", "coordinates": [[408239.95, 5654117.07], [408233.4, 5654128.07], [408227.77, 5654146.69], [408224.46, 5654171.15], [408228.35, 5654227.06], [408248.22, 5654392.61]]}}, {"type": "Feature", "properties": {"k": "way", "name": "Kesselsdorfer Stra\u00dfe"}, "geometry": {"type": "LineString", "coordinates": [[408000.0, 5655371.75], [408153.66, 5655373.72], [408185.6, 5655375.62], [408491.44, 5655432.87], [408769.09, 5655474.23], [408914.98, 5655493.95], [408952.7, 5655494.33], [409147.02, 5655482.78]]}}, {"type": "Feature", "properties": {"k": "way", "name": "Kesselsdorfer Stra\u00dfe"}, "geometry": {"type": "LineString", "coordinates": [[409171.06, 5655486.32], [409147.02, 5655482.78]]}}, {"type": "Feature", "properties": {"k": "way", "name": "Kesselsdorfer Stra\u00dfe"}, "geometry": {"type": "LineString", "coordinates": [[409147.02, 5655482.78], [409164.89, 5655472.01]]}}, {"type": "Feature", "properties": {"k": "way", "name": "Kirschweg"}, "geometry": {"type": "LineString", "coordinates": [[408379.11, 5654650.78], [408383.69, 5654596.98]]}}, {"type": "Feature", "properties": {"k": "way", "name": "Klingenberger Stra\u00dfe"}, "geometry": {"type": "LineString", "coordinates": [[409308.42, 5654000.0], [409322.34, 5654040.8], [409337.5, 5654063.67], [409345.4, 5654078.61], [409494.15, 5654292.7]]}}, {"type": "Feature", "properties": {"k": "way", "name": "Klingestra\u00dfe"}, "geometry": {"type": "LineString", "coordinates": [[408730.79, 5654856.58], [408754.46, 5654528.66]]}}, {"type": "Feature", "properties": {"k": "way", "name": "Klopstockstra\u00dfe"}, "geometry": {"type": "LineString", "coordinates": [[408215.56, 5656000.0], [408220.43, 5655964.9]]}}, {"type": "Feature", "properties": {"k": "way", "name": "Kunadstra\u00dfe"}, "geometry": {"type": "LineString", "coordinates": [[410000.0, 5655263.62], [409986.9, 5655272.88]]}}, {"type": "Feature", "properties": {"k": "way", "name": "Lange Stra\u00dfe"}, "geometry": {"type": "LineString", "coordinates": [[408000.0, 5654566.98], [408046.42, 5654593.4]]}}, {"type": "Feature", "properties": {"k": "way", "name": "Lange Stra\u00dfe"}, "geometry": {"type": "LineString", "coordinates": [[408109.05, 5654696.97], [408112.04, 5654705.87], [408045.31, 5655178.64], [408000.0, 5655484.81]]}}, {"type": "Feature", "properties": {"k": "way", "name": "Leumerstra\u00dfe"}, "geometry": {"type": "LineString", "coordinates": [[408805.31, 5654982.48], [408888.72, 5654988.39]]}}, {"type": "Feature", "properties": {"k": "way", "name": "Lilienweg"}, "geometry": {"type": "LineString", "coordinates": [[408625.29, 5654247.9], [408465.69, 5654074.17]]}}, {"type": "Feature", "properties": {"k": "way", "name": "L\u00f6btauer Br\u00fccke"}, "geometry": {"type": "LineString", "coordinates": [[409204.35, 5656000.0], [409216.95, 5655941.12], [409225.61, 5655888.09], [409260.38, 5655730.04], [409264.14, 5655704.17], [409265.89, 5655678.07], [409264.52, 5655655.16], [409257.0, 5655616.22], [409249.11, 5655592.69], [409231.82, 5655554.38], [409227.16, 5655540.88], [409220.63, 5655512.62], [409218.11, 5655479.74], [409222.68, 5655436.49], [409233.31, 5655403.38], [409248.66, 5655369.83], [409274.38, 5655325.88], [409295.08, 5655297.57], [409320.02, 5655268.99], [409348.56, 5655241.67], [409382.19, 5655215.06], [409400.04, 5655203.2], [409419.16, 5655186.52]]}}, {"type": "Feature", "properties": {"k": "way", "name": "L\u00f6btauer Br\u00fccke"}, "geometry": {"type": "LineString", "coordinates": [[409441.74, 5655180.17], [409370.43, 5655233.44], [409348.68, 5655251.79], [409326.42, 5655273.35], [409300.57, 5655302.75], [409280.43, 5655330.51], [409261.54, 5655361.51], [409240.83, 5655404.77], [409230.92, 5655434.86], [409226.12, 5655467.56], [409225.96, 5655488.68], [409227.93, 5655510.04], [409234.13, 5655537.83], [409255.64, 5655588.73], [409264.18, 5655613.23], [409270.73, 5655644.73], [409274.03, 5655679.3], [409272.38, 5655716.18], [409254.21, 5655804.44], [409251.23, 5655827.44], [409251.45, 5655863.67], [409258.14, 5655907.44], [409260.36, 5655932.85], [409258.27, 5655970.54], [409252.03, 5656000.0]]}}, {"type": "Feature", "properties": {"k": "way", "name": "L\u00f6btauer Stra\u00dfe"}, "geometry": {"type": "LineString", "coordinates": [[409327.33, 5655690.5], [409222.65, 5655559.65], [409175.01, 5655493.7], [409164.89, 5655472.01]]}}, {"type": "Feature", "properties": {"k": "way", "name": "L\u00f6btauer Stra\u00dfe"}, "geometry": {"type": "LineString", "coordinates": [[409327.33, 5655690.5], [409342.71, 5655699.12], [409432.81, 5655792.55], [409440.69, 5655801.4], [409442.88, 5655809.69]]}}, {"type": "Feature", "properties": {"k": "way", "name": "L\u00f6btauer Stra\u00dfe"}, "geometry": {"type": "LineString", "coordinates": [[409442.88, 5655809.69], [409435.09, 5655808.82], [409342.25, 5655713.58], [409334.97, 5655705.28], [409327.33, 5655690.5]]}}, {"type": "Feature", "properties": {"k": "way", "name": "L\u00f6btauer Stra\u00dfe"}, "geometry": {"type": "LineString", "coordinates": [[409442.88, 5655809.69], [409468.22, 5655836.44], [409611.63, 5656000.0]]}}, {"type": "Feature", "properties": {"k": "way", "name": "L\u00fcbecker Stra\u00dfe"}, "geometry": {"type": "LineString", "coordinates": [[409182.77, 5655504.88], [409172.03, 5655512.38], [409062.47, 5655625.73], [409028.08, 5655724.56], [408955.63, 5655908.03], [408946.43, 5655924.78], [408931.8, 5655938.75], [408827.24, 5656000.0]]}}, {"type": "Feature", "properties": {"k": "way", "name": "Malterstra\u00dfe"}, "geometry": {"type": "LineString", "coordinates": [[408173.35, 5655736.57], [408190.48, 5655662.32], [408189.63, 5655642.58], [408247.97, 5655398.71], [408267.91, 5655149.76], [408276.52, 5655065.54], [408297.27, 5654824.22]]}}, {"type": "Feature", "properties": {"k": "way", "name": "Malterweg"}, "geometry": {"type": "LineString", "coordinates": [[408305.31, 5654824.82], [408307.05, 5654792.95], [408305.21, 5654792.98], [408316.71, 5654652.3], [408329.05, 5654653.02], [408329.84, 5654646.16], [408350.39, 5654647.32], [408353.53, 5654649.49]]}}, {"type": "Feature", "properties": {"k": "way", "name": "Mittelweg"}, "geometry": {"type": "LineString", "coordinates": [[408383.95, 5654716.86], [408239.1, 5654707.19]]}}, {"type": "Feature", "properties": {"k": "way", "name": "Mohorner Stra\u00dfe"}, "geometry": {"type": "LineString", "coordinates": [[408541.9, 5654524.99], [408676.91, 5654534.54], [409000.06, 5654512.24], [409044.38, 5654504.43], [409085.44, 5654488.71], [409101.68, 5654480.57]]}}, {"type": "Feature", "properties": {"k": "way", "name": "M\u00fclheimer Stra\u00dfe"}, "geometry": {"type": "LineString", "coordinates": [[408000.0, 5654797.3], [408003.06, 5654779.76]]}}, {"type": "Feature", "properties": {"k": "way", "name": "Nelkenweg"}, "geometry": {"type": "LineString", "coordinates": [[408465.69, 5654074.17], [408397.19, 5654000.0]]}}, {"type": "Feature", "properties": {"k": "way", "name": "Nossener Br\u00fccke"}, "geometry": {"type": "LineString", "coordinates": [[409260.02, 5655357.14], [409261.33, 5655336.21], [409266.17, 5655318.76], [409270.3, 5655310.46], [409294.31, 5655278.79], [409308.55, 5655263.09], [409347.55, 5655228.55], [409391.32, 5655200.78], [409439.75, 5655175.24], [409459.72, 5655168.47], [409493.82, 5655149.58], [409607.81, 5655074.83], [409649.53, 5655045.35], [409684.42, 5655019.13], [409724.44, 5654984.13], [409776.28, 5654925.24], [409881.24, 5654783.3], [409915.14, 5654747.7], [409954.19, 5654712.58]]}}, {"type": "Feature", "properties": {"k": "way", "name": "Nossener Br\u00fccke"}, "geometry": {"type": "LineString", "coordinates": [[409425.94, 5655212.53], [409346.86, 5655269.96], [409316.2, 5655299.04], [409299.77, 5655319.3], [409288.44, 5655337.22]]}}, {"type": "Feature", "properties": {"k": "way", "name": "N\u00fcrnberger Stra\u00dfe"}, "geometry": {"type": "LineString", "coordinates": [[409954.19, 5654712.58], [410000.0, 5654676.78]]}}, {"type": "Feature", "properties": {"k": "way", "name": "N\u00fcrnberger Stra\u00dfe"}, "geometry": {"type": "LineString", "coordinates": [[410000.0, 5654691.94], [409958.14, 5654724.44]]}}, {"type": "Feature", "properties": {"k": "way", "name": "Oederaner Stra\u00dfe"}, "geometry": {"type": "LineString", "coordinates": [[409178.26, 5655075.77], [409190.99, 5655084.67], [409261.93, 5655174.05], [409270.92, 5655182.04], [409321.93, 5655218.6]]}}, {"type": "Feature", "properties": {"k": "way", "name": "Oederaner Stra\u00dfe"}, "geometry": {"type": "LineString", "coordinates": [[409321.93, 5655218.6], [409339.54, 5655228.1], [409347.55, 5655228.55]]}}, {"type": "Feature", "properties": {"k": "way", "name": "Oederaner Stra\u00dfe"}, "geometry": {"type": "LineString", "coordinates": [[409326.45, 5655246.97], [409327.95, 5655231.62], [409326.73, 5655225.87], [409321.93, 5655218.6]]}}, {"type": "Feature", "properties": {"k": "way", "name": "Oederaner Stra\u00dfe"}, "geometry": {"type": "LineString", "coordinates": [[409360.35, 5655297.63], [409353.91, 5655292.21], [409338.81, 5655288.7], [409325.16, 5655290.06]]}}, {"type": "Feature", "properties": {"k": "way", "name": "Oederaner Stra\u00dfe"}, "geometry": {"type": "LineString", "coordinates": [[409576.39, 5655618.72], [409580.76, 5655603.78], [409577.96, 5655595.54], [409370.3, 5655320.84], [409365.35, 5655313.52], [409360.35, 5655297.63]]}}, {"type": "Feature", "properties": {"k": "way", "name": "Oederaner Stra\u00dfe"}, "geometry": {"type": "LineString", "coordinates": [[409366.66, 5655254.82], [409359.47, 5655271.25], [409360.35, 5655297.63]]}}, {"type": "Feature", "properties": {"k": "way", "name": "Poststra\u00dfe"}, "geometry": {"type": "LineString", "coordinates": [[408852.61, 5655485.54], [408875.96, 5655174.19]]}}, {"type": "Feature", "properties": {"k": "way", "name": "Poststra\u00dfe"}, "geometry": {"type": "LineString", "coordinates": [[408877.05, 5655159.43], [408888.72, 5654988.39]]}}, {"type": "Feature", "properties": {"k": "way", "name": "Rabenaue"}, "geometry": {"type": "LineString", "coordinates": [[408205.83, 5654782.95], [408232.87, 5654781.44], [408244.78, 5654646.34]]}}, {"type": "Feature", "properties": {"k": "way", "name": "Rabenauer Stra\u00dfe"}, "geometry": {"type": "LineString", "coordinates": [[408204.47, 5654781.42], [408205.83, 5654782.95], [408194.24, 5654921.95], [408185.33, 5655005.82], [408171.05, 5655195.15], [408162.32, 5655289.8], [408157.53, 5655295.31]]}}, {"type": "Feature", "properties": {"k": "way", "name": "Reisewitzer Stra\u00dfe"}, "geometry": {"type": "LineString", "coordinates": [[408889.79, 5655628.78], [408895.17, 5655618.88], [408931.08, 5655496.33], [408933.87, 5655471.75], [408993.0, 5654694.88], [408997.22, 5654612.17], [409000.06, 5654512.24], [408988.87, 5654298.1], [408989.39, 5654290.82], [409000.9, 5654280.32]]}}, {"type": "Feature", "properties": {"k": "way", "name": "Rennsteig"}, "geometry": {"type": "LineString", "coordinates": [[408376.62, 5654830.14], [408379.32, 5654803.99], [408376.76, 5654803.68], [408389.62, 5654651.32]]}}, {"type": "Feature", "properties": {"k": "way", "name": "Rh\u00f6nweg"}, "geometry": {"type": "LineString", "coordinates": [[408082.48, 5654915.74], [408000.0, 5654900.15]]}}, {"type": "Feature", "properties": {"k": "way", "name": "Richtergarteng\u00e4\u00dfchen"}, "geometry": {"type": "LineString", "coordinates": [[409177.58, 5654001.5], [409164.72, 5654010.51]]}}, {"type": "Feature", "properties": {"k": "way", "name": "Roseng\u00e4\u00dfchen"}, "geometry": {"type": "LineString", "coordinates": [[408539.03, 5654087.32], [408555.82, 5654071.2], [408636.48, 5654159.0]]}}, {"type": "Feature", "properties": {"k": "way", "name": "Rosenstra\u00dfe"}, "geometry": {"type": "LineString", "coordinates": [[410000.0, 5655721.05], [409942.49, 5655698.4], [409812.07, 5655652.55], [409763.78, 5655761.87]]}}, {"type": "Feature", "properties": {"k": "way", "name": "Rosenweg"}, "geometry": {"type": "LineString", "coordinates": [[408417.87, 5654653.02], [408420.61, 5654609.26]]}}, {"type": "Feature", "properties": {"k": "way", "name": "Rudolf-Renner-Stra\u00dfe"}, "geometry": {"type": "LineString", "coordinates": [[408378.1, 5655796.36], [408331.81, 5656000.0]]}}, {"type": "Feature", "properties": {"k": "way", "name": "Rudolf-Renner-Stra\u00dfe"}, "geometry": {"type": "LineString", "coordinates": [[408462.63, 5655428.08], [408401.79, 5655695.89]]}}, {"type": "Feature", "properties": {"k": "way", "name": "R\u00fcdesheimer Stra\u00dfe"}, "geometry": {"type": "LineString", "coordinates": [[408067.83, 5654258.72], [408000.0, 5654241.26]]}}, {"type": "Feature", "properties": {"k": "way", "name": "Saalhausener Stra\u00dfe"}, "geometry": {"type": "LineString", "coordinates": [[408000.0, 5655130.84], [408235.92, 5655377.25], [408249.02, 5655387.09]]}}, {"type": "Feature", "properties": {"k": "way", "name": "Saxoniastra\u00dfe"}, "geometry": {"type": "LineString", "coordinates": [[409437.11, 5655408.29], [409423.95, 5655419.53], [409333.42, 5655510.83]]}}, {"type": "Feature", "properties": {"k": "way", "name": "Schillingplatz"}, "geometry": {"type": "LineString", "coordinates": [[408862.73, 5655347.67], [408778.69, 5655341.94]]}}, {"type": "Feature", "properties": {"k": "way", "name": "Schillingplatz"}, "geometry": {"type": "LineString", "coordinates": [[408780.09, 5655322.53], [408864.23, 5655328.07]]}}, {"type": "Feature", "properties": {"k": "way", "name": "Schillingstra\u00dfe"}, "geometry": {"type": "LineString", "coordinates": [[409111.19, 5655356.77], [408863.46, 5655338.13]]}}, {"type": "Feature", "properties": {"k": "way", "name": "Siebenlehner Stra\u00dfe"}, "geometry": {"type": "LineString", "coordinates": [[409365.35, 5655313.52], [409336.09, 5655339.13], [409299.43, 5655378.3]]}}, {"type": "Feature", "properties": {"k": "way", "name": "Sonnenweg"}, "geometry": {"type": "LineString", "coordinates": [[408339.65, 5654646.71], [408344.97, 5654585.36]]}}, {"type": "Feature", "properties": {"k": "way", "name": "Spartenweg"}, "geometry": {"type": "LineString", "coordinates": [[408092.81, 5655819.11], [408087.32, 5655819.09], [408000.0, 5655799.58]]}}, {"type": "Feature", "properties": {"k": "way", "name": "Stiller Winkel"}, "geometry": {"type": "LineString", "coordinates": [[408457.04, 5654655.09], [408459.27, 5654633.34]]}}, {"type": "Feature", "properties": {"k": "way", "name": "Stollestra\u00dfe"}, "geometry": {"type": "LineString", "coordinates": [[408733.0, 5655682.33], [408000.0, 5655510.37]]}}, {"type": "Feature", "properties": {"k": "way", "name": "Tharandter Stra\u00dfe"}, "geometry": {"type": "LineString", "coordinates": [[408946.5, 5654013.46], [408940.59, 5654000.0]]}}, {"type": "Feature", "properties": {"k": "way", "name": "Tharandter Stra\u00dfe"}, "geometry": {"type": "LineString", "coordinates": [[408946.5, 5654013.46], [408953.9, 5654023.1], [408957.89, 5654032.23]]}}, {"type": "Feature", "properties": {"k": "way", "name": "Tharandter Stra\u00dfe"}, "geometry": {"type": "LineString", "coordinates": [[408949.3, 5654035.33], [408946.94, 5654025.1], [408946.5, 5654013.46]]}}, {"type": "Feature", "properties": {"k": "way", "name": "Tharandter Stra\u00dfe"}, "geometry": {"type": "LineString", "coordinates": [[408956.24, 5654061.66], [408947.24, 5654056.78], [408944.36, 5654051.85], [408944.6, 5654041.56], [408949.3, 5654035.33]]}}, {"type": "Feature", "properties": {"k": "way", "name": "Tharandter Stra\u00dfe"}, "geometry": {"type": "LineString", "coordinates": [[408949.3, 5654035.33], [408957.89, 5654032.23]]}}, {"type": "Feature", "properties": {"k": "way", "name": "Tharandter Stra\u00dfe"}, "geometry": {"type": "LineString", "coordinates": [[408964.55, 5654060.49], [408956.24, 5654061.66]]}}, {"type": "Feature", "properties": {"k": "way", "name": "Tharandter Stra\u00dfe"}, "geometry": {"type": "LineString", "coordinates": [[408962.15, 5654082.21], [408957.29, 5654071.19], [408956.24, 5654061.66]]}}, {"type": "Feature", "properties": {"k": "way", "name": "Tharandter Stra\u00dfe"}, "geometry": {"type": "LineString", "coordinates": [[408957.89, 5654032.23], [408966.15, 5654034.58], [408969.6, 5654037.3], [408972.62, 5654042.81], [408971.9, 5654053.66], [408964.55, 5654060.49]]}}, {"type": "Feature", "properties": {"k": "way", "name": "Tharandter Stra\u00dfe"}, "geometry": {"type": "LineString", "coordinates": [[408962.15, 5654082.21], [408984.41, 5654235.36], [408989.71, 5654257.8], [409110.46, 5654498.21], [409189.25, 5654649.11], [409200.99, 5654687.81], [409208.59, 5654733.66], [409214.39, 5654798.58], [409216.93, 5654892.91], [409215.22, 5654942.98], [409211.25, 5654974.21], [409205.45, 5655003.52], [409199.34, 5655021.76], [409107.17, 5655255.4], [409102.81, 5655268.62], [409099.98, 5655288.27], [409100.63, 5655317.66], [409107.84, 5655347.94], [409121.85, 5655381.08], [409164.89, 5655472.01]]}}, {"type": "Feature", "properties": {"k": "way", "name": "Tharandter Stra\u00dfe"}, "geometry": {"type": "LineString", "coordinates": [[408964.55, 5654060.49], [408962.15, 5654082.21]]}}, {"type": "Feature", "properties": {"k": "way", "name": "Tulpenweg"}, "geometry": {"type": "LineString", "coordinates": [[408428.64, 5654092.08], [408343.01, 5654000.0]]}}, {"type": "Feature", "properties": {"k": "way", "name": "Tunnel Bramschstra\u00dfe"}, "geometry": {"type": "LineString", "coordinates": [[408386.06, 5656000.0], [408164.96, 5655941.09]]}}, {"type": "Feature", "properties": {"k": "way", "name": "Tunnel Bramschstra\u00dfe"}, "geometry": {"type": "LineString", "coordinates": [[408165.37, 5655917.55], [408245.03, 5655927.37], [408525.82, 5655991.68], [408547.46, 5656000.0]]}}, {"type": "Feature", "properties": {"k": "way", "name": "Veilchenweg"}, "geometry": {"type": "LineString", "coordinates": [[408575.01, 5654246.42], [408428.64, 5654092.08]]}}, {"type": "Feature", "properties": {"k": "way", "name": "Waldheimer Stra\u00dfe"}, "geometry": {"type": "LineString", "coordinates": [[408897.58, 5654869.04], [408925.09, 5654517.26]]}}, {"type": "Feature", "properties": {"k": "way", "name": "Weidentalstra\u00dfe"}, "geometry": {"type": "LineString", "coordinates": [[408000.0, 5655986.54], [408082.76, 5655954.57], [408112.98, 5655945.19]]}}, {"type": "Feature", "properties": {"k": "way", "name": "Wei\u00dferitz-Gr\u00fcnzug"}, "geometry": {"type": "LineString", "coordinates": [[409352.38, 5655527.31], [409339.97, 5655544.89], [409336.43, 5655552.58], [409331.05, 5655575.84], [409340.88, 5655581.01], [409343.41, 5655585.14], [409346.86, 5655600.58], [409350.34, 5655605.69], [409390.2, 5655639.66]]}}, {"type": "Feature", "properties": {"k": "way", "name": "Wei\u00dferitz-Gr\u00fcnzug"}, "geometry": {"type": "LineString", "coordinates": [[409390.2, 5655639.66], [409399.38, 5655643.55], [409409.52, 5655644.22], [409429.75, 5655639.4], [409435.89, 5655639.43], [409476.57, 5655648.51], [409464.78, 5655688.32], [409465.41, 5655699.47], [409468.72, 5655706.7]]}}, {"type": "Feature", "properties": {"k": "way", "name": "Wei\u00dferitz-Gr\u00fcnzug"}, "geometry": {"type": "LineString", "coordinates": [[409468.72, 5655706.7], [409390.2, 5655639.66]]}}, {"type": "Feature", "properties": {"k": "way", "name": "Wei\u00dferitz-Gr\u00fcnzug"}, "geometry": {"type": "LineString", "coordinates": [[409468.72, 5655706.7], [409487.58, 5655723.49], [409521.47, 5655747.91], [409562.4, 5655789.67], [409566.73, 5655797.84], [409600.38, 5655828.47], [409622.56, 5655855.74], [409633.53, 5655865.61], [409662.86, 5655884.12], [409687.51, 5655902.27], [409711.24, 5655921.81], [409751.17, 5655962.77], [409763.77, 5655972.65], [409777.38, 5655979.51], [409785.06, 5655981.34], [409793.45, 5655981.33], [409807.47, 5655977.35], [409821.01, 5655978.44], [409857.38, 5656000.0]]}}, {"type": "Feature", "properties": {"k": "way", "name": "Werdauer Stra\u00dfe"}, "geometry": {"type": "LineString", "coordinates": [[409966.05, 5655040.68], [410000.0, 5655014.73]]}}, {"type": "Feature", "properties": {"k": "way", "name": "Wernerplatz"}, "geometry": {"type": "LineString", "coordinates": [[409205.74, 5655774.76], [409261.95, 5655779.52]]}}, {"type": "Feature", "properties": {"k": "way", "name": "Wernerplatz"}, "geometry": {"type": "LineString", "coordinates": [[409208.66, 5655737.6], [409225.49, 5655738.92], [409249.47, 5655744.07]]}}, {"type": "Feature", "properties": {"k": "way", "name": "Wernerstra\u00dfe"}, "geometry": {"type": "LineString", "coordinates": [[408634.55, 5655454.2], [408814.14, 5655576.27], [409069.45, 5655753.46]]}}, {"type": "Feature", "properties": {"k": "way", "name": "Wernerstra\u00dfe"}, "geometry": {"type": "LineString", "coordinates": [[408969.45, 5655738.44], [408956.01, 5655775.72]]}}, {"type": "Feature", "properties": {"k": "way", "name": "Wernerstra\u00dfe"}, "geometry": {"type": "LineString", "coordinates": [[409069.45, 5655753.46], [409058.5, 5655752.91], [409021.5, 5655741.13]]}}, {"type": "Feature", "properties": {"k": "way", "name": "Wernerstra\u00dfe"}, "geometry": {"type": "LineString", "coordinates": [[409069.45, 5655753.46], [409081.02, 5655759.57], [409101.49, 5655764.58], [409205.74, 5655774.76]]}}, {"type": "Feature", "properties": {"k": "way", "name": "Wernerstra\u00dfe"}, "geometry": {"type": "LineString", "coordinates": [[409261.95, 5655779.52], [409387.27, 5655790.17]]}}, {"type": "Feature", "properties": {"k": "way", "name": "Wernerstra\u00dfe"}, "geometry": {"type": "LineString", "coordinates": [[409387.27, 5655790.17], [409396.51, 5655785.17], [409404.69, 5655777.6], [409417.36, 5655776.59], [409413.21, 5655786.17], [409407.88, 5655791.47], [409393.25, 5655792.21], [409387.27, 5655790.17]]}}, {"type": "Feature", "properties": {"k": "way", "name": "Wiesbadener Stra\u00dfe"}, "geometry": {"type": "LineString", "coordinates": [[408000.0, 5654457.96], [408060.04, 5654418.86], [408073.15, 5654412.32], [408089.19, 5654407.23], [408124.52, 5654402.86], [408196.33, 5654398.46], [408230.58, 5654391.89], [408273.52, 5654394.19], [408317.38, 5654392.84], [408356.06, 5654385.97], [408412.06, 5654371.59], [408444.93, 5654361.18], [408466.69, 5654352.13], [408484.22, 5654341.48], [408514.88, 5654318.55], [408538.77, 5654305.9], [408562.7, 5654299.58], [408620.16, 5654290.47], [408657.67, 5654282.17], [408672.71, 5654277.41], [408764.54, 5654238.2], [408858.71, 5654218.43], [408870.11, 5654209.41], [408873.37, 5654202.83]]}}, {"type": "Feature", "properties": {"k": "way", "name": "W\u00fcrzburger Stra\u00dfe"}, "geometry": {"type": "LineString", "coordinates": [[409101.68, 5654480.57], [409114.45, 5654474.05], [409225.57, 5654432.12], [409325.39, 5654385.61], [409494.15, 5654292.7], [409564.66, 5654256.81], [409599.39, 5654232.85], [409655.86, 5654187.89], [409909.92, 5654000.0]]}}, {"type": "Feature", "properties": {"k": "way", "name": "Zauckeroder Stra\u00dfe"}, "geometry": {"type": "LineString", "coordinates": [[408562.64, 5654844.02], [408586.53, 5654528.2]]}}, {"type": "Feature", "properties": {"k": "way", "name": "Zwickauer Platz"}, "geometry": {"type": "LineString", "coordinates": [[409429.81, 5654200.47], [409359.06, 5654250.32]]}}, {"type": "Feature", "properties": {"k": "way", "name": "Zwickauer Platz"}, "geometry": {"type": "LineString", "coordinates": [[409375.68, 5654198.86], [409411.09, 5654173.6]]}}, {"type": "Feature", "properties": {"k": "way", "name": "Zwickauer Stra\u00dfe"}, "geometry": {"type": "LineString", "coordinates": [[409260.58, 5654110.54], [409183.93, 5654000.0]]}}, {"type": "Feature", "properties": {"k": "way", "name": "Zwickauer Stra\u00dfe"}, "geometry": {"type": "LineString", "coordinates": [[409276.15, 5654131.81], [409267.19, 5654133.6], [409258.52, 5654128.72], [409256.08, 5654118.96], [409260.58, 5654110.54]]}}, {"type": "Feature", "properties": {"k": "way", "name": "Zwickauer Stra\u00dfe"}, "geometry": {"type": "LineString", "coordinates": [[409260.58, 5654110.54], [409264.5, 5654108.21], [409270.87, 5654107.44], [409276.29, 5654109.37], [409280.25, 5654113.24], [409282.19, 5654123.23], [409279.95, 5654128.3], [409276.15, 5654131.81]]}}, {"type": "Feature", "properties": {"k": "way", "name": "Zwickauer Stra\u00dfe"}, "geometry": {"type": "LineString", "coordinates": [[409276.15, 5654131.81], [409418.21, 5654333.75], [409604.88, 5654673.48], [409620.94, 5654696.97], [409851.04, 5654911.33], [409895.7, 5654951.2], [409966.05, 5655040.68], [410000.0, 5655090.66]]}}]}