{
"type": "FeatureCollection",
"name": "plat_wgs84",
"crs": { "type": "name", "properties": { "name": "urn:ogc:def:crs:EPSG::25833" } },
"xy_coordinate_resolution": 0.01,
"features": [
{"type":"Feature","properties":{},"geometry":{"type":"LineString","coordinates":[[411907.17,5655942.49],[411940.72,5656004.76],[411948.57,5656019.33],[411954.4,5656030.17]]}},
{"type":"Feature","properties":{},"geometry":{"type":"LineString","coordinates":[[411774.01,5657778.75],[411855.1,5657766.1]]}},
{"type":"Feature","properties":{},"geometry":{"type":"LineString","coordinates":[[411856.08,5657772.83],[411774.67,5657784.98]]}},
{"type":"Feature","properties":{},"geometry":{"type":"LineString","coordinates":[[411647.87,5657993.62],[411645.82,5657928.35]]}},
{"type":"Feature","properties":{},"geometry":{"type":"LineString","coordinates":[[410609.79,5656806.16],[410605.74,5656802.43],[410566.14,5656757.14],[410563.08,5656751.71]]}},
{"type":"Feature","properties":{},"geometry":{"type":"LineString","coordinates":[[411622.5,5656151.49],[411614.26,5656154.42],[411565.38,5656165.23],[411560.39,5656165.36]]}},
{"type":"Feature","properties":{},"geometry":{"type":"LineString","coordinates":[[410330.8,5655955.9],[410325.37,5655974.79],[410308.25,5656035.7]]}},
{"type":"Feature","properties":{},"geometry":{"type":"LineString","coordinates":[[410299.6,5656033.42],[410322.69,5655953.54]]}},
{"type":"Feature","properties":{},"geometry":{"type":"LineString","coordinates":[[411245.01,5656234.61],[411349.19,5656210.83],[411357.16,5656207.84]]}},
{"type":"Feature","properties":{},"geometry":{"type":"LineString","coordinates":[[411224.74,5656213.21],[411234.95,5656164.09],[411244.1,5656119.99],[411247.75,5656102.51]]}},
{"type":"Feature","properties":{},"geometry":{"type":"LineString","coordinates":[[411414.24,5657532.68],[411464.41,5657581.83],[411476.64,5657594.68]]}},
{"type":"Feature","properties":{},"geometry":{"type":"LineString","coordinates":[[411232.03,5656214.64],[411235.56,5656197.49],[411255.18,5656104.01]]}},
{"type":"Feature","properties":{},"geometry":{"type":"LineString","coordinates":[[411524.35,5657509.01],[411506.07,5657579.95]]}},
{"type":"Feature","properties":{},"geometry":{"type":"LineString","coordinates":[[410832.35,5657059.05],[410878.24,5657111.74]]}},
{"type":"Feature","properties":{},"geometry":{"type":"LineString","coordinates":[[411359.54,5656218.61],[411350.78,5656219.54],[411246.86,5656243.93]]}},
{"type":"Feature","properties":{},"geometry":{"type":"LineString","coordinates":[[411511.58,5657581.45],[411530.72,5657510.57]]}},
{"type":"Feature","properties":{},"geometry":{"type":"LineString","coordinates":[[409929.04,5657447.72],[409961.1,5657492.27]]}},
{"type":"Feature","properties":{},"geometry":{"type":"LineString","coordinates":[[410168.22,5657274.07],[410151.26,5657282.85],[410129.79,5657294.38],[410126.81,5657296.49],[410124.12,5657298.16]]}},
{"type":"Feature","properties":{},"geometry":{"type":"LineString","coordinates":[[411599.59,5657253.52],[411577.46,5657328.68]]}},
{"type":"Feature","properties":{},"geometry":{"type":"LineString","coordinates":[[410511.94,5656759.37],[410509.17,5656761.75]]}},
{"type":"Feature","properties":{},"geometry":{"type":"LineString","coordinates":[[410285.4,5656703.83],[410223.83,5656737.54]]}},
{"type":"Feature","properties":{},"geometry":{"type":"LineString","coordinates":[[410285.24,5656669.16],[410243.8,5656627.85]]}},
{"type":"Feature","properties":{},"geometry":{"type":"LineString","coordinates":[[411760.27,5657024.63],[411701.43,5657074.69]]}},
{"type":"Feature","properties":{},"geometry":{"type":"LineString","coordinates":[[411562.64,5656175.54],[411567.4,5656173.65],[411616.36,5656162.85],[411624.91,5656161.93]]}},
{"type":"Feature","properties":{},"geometry":{"type":"LineString","coordinates":[[410472.56,5656839.69],[410476.17,5656843.34],[410521.1,5656883.05],[410524.91,5656885.19]]}},
{"type":"Feature","properties":{},"geometry":{"type":"LineString","coordinates":[[410522.22,5657076.27],[410565.45,5657052.23]]}},
{"type":"Feature","properties":{},"geometry":{"type":"LineString","coordinates":[[410524.89,5657081.7],[410568.34,5657057.28]]}},
{"type":"Feature","properties":{},"geometry":{"type":"LineString","coordinates":[[410119.7,5657290.2],[410124.42,5657288.42],[410145.53,5657277.16],[410169.83,5657264.2],[410173.73,5657261.45]]}},
{"type":"Feature","properties":{},"geometry":{"type":"LineString","coordinates":[[410003.25,5657625.48],[410009.13,5657682.29]]}},
{"type":"Feature","properties":{},"geometry":{"type":"LineString","coordinates":[[410003.42,5657683.11],[410001.46,5657662.88],[409999.96,5657647.97],[409999.01,5657638.49],[409997.6,5657625.36]]}},
{"type":"Feature","properties":{},"geometry":{"type":"LineString","coordinates":[[410341.55,5656094.37],[410346.48,5656096.62],[410379.46,5656106.83],[410405.57,5656114.91],[410409.61,5656115.51]]}},
{"type":"Feature","properties":{},"geometry":{"type":"LineString","coordinates":[[410407.29,5656122.77],[410403.79,5656121.24],[410345.83,5656102.93],[410339.04,5656101.64]]}},
{"type":"Feature","properties":{},"geometry":{"type":"LineString","coordinates":[[410661.73,5656194.26],[410666.25,5656196.34],[410709.03,5656209.11],[410714.0,5656209.67]]}},
{"type":"Feature","properties":{},"geometry":{"type":"LineString","coordinates":[[410659.51,5656200.55],[410663.85,5656201.42],[410706.59,5656215.05],[410711.23,5656217.28]]}},
{"type":"Feature","properties":{},"geometry":{"type":"LineString","coordinates":[[410765.09,5656460.4],[410769.45,5656457.54],[410775.42,5656454.53],[410788.22,5656448.02],[410815.07,5656434.54],[410819.66,5656433.25]]}},
{"type":"Feature","properties":{},"geometry":{"type":"LineString","coordinates":[[410749.87,5656458.02],[410747.67,5656459.92],[410745.89,5656461.32],[410726.55,5656470.73],[410700.8,5656483.13],[410698.08,5656483.55]]}},
{"type":"Feature","properties":{},"geometry":{"type":"LineString","coordinates":[[411936.25,5656089.37],[411838.49,5656110.93]]}},
{"type":"Feature","properties":{},"geometry":{"type":"LineString","coordinates":[[411946.6,5656034.04],[411905.86,5655958.56],[411899.42,5655946.62]]}},
{"type":"Feature","properties":{},"geometry":{"type":"LineString","coordinates":[[411934.17,5656081.81],[411837.17,5656104.77]]}},
{"type":"Feature","properties":{},"geometry":{"type":"LineString","coordinates":[[410520.13,5656890.73],[410516.96,5656887.21],[410471.95,5656847.54],[410467.83,5656844.7]]}},
{"type":"Feature","properties":{},"geometry":{"type":"LineString","coordinates":[[410460.17,5656793.42],[410488.17,5656769.71],[410491.25,5656767.01],[410492.56,5656765.88]]}},
{"type":"Feature","properties":{},"geometry":{"type":"LineString","coordinates":[[410247.52,5656623.25],[410289.71,5656665.2]]}},
{"type":"Feature","properties":{},"geometry":{"type":"LineString","coordinates":[[411654.55,5657928.06],[411655.81,5657993.62]]}},
{"type":"Feature","properties":{},"geometry":{"type":"LineString","coordinates":[[412072.04,5656949.24],[412012.01,5656947.33]]}},
{"type":"Feature","properties":{},"geometry":{"type":"LineString","coordinates":[[412011.85,5656953.12],[412079.78,5656955.78]]}},
{"type":"Feature","properties":{},"geometry":{"type":"LineString","coordinates":[[411571.4,5657326.92],[411593.59,5657251.78]]}},
{"type":"Feature","properties":{},"geometry":{"type":"LineString","coordinates":[[411697.11,5657069.62],[411704.76,5657062.82],[411756.43,5657019.65]]}},
{"type":"Feature","properties":{},"geometry":{"type":"LineString","coordinates":[[410555.9,5656758.05],[410560.86,5656762.24],[410599.92,5656807.82],[410602.64,5656812.11]]}},
{"type":"Feature","properties":{},"geometry":{"type":"LineString","coordinates":[[410872.49,5657116.59],[410826.65,5657063.77]]}},
{"type":"Feature","properties":{},"geometry":{"type":"LineString","coordinates":[[410492.56,5656765.88],[410504.44,5656755.46]]}},
{"type":"Feature","properties":{},"geometry":{"type":"LineString","coordinates":[[410497.2,5656772.05],[410493.55,5656775.16],[410489.04,5656779.03],[410478.43,5656788.14],[410464.51,5656800.1]]}},
{"type":"Feature","properties":{},"geometry":{"type":"LineString","coordinates":[[410509.17,5656761.75],[410497.2,5656772.05]]}},
{"type":"Feature","properties":{},"geometry":{"type":"LineString","coordinates":[[410504.44,5656755.46],[410506.94,5656753.27]]}},
{"type":"Feature","properties":{},"geometry":{"type":"LineString","coordinates":[[409956.92,5657495.47],[409924.66,5657450.98]]}}
]
}
