{"type": "FeatureCollection", "attribution": "\u00a9 OpenStreetMap contributors (ODbL)", "crs": {"type": "name", "properties": {"name": "urn:ogc:def:crs:EPSG::25833"}}, "features": [{"type": "Feature", "properties": {}, "geometry": {"type": "LineString", "coordinates": [[409344.94, 5655713.71], [409395.7, 5655765.65]]}}, {"type": "Feature", "properties": {}, "geometry": {"type": "LineString", "coordinates": [[409349.34, 5655708.16], [409400.37, 5655761.01]]}}, {"type": "Feature", "properties": {}, "geometry": {"type": "LineString", "coordinates": [[408377.07, 5655778.42], [408378.39, 5655775.37], [408388.01, 5655734.31], [408387.94, 5655731.82]]}}, {"type": "Feature", "properties": {}, "geometry": {"type": "LineString", "coordinates": [[408387.96, 5655780.73], [408388.14, 5655776.46], [408397.68, 5655736.34], [408399.03, 5655734.07]]}}, {"type": "Feature", "properties": {}, "geometry": {"type": "Polygon", "coordinates": [[[409803.86, 5655197.85], [409804.97, 5655196.84], [409798.43, 5655188.66], [409781.73, 5655168.63], [409712.38, 5655076.95], [409689.03, 5655046.88], [409673.3, 5655025.08], [409669.19, 5655021.27], [409667.45, 5655022.81], [409669.83, 5655027.72], [409684.57, 5655049.68], [409698.74, 5655069.15], [409707.72, 5655081.06], [409774.29, 5655166.77], [409785.91, 5655180.67], [409795.57, 5655190.35], [409803.86, 5655197.85]]]}}]}