{"type": "FeatureCollection", "crs": {"type": "name", "properties": {"name": "urn:ogc:def:crs:EPSG::25833"}}, "features": [{"type": "Feature", "properties": {"tracks": 2, "electrified": 1}, "geometry": {"type": "LineString", "coordinates": [[410397.08, 5660002.62], [410406.19, 5659994.19], [410414.64, 5659986.0], [410453.76, 5659949.38], [410525.07, 5659882.97], [410561.05, 5659848.31], [410591.08, 5659819.07], [410631.96, 5659778.61], [410640.13, 5659771.06], [410745.83, 5659665.36], [410757.26, 5659653.66], [410766.79, 5659643.24], [410810.02, 5659599.2], [410844.88, 5659563.42], [410853.81, 5659555.02], [410922.62, 5659485.56], [410969.22, 5659438.53], [411028.28, 5659380.49], [411043.35, 5659366.24], [411058.47, 5659351.95], [411094.45, 5659318.74], [411117.21, 5659299.16], [411154.38, 5659267.41], [411193.27, 5659234.51], [411203.5, 5659226.4], [411217.32, 5659215.73], [411235.88, 5659200.75], [411245.01, 5659193.51], [411284.4, 5659167.35], [411364.24, 5659116.63], [411369.1, 5659113.8], [411429.73, 5659078.61], [411478.71, 5659052.09], [411540.68, 5659021.5], [411655.62, 5658967.48], [411668.2, 5658961.41], [411674.37, 5658958.53], [411680.27, 5658955.58], [411696.62, 5658948.11], [411790.05, 5658904.85], [411871.09, 5658866.63], [411886.89, 5658859.01], [411901.36, 5658852.56], [411967.48, 5658820.09], [411974.45, 5658815.91], [412007.11, 5658793.82], [412019.89, 5658784.14], [412040.53, 5658767.47], [412061.49, 5658749.14], [412075.51, 5658736.06]]}}, {"type": "Feature", "properties": {"tracks": 2, "electrified": 1}, "geometry": {"type": "LineString", "coordinates": [[410403.12, 5660008.25], [410411.77, 5660000.14], [410420.39, 5659992.05], [410427.15, 5659985.62], [410522.55, 5659899.64], [410601.14, 5659826.08], [410644.26, 5659784.81], [410701.6, 5659726.72], [410754.19, 5659675.52], [410766.86, 5659663.55], [410777.36, 5659652.26], [410781.76, 5659647.46], [410820.74, 5659606.74], [410864.86, 5659559.45], [410888.15, 5659536.01], [410930.73, 5659493.28], [410951.75, 5659472.19], [410970.08, 5659454.12], [411066.69, 5659358.84], [411096.13, 5659330.98], [411126.83, 5659303.07], [411154.74, 5659279.52], [411195.22, 5659246.19], [411206.73, 5659237.59], [411217.58, 5659229.12], [411238.82, 5659213.52], [411247.61, 5659206.63], [411310.1, 5659163.79], [411320.46, 5659156.18], [411373.19, 5659123.02], [411428.63, 5659090.03], [411488.63, 5659058.68], [411527.95, 5659038.96], [411588.06, 5659010.59], [411655.25, 5658978.87], [411668.51, 5658972.84], [411674.47, 5658970.13], [411680.31, 5658967.47], [411696.7, 5658960.02], [411770.51, 5658925.48], [411773.24, 5658924.19], [411875.81, 5658875.85], [411891.03, 5658868.95], [411905.63, 5658862.4], [411970.72, 5658827.75], [412006.88, 5658805.84], [412029.5, 5658789.25], [412052.83, 5658769.8], [412076.73, 5658748.05]]}}, {"type": "Feature", "properties": {"tracks": 2, "electrified": 1}, "geometry": {"type": "LineString", "coordinates": [[411712.24, 5657831.01], [411771.24, 5657888.42], [411829.26, 5657944.07], [411897.05, 5658011.85], [411996.23, 5658111.04], [412048.55, 5658162.64]]}}, {"type": "Feature", "properties": {"tracks": 2, "electrified": 1}, "geometry": {"type": "LineString", "coordinates": [[411685.78, 5657865.29], [411738.59, 5657917.4], [411739.29, 5657918.09], [411791.66, 5657968.29], [411792.61, 5657969.22], [411990.93, 5658164.7], [412000.49, 5658175.03], [412009.5, 5658184.54]]}}, {"type": "Feature", "properties": {"tracks": 2, "electrified": 1}, "geometry": {"type": "LineString", "coordinates": [[411700.58, 5657845.75], [411756.47, 5657901.02], [411814.73, 5657957.05], [411912.56, 5658053.78], [411964.68, 5658107.55], [412019.1, 5658164.04]]}}, {"type": "Feature", "properties": {"tracks": 1, "electrified": 1}, "geometry": {"type": "LineString", "coordinates": [[410453.76, 5659949.38], [410480.59, 5659917.53], [410506.98, 5659890.3], [410536.72, 5659854.21], [410571.79, 5659804.79], [410591.59, 5659778.22], [410699.21, 5659620.91], [410708.96, 5659605.81], [410720.38, 5659588.36], [410806.66, 5659455.65], [410900.4, 5659306.62], [410939.69, 5659246.03], [410966.55, 5659208.42], [410976.2, 5659194.91], [411026.52, 5659118.47], [411041.17, 5659095.72], [411290.53, 5658718.31], [411306.06, 5658690.99], [411308.87, 5658685.9], [411329.47, 5658648.66], [411334.9, 5658638.47], [411340.19, 5658628.68], [411355.93, 5658595.34], [411377.23, 5658547.45], [411392.31, 5658506.18], [411408.19, 5658461.73], [411432.0, 5658404.18], [411468.83, 5658314.35], [411496.9, 5658250.34], [411540.95, 5658168.32], [411545.34, 5658160.92], [411573.31, 5658114.91], [411593.92, 5658079.66], [411600.59, 5658064.88], [411613.18, 5658030.01], [411618.56, 5658003.33], [411620.98, 5657980.74], [411621.67, 5657961.11], [411620.53, 5657943.82], [411617.85, 5657925.95], [411617.19, 5657921.62], [411611.39, 5657890.51]]}}, {"type": "Feature", "properties": {"tracks": 1, "electrified": 1}, "geometry": {"type": "LineString", "coordinates": [[411674.64, 5657880.16], [411719.41, 5657926.99], [411778.15, 5657984.46], [411963.78, 5658166.13], [411973.43, 5658176.03], [411982.83, 5658185.18], [412016.86, 5658218.91]]}}]}