{
"type": "FeatureCollection",
"name": "SELECT",
"crs": { "type": "name", "properties": { "name": "urn:ogc:def:crs:EPSG::25833" } },
"xy_coordinate_resolution": 0.01,
"features": [
{"type":"Feature","properties":{},"geometry":{"type":"Polygon","coordinates":[[[410000.0,5656573.09],[410002.02,5656572.0],[410045.89,5656557.94],[410107.94,5656544.41],[410111.28,5656531.36],[410077.68,5656503.99],[410067.44,5656494.29],[410055.78,5656480.05],[410025.51,5656512.65],[410015.83,5656520.47],[410000.0,5656527.17],[410000.0,5656573.09]]]}},
{"type":"Feature","properties":{},"geometry":{"type":"Polygon","coordinates":[[[411628.85,5657991.91],[411629.25,5657986.23],[411632.23,5657958.51],[411632.44,5657947.47],[411629.49,5657917.01],[411627.42,5657904.58],[411626.82,5657894.83],[411625.29,5657883.12],[411653.14,5657891.68],[411656.97,5657899.71],[411658.22,5657905.87],[411667.3,5657905.65],[411673.31,5657906.88],[411680.34,5657909.93],[411721.58,5657950.52],[411752.91,5657979.79],[411736.59,5657995.63],[411741.19,5658000.0],[412000.0,5658000.0],[412000.0,5657974.08],[411983.15,5657957.57],[411906.8,5657886.69],[411870.33,5657924.65],[411815.53,5657868.94],[411740.34,5657796.5],[411713.51,5657807.15],[411709.54,5657813.29],[411709.43,5657813.19],[411699.87,5657804.52],[411694.23,5657799.82],[411643.97,5657757.91],[411598.05,5657717.29],[411589.84,5657710.02],[411580.65,5657701.48],[411569.31,5657691.78],[411512.38,5657643.9],[411495.25,5657629.7],[411479.84,5657617.02],[411476.39,5657621.23],[411445.27,5657596.46],[411415.9,5657572.51],[411397.98,5657556.96],[411389.84,5657549.89],[411388.69,5657548.96],[411381.69,5657543.31],[411365.8,5657530.87],[411355.88,5657523.33],[411332.46,5657507.72],[411303.25,5657489.82],[411306.44,5657484.85],[411283.23,5657473.33],[411211.14,5657437.58],[411073.43,5657367.74],[411048.72,5657356.55],[411034.94,5657348.18],[411021.03,5657337.75],[411009.13,5657329.95],[411000.37,5657322.78],[410983.2,5657305.19],[410971.14,5657292.22],[410961.37,5657280.69],[410941.02,5657252.21],[410918.5,5657217.59],[410913.9,5657221.32],[410864.72,5657146.57],[410849.51,5657126.37],[410825.49,5657096.85],[410798.5,5657065.2],[410803.63,5657059.69],[410790.66,5657043.06],[410783.47,5657049.12],[410711.51,5656963.81],[410717.82,5656958.54],[410707.84,5656948.12],[410700.59,5656937.46],[410611.13,5656834.03],[410606.19,5656827.25],[410545.07,5656758.59],[410546.02,5656757.68],[410542.93,5656754.15],[410541.86,5656755.1],[410534.25,5656746.78],[410527.52,5656739.25],[410517.21,5656726.47],[410482.38,5656681.65],[410443.76,5656635.2],[410432.88,5656619.22],[410423.72,5656605.26],[410419.51,5656607.88],[410401.65,5656578.8],[410377.4,5656535.04],[410369.06,5656518.29],[410315.34,5656403.41],[410300.8,5656371.4],[410291.05,5656347.04],[410283.43,5656321.58],[410278.76,5656308.07],[410269.86,5656269.99],[410267.13,5656249.85],[410261.55,5656204.4],[410254.84,5656113.86],[410255.05,5656087.83],[410264.4,5656090.46],[410265.17,5656062.4],[410271.55,5656058.36],[410273.14,5656036.66],[410269.33,5656029.08],[410274.57,5656000.0],[410225.91,5656000.0],[410224.52,5656014.83],[410222.98,5656025.76],[410224.11,5656050.95],[410224.61,5656064.88],[410225.13,5656079.62],[410231.68,5656081.51],[410236.17,5656158.27],[410236.24,5656161.33],[410246.11,5656254.12],[410253.05,5656291.4],[410258.77,5656312.94],[410262.68,5656327.66],[410271.7,5656355.77],[410289.37,5656396.81],[410309.88,5656440.24],[410353.52,5656526.32],[410357.17,5656533.31],[410362.17,5656542.91],[410379.43,5656575.2],[410381.52,5656579.1],[410403.99,5656615.46],[410397.12,5656619.49],[410391.03,5656622.3],[410400.96,5656634.57],[410413.16,5656651.94],[410425.88,5656671.86],[410482.82,5656756.87],[410493.31,5656768.83],[410499.65,5656776.52],[410497.87,5656778.3],[410507.64,5656790.34],[410567.61,5656860.23],[410578.77,5656870.44],[410608.76,5656904.2],[410650.23,5656947.25],[410661.5,5656958.96],[410667.67,5656966.33],[410676.09,5656975.42],[410687.55,5656986.85],[410692.27,5656983.17],[410712.37,5657003.29],[410768.73,5657065.2],[410765.04,5657068.58],[410772.85,5657076.81],[410779.63,5657083.95],[410782.95,5657080.68],[410815.72,5657117.95],[410858.47,5657168.54],[410898.7,5657229.04],[410892.72,5657232.27],[410917.02,5657269.93],[410937.92,5657299.13],[410957.8,5657321.5],[410971.14,5657333.4],[411007.27,5657362.1],[411021.1,5657371.94],[411061.33,5657399.28],[411199.18,5657465.12],[411269.13,5657500.46],[411290.15,5657511.07],[411293.96,5657506.11],[411318.34,5657519.76],[411351.98,5657541.81],[411371.56,5657557.16],[411459.39,5657639.85],[411454.92,5657645.15],[411454.96,5657645.19],[411472.88,5657660.89],[411472.91,5657660.91],[411486.36,5657673.98],[411486.53,5657674.18],[411512.46,5657706.65],[411532.47,5657727.88],[411532.51,5657727.93],[411542.4,5657740.08],[411552.88,5657754.05],[411555.16,5657750.92],[411567.73,5657770.24],[411580.3,5657794.45],[411589.29,5657817.33],[411598.21,5657840.11],[411604.38,5657864.94],[411599.88,5657860.08],[411608.77,5657899.54],[411613.54,5657928.64],[411616.45,5657959.33],[411616.97,5657971.24],[411615.28,5658000.0],[411628.3,5658000.0],[411628.85,5657991.91]],[[411296.0,5657502.3],[411298.01,5657498.59],[411293.96,5657506.11],[411296.0,5657502.3]]]}}
]
}
