{"type": "FeatureCollection", "crs": {"type": "name", "properties": {"name": "urn:ogc:def:crs:EPSG::25833"}}, "features": [{"type": "Feature", "properties": {}, "geometry": {"type": "Polygon", "coordinates": [[[410013.76, 5658729.01], [410019.9, 5658723.38], [410026.04, 5658713.66], [410026.03, 5658704.46], [410025.89, 5658702.09], [410025.53, 5658695.76], [410021.94, 5658688.09], [410015.3, 5658680.42], [410005.59, 5658674.79], [410000.0, 5658672.78], [410000.0, 5658732.12], [410013.76, 5658729.01]]]}}, {"type": "Feature", "properties": {}, "geometry": {"type": "Polygon", "coordinates": [[[410960.31, 5659204.28], [410953.86, 5659216.23], [410953.37, 5659216.92], [410927.51, 5659253.13], [410887.97, 5659317.35], [410815.84, 5659428.29], [410768.88, 5659497.07], [410717.12, 5659585.25], [410720.38, 5659588.36], [410725.6, 5659591.36], [410780.95, 5659506.29], [410861.7, 5659380.97], [410897.65, 5659324.18], [410944.85, 5659255.64], [410968.03, 5659225.93], [410996.61, 5659189.27], [411047.27, 5659130.65], [411054.29, 5659118.12], [411060.16, 5659107.87], [411077.79, 5659079.27], [411092.29, 5659059.86], [411098.68, 5659050.38], [411130.51, 5659003.19], [411145.37, 5658980.9], [411152.92, 5658975.75], [411150.97, 5658968.7], [411165.82, 5658946.59], [411169.33, 5658942.32], [411173.16, 5658942.61], [411186.58, 5658922.19], [411227.99, 5658858.56], [411226.66, 5658857.86], [411253.03, 5658818.35], [411278.1, 5658784.67], [411288.64, 5658758.09], [411321.53, 5658691.0], [411339.32, 5658654.73], [411343.5, 5658642.62], [411346.84, 5658632.66], [411406.11, 5658506.34], [411434.75, 5658434.81], [411455.37, 5658389.43], [411477.03, 5658334.6], [411521.96, 5658236.43], [411532.63, 5658217.9], [411560.08, 5658168.29], [411596.46, 5658135.55], [411616.23, 5658120.85], [411634.84, 5658112.04], [411634.8, 5658103.19], [411633.4, 5658087.1], [411626.18, 5658088.25], [411607.87, 5658069.31], [411617.92, 5658044.86], [411620.76, 5658032.55], [411625.55, 5658012.52], [411626.95, 5658000.0], [411615.28, 5658000.0], [411615.12, 5658002.73], [411614.36, 5658005.45], [411605.6, 5658036.86], [411594.59, 5658061.74], [411591.31, 5658069.14], [411589.0, 5658073.53], [411583.35, 5658083.88], [411576.44, 5658095.1], [411532.57, 5658165.36], [411521.43, 5658183.57], [411506.57, 5658210.88], [411488.36, 5658251.98], [411471.34, 5658292.36], [411454.09, 5658330.69], [411425.74, 5658315.9], [411422.11, 5658338.52], [411415.25, 5658363.82], [411395.49, 5658411.03], [411375.07, 5658470.24], [411370.78, 5658487.91], [411346.26, 5658545.3], [411310.26, 5658612.82], [411304.57, 5658620.95], [411295.94, 5658617.35], [411207.8, 5658564.46], [411201.73, 5658577.38], [411289.05, 5658636.91], [411274.06, 5658661.61], [411284.86, 5658668.44], [411239.22, 5658735.47], [411175.49, 5658832.93], [411132.5, 5658897.98], [411103.83, 5658939.87], [411052.96, 5659017.63], [411045.84, 5659028.52], [411041.21, 5659026.09], [411024.67, 5659069.75], [411009.17, 5659064.66], [411007.39, 5659073.83], [411005.64, 5659086.64], [411001.58, 5659102.56], [411000.19, 5659118.21], [410994.92, 5659136.54], [410984.62, 5659160.62], [410960.31, 5659204.28]]]}}, {"type": "Feature", "properties": {}, "geometry": {"type": "Polygon", "coordinates": [[[411110.12, 5659284.89], [411084.72, 5659308.61], [411047.94, 5659342.76], [411027.93, 5659362.66], [411012.97, 5659377.88], [410968.14, 5659421.47], [410895.9, 5659494.08], [410839.7, 5659550.63], [410797.41, 5659592.8], [410769.85, 5659619.76], [410760.03, 5659631.62], [410761.11, 5659637.01], [410762.56, 5659639.43], [410752.72, 5659649.17], [410740.97, 5659660.8], [410737.96, 5659657.61], [410727.91, 5659664.77], [410720.73, 5659664.63], [410712.82, 5659667.36], [410687.23, 5659695.11], [410654.45, 5659732.06], [410612.81, 5659778.78], [410604.12, 5659769.15], [410668.52, 5659675.97], [410686.96, 5659652.37], [410703.73, 5659627.57], [410702.89, 5659624.26], [410699.21, 5659620.91], [410693.71, 5659616.9], [410688.75, 5659614.75], [410683.0, 5659614.87], [410673.3, 5659630.68], [410653.86, 5659657.98], [410639.54, 5659681.93], [410617.68, 5659711.16], [410599.78, 5659735.0], [410597.74, 5659737.71], [410572.25, 5659773.37], [410560.27, 5659790.67], [410544.69, 5659811.4], [410532.11, 5659822.66], [410483.26, 5659884.68], [410458.0, 5659914.04], [410409.3, 5659964.69], [410409.89, 5659976.62], [410410.48, 5659980.62], [410401.86, 5659988.94], [410392.36, 5659997.78], [410393.78, 5659999.35], [410393.06, 5660000.0], [410421.54, 5660000.0], [410425.0, 5659996.82], [410430.16, 5659996.89], [410436.63, 5659992.58], [410455.05, 5659974.09], [410523.74, 5659917.09], [410571.63, 5659873.66], [410591.77, 5659854.24], [410649.72, 5659796.23], [410670.3, 5659775.63], [410735.97, 5659716.02], [410766.08, 5659686.42], [410759.91, 5659680.38], [410782.88, 5659657.1], [410788.96, 5659662.56], [410811.66, 5659637.44], [410849.65, 5659597.37], [410849.87, 5659597.15], [410891.45, 5659554.05], [410957.29, 5659483.48], [410976.28, 5659461.36], [410986.52, 5659449.45], [411024.5, 5659411.59], [411065.59, 5659370.37], [411092.91, 5659344.25], [411151.86, 5659291.42], [411197.06, 5659254.44], [411207.81, 5659246.21], [411221.49, 5659235.73], [411238.66, 5659222.58], [411248.7, 5659214.5], [411314.19, 5659169.58], [411339.06, 5659152.52], [411381.9, 5659126.05], [411449.42, 5659086.76], [411505.49, 5659057.44], [411599.83, 5659012.34], [411604.46, 5659010.14], [411649.13, 5658987.86], [411655.12, 5658985.34], [411668.79, 5658979.15], [411674.94, 5658976.37], [411682.47, 5658972.96], [411696.06, 5658966.81], [411758.35, 5658937.35], [411776.54, 5658929.29], [411833.18, 5658902.84], [411877.94, 5658881.19], [411907.98, 5658867.46], [411920.09, 5658862.73], [411936.62, 5658855.18], [411959.27, 5658844.28], [411976.16, 5658834.81], [411976.25, 5658834.76], [411986.23, 5658828.35], [412000.0, 5658819.86], [412000.0, 5658792.32], [411985.15, 5658802.35], [411967.18, 5658812.41], [411949.09, 5658821.76], [411931.47, 5658830.5], [411910.74, 5658840.93], [411899.31, 5658847.06], [411868.3, 5658861.09], [411862.31, 5658858.24], [411826.13, 5658874.41], [411732.44, 5658915.63], [411700.11, 5658930.09], [411697.36, 5658931.99], [411695.99, 5658940.68], [411681.43, 5658947.8], [411674.42, 5658951.24], [411667.94, 5658954.43], [411655.78, 5658960.42], [411642.94, 5658961.52], [411635.87, 5658962.72], [411625.09, 5658967.63], [411612.03, 5658975.53], [411571.17, 5658995.06], [411536.66, 5659010.98], [411523.19, 5659017.66], [411499.64, 5659029.33], [411439.74, 5659060.36], [411405.11, 5659078.45], [411364.6, 5659100.82], [411360.09, 5659103.52], [411354.91, 5659106.61], [411352.04, 5659112.96], [411351.87, 5659117.72], [411305.46, 5659146.64], [411243.96, 5659187.24], [411234.84, 5659194.23], [411220.72, 5659205.07], [411214.59, 5659209.77], [411202.61, 5659218.96], [411192.1, 5659227.03], [411187.28, 5659228.58], [411182.24, 5659227.26], [411172.18, 5659233.85], [411137.67, 5659261.53], [411110.12, 5659284.89]]]}}, {"type": "Feature", "properties": {}, "geometry": {"type": "Polygon", "coordinates": [[[411749.61, 5658008.01], [411753.45, 5658011.43], [411747.12, 5658019.36], [411742.31, 5658041.35], [411741.82, 5658043.85], [411741.27, 5658046.64], [411746.42, 5658049.76], [411746.66, 5658054.19], [411788.12, 5658059.82], [411797.58, 5658061.5], [411800.7, 5658050.83], [411810.76, 5658038.25], [411894.36, 5658125.66], [411921.4, 5658143.15], [411927.31, 5658147.46], [411953.14, 5658166.29], [411963.78, 5658166.13], [411990.93, 5658164.7], [412000.0, 5658164.49], [412000.0, 5658082.39], [411989.03, 5658071.78], [411929.92, 5658015.45], [411916.62, 5658001.8], [411918.52, 5658000.0], [411741.19, 5658000.0], [411749.61, 5658008.01]]]}}, {"type": "Feature", "properties": {}, "geometry": {"type": "Polygon", "coordinates": [[[411982.83, 5658185.18], [411971.24, 5658185.97], [412000.0, 5658225.74], [412000.0, 5658184.77], [411982.83, 5658185.18]]]}}]}