{"type": "FeatureCollection", "attribution": "\u00a9 OpenStreetMap contributors (ODbL)", "crs": {"type": "name", "properties": {"name": "urn:ogc:def:crs:EPSG::25833"}}, "features": [{"type": "Feature", "properties": {"k": "ferry", "name": "S\u00e4chsische Dampfschifffahrt"}, "geometry": {"type": "LineString", "coordinates": [[414000.0, 5657581.73], [414079.23, 5657602.88], [414259.96, 5657624.41], [414523.27, 5657643.63], [414727.28, 5657643.9], [414954.09, 5657605.68], [415249.04, 5657540.7], [415633.09, 5657444.05], [415900.23, 5657336.41], [415998.31, 5657274.48]]}}]}