{"type": "FeatureCollection", "attribution": "Quelle: GeoSN, dl-de/by-2-0 (laser scan, LoD2)", "crs": {"type": "name", "properties": {"name": "urn:ogc:def:crs:EPSG::25833"}}, "features": [{"type": "Feature", "properties": {"z": 117.02, "h": 6.3}, "geometry": {"type": "Polygon", "coordinates": [[[412005.72, 5654224.81], [411999.78, 5654227.19], [412001.57, 5654231.67], [412007.52, 5654229.29], [412005.72, 5654224.81]]]}}, {"type": "Feature", "properties": {"z": 115.45, "h": 2.29}, "geometry": {"type": "Polygon", "coordinates": [[[412006.05, 5654321.65], [412007.85, 5654327.05], [412010.55, 5654326.15], [412008.75, 5654320.75], [412006.05, 5654321.65]]]}}, {"type": "Feature", "properties": {"z": 115.47, "h": 2.31}, "geometry": {"type": "Polygon", "coordinates": [[[412011.93, 5654302.67], [412014.83, 5654309.43], [412017.97, 5654308.09], [412015.07, 5654301.33], [412011.93, 5654302.67]]]}}, {"type": "Feature", "properties": {"z": 115.41, "h": 2.36}, "geometry": {"type": "Polygon", "coordinates": [[[412014.9, 5654324.3], [412017.9, 5654322.8], [412015.4, 5654317.8], [412012.4, 5654319.3], [412014.9, 5654324.3]]]}}, {"type": "Feature", "properties": {"z": 114.22, "h": 2.51, "hc": [2.6, 2.99, 2.51, 2.12]}, "geometry": {"type": "Polygon", "coordinates": [[[412066.5, 5654730.5], [412066.5, 5654734.0], [412070.0, 5654734.0], [412070.0, 5654730.5], [412066.5, 5654730.5]]]}}, {"type": "Feature", "properties": {"z": 115.73, "h": 3.57}, "geometry": {"type": "Polygon", "coordinates": [[[412079.2, 5654404.9], [412082.3, 5654411.1], [412084.9, 5654409.8], [412081.8, 5654403.6], [412079.2, 5654404.9]]]}}, {"type": "Feature", "properties": {"z": 115.23, "h": 2.28}, "geometry": {"type": "Polygon", "coordinates": [[[412098.04, 5654509.31], [412091.46, 5654513.69], [412094.54, 5654518.31], [412101.11, 5654513.92], [412098.04, 5654509.31]]]}}, {"type": "Feature", "properties": {"z": 116.27, "h": 2.54}, "geometry": {"type": "Polygon", "coordinates": [[[412099.0, 5655167.5], [412103.6, 5655165.2], [412102.3, 5655162.6], [412097.7, 5655164.9], [412099.0, 5655167.5]]]}}, {"type": "Feature", "properties": {"z": 116.09, "h": 2.33}, "geometry": {"type": "Polygon", "coordinates": [[[412104.0, 5654281.5], [412106.6, 5654286.7], [412109.0, 5654285.5], [412106.4, 5654280.3], [412104.0, 5654281.5]]]}}, {"type": "Feature", "properties": {"z": 116.07, "h": 2.33}, "geometry": {"type": "Polygon", "coordinates": [[[412106.0, 5654278.0], [412103.6, 5654273.2], [412101.0, 5654274.5], [412103.4, 5654279.3], [412106.0, 5654278.0]]]}}, {"type": "Feature", "properties": {"z": 116.1, "h": 2.86}, "geometry": {"type": "Polygon", "coordinates": [[[412106.6, 5655129.71], [412091.3, 5655146.4], [412096.42, 5655151.09], [412111.71, 5655134.4], [412106.6, 5655129.71]]]}}, {"type": "Feature", "properties": {"z": 116.1, "h": 2.31}, "geometry": {"type": "Polygon", "coordinates": [[[412111.9, 5654294.2], [412110.05, 5654288.65], [412107.35, 5654289.55], [412109.2, 5654295.1], [412111.9, 5654294.2]]]}}, {"type": "Feature", "properties": {"z": 115.96, "h": 2.32}, "geometry": {"type": "Polygon", "coordinates": [[[412113.5, 5654305.5], [412115.3, 5654310.9], [412118.0, 5654310.0], [412116.2, 5654304.6], [412113.5, 5654305.5]]]}}, {"type": "Feature", "properties": {"z": 115.99, "h": 2.29}, "geometry": {"type": "Polygon", "coordinates": [[[412115.5, 5654312.5], [412118.1, 5654317.7], [412120.7, 5654316.4], [412118.1, 5654311.2], [412115.5, 5654312.5]]]}}, {"type": "Feature", "properties": {"z": 116.0, "h": 2.27}, "geometry": {"type": "Polygon", "coordinates": [[[412123.73, 5654325.29], [412122.29, 5654320.27], [412119.25, 5654321.14], [412120.69, 5654326.16], [412123.73, 5654325.29]]]}}, {"type": "Feature", "properties": {"z": 116.44, "h": 2.87}, "geometry": {"type": "Polygon", "coordinates": [[[412123.75, 5655114.25], [412119.25, 5655118.75], [412123.25, 5655122.75], [412127.75, 5655118.25], [412123.75, 5655114.25]]]}}, {"type": "Feature", "properties": {"z": 115.99, "h": 2.28}, "geometry": {"type": "Polygon", "coordinates": [[[412126.7, 5654331.9], [412124.3, 5654327.1], [412121.7, 5654328.4], [412124.1, 5654333.2], [412126.7, 5654331.9]]]}}, {"type": "Feature", "properties": {"z": 116.23, "h": 2.56}, "geometry": {"type": "Polygon", "coordinates": [[[412129.75, 5655144.75], [412132.0, 5655147.0], [412135.25, 5655143.75], [412133.0, 5655141.5], [412129.75, 5655144.75]]]}}, {"type": "Feature", "properties": {"z": 116.15, "h": 3.01}, "geometry": {"type": "Polygon", "coordinates": [[[412130.82, 5655135.65], [412141.56, 5655129.04], [412137.68, 5655122.73], [412126.94, 5655129.34], [412130.82, 5655135.65]]]}}, {"type": "Feature", "properties": {"z": 115.08, "h": 2.69}, "geometry": {"type": "Polygon", "coordinates": [[[412169.0, 5654537.5], [412163.0, 5654540.5], [412165.0, 5654544.5], [412171.0, 5654541.5], [412169.0, 5654537.5]]]}}, {"type": "Feature", "properties": {"z": 114.74, "h": 2.38}, "geometry": {"type": "Polygon", "coordinates": [[[412178.7, 5655734.9], [412180.4, 5655738.3], [412184.0, 5655736.5], [412182.3, 5655733.1], [412178.7, 5655734.9]]]}}, {"type": "Feature", "properties": {"z": 115.03, "h": 3.46, "hc": [3.05, 2.98, 3.88, 3.96]}, "geometry": {"type": "Polygon", "coordinates": [[[412181.5, 5654533.0], [412177.5, 5654535.0], [412179.4, 5654538.8], [412183.4, 5654536.8], [412181.5, 5654533.0]]]}}, {"type": "Feature", "properties": {"z": 117.17, "h": 2.73}, "geometry": {"type": "Polygon", "coordinates": [[[412189.8, 5655017.4], [412195.05, 5655015.65], [412194.15, 5655012.95], [412188.9, 5655014.7], [412189.8, 5655017.4]]]}}, {"type": "Feature", "properties": {"z": 113.45, "h": 3.31}, "geometry": {"type": "Polygon", "coordinates": [[[412238.04, 5655402.31], [412234.81, 5655397.46], [412231.69, 5655399.54], [412234.92, 5655404.38], [412238.04, 5655402.31]]]}}, {"type": "Feature", "properties": {"z": 113.38, "h": 3.42}, "geometry": {"type": "Polygon", "coordinates": [[[412245.72, 5655400.46], [412241.56, 5655403.58], [412243.72, 5655406.46], [412247.88, 5655403.34], [412245.72, 5655400.46]]]}}, {"type": "Feature", "properties": {"z": 116.32, "h": 6.51}, "geometry": {"type": "Polygon", "coordinates": [[[412254.0, 5654320.0], [412254.0, 5654324.5], [412256.5, 5654324.5], [412256.5, 5654320.0], [412254.0, 5654320.0]]]}}, {"type": "Feature", "properties": {"z": 113.4, "h": 3.41}, "geometry": {"type": "Polygon", "coordinates": [[[412259.83, 5655391.16], [412250.57, 5655397.04], [412252.55, 5655400.15], [412261.8, 5655394.26], [412259.83, 5655391.16]]]}}, {"type": "Feature", "properties": {"z": 113.43, "h": 3.35}, "geometry": {"type": "Polygon", "coordinates": [[[412261.5, 5655389.5], [412261.5, 5655392.5], [412266.0, 5655392.5], [412266.0, 5655389.5], [412261.5, 5655389.5]]]}}, {"type": "Feature", "properties": {"z": 114.93, "h": 4.51}, "geometry": {"type": "Polygon", "coordinates": [[[412274.6, 5654589.7], [412270.8, 5654591.6], [412273.4, 5654596.8], [412277.2, 5654594.9], [412274.6, 5654589.7]]]}}, {"type": "Feature", "properties": {"z": 113.31, "h": 3.45}, "geometry": {"type": "Polygon", "coordinates": [[[412281.0, 5655376.5], [412277.0, 5655380.5], [412279.5, 5655383.0], [412283.5, 5655379.0], [412281.0, 5655376.5]]]}}, {"type": "Feature", "properties": {"z": 113.29, "h": 3.53}, "geometry": {"type": "Polygon", "coordinates": [[[412282.61, 5655376.42], [412284.54, 5655379.31], [412287.88, 5655377.08], [412285.96, 5655374.19], [412282.61, 5655376.42]]]}}, {"type": "Feature", "properties": {"z": 113.17, "h": 2.29}, "geometry": {"type": "Polygon", "coordinates": [[[412324.08, 5655208.62], [412345.85, 5655241.27], [412348.27, 5655239.65], [412326.5, 5655207.0], [412324.08, 5655208.62]]]}}, {"type": "Feature", "properties": {"z": 114.93, "h": 6.09}, "geometry": {"type": "Polygon", "coordinates": [[[412352.13, 5654697.81], [412358.62, 5654696.73], [412357.65, 5654690.89], [412351.16, 5654691.97], [412352.13, 5654697.81]]]}}, {"type": "Feature", "properties": {"z": 114.2, "h": 6.26}, "geometry": {"type": "Polygon", "coordinates": [[[412371.32, 5655854.68], [412377.35, 5655851.23], [412372.64, 5655842.99], [412366.61, 5655846.44], [412371.32, 5655854.68]]]}}, {"type": "Feature", "properties": {"z": 116.27, "h": 4.67, "hc": [3.74, 3.68, 5.73, 5.79]}, "geometry": {"type": "Polygon", "coordinates": [[[412379.75, 5654285.75], [412377.25, 5654288.25], [412381.75, 5654292.75], [412384.25, 5654290.25], [412379.75, 5654285.75]]]}}, {"type": "Feature", "properties": {"z": 115.05, "h": 5.27, "hc": [4.9, 4.87, 5.62, 5.65]}, "geometry": {"type": "Polygon", "coordinates": [[[412432.0, 5654310.5], [412435.75, 5654314.25], [412437.25, 5654312.75], [412433.5, 5654309.0], [412432.0, 5654310.5]]]}}, {"type": "Feature", "properties": {"z": 115.83, "h": 2.47}, "geometry": {"type": "Polygon", "coordinates": [[[412434.75, 5654549.75], [412431.0, 5654553.5], [412433.5, 5654556.0], [412437.25, 5654552.25], [412434.75, 5654549.75]]]}}, {"type": "Feature", "properties": {"z": 115.05, "h": 2.44}, "geometry": {"type": "Polygon", "coordinates": [[[412438.32, 5654312.76], [412434.8, 5654315.4], [412436.54, 5654317.72], [412440.06, 5654315.08], [412438.32, 5654312.76]]]}}, {"type": "Feature", "properties": {"z": 119.75, "h": 5.02}, "geometry": {"type": "Polygon", "coordinates": [[[412439.25, 5654158.75], [412442.0, 5654161.5], [412444.75, 5654158.75], [412442.0, 5654156.0], [412439.25, 5654158.75]]]}}, {"type": "Feature", "properties": {"z": 118.31, "h": 2.83}, "geometry": {"type": "Polygon", "coordinates": [[[412461.25, 5654246.25], [412454.25, 5654253.25], [412456.75, 5654255.75], [412463.75, 5654248.75], [412461.25, 5654246.25]]]}}, {"type": "Feature", "properties": {"z": 113.53, "h": 3.13}, "geometry": {"type": "Polygon", "coordinates": [[[412466.5, 5655213.5], [412469.25, 5655216.25], [412471.5, 5655214.0], [412468.75, 5655211.25], [412466.5, 5655213.5]]]}}, {"type": "Feature", "properties": {"z": 114.24, "h": 2.87, "hc": [3.18, 3.38, 2.47, 2.27]}, "geometry": {"type": "Polygon", "coordinates": [[[412468.0, 5654819.5], [412468.0, 5654823.0], [412473.0, 5654823.0], [412473.0, 5654819.5], [412468.0, 5654819.5]]]}}, {"type": "Feature", "properties": {"z": 113.56, "h": 3.07}, "geometry": {"type": "Polygon", "coordinates": [[[412474.5, 5655212.5], [412477.7, 5655210.9], [412475.9, 5655207.3], [412472.7, 5655208.9], [412474.5, 5655212.5]]]}}, {"type": "Feature", "properties": {"z": 113.5, "h": 3.15}, "geometry": {"type": "Polygon", "coordinates": [[[412475.0, 5655381.5], [412475.0, 5655387.5], [412479.5, 5655387.5], [412479.5, 5655381.5], [412475.0, 5655381.5]]]}}, {"type": "Feature", "properties": {"z": 114.06, "h": 4.6}, "geometry": {"type": "Polygon", "coordinates": [[[412546.0, 5654932.0], [412546.0, 5654935.0], [412553.0, 5654935.0], [412553.0, 5654932.0], [412546.0, 5654932.0]]]}}, {"type": "Feature", "properties": {"z": 113.14, "h": 2.34}, "geometry": {"type": "Polygon", "coordinates": [[[412547.5, 5655291.0], [412547.5, 5655295.0], [412551.5, 5655295.0], [412551.5, 5655291.0], [412547.5, 5655291.0]]]}}, {"type": "Feature", "properties": {"z": 123.41, "h": 4.22}, "geometry": {"type": "Polygon", "coordinates": [[[412570.62, 5654016.34], [412566.54, 5654021.78], [412568.62, 5654023.34], [412572.7, 5654017.9], [412570.62, 5654016.34]]]}}, {"type": "Feature", "properties": {"z": 113.72, "h": 3.71}, "geometry": {"type": "Polygon", "coordinates": [[[412599.78, 5654334.26], [412610.04, 5654329.71], [412607.25, 5654323.44], [412597.0, 5654328.0], [412599.78, 5654334.26]]]}}, {"type": "Feature", "properties": {"z": 114.27, "h": 5.36}, "geometry": {"type": "Polygon", "coordinates": [[[412601.95, 5654566.35], [412612.17, 5654559.84], [412607.09, 5654551.85], [412596.86, 5654558.36], [412601.95, 5654566.35]]]}}, {"type": "Feature", "properties": {"z": 114.5, "h": 2.24}, "geometry": {"type": "Polygon", "coordinates": [[[412603.8, 5655803.1], [412605.5, 5655806.5], [412608.7, 5655804.9], [412607.0, 5655801.5], [412603.8, 5655803.1]]]}}, {"type": "Feature", "properties": {"z": 116.48, "h": 2.49}, "geometry": {"type": "Polygon", "coordinates": [[[412604.29, 5654304.94], [412605.08, 5654308.88], [412608.83, 5654308.13], [412608.04, 5654304.19], [412604.29, 5654304.94]]]}}, {"type": "Feature", "properties": {"z": 116.6, "h": 2.99}, "geometry": {"type": "Polygon", "coordinates": [[[412613.0, 5654299.5], [412617.0, 5654303.5], [412621.5, 5654299.0], [412617.5, 5654295.0], [412613.0, 5654299.5]]]}}, {"type": "Feature", "properties": {"z": 116.71, "h": 2.84}, "geometry": {"type": "Polygon", "coordinates": [[[412627.25, 5654292.75], [412630.75, 5654296.25], [412633.75, 5654293.25], [412630.25, 5654289.75], [412627.25, 5654292.75]]]}}, {"type": "Feature", "properties": {"z": 114.02, "h": 2.46}, "geometry": {"type": "Polygon", "coordinates": [[[412653.0, 5654724.0], [412653.0, 5654728.0], [412656.5, 5654728.0], [412656.5, 5654724.0], [412653.0, 5654724.0]]]}}, {"type": "Feature", "properties": {"z": 114.28, "h": 2.56, "hc": [2.12, 2.29, 2.99, 2.83]}, "geometry": {"type": "Polygon", "coordinates": [[[412702.0, 5654798.5], [412697.25, 5654803.25], [412699.25, 5654805.25], [412704.0, 5654800.5], [412702.0, 5654798.5]]]}}, {"type": "Feature", "properties": {"z": 116.96, "h": 2.4}, "geometry": {"type": "Polygon", "coordinates": [[[412705.5, 5654373.0], [412709.5, 5654377.0], [412714.0, 5654372.5], [412710.0, 5654368.5], [412705.5, 5654373.0]]]}}, {"type": "Feature", "properties": {"z": 114.69, "h": 2.52}, "geometry": {"type": "Polygon", "coordinates": [[[412724.0, 5654805.0], [412720.75, 5654808.25], [412723.25, 5654810.75], [412726.5, 5654807.5], [412724.0, 5654805.0]]]}}, {"type": "Feature", "properties": {"z": 114.64, "h": 4.67, "hc": [4.89, 4.83, 4.45, 4.51]}, "geometry": {"type": "Polygon", "coordinates": [[[412764.22, 5655955.01], [412757.88, 5655956.82], [412758.58, 5655959.26], [412764.91, 5655957.45], [412764.22, 5655955.01]]]}}, {"type": "Feature", "properties": {"z": 117.39, "h": 2.4}, "geometry": {"type": "Polygon", "coordinates": [[[412765.56, 5654235.79], [412771.45, 5654243.37], [412776.44, 5654239.49], [412770.54, 5654231.91], [412765.56, 5654235.79]]]}}, {"type": "Feature", "properties": {"z": 118.06, "h": 2.83}, "geometry": {"type": "Polygon", "coordinates": [[[412799.3, 5654226.6], [412795.3, 5654228.6], [412796.7, 5654231.4], [412800.7, 5654229.4], [412799.3, 5654226.6]]]}}, {"type": "Feature", "properties": {"z": 111.72, "h": 6.31}, "geometry": {"type": "Polygon", "coordinates": [[[412800.23, 5655395.07], [412777.58, 5655409.57], [412781.06, 5655415.0], [412803.71, 5655400.51], [412800.23, 5655395.07]]]}}, {"type": "Feature", "properties": {"z": 114.41, "h": 3.39, "hc": [3.13, 3.05, 3.59, 3.67]}, "geometry": {"type": "Polygon", "coordinates": [[[412802.75, 5654773.25], [412800.25, 5654775.75], [412802.75, 5654778.25], [412805.25, 5654775.75], [412802.75, 5654773.25]]]}}, {"type": "Feature", "properties": {"z": 114.48, "h": 4.55}, "geometry": {"type": "Polygon", "coordinates": [[[412804.95, 5655994.62], [412802.88, 5655989.45], [412800.29, 5655990.48], [412802.36, 5655995.66], [412804.95, 5655994.62]]]}}, {"type": "Feature", "properties": {"z": 111.43, "h": 6.38}, "geometry": {"type": "Polygon", "coordinates": [[[412806.35, 5655400.27], [412791.46, 5655410.19], [412795.08, 5655415.62], [412809.96, 5655405.69], [412806.35, 5655400.27]]]}}, {"type": "Feature", "properties": {"z": 111.69, "h": 6.41}, "geometry": {"type": "Polygon", "coordinates": [[[412808.43, 5655409.04], [412796.53, 5655416.62], [412799.88, 5655421.89], [412811.79, 5655414.31], [412808.43, 5655409.04]]]}}, {"type": "Feature", "properties": {"z": 112.44, "h": 5.6}, "geometry": {"type": "Polygon", "coordinates": [[[412811.53, 5655433.38], [412808.4, 5655428.16], [412805.31, 5655430.01], [412808.44, 5655435.24], [412811.53, 5655433.38]]]}}, {"type": "Feature", "properties": {"z": 111.41, "h": 6.38}, "geometry": {"type": "Polygon", "coordinates": [[[412814.36, 5655414.47], [412800.85, 5655423.22], [412804.17, 5655428.36], [412817.69, 5655419.61], [412814.36, 5655414.47]]]}}, {"type": "Feature", "properties": {"z": 111.7, "h": 6.44}, "geometry": {"type": "Polygon", "coordinates": [[[412816.35, 5655422.77], [412808.38, 5655428.08], [412811.77, 5655433.15], [412819.73, 5655427.85], [412816.35, 5655422.77]]]}}, {"type": "Feature", "properties": {"z": 111.42, "h": 6.43}, "geometry": {"type": "Polygon", "coordinates": [[[412816.83, 5655440.04], [412825.85, 5655432.82], [412821.76, 5655427.7], [412812.73, 5655434.92], [412816.83, 5655440.04]]]}}, {"type": "Feature", "properties": {"z": 111.29, "h": 6.47}, "geometry": {"type": "Polygon", "coordinates": [[[412821.46, 5655448.19], [412824.77, 5655453.15], [412831.58, 5655448.62], [412828.27, 5655443.65], [412821.46, 5655448.19]]]}}, {"type": "Feature", "properties": {"z": 111.57, "h": 6.16}, "geometry": {"type": "Polygon", "coordinates": [[[412824.42, 5655453.06], [412820.76, 5655448.18], [412818.12, 5655450.16], [412821.78, 5655455.04], [412824.42, 5655453.06]]]}}, {"type": "Feature", "properties": {"z": 111.51, "h": 6.25}, "geometry": {"type": "Polygon", "coordinates": [[[412826.31, 5655462.46], [412830.54, 5655468.81], [412833.19, 5655467.04], [412828.96, 5655460.69], [412826.31, 5655462.46]]]}}, {"type": "Feature", "properties": {"z": 111.3, "h": 6.5}, "geometry": {"type": "Polygon", "coordinates": [[[412829.75, 5655462.75], [412833.75, 5655466.75], [412837.0, 5655463.5], [412833.0, 5655459.5], [412829.75, 5655462.75]]]}}, {"type": "Feature", "properties": {"z": 111.56, "h": 6.49}, "geometry": {"type": "Polygon", "coordinates": [[[412831.59, 5655470.15], [412834.77, 5655475.44], [412837.19, 5655473.99], [412834.02, 5655468.69], [412831.59, 5655470.15]]]}}, {"type": "Feature", "properties": {"z": 111.63, "h": 6.08}, "geometry": {"type": "Polygon", "coordinates": [[[412835.88, 5655477.08], [412839.11, 5655481.92], [412841.54, 5655480.31], [412838.31, 5655475.46], [412835.88, 5655477.08]]]}}, {"type": "Feature", "properties": {"z": 111.69, "h": 6.36}, "geometry": {"type": "Polygon", "coordinates": [[[412840.23, 5655483.85], [412843.46, 5655488.69], [412845.77, 5655487.15], [412842.54, 5655482.31], [412840.23, 5655483.85]]]}}, {"type": "Feature", "properties": {"z": 111.74, "h": 5.98}, "geometry": {"type": "Polygon", "coordinates": [[[412844.61, 5655490.42], [412847.92, 5655495.38], [412850.11, 5655493.92], [412846.81, 5655488.96], [412844.61, 5655490.42]]]}}, {"type": "Feature", "properties": {"z": 111.27, "h": 6.49}, "geometry": {"type": "Polygon", "coordinates": [[[412847.42, 5655476.38], [412844.04, 5655471.31], [412838.38, 5655475.08], [412841.77, 5655480.15], [412847.42, 5655476.38]]]}}, {"type": "Feature", "properties": {"z": 111.32, "h": 6.47}, "geometry": {"type": "Polygon", "coordinates": [[[412850.37, 5655493.89], [412856.93, 5655489.79], [412853.7, 5655484.62], [412847.14, 5655488.72], [412850.37, 5655493.89]]]}}, {"type": "Feature", "properties": {"z": 111.89, "h": 5.81}, "geometry": {"type": "Polygon", "coordinates": [[[412853.0, 5655503.5], [412856.54, 5655508.81], [412858.85, 5655507.27], [412855.31, 5655501.96], [412853.0, 5655503.5]]]}}, {"type": "Feature", "properties": {"z": 111.78, "h": 6.27}, "geometry": {"type": "Polygon", "coordinates": [[[412854.11, 5655500.42], [412850.88, 5655495.58], [412848.81, 5655496.96], [412852.04, 5655501.81], [412854.11, 5655500.42]]]}}, {"type": "Feature", "properties": {"z": 110.57, "h": 4.75}, "geometry": {"type": "Polygon", "coordinates": [[[412854.15, 5655373.23], [412845.15, 5655359.73], [412841.58, 5655362.12], [412850.58, 5655375.62], [412854.15, 5655373.23]]]}}, {"type": "Feature", "properties": {"z": 111.83, "h": 6.21}, "geometry": {"type": "Polygon", "coordinates": [[[412857.85, 5655510.77], [412860.92, 5655515.38], [412863.0, 5655514.0], [412859.92, 5655509.38], [412857.85, 5655510.77]]]}}, {"type": "Feature", "properties": {"z": 111.34, "h": 6.45}, "geometry": {"type": "Polygon", "coordinates": [[[412858.82, 5655507.18], [412866.46, 5655502.81], [412863.23, 5655497.15], [412855.58, 5655501.52], [412858.82, 5655507.18]]]}}, {"type": "Feature", "properties": {"z": 111.26, "h": 6.41}, "geometry": {"type": "Polygon", "coordinates": [[[412862.11, 5655517.42], [412865.19, 5655522.04], [412867.15, 5655520.73], [412864.08, 5655516.12], [412862.11, 5655517.42]]]}}, {"type": "Feature", "properties": {"z": 114.52, "h": 2.92}, "geometry": {"type": "Polygon", "coordinates": [[[412883.72, 5655690.46], [412886.96, 5655694.78], [412889.04, 5655693.22], [412885.8, 5655688.9], [412883.72, 5655690.46]]]}}, {"type": "Feature", "properties": {"z": 114.78, "h": 2.89, "hc": [3.04, 3.26, 2.7, 2.48]}, "geometry": {"type": "Polygon", "coordinates": [[[412885.16, 5654589.71], [412886.18, 5654581.58], [412882.3, 5654581.1], [412881.28, 5654589.22], [412885.16, 5654589.71]]]}}, {"type": "Feature", "properties": {"z": 112.04, "h": 3.75}, "geometry": {"type": "Polygon", "coordinates": [[[412896.0, 5655702.0], [412896.0, 5655705.0], [412900.5, 5655705.0], [412900.5, 5655702.0], [412896.0, 5655702.0]]]}}, {"type": "Feature", "properties": {"z": 114.61, "h": 3.77}, "geometry": {"type": "Polygon", "coordinates": [[[412904.5, 5654692.96], [412896.07, 5654685.24], [412892.32, 5654689.33], [412900.74, 5654697.05], [412904.5, 5654692.96]]]}}, {"type": "Feature", "properties": {"z": 114.65, "h": 2.8}, "geometry": {"type": "Polygon", "coordinates": [[[412914.77, 5655670.65], [412917.54, 5655674.81], [412919.73, 5655673.35], [412916.96, 5655669.19], [412914.77, 5655670.65]]]}}, {"type": "Feature", "properties": {"z": 114.28, "h": 2.65}, "geometry": {"type": "Polygon", "coordinates": [[[412941.0, 5655761.0], [412937.25, 5655762.25], [412938.1, 5655764.8], [412941.85, 5655763.55], [412941.0, 5655761.0]]]}}, {"type": "Feature", "properties": {"z": 114.28, "h": 2.97}, "geometry": {"type": "Polygon", "coordinates": [[[412947.18, 5655987.71], [412948.71, 5655993.82], [412951.18, 5655993.21], [412949.65, 5655987.09], [412947.18, 5655987.71]]]}}, {"type": "Feature", "properties": {"z": 116.38, "h": 3.25}, "geometry": {"type": "Polygon", "coordinates": [[[412952.5, 5654477.5], [412952.5, 5654484.0], [412956.0, 5654484.0], [412956.0, 5654477.5], [412952.5, 5654477.5]]]}}, {"type": "Feature", "properties": {"z": 113.16, "h": 3.25, "hc": [3.65, 4.36, 2.87, 2.16]}, "geometry": {"type": "Polygon", "coordinates": [[[412959.25, 5655265.75], [412956.75, 5655268.25], [412959.0, 5655270.5], [412961.5, 5655268.0], [412959.25, 5655265.75]]]}}, {"type": "Feature", "properties": {"z": 114.12, "h": 2.43}, "geometry": {"type": "Polygon", "coordinates": [[[412983.25, 5654793.75], [412988.0, 5654789.0], [412983.5, 5654784.5], [412978.75, 5654789.25], [412983.25, 5654793.75]]]}}, {"type": "Feature", "properties": {"z": 114.51, "h": 3.89}, "geometry": {"type": "Polygon", "coordinates": [[[413008.5, 5655640.0], [413008.5, 5655644.5], [413011.5, 5655644.5], [413011.5, 5655640.0], [413008.5, 5655640.0]]]}}, {"type": "Feature", "properties": {"z": 113.67, "h": 3.51}, "geometry": {"type": "Polygon", "coordinates": [[[413018.73, 5654836.85], [413021.81, 5654841.46], [413024.69, 5654839.54], [413021.61, 5654834.92], [413018.73, 5654836.85]]]}}, {"type": "Feature", "properties": {"z": 114.16, "h": 2.91}, "geometry": {"type": "Polygon", "coordinates": [[[413056.6, 5654812.2], [413051.4, 5654814.8], [413052.6, 5654817.2], [413057.8, 5654814.6], [413056.6, 5654812.2]]]}}, {"type": "Feature", "properties": {"z": 117.92, "h": 2.44}, "geometry": {"type": "Polygon", "coordinates": [[[413096.6, 5654092.2], [413099.7, 5654098.4], [413102.7, 5654096.9], [413099.6, 5654090.7], [413096.6, 5654092.2]]]}}, {"type": "Feature", "properties": {"z": 113.93, "h": 4.32}, "geometry": {"type": "Polygon", "coordinates": [[[413154.0, 5655892.0], [413154.0, 5655896.5], [413158.5, 5655896.5], [413158.5, 5655892.0], [413154.0, 5655892.0]]]}}, {"type": "Feature", "properties": {"z": 114.11, "h": 2.44}, "geometry": {"type": "Polygon", "coordinates": [[[413198.9, 5655972.7], [413200.85, 5655978.55], [413204.0, 5655977.5], [413202.05, 5655971.65], [413198.9, 5655972.7]]]}}, {"type": "Feature", "properties": {"z": 118.09, "h": 2.39}, "geometry": {"type": "Polygon", "coordinates": [[[413199.5, 5654104.0], [413196.5, 5654107.0], [413199.5, 5654110.0], [413202.5, 5654107.0], [413199.5, 5654104.0]]]}}, {"type": "Feature", "properties": {"z": 117.96, "h": 3.39}, "geometry": {"type": "Polygon", "coordinates": [[[413205.11, 5654003.01], [413210.57, 5654009.84], [413215.57, 5654005.84], [413210.11, 5653999.01], [413205.11, 5654003.01]]]}}, {"type": "Feature", "properties": {"z": 113.84, "h": 5.28}, "geometry": {"type": "Polygon", "coordinates": [[[413227.02, 5655809.64], [413228.26, 5655818.32], [413231.83, 5655817.81], [413230.59, 5655809.13], [413227.02, 5655809.64]]]}}, {"type": "Feature", "properties": {"z": 117.74, "h": 2.63}, "geometry": {"type": "Polygon", "coordinates": [[[413232.9, 5654123.8], [413227.7, 5654126.4], [413229.0, 5654129.0], [413234.2, 5654126.4], [413232.9, 5654123.8]]]}}, {"type": "Feature", "properties": {"z": 114.81, "h": 2.42}, "geometry": {"type": "Polygon", "coordinates": [[[413267.94, 5655462.7], [413264.05, 5655455.69], [413260.49, 5655457.67], [413264.38, 5655464.68], [413267.94, 5655462.7]]]}}, {"type": "Feature", "properties": {"z": 116.18, "h": 2.85}, "geometry": {"type": "Polygon", "coordinates": [[[413273.78, 5654308.2], [413256.19, 5654311.14], [413257.12, 5654316.73], [413274.72, 5654313.8], [413273.78, 5654308.2]]]}}, {"type": "Feature", "properties": {"z": 116.46, "h": 2.57}, "geometry": {"type": "Polygon", "coordinates": [[[413290.04, 5654294.28], [413292.86, 5654290.52], [413290.7, 5654288.9], [413287.88, 5654292.66], [413290.04, 5654294.28]]]}}, {"type": "Feature", "properties": {"z": 114.09, "h": 2.46}, "geometry": {"type": "Polygon", "coordinates": [[[413305.0, 5655840.0], [413305.0, 5655844.0], [413308.5, 5655844.0], [413308.5, 5655840.0], [413305.0, 5655840.0]]]}}, {"type": "Feature", "properties": {"z": 117.13, "h": 5.04, "hc": [4.64, 4.59, 5.46, 5.51]}, "geometry": {"type": "Polygon", "coordinates": [[[413310.72, 5654273.09], [413319.52, 5654279.37], [413321.21, 5654277.01], [413312.41, 5654270.72], [413310.72, 5654273.09]]]}}, {"type": "Feature", "properties": {"z": 115.86, "h": 3.14}, "geometry": {"type": "Polygon", "coordinates": [[[413314.5, 5654296.0], [413314.5, 5654302.0], [413318.0, 5654302.0], [413318.0, 5654296.0], [413314.5, 5654296.0]]]}}, {"type": "Feature", "properties": {"z": 116.22, "h": 2.9}, "geometry": {"type": "Polygon", "coordinates": [[[413323.0, 5654260.0], [413319.75, 5654263.25], [413322.75, 5654266.25], [413326.0, 5654263.0], [413323.0, 5654260.0]]]}}, {"type": "Feature", "properties": {"z": 116.21, "h": 2.85}, "geometry": {"type": "Polygon", "coordinates": [[[413324.1, 5654267.2], [413326.3, 5654271.6], [413330.5, 5654269.5], [413328.3, 5654265.1], [413324.1, 5654267.2]]]}}, {"type": "Feature", "properties": {"z": 116.19, "h": 2.85}, "geometry": {"type": "Polygon", "coordinates": [[[413326.0, 5654272.0], [413326.0, 5654276.5], [413330.5, 5654276.5], [413330.5, 5654272.0], [413326.0, 5654272.0]]]}}, {"type": "Feature", "properties": {"z": 113.92, "h": 2.45}, "geometry": {"type": "Polygon", "coordinates": [[[413339.63, 5655875.01], [413341.91, 5655881.1], [413345.31, 5655879.82], [413343.03, 5655873.74], [413339.63, 5655875.01]]]}}, {"type": "Feature", "properties": {"z": 114.67, "h": 2.46}, "geometry": {"type": "Polygon", "coordinates": [[[413377.16, 5655510.07], [413382.52, 5655505.78], [413380.48, 5655503.22], [413375.11, 5655507.51], [413377.16, 5655510.07]]]}}, {"type": "Feature", "properties": {"z": 117.78, "h": 2.77}, "geometry": {"type": "Polygon", "coordinates": [[[413380.6, 5654007.2], [413382.8, 5654011.6], [413389.6, 5654008.2], [413387.4, 5654003.8], [413380.6, 5654007.2]]]}}, {"type": "Feature", "properties": {"z": 117.8, "h": 2.39}, "geometry": {"type": "Polygon", "coordinates": [[[413384.4, 5654000.8], [413378.8, 5654003.6], [413380.4, 5654006.8], [413386.0, 5654004.0], [413384.4, 5654000.8]]]}}, {"type": "Feature", "properties": {"z": 114.43, "h": 2.59}, "geometry": {"type": "Polygon", "coordinates": [[[413385.2, 5655394.4], [413382.2, 5655388.4], [413379.0, 5655390.0], [413382.0, 5655396.0], [413385.2, 5655394.4]]]}}, {"type": "Feature", "properties": {"z": 117.73, "h": 2.32}, "geometry": {"type": "Polygon", "coordinates": [[[413393.5, 5654007.5], [413393.5, 5654011.0], [413397.5, 5654011.0], [413397.5, 5654007.5], [413393.5, 5654007.5]]]}}, {"type": "Feature", "properties": {"z": 113.93, "h": 4.29}, "geometry": {"type": "Polygon", "coordinates": [[[413437.8, 5655842.4], [413436.15, 5655837.45], [413432.85, 5655838.55], [413434.5, 5655843.5], [413437.8, 5655842.4]]]}}, {"type": "Feature", "properties": {"z": 114.9, "h": 4.59}, "geometry": {"type": "Polygon", "coordinates": [[[413472.15, 5655326.23], [413469.15, 5655321.73], [413466.27, 5655323.65], [413469.27, 5655328.15], [413472.15, 5655326.23]]]}}, {"type": "Feature", "properties": {"z": 114.07, "h": 2.92}, "geometry": {"type": "Polygon", "coordinates": [[[413491.58, 5655247.62], [413488.81, 5655243.46], [413485.35, 5655245.77], [413488.11, 5655249.92], [413491.58, 5655247.62]]]}}, {"type": "Feature", "properties": {"z": 114.35, "h": 2.39}, "geometry": {"type": "Polygon", "coordinates": [[[413608.54, 5655387.67], [413603.54, 5655391.67], [413605.83, 5655394.54], [413610.83, 5655390.54], [413608.54, 5655387.67]]]}}, {"type": "Feature", "properties": {"z": 114.47, "h": 5.73}, "geometry": {"type": "Polygon", "coordinates": [[[413619.63, 5655176.48], [413622.87, 5655181.02], [413625.24, 5655179.33], [413621.99, 5655174.79], [413619.63, 5655176.48]]]}}, {"type": "Feature", "properties": {"z": 113.8, "h": 2.53}, "geometry": {"type": "Polygon", "coordinates": [[[413698.5, 5655815.5], [413698.5, 5655820.0], [413702.0, 5655820.0], [413702.0, 5655815.5], [413698.5, 5655815.5]]]}}, {"type": "Feature", "properties": {"z": 114.35, "h": 2.18}, "geometry": {"type": "Polygon", "coordinates": [[[413724.0, 5655348.0], [413720.5, 5655351.5], [413722.75, 5655353.75], [413726.25, 5655350.25], [413724.0, 5655348.0]]]}}, {"type": "Feature", "properties": {"z": 114.0, "h": 2.35}, "geometry": {"type": "Polygon", "coordinates": [[[413778.5, 5655107.5], [413782.5, 5655111.5], [413785.75, 5655108.25], [413781.75, 5655104.25], [413778.5, 5655107.5]]]}}, {"type": "Feature", "properties": {"z": 113.79, "h": 3.77}, "geometry": {"type": "Polygon", "coordinates": [[[413800.65, 5655869.73], [413799.81, 5655873.96], [413803.37, 5655874.67], [413804.21, 5655870.44], [413800.65, 5655869.73]]]}}, {"type": "Feature", "properties": {"z": 114.08, "h": 2.38}, "geometry": {"type": "Polygon", "coordinates": [[[413801.81, 5655090.96], [413805.27, 5655096.15], [413808.96, 5655093.69], [413805.5, 5655088.5], [413801.81, 5655090.96]]]}}, {"type": "Feature", "properties": {"z": 113.62, "h": 4.07}, "geometry": {"type": "Polygon", "coordinates": [[[413850.0, 5655385.0], [413850.0, 5655389.5], [413854.5, 5655389.5], [413854.5, 5655385.0], [413850.0, 5655385.0]]]}}, {"type": "Feature", "properties": {"z": 116.71, "h": 2.31}, "geometry": {"type": "Polygon", "coordinates": [[[413955.5, 5654105.0], [413955.5, 5654108.0], [413959.0, 5654108.0], [413959.0, 5654105.0], [413955.5, 5654105.0]]]}}, {"type": "Feature", "properties": {"z": 114.48, "h": 3.36, "hc": [3.55, 3.12, 3.19, 3.62]}, "geometry": {"type": "Polygon", "coordinates": [[[413966.0, 5655742.5], [413968.0, 5655744.5], [413971.0, 5655741.5], [413969.0, 5655739.5], [413966.0, 5655742.5]]]}}]}