{"type": "FeatureCollection", "attribution": "Quelle: GeoSN, dl-de/by-2-0 (laser scan, LoD2)", "crs": {"type": "name", "properties": {"name": "urn:ogc:def:crs:EPSG::25833"}}, "features": [{"type": "Feature", "properties": {"z": 111.0, "h": 3.24}, "geometry": {"type": "Polygon", "coordinates": [[[410004.85, 5657810.14], [410016.02, 5657803.93], [410013.87, 5657800.07], [410002.71, 5657806.27], [410004.85, 5657810.14]]]}}, {"type": "Feature", "properties": {"z": 110.67, "h": 2.36}, "geometry": {"type": "Polygon", "coordinates": [[[410010.0, 5657756.5], [410010.0, 5657761.5], [410013.0, 5657761.5], [410013.0, 5657756.5], [410010.0, 5657756.5]]]}}, {"type": "Feature", "properties": {"z": 112.56, "h": 2.52}, "geometry": {"type": "Polygon", "coordinates": [[[410012.08, 5656608.62], [410007.23, 5656611.85], [410010.08, 5656616.12], [410014.92, 5656612.88], [410012.08, 5656608.62]]]}}, {"type": "Feature", "properties": {"z": 110.61, "h": 2.92}, "geometry": {"type": "Polygon", "coordinates": [[[410014.25, 5657794.75], [410010.25, 5657798.75], [410012.5, 5657801.0], [410016.5, 5657797.0], [410014.25, 5657794.75]]]}}, {"type": "Feature", "properties": {"z": 111.23, "h": 4.55, "hc": [4.96, 4.93, 4.13, 4.16]}, "geometry": {"type": "Polygon", "coordinates": [[[410016.08, 5657826.56], [410012.96, 5657830.72], [410016.72, 5657833.54], [410019.84, 5657829.38], [410016.08, 5657826.56]]]}}, {"type": "Feature", "properties": {"z": 113.99, "h": 2.63}, "geometry": {"type": "Polygon", "coordinates": [[[410028.36, 5656191.77], [410038.6, 5656200.99], [410041.86, 5656197.37], [410031.61, 5656188.15], [410028.36, 5656191.77]]]}}, {"type": "Feature", "properties": {"z": 112.36, "h": 2.42}, "geometry": {"type": "Polygon", "coordinates": [[[410041.49, 5656906.31], [410036.19, 5656909.49], [410037.78, 5656912.13], [410043.07, 5656908.96], [410041.49, 5656906.31]]]}}, {"type": "Feature", "properties": {"z": 112.67, "h": 3.16}, "geometry": {"type": "Polygon", "coordinates": [[[410050.73, 5656638.35], [410053.19, 5656642.04], [410056.19, 5656640.04], [410053.73, 5656636.35], [410050.73, 5656638.35]]]}}, {"type": "Feature", "properties": {"z": 111.41, "h": 2.84}, "geometry": {"type": "Polygon", "coordinates": [[[410057.5, 5657029.0], [410057.5, 5657032.5], [410061.0, 5657032.5], [410061.0, 5657029.0], [410057.5, 5657029.0]]]}}, {"type": "Feature", "properties": {"z": 111.46, "h": 2.82}, "geometry": {"type": "Polygon", "coordinates": [[[410063.25, 5657030.75], [410065.75, 5657028.25], [410063.5, 5657026.0], [410061.0, 5657028.5], [410063.25, 5657030.75]]]}}, {"type": "Feature", "properties": {"z": 111.31, "h": 2.8}, "geometry": {"type": "Polygon", "coordinates": [[[410067.29, 5657357.48], [410072.38, 5657355.45], [410070.24, 5657350.1], [410065.15, 5657352.14], [410067.29, 5657357.48]]]}}, {"type": "Feature", "properties": {"z": 111.45, "h": 2.83}, "geometry": {"type": "Polygon", "coordinates": [[[410068.0, 5657023.5], [410068.0, 5657026.5], [410071.5, 5657026.5], [410071.5, 5657023.5], [410068.0, 5657023.5]]]}}, {"type": "Feature", "properties": {"z": 111.39, "h": 2.88}, "geometry": {"type": "Polygon", "coordinates": [[[410071.7, 5657021.9], [410073.3, 5657025.1], [410076.3, 5657023.6], [410074.7, 5657020.4], [410071.7, 5657021.9]]]}}, {"type": "Feature", "properties": {"z": 113.72, "h": 2.83}, "geometry": {"type": "Polygon", "coordinates": [[[410077.75, 5656283.75], [410082.75, 5656288.75], [410086.25, 5656285.25], [410081.25, 5656280.25], [410077.75, 5656283.75]]]}}, {"type": "Feature", "properties": {"z": 113.8, "h": 3.15, "hc": [3.62, 2.98, 2.66, 3.3]}, "geometry": {"type": "Polygon", "coordinates": [[[410085.5, 5656273.5], [410087.5, 5656275.5], [410089.75, 5656273.25], [410087.75, 5656271.25], [410085.5, 5656273.5]]]}}, {"type": "Feature", "properties": {"z": 110.78, "h": 5.6}, "geometry": {"type": "Polygon", "coordinates": [[[410104.5, 5657355.0], [410104.5, 5657360.5], [410109.5, 5657360.5], [410109.5, 5657355.0], [410104.5, 5657355.0]]]}}, {"type": "Feature", "properties": {"z": 108.46, "h": 2.61}, "geometry": {"type": "Polygon", "coordinates": [[[410107.6, 5657545.2], [410109.8, 5657549.6], [410115.0, 5657547.0], [410112.8, 5657542.6], [410107.6, 5657545.2]]]}}, {"type": "Feature", "properties": {"z": 108.65, "h": 2.3}, "geometry": {"type": "Polygon", "coordinates": [[[410110.5, 5657555.0], [410112.5, 5657559.0], [410114.5, 5657558.0], [410112.5, 5657554.0], [410110.5, 5657555.0]]]}}, {"type": "Feature", "properties": {"z": 113.17, "h": 2.54}, "geometry": {"type": "Polygon", "coordinates": [[[410114.75, 5656360.25], [410117.5, 5656363.0], [410120.5, 5656360.0], [410117.75, 5656357.25], [410114.75, 5656360.25]]]}}, {"type": "Feature", "properties": {"z": 111.23, "h": 2.57}, "geometry": {"type": "Polygon", "coordinates": [[[410116.5, 5657391.5], [410111.55, 5657393.15], [410113.75, 5657399.75], [410118.7, 5657398.1], [410116.5, 5657391.5]]]}}, {"type": "Feature", "properties": {"z": 111.59, "h": 2.62}, "geometry": {"type": "Polygon", "coordinates": [[[410119.5, 5657342.0], [410119.5, 5657347.0], [410122.5, 5657347.0], [410122.5, 5657342.0], [410119.5, 5657342.0]]]}}, {"type": "Feature", "properties": {"z": 108.26, "h": 2.35}, "geometry": {"type": "Polygon", "coordinates": [[[410120.85, 5657490.05], [410123.5, 5657498.0], [410126.8, 5657496.9], [410124.15, 5657488.95], [410120.85, 5657490.05]]]}}, {"type": "Feature", "properties": {"z": 111.81, "h": 2.58}, "geometry": {"type": "Polygon", "coordinates": [[[410122.5, 5657383.0], [410126.0, 5657386.5], [410130.5, 5657382.0], [410127.0, 5657378.5], [410122.5, 5657383.0]]]}}, {"type": "Feature", "properties": {"z": 111.03, "h": 2.49}, "geometry": {"type": "Polygon", "coordinates": [[[410128.4, 5657396.3], [410131.9, 5657403.3], [410138.7, 5657399.9], [410135.2, 5657392.9], [410128.4, 5657396.3]]]}}, {"type": "Feature", "properties": {"z": 108.34, "h": 2.46}, "geometry": {"type": "Polygon", "coordinates": [[[410128.5, 5657530.5], [410126.8, 5657527.1], [410121.6, 5657529.7], [410123.3, 5657533.1], [410128.5, 5657530.5]]]}}, {"type": "Feature", "properties": {"z": 108.42, "h": 2.14}, "geometry": {"type": "Polygon", "coordinates": [[[410132.0, 5657533.0], [410135.08, 5657537.62], [410137.5, 5657536.0], [410134.42, 5657531.38], [410132.0, 5657533.0]]]}}, {"type": "Feature", "properties": {"z": 113.57, "h": 3.27}, "geometry": {"type": "Polygon", "coordinates": [[[410137.74, 5656299.16], [410131.85, 5656293.92], [410129.31, 5656296.78], [410135.21, 5656302.02], [410137.74, 5656299.16]]]}}, {"type": "Feature", "properties": {"z": 108.55, "h": 2.55, "hc": [2.89, 2.61, 2.15, 2.44]}, "geometry": {"type": "Polygon", "coordinates": [[[410138.75, 5657543.25], [410136.0, 5657546.0], [410138.5, 5657548.5], [410141.25, 5657545.75], [410138.75, 5657543.25]]]}}, {"type": "Feature", "properties": {"z": 110.12, "h": 2.86}, "geometry": {"type": "Polygon", "coordinates": [[[410141.9, 5657423.2], [410143.35, 5657427.55], [410146.8, 5657426.4], [410145.35, 5657422.05], [410141.9, 5657423.2]]]}}, {"type": "Feature", "properties": {"z": 108.44, "h": 2.44}, "geometry": {"type": "Polygon", "coordinates": [[[410143.1, 5657494.2], [410139.3, 5657496.1], [410141.9, 5657501.3], [410145.7, 5657499.4], [410143.1, 5657494.2]]]}}, {"type": "Feature", "properties": {"z": 108.46, "h": 2.71}, "geometry": {"type": "Polygon", "coordinates": [[[410144.2, 5657480.9], [410147.0, 5657486.5], [410150.6, 5657484.7], [410147.8, 5657479.1], [410144.2, 5657480.9]]]}}, {"type": "Feature", "properties": {"z": 108.46, "h": 2.55}, "geometry": {"type": "Polygon", "coordinates": [[[410145.13, 5657500.61], [410137.98, 5657505.07], [410140.37, 5657508.89], [410147.52, 5657504.43], [410145.13, 5657500.61]]]}}, {"type": "Feature", "properties": {"z": 109.67, "h": 2.84}, "geometry": {"type": "Polygon", "coordinates": [[[410147.75, 5657435.75], [410150.45, 5657427.65], [410144.75, 5657425.75], [410142.05, 5657433.85], [410147.75, 5657435.75]]]}}, {"type": "Feature", "properties": {"z": 111.13, "h": 2.65}, "geometry": {"type": "Polygon", "coordinates": [[[410149.5, 5657394.0], [410146.8, 5657388.6], [410143.0, 5657390.5], [410145.7, 5657395.9], [410149.5, 5657394.0]]]}}, {"type": "Feature", "properties": {"z": 108.46, "h": 2.76}, "geometry": {"type": "Polygon", "coordinates": [[[410154.3, 5657497.6], [410149.5, 5657500.0], [410152.4, 5657505.8], [410157.2, 5657503.4], [410154.3, 5657497.6]]]}}, {"type": "Feature", "properties": {"z": 109.24, "h": 2.46}, "geometry": {"type": "Polygon", "coordinates": [[[410161.1, 5657436.7], [410157.5, 5657438.5], [410159.8, 5657443.1], [410163.4, 5657441.3], [410161.1, 5657436.7]]]}}, {"type": "Feature", "properties": {"z": 108.81, "h": 2.6}, "geometry": {"type": "Polygon", "coordinates": [[[410164.5, 5657452.5], [410164.5, 5657457.0], [410167.5, 5657457.0], [410167.5, 5657452.5], [410164.5, 5657452.5]]]}}, {"type": "Feature", "properties": {"z": 108.79, "h": 2.78}, "geometry": {"type": "Polygon", "coordinates": [[[410172.8, 5657453.1], [410174.4, 5657456.3], [410177.6, 5657454.7], [410176.0, 5657451.5], [410172.8, 5657453.1]]]}}, {"type": "Feature", "properties": {"z": 113.19, "h": 2.54}, "geometry": {"type": "Polygon", "coordinates": [[[410174.24, 5656332.63], [410165.84, 5656325.43], [410163.72, 5656327.91], [410172.12, 5656335.11], [410174.24, 5656332.63]]]}}, {"type": "Feature", "properties": {"z": 108.72, "h": 2.57}, "geometry": {"type": "Polygon", "coordinates": [[[410178.4, 5657497.3], [410174.0, 5657499.5], [410175.9, 5657503.3], [410180.3, 5657501.1], [410178.4, 5657497.3]]]}}, {"type": "Feature", "properties": {"z": 108.92, "h": 2.47}, "geometry": {"type": "Polygon", "coordinates": [[[410189.6, 5657488.2], [410184.2, 5657490.9], [410186.6, 5657495.7], [410192.0, 5657493.0], [410189.6, 5657488.2]]]}}, {"type": "Feature", "properties": {"z": 112.19, "h": 2.62}, "geometry": {"type": "Polygon", "coordinates": [[[410211.25, 5656681.25], [410207.5, 5656685.0], [410210.5, 5656688.0], [410214.25, 5656684.25], [410211.25, 5656681.25]]]}}, {"type": "Feature", "properties": {"z": 110.56, "h": 2.82}, "geometry": {"type": "Polygon", "coordinates": [[[410212.29, 5657457.13], [410208.44, 5657448.8], [410205.34, 5657450.23], [410209.19, 5657458.57], [410212.29, 5657457.13]]]}}, {"type": "Feature", "properties": {"z": 112.34, "h": 3.1}, "geometry": {"type": "Polygon", "coordinates": [[[410213.34, 5656551.47], [410214.26, 5656545.96], [410209.47, 5656545.16], [410208.55, 5656550.68], [410213.34, 5656551.47]]]}}, {"type": "Feature", "properties": {"z": 110.78, "h": 3.04}, "geometry": {"type": "Polygon", "coordinates": [[[410224.0, 5657498.0], [410224.0, 5657503.0], [410228.0, 5657503.0], [410228.0, 5657498.0], [410224.0, 5657498.0]]]}}, {"type": "Feature", "properties": {"z": 112.36, "h": 2.6}, "geometry": {"type": "Polygon", "coordinates": [[[410226.37, 5656551.67], [410221.85, 5656550.77], [410221.12, 5656554.42], [410225.63, 5656555.33], [410226.37, 5656551.67]]]}}, {"type": "Feature", "properties": {"z": 111.37, "h": 4.97}, "geometry": {"type": "Polygon", "coordinates": [[[410231.21, 5656816.7], [410245.84, 5656809.0], [410242.68, 5656802.99], [410228.05, 5656810.69], [410231.21, 5656816.7]]]}}, {"type": "Feature", "properties": {"z": 110.48, "h": 3.25}, "geometry": {"type": "Polygon", "coordinates": [[[410232.7, 5657519.9], [410236.4, 5657527.3], [410239.0, 5657526.0], [410235.3, 5657518.6], [410232.7, 5657519.9]]]}}, {"type": "Feature", "properties": {"z": 111.83, "h": 5.34}, "geometry": {"type": "Polygon", "coordinates": [[[410251.13, 5656310.67], [410258.15, 5656309.27], [410257.21, 5656304.56], [410250.19, 5656305.96], [410251.13, 5656310.67]]]}}, {"type": "Feature", "properties": {"z": 111.69, "h": 4.2}, "geometry": {"type": "Polygon", "coordinates": [[[410257.5, 5656558.5], [410256.0, 5656560.0], [410260.25, 5656564.25], [410261.75, 5656562.75], [410257.5, 5656558.5]]]}}, {"type": "Feature", "properties": {"z": 111.87, "h": 5.26}, "geometry": {"type": "Polygon", "coordinates": [[[410260.03, 5656315.62], [410252.85, 5656317.41], [410254.65, 5656324.59], [410261.82, 5656322.79], [410260.03, 5656315.62]]]}}, {"type": "Feature", "properties": {"z": 110.83, "h": 3.3}, "geometry": {"type": "Polygon", "coordinates": [[[410261.3, 5657514.1], [410259.1, 5657509.7], [410256.3, 5657511.1], [410258.5, 5657515.5], [410261.3, 5657514.1]]]}}, {"type": "Feature", "properties": {"z": 111.53, "h": 4.84}, "geometry": {"type": "Polygon", "coordinates": [[[410272.2, 5657024.4], [410263.2, 5657028.9], [410266.1, 5657034.7], [410275.1, 5657030.2], [410272.2, 5657024.4]]]}}, {"type": "Feature", "properties": {"z": 113.81, "h": 4.67}, "geometry": {"type": "Polygon", "coordinates": [[[410274.0, 5657720.5], [410278.2, 5657728.9], [410283.4, 5657726.3], [410279.2, 5657717.9], [410274.0, 5657720.5]]]}}, {"type": "Feature", "properties": {"z": 110.45, "h": 2.66}, "geometry": {"type": "Polygon", "coordinates": [[[410277.0, 5657449.0], [410274.08, 5657444.62], [410271.65, 5657446.23], [410274.58, 5657450.62], [410277.0, 5657449.0]]]}}, {"type": "Feature", "properties": {"z": 111.04, "h": 2.94}, "geometry": {"type": "Polygon", "coordinates": [[[410289.5, 5657422.0], [410287.4, 5657417.8], [410283.0, 5657420.0], [410285.1, 5657424.2], [410289.5, 5657422.0]]]}}, {"type": "Feature", "properties": {"z": 110.37, "h": 2.52}, "geometry": {"type": "Polygon", "coordinates": [[[410291.2, 5657431.9], [410295.2, 5657439.9], [410298.0, 5657438.5], [410294.0, 5657430.5], [410291.2, 5657431.9]]]}}, {"type": "Feature", "properties": {"z": 110.95, "h": 2.32}, "geometry": {"type": "Polygon", "coordinates": [[[410292.5, 5656907.0], [410292.5, 5656910.5], [410296.0, 5656910.5], [410296.0, 5656907.0], [410292.5, 5656907.0]]]}}, {"type": "Feature", "properties": {"z": 110.91, "h": 2.61, "hc": [2.06, 3.27, 3.05, 1.84]}, "geometry": {"type": "Polygon", "coordinates": [[[410295.5, 5656926.0], [410291.5, 5656922.0], [410288.25, 5656925.25], [410292.25, 5656929.25], [410295.5, 5656926.0]]]}}, {"type": "Feature", "properties": {"z": 111.33, "h": 3.76}, "geometry": {"type": "Polygon", "coordinates": [[[410323.68, 5656866.32], [410331.71, 5656861.74], [410327.03, 5656853.55], [410319.01, 5656858.14], [410323.68, 5656866.32]]]}}, {"type": "Feature", "properties": {"z": 111.06, "h": 2.93}, "geometry": {"type": "Polygon", "coordinates": [[[410349.25, 5656885.75], [410347.25, 5656887.75], [410350.25, 5656890.75], [410352.25, 5656888.75], [410349.25, 5656885.75]]]}}, {"type": "Feature", "properties": {"z": 110.95, "h": 4.0}, "geometry": {"type": "Polygon", "coordinates": [[[410353.75, 5656784.75], [410358.5, 5656789.5], [410364.25, 5656783.75], [410359.5, 5656779.0], [410353.75, 5656784.75]]]}}, {"type": "Feature", "properties": {"z": 111.0, "h": 3.93}, "geometry": {"type": "Polygon", "coordinates": [[[410359.51, 5656778.95], [410349.65, 5656769.74], [410343.51, 5656776.31], [410353.38, 5656785.52], [410359.51, 5656778.95]]]}}, {"type": "Feature", "properties": {"z": 110.52, "h": 2.42}, "geometry": {"type": "Polygon", "coordinates": [[[410359.57, 5657418.48], [410357.28, 5657410.49], [410351.01, 5657412.28], [410353.29, 5657420.27], [410359.57, 5657418.48]]]}}, {"type": "Feature", "properties": {"z": 110.78, "h": 3.68}, "geometry": {"type": "Polygon", "coordinates": [[[410361.61, 5656845.02], [410376.61, 5656834.02], [410371.4, 5656826.91], [410356.4, 5656837.91], [410361.61, 5656845.02]]]}}, {"type": "Feature", "properties": {"z": 111.07, "h": 2.87, "hc": [1.8, 3.35, 3.83, 2.26]}, "geometry": {"type": "Polygon", "coordinates": [[[410363.26, 5656898.06], [410358.79, 5656899.18], [410359.5, 5656902.0], [410363.97, 5656900.88], [410363.26, 5656898.06]]]}}, {"type": "Feature", "properties": {"z": 111.42, "h": 5.9}, "geometry": {"type": "Polygon", "coordinates": [[[410373.5, 5656527.0], [410372.3, 5656524.6], [410362.1, 5656529.7], [410363.3, 5656532.1], [410373.5, 5656527.0]]]}}, {"type": "Feature", "properties": {"z": 114.9, "h": 4.89}, "geometry": {"type": "Polygon", "coordinates": [[[410390.59, 5656160.15], [410395.76, 5656161.44], [410396.32, 5656159.21], [410391.15, 5656157.91], [410390.59, 5656160.15]]]}}, {"type": "Feature", "properties": {"z": 108.59, "h": 2.25}, "geometry": {"type": "Polygon", "coordinates": [[[410404.0, 5657334.5], [410401.25, 5657337.25], [410404.75, 5657340.75], [410407.5, 5657338.0], [410404.0, 5657334.5]]]}}, {"type": "Feature", "properties": {"z": 108.6, "h": 2.38}, "geometry": {"type": "Polygon", "coordinates": [[[410409.75, 5657349.25], [410406.5, 5657352.5], [410413.0, 5657359.0], [410416.25, 5657355.75], [410409.75, 5657349.25]]]}}, {"type": "Feature", "properties": {"z": 108.68, "h": 2.35}, "geometry": {"type": "Polygon", "coordinates": [[[410410.0, 5657343.5], [410408.0, 5657345.5], [410410.75, 5657348.25], [410412.75, 5657346.25], [410410.0, 5657343.5]]]}}, {"type": "Feature", "properties": {"z": 109.91, "h": 2.54}, "geometry": {"type": "Polygon", "coordinates": [[[410419.5, 5657055.61], [410423.35, 5657062.53], [410427.68, 5657060.12], [410423.83, 5657053.2], [410419.5, 5657055.61]]]}}, {"type": "Feature", "properties": {"z": 108.62, "h": 2.37}, "geometry": {"type": "Polygon", "coordinates": [[[410425.27, 5657360.15], [410422.73, 5657356.35], [410420.08, 5657358.12], [410422.61, 5657361.92], [410425.27, 5657360.15]]]}}, {"type": "Feature", "properties": {"z": 108.68, "h": 2.79, "hc": [3.6, 2.56, 2.09, 3.13]}, "geometry": {"type": "Polygon", "coordinates": [[[410433.75, 5657330.75], [410430.25, 5657334.25], [410433.5, 5657337.5], [410437.0, 5657334.0], [410433.75, 5657330.75]]]}}, {"type": "Feature", "properties": {"z": 108.63, "h": 2.34}, "geometry": {"type": "Polygon", "coordinates": [[[410440.75, 5657348.25], [410444.0, 5657351.5], [410448.25, 5657347.25], [410445.0, 5657344.0], [410440.75, 5657348.25]]]}}, {"type": "Feature", "properties": {"z": 108.75, "h": 2.37}, "geometry": {"type": "Polygon", "coordinates": [[[410441.0, 5657277.5], [410437.25, 5657281.25], [410443.75, 5657287.75], [410447.5, 5657284.0], [410441.0, 5657277.5]]]}}, {"type": "Feature", "properties": {"z": 108.78, "h": 2.36}, "geometry": {"type": "Polygon", "coordinates": [[[410447.75, 5657301.25], [410446.0, 5657303.0], [410449.0, 5657306.0], [410450.75, 5657304.25], [410447.75, 5657301.25]]]}}, {"type": "Feature", "properties": {"z": 113.76, "h": 2.45}, "geometry": {"type": "Polygon", "coordinates": [[[410454.45, 5656058.15], [410461.5, 5656060.5], [410463.0, 5656056.0], [410455.95, 5656053.65], [410454.45, 5656058.15]]]}}, {"type": "Feature", "properties": {"z": 113.13, "h": 2.77}, "geometry": {"type": "Polygon", "coordinates": [[[410456.82, 5656263.21], [410454.29, 5656273.32], [410460.18, 5656274.79], [410462.71, 5656264.68], [410456.82, 5656263.21]]]}}, {"type": "Feature", "properties": {"z": 113.75, "h": 2.45}, "geometry": {"type": "Polygon", "coordinates": [[[410460.25, 5656054.33], [410463.94, 5656042.03], [410459.22, 5656040.61], [410455.53, 5656052.91], [410460.25, 5656054.33]]]}}, {"type": "Feature", "properties": {"z": 108.77, "h": 2.5}, "geometry": {"type": "Polygon", "coordinates": [[[410467.0, 5657271.5], [410467.0, 5657277.5], [410471.5, 5657277.5], [410471.5, 5657271.5], [410467.0, 5657271.5]]]}}, {"type": "Feature", "properties": {"z": 108.71, "h": 2.51}, "geometry": {"type": "Polygon", "coordinates": [[[410470.78, 5657279.54], [410475.4, 5657285.7], [410478.44, 5657283.42], [410473.82, 5657277.26], [410470.78, 5657279.54]]]}}, {"type": "Feature", "properties": {"z": 109.02, "h": 2.98}, "geometry": {"type": "Polygon", "coordinates": [[[410475.81, 5657264.96], [410479.5, 5657262.5], [410476.42, 5657257.88], [410472.73, 5657260.35], [410475.81, 5657264.96]]]}}, {"type": "Feature", "properties": {"z": 108.67, "h": 2.68}, "geometry": {"type": "Polygon", "coordinates": [[[410479.16, 5657289.88], [410483.18, 5657295.24], [410486.78, 5657292.54], [410482.76, 5657287.18], [410479.16, 5657289.88]]]}}, {"type": "Feature", "properties": {"z": 108.91, "h": 2.41}, "geometry": {"type": "Polygon", "coordinates": [[[410488.5, 5657309.0], [410490.5, 5657311.0], [410494.0, 5657307.5], [410492.0, 5657305.5], [410488.5, 5657309.0]]]}}, {"type": "Feature", "properties": {"z": 113.62, "h": 2.65}, "geometry": {"type": "Polygon", "coordinates": [[[410512.61, 5657351.5], [410518.81, 5657348.05], [410516.54, 5657343.98], [410510.34, 5657347.42], [410512.61, 5657351.5]]]}}, {"type": "Feature", "properties": {"z": 108.74, "h": 5.49}, "geometry": {"type": "Polygon", "coordinates": [[[410522.88, 5657866.58], [410519.96, 5657862.19], [410517.65, 5657863.73], [410520.58, 5657868.12], [410522.88, 5657866.58]]]}}, {"type": "Feature", "properties": {"z": 111.04, "h": 4.29}, "geometry": {"type": "Polygon", "coordinates": [[[410528.5, 5657578.0], [410525.25, 5657581.25], [410528.25, 5657584.25], [410531.5, 5657581.0], [410528.5, 5657578.0]]]}}, {"type": "Feature", "properties": {"z": 113.83, "h": 2.43}, "geometry": {"type": "Polygon", "coordinates": [[[410548.12, 5656049.53], [410549.56, 5656043.76], [410545.09, 5656042.65], [410543.65, 5656048.41], [410548.12, 5656049.53]]]}}, {"type": "Feature", "properties": {"z": 112.03, "h": 2.49}, "geometry": {"type": "Polygon", "coordinates": [[[410557.63, 5656320.33], [410558.94, 5656313.79], [410554.81, 5656312.96], [410553.5, 5656319.5], [410557.63, 5656320.33]]]}}, {"type": "Feature", "properties": {"z": 111.16, "h": 3.82}, "geometry": {"type": "Polygon", "coordinates": [[[410559.75, 5656612.75], [410557.0, 5656615.5], [410560.75, 5656619.25], [410563.5, 5656616.5], [410559.75, 5656612.75]]]}}, {"type": "Feature", "properties": {"z": 110.14, "h": 3.07, "hc": [3.0, 3.8, 3.17, 2.37]}, "geometry": {"type": "Polygon", "coordinates": [[[410566.75, 5657228.75], [410564.25, 5657231.25], [410566.75, 5657233.75], [410569.25, 5657231.25], [410566.75, 5657228.75]]]}}, {"type": "Feature", "properties": {"z": 113.0, "h": 2.44}, "geometry": {"type": "Polygon", "coordinates": [[[410574.24, 5656229.06], [410572.79, 5656234.82], [410578.56, 5656236.26], [410580.0, 5656230.5], [410574.24, 5656229.06]]]}}, {"type": "Feature", "properties": {"z": 109.56, "h": 2.71}, "geometry": {"type": "Polygon", "coordinates": [[[410598.88, 5657134.58], [410605.04, 5657143.81], [410609.42, 5657140.88], [410603.27, 5657131.65], [410598.88, 5657134.58]]]}}, {"type": "Feature", "properties": {"z": 113.61, "h": 2.97}, "geometry": {"type": "Polygon", "coordinates": [[[410606.9, 5657440.8], [410599.7, 5657444.4], [410603.6, 5657452.2], [410610.8, 5657448.6], [410606.9, 5657440.8]]]}}, {"type": "Feature", "properties": {"z": 113.95, "h": 6.04}, "geometry": {"type": "Polygon", "coordinates": [[[410618.07, 5657456.33], [410630.79, 5657448.92], [410627.83, 5657443.85], [410615.11, 5657451.27], [410618.07, 5657456.33]]]}}, {"type": "Feature", "properties": {"z": 114.29, "h": 2.96}, "geometry": {"type": "Polygon", "coordinates": [[[410619.53, 5657457.6], [410614.14, 5657451.44], [410610.85, 5657454.32], [410616.23, 5657460.48], [410619.53, 5657457.6]]]}}, {"type": "Feature", "properties": {"z": 114.01, "h": 2.62}, "geometry": {"type": "Polygon", "coordinates": [[[410629.25, 5657469.25], [410631.75, 5657471.75], [410635.25, 5657468.25], [410632.75, 5657465.75], [410629.25, 5657469.25]]]}}, {"type": "Feature", "properties": {"z": 111.35, "h": 2.92}, "geometry": {"type": "Polygon", "coordinates": [[[410631.71, 5656469.98], [410621.51, 5656474.35], [410623.5, 5656479.0], [410633.7, 5656474.63], [410631.71, 5656469.98]]]}}, {"type": "Feature", "properties": {"z": 108.13, "h": 3.28}, "geometry": {"type": "Polygon", "coordinates": [[[410658.3, 5657874.1], [410664.5, 5657871.0], [410663.0, 5657868.0], [410656.8, 5657871.1], [410658.3, 5657874.1]]]}}, {"type": "Feature", "properties": {"z": 108.79, "h": 4.28}, "geometry": {"type": "Polygon", "coordinates": [[[410679.5, 5656609.5], [410679.5, 5656616.0], [410685.5, 5656616.0], [410685.5, 5656609.5], [410679.5, 5656609.5]]]}}, {"type": "Feature", "properties": {"z": 110.69, "h": 2.53}, "geometry": {"type": "Polygon", "coordinates": [[[410704.0, 5656587.0], [410704.0, 5656593.5], [410708.0, 5656593.5], [410708.0, 5656587.0], [410704.0, 5656587.0]]]}}, {"type": "Feature", "properties": {"z": 112.66, "h": 4.11}, "geometry": {"type": "Polygon", "coordinates": [[[410707.0, 5656245.5], [410707.0, 5656249.0], [410712.0, 5656249.0], [410712.0, 5656245.5], [410707.0, 5656245.5]]]}}, {"type": "Feature", "properties": {"z": 110.87, "h": 2.92}, "geometry": {"type": "Polygon", "coordinates": [[[410707.5, 5656571.0], [410707.5, 5656576.0], [410713.0, 5656576.0], [410713.0, 5656571.0], [410707.5, 5656571.0]]]}}, {"type": "Feature", "properties": {"z": 111.12, "h": 2.73, "hc": [2.72, 3.37, 2.72, 2.07]}, "geometry": {"type": "Polygon", "coordinates": [[[410713.76, 5656753.82], [410708.72, 5656754.54], [410709.24, 5656758.18], [410714.28, 5656757.46], [410713.76, 5656753.82]]]}}, {"type": "Feature", "properties": {"z": 112.25, "h": 2.88}, "geometry": {"type": "Polygon", "coordinates": [[[410717.88, 5656264.08], [410716.23, 5656272.35], [410719.12, 5656272.92], [410720.77, 5656264.65], [410717.88, 5656264.08]]]}}, {"type": "Feature", "properties": {"z": 111.82, "h": 2.76}, "geometry": {"type": "Polygon", "coordinates": [[[410753.21, 5656262.18], [410760.26, 5656263.94], [410763.18, 5656252.29], [410756.12, 5656250.53], [410753.21, 5656262.18]]]}}, {"type": "Feature", "properties": {"z": 111.67, "h": 2.99}, "geometry": {"type": "Polygon", "coordinates": [[[410761.12, 5656264.03], [410769.0, 5656266.0], [410770.97, 5656258.12], [410763.09, 5656256.15], [410761.12, 5656264.03]]]}}, {"type": "Feature", "properties": {"z": 110.83, "h": 2.7}, "geometry": {"type": "Polygon", "coordinates": [[[410768.0, 5656577.0], [410768.0, 5656583.0], [410771.0, 5656583.0], [410771.0, 5656577.0], [410768.0, 5656577.0]]]}}, {"type": "Feature", "properties": {"z": 109.56, "h": 4.18}, "geometry": {"type": "Polygon", "coordinates": [[[410788.25, 5657273.25], [410785.75, 5657270.75], [410783.5, 5657273.0], [410786.0, 5657275.5], [410788.25, 5657273.25]]]}}, {"type": "Feature", "properties": {"z": 110.25, "h": 2.65}, "geometry": {"type": "Polygon", "coordinates": [[[410792.0, 5656812.0], [410792.0, 5656816.0], [410795.0, 5656816.0], [410795.0, 5656812.0], [410792.0, 5656812.0]]]}}, {"type": "Feature", "properties": {"z": 112.59, "h": 4.19}, "geometry": {"type": "Polygon", "coordinates": [[[410800.0, 5656267.0], [410800.0, 5656271.0], [410805.0, 5656271.0], [410805.0, 5656267.0], [410800.0, 5656267.0]]]}}, {"type": "Feature", "properties": {"z": 110.04, "h": 4.07}, "geometry": {"type": "Polygon", "coordinates": [[[410809.5, 5656679.5], [410809.5, 5656684.5], [410812.5, 5656684.5], [410812.5, 5656679.5], [410809.5, 5656679.5]]]}}, {"type": "Feature", "properties": {"z": 112.3, "h": 2.91}, "geometry": {"type": "Polygon", "coordinates": [[[410811.5, 5656281.0], [410811.5, 5656285.0], [410814.0, 5656285.0], [410814.0, 5656281.0], [410811.5, 5656281.0]]]}}, {"type": "Feature", "properties": {"z": 110.87, "h": 5.52}, "geometry": {"type": "Polygon", "coordinates": [[[410824.8, 5656379.28], [410830.39, 5656378.35], [410829.62, 5656373.73], [410824.03, 5656374.66], [410824.8, 5656379.28]]]}}, {"type": "Feature", "properties": {"z": 110.24, "h": 4.18}, "geometry": {"type": "Polygon", "coordinates": [[[410838.4, 5656860.2], [410849.0, 5656865.5], [410851.0, 5656861.5], [410840.4, 5656856.2], [410838.4, 5656860.2]]]}}, {"type": "Feature", "properties": {"z": 110.55, "h": 3.64}, "geometry": {"type": "Polygon", "coordinates": [[[410845.53, 5656845.12], [410842.57, 5656850.04], [410846.62, 5656852.47], [410849.57, 5656847.54], [410845.53, 5656845.12]]]}}, {"type": "Feature", "properties": {"z": 112.44, "h": 4.25}, "geometry": {"type": "Polygon", "coordinates": [[[410891.5, 5656280.5], [410891.5, 5656284.0], [410897.5, 5656284.0], [410897.5, 5656280.5], [410891.5, 5656280.5]]]}}, {"type": "Feature", "properties": {"z": 111.97, "h": 3.0}, "geometry": {"type": "Polygon", "coordinates": [[[410903.0, 5656298.0], [410903.0, 5656302.0], [410905.5, 5656302.0], [410905.5, 5656298.0], [410903.0, 5656298.0]]]}}, {"type": "Feature", "properties": {"z": 110.71, "h": 2.93}, "geometry": {"type": "Polygon", "coordinates": [[[410957.2, 5656837.1], [410951.8, 5656834.4], [410949.3, 5656839.4], [410954.7, 5656842.1], [410957.2, 5656837.1]]]}}, {"type": "Feature", "properties": {"z": 110.97, "h": 2.84}, "geometry": {"type": "Polygon", "coordinates": [[[411001.1, 5656385.7], [411003.9, 5656391.3], [411009.1, 5656388.7], [411006.3, 5656383.1], [411001.1, 5656385.7]]]}}, {"type": "Feature", "properties": {"z": 110.55, "h": 4.42}, "geometry": {"type": "Polygon", "coordinates": [[[411003.5, 5656806.0], [411001.1, 5656810.8], [411003.9, 5656812.2], [411006.3, 5656807.4], [411003.5, 5656806.0]]]}}, {"type": "Feature", "properties": {"z": 110.63, "h": 4.34}, "geometry": {"type": "Polygon", "coordinates": [[[411006.38, 5656807.03], [411009.38, 5656802.03], [411006.96, 5656800.57], [411003.96, 5656805.57], [411006.38, 5656807.03]]]}}, {"type": "Feature", "properties": {"z": 110.8, "h": 4.18}, "geometry": {"type": "Polygon", "coordinates": [[[411012.6, 5656796.8], [411015.3, 5656791.4], [411012.7, 5656790.1], [411010.0, 5656795.5], [411012.6, 5656796.8]]]}}, {"type": "Feature", "properties": {"z": 110.95, "h": 4.04}, "geometry": {"type": "Polygon", "coordinates": [[[411018.04, 5656786.28], [411021.34, 5656781.88], [411019.02, 5656780.14], [411015.72, 5656784.54], [411018.04, 5656786.28]]]}}, {"type": "Feature", "properties": {"z": 110.57, "h": 4.64}, "geometry": {"type": "Polygon", "coordinates": [[[411048.12, 5656823.52], [411058.77, 5656829.33], [411060.97, 5656825.3], [411050.32, 5656819.49], [411048.12, 5656823.52]]]}}, {"type": "Feature", "properties": {"z": 110.61, "h": 4.51}, "geometry": {"type": "Polygon", "coordinates": [[[411061.2, 5656825.1], [411059.0, 5656829.5], [411064.2, 5656832.1], [411066.4, 5656827.7], [411061.2, 5656825.1]]]}}, {"type": "Feature", "properties": {"z": 110.65, "h": 4.47}, "geometry": {"type": "Polygon", "coordinates": [[[411064.3, 5656832.4], [411069.3, 5656834.9], [411071.2, 5656831.1], [411066.2, 5656828.6], [411064.3, 5656832.4]]]}}, {"type": "Feature", "properties": {"z": 111.03, "h": 4.02}, "geometry": {"type": "Polygon", "coordinates": [[[411064.71, 5657215.87], [411071.23, 5657221.09], [411072.89, 5657219.01], [411066.37, 5657213.79], [411064.71, 5657215.87]]]}}, {"type": "Feature", "properties": {"z": 110.62, "h": 4.49}, "geometry": {"type": "Polygon", "coordinates": [[[411071.85, 5656831.23], [411069.31, 5656835.04], [411074.15, 5656838.27], [411076.69, 5656834.46], [411071.85, 5656831.23]]]}}, {"type": "Feature", "properties": {"z": 110.62, "h": 4.49}, "geometry": {"type": "Polygon", "coordinates": [[[411076.9, 5656834.2], [411074.9, 5656838.2], [411079.9, 5656840.7], [411081.9, 5656836.7], [411076.9, 5656834.2]]]}}, {"type": "Feature", "properties": {"z": 110.64, "h": 4.47}, "geometry": {"type": "Polygon", "coordinates": [[[411080.0, 5656841.0], [411085.0, 5656843.5], [411086.9, 5656839.7], [411081.9, 5656837.2], [411080.0, 5656841.0]]]}}, {"type": "Feature", "properties": {"z": 110.6, "h": 4.63}, "geometry": {"type": "Polygon", "coordinates": [[[411089.77, 5656950.85], [411084.0, 5656959.5], [411086.77, 5656961.35], [411092.54, 5656952.69], [411089.77, 5656950.85]]]}}, {"type": "Feature", "properties": {"z": 110.71, "h": 4.4}, "geometry": {"type": "Polygon", "coordinates": [[[411090.3, 5656846.4], [411092.4, 5656842.2], [411087.4, 5656839.7], [411085.3, 5656843.9], [411090.3, 5656846.4]]]}}, {"type": "Feature", "properties": {"z": 110.75, "h": 4.36}, "geometry": {"type": "Polygon", "coordinates": [[[411091.5, 5656844.0], [411091.5, 5656848.5], [411096.5, 5656848.5], [411096.5, 5656844.0], [411091.5, 5656844.0]]]}}, {"type": "Feature", "properties": {"z": 109.36, "h": 3.36}, "geometry": {"type": "Polygon", "coordinates": [[[411111.48, 5657996.69], [411124.28, 5657975.37], [411120.75, 5657973.25], [411107.96, 5657994.57], [411111.48, 5657996.69]]]}}, {"type": "Feature", "properties": {"z": 109.47, "h": 3.28}, "geometry": {"type": "Polygon", "coordinates": [[[411149.8, 5657925.4], [411146.9, 5657931.2], [411150.1, 5657932.8], [411153.0, 5657927.0], [411149.8, 5657925.4]]]}}, {"type": "Feature", "properties": {"z": 108.31, "h": 3.83}, "geometry": {"type": "Polygon", "coordinates": [[[411152.3, 5657730.9], [411146.5, 5657742.5], [411149.1, 5657743.8], [411154.9, 5657732.2], [411152.3, 5657730.9]]]}}, {"type": "Feature", "properties": {"z": 113.87, "h": 2.88}, "geometry": {"type": "Polygon", "coordinates": [[[411165.3, 5656511.4], [411161.8, 5656518.4], [411164.6, 5656519.8], [411168.1, 5656512.8], [411165.3, 5656511.4]]]}}, {"type": "Feature", "properties": {"z": 110.34, "h": 2.56}, "geometry": {"type": "Polygon", "coordinates": [[[411202.24, 5656938.48], [411213.35, 5656921.38], [411210.95, 5656919.81], [411199.83, 5656936.92], [411202.24, 5656938.48]]]}}, {"type": "Feature", "properties": {"z": 111.47, "h": 3.24}, "geometry": {"type": "Polygon", "coordinates": [[[411206.9, 5657843.3], [411209.5, 5657848.5], [411213.1, 5657846.7], [411210.5, 5657841.5], [411206.9, 5657843.3]]]}}, {"type": "Feature", "properties": {"z": 110.51, "h": 2.72}, "geometry": {"type": "Polygon", "coordinates": [[[411207.5, 5657796.5], [411207.5, 5657799.5], [411214.0, 5657799.5], [411214.0, 5657796.5], [411207.5, 5657796.5]]]}}, {"type": "Feature", "properties": {"z": 112.17, "h": 5.94}, "geometry": {"type": "Polygon", "coordinates": [[[411215.36, 5656069.03], [411223.2, 5656047.73], [411214.54, 5656044.54], [411206.69, 5656065.83], [411215.36, 5656069.03]]]}}, {"type": "Feature", "properties": {"z": 112.23, "h": 5.99}, "geometry": {"type": "Polygon", "coordinates": [[[411229.33, 5656028.48], [411221.65, 5656021.76], [411217.13, 5656026.92], [411224.81, 5656033.65], [411229.33, 5656028.48]]]}}, {"type": "Feature", "properties": {"z": 111.73, "h": 3.29, "hc": [3.14, 2.81, 3.53, 3.86]}, "geometry": {"type": "Polygon", "coordinates": [[[411241.85, 5656144.77], [411243.46, 5656136.69], [411240.38, 5656136.08], [411238.77, 5656144.15], [411241.85, 5656144.77]]]}}, {"type": "Feature", "properties": {"z": 110.36, "h": 2.45}, "geometry": {"type": "Polygon", "coordinates": [[[411253.81, 5656432.54], [411245.27, 5656426.85], [411242.42, 5656431.12], [411250.96, 5656436.81], [411253.81, 5656432.54]]]}}, {"type": "Feature", "properties": {"z": 110.31, "h": 2.64, "hc": [2.24, 3.45, 2.96, 1.8]}, "geometry": {"type": "Polygon", "coordinates": [[[411267.5, 5656548.0], [411267.5, 5656551.0], [411271.0, 5656551.0], [411271.0, 5656548.0], [411267.5, 5656548.0]]]}}, {"type": "Feature", "properties": {"z": 110.34, "h": 2.87}, "geometry": {"type": "Polygon", "coordinates": [[[411292.6, 5656424.3], [411297.8, 5656426.9], [411301.1, 5656420.3], [411295.9, 5656417.7], [411292.6, 5656424.3]]]}}, {"type": "Feature", "properties": {"z": 109.99, "h": 2.24}, "geometry": {"type": "Polygon", "coordinates": [[[411299.0, 5657574.5], [411299.0, 5657579.5], [411305.0, 5657579.5], [411305.0, 5657574.5], [411299.0, 5657574.5]]]}}, {"type": "Feature", "properties": {"z": 109.98, "h": 2.46}, "geometry": {"type": "Polygon", "coordinates": [[[411299.69, 5657541.3], [411298.46, 5657552.38], [411302.68, 5657552.85], [411303.91, 5657541.77], [411299.69, 5657541.3]]]}}, {"type": "Feature", "properties": {"z": 112.49, "h": 2.94}, "geometry": {"type": "Polygon", "coordinates": [[[411303.0, 5656263.0], [411303.0, 5656266.5], [411306.5, 5656266.5], [411306.5, 5656263.0], [411303.0, 5656263.0]]]}}, {"type": "Feature", "properties": {"z": 112.49, "h": 2.91}, "geometry": {"type": "Polygon", "coordinates": [[[411304.0, 5656267.5], [411304.0, 5656271.0], [411307.5, 5656271.0], [411307.5, 5656267.5], [411304.0, 5656267.5]]]}}, {"type": "Feature", "properties": {"z": 112.49, "h": 2.93}, "geometry": {"type": "Polygon", "coordinates": [[[411305.0, 5656271.5], [411305.0, 5656275.0], [411308.5, 5656275.0], [411308.5, 5656271.5], [411305.0, 5656271.5]]]}}, {"type": "Feature", "properties": {"z": 112.47, "h": 2.92}, "geometry": {"type": "Polygon", "coordinates": [[[411306.0, 5656276.0], [411306.0, 5656279.5], [411309.5, 5656279.5], [411309.5, 5656276.0], [411306.0, 5656276.0]]]}}, {"type": "Feature", "properties": {"z": 112.48, "h": 2.9}, "geometry": {"type": "Polygon", "coordinates": [[[411307.0, 5656280.5], [411307.0, 5656284.0], [411310.5, 5656284.0], [411310.5, 5656280.5], [411307.0, 5656280.5]]]}}, {"type": "Feature", "properties": {"z": 110.37, "h": 2.7, "hc": [3.56, 1.8, 1.99, 3.78]}, "geometry": {"type": "Polygon", "coordinates": [[[411308.0, 5656458.0], [411308.0, 5656464.5], [411311.5, 5656464.5], [411311.5, 5656458.0], [411308.0, 5656458.0]]]}}, {"type": "Feature", "properties": {"z": 111.74, "h": 3.64}, "geometry": {"type": "Polygon", "coordinates": [[[411309.78, 5657849.46], [411307.2, 5657852.9], [411311.68, 5657856.26], [411314.26, 5657852.82], [411309.78, 5657849.46]]]}}, {"type": "Feature", "properties": {"z": 111.36, "h": 4.23}, "geometry": {"type": "Polygon", "coordinates": [[[411312.11, 5657775.36], [411325.22, 5657773.72], [411324.9, 5657771.2], [411311.79, 5657772.84], [411312.11, 5657775.36]]]}}, {"type": "Feature", "properties": {"z": 110.44, "h": 3.24}, "geometry": {"type": "Polygon", "coordinates": [[[411318.34, 5656463.57], [411313.77, 5656459.92], [411311.43, 5656462.84], [411316.0, 5656466.5], [411318.34, 5656463.57]]]}}, {"type": "Feature", "properties": {"z": 111.26, "h": 3.8}, "geometry": {"type": "Polygon", "coordinates": [[[411320.31, 5656788.04], [411315.46, 5656784.81], [411313.46, 5656787.81], [411318.31, 5656791.04], [411320.31, 5656788.04]]]}}, {"type": "Feature", "properties": {"z": 110.25, "h": 2.75}, "geometry": {"type": "Polygon", "coordinates": [[[411323.4, 5656762.2], [411325.9, 5656757.2], [411321.3, 5656754.9], [411318.8, 5656759.9], [411323.4, 5656762.2]]]}}, {"type": "Feature", "properties": {"z": 111.17, "h": 4.75}, "geometry": {"type": "Polygon", "coordinates": [[[411336.6, 5657734.8], [411342.2, 5657737.6], [411344.1, 5657733.8], [411338.5, 5657731.0], [411336.6, 5657734.8]]]}}, {"type": "Feature", "properties": {"z": 111.3, "h": 2.81}, "geometry": {"type": "Polygon", "coordinates": [[[411346.16, 5657717.86], [411340.72, 5657715.69], [411339.59, 5657718.53], [411345.02, 5657720.71], [411346.16, 5657717.86]]]}}, {"type": "Feature", "properties": {"z": 111.13, "h": 2.89}, "geometry": {"type": "Polygon", "coordinates": [[[411374.08, 5656352.55], [411381.41, 5656350.45], [411380.4, 5656346.89], [411373.07, 5656348.98], [411374.08, 5656352.55]]]}}, {"type": "Feature", "properties": {"z": 112.11, "h": 3.12}, "geometry": {"type": "Polygon", "coordinates": [[[411389.9, 5657591.7], [411387.3, 5657596.9], [411391.3, 5657598.9], [411393.9, 5657593.7], [411389.9, 5657591.7]]]}}, {"type": "Feature", "properties": {"z": 111.17, "h": 2.81}, "geometry": {"type": "Polygon", "coordinates": [[[411396.55, 5656363.42], [411404.14, 5656361.25], [411403.16, 5656357.81], [411395.57, 5656359.98], [411396.55, 5656363.42]]]}}, {"type": "Feature", "properties": {"z": 111.11, "h": 2.91}, "geometry": {"type": "Polygon", "coordinates": [[[411401.08, 5656348.55], [411403.14, 5656355.75], [411406.71, 5656354.73], [411404.65, 5656347.53], [411401.08, 5656348.55]]]}}, {"type": "Feature", "properties": {"z": 112.64, "h": 5.78, "hc": [6.12, 6.05, 5.24, 5.31]}, "geometry": {"type": "Polygon", "coordinates": [[[411403.5, 5657948.5], [411403.5, 5657953.5], [411405.5, 5657953.5], [411405.5, 5657948.5], [411403.5, 5657948.5]]]}}, {"type": "Feature", "properties": {"z": 112.42, "h": 2.41}, "geometry": {"type": "Polygon", "coordinates": [[[411411.0, 5656271.0], [411412.6, 5656274.2], [411415.6, 5656272.7], [411414.0, 5656269.5], [411411.0, 5656271.0]]]}}, {"type": "Feature", "properties": {"z": 111.61, "h": 3.22}, "geometry": {"type": "Polygon", "coordinates": [[[411412.67, 5656278.43], [411414.84, 5656283.86], [411418.47, 5656282.41], [411416.29, 5656276.98], [411412.67, 5656278.43]]]}}, {"type": "Feature", "properties": {"z": 112.76, "h": 6.1, "hc": [6.36, 6.39, 5.77, 5.74]}, "geometry": {"type": "Polygon", "coordinates": [[[411420.06, 5657841.76], [411418.41, 5657848.35], [411420.65, 5657848.91], [411422.29, 5657842.32], [411420.06, 5657841.76]]]}}, {"type": "Feature", "properties": {"z": 112.69, "h": 6.18, "hc": [6.39, 6.36, 5.94, 5.97]}, "geometry": {"type": "Polygon", "coordinates": [[[411423.32, 5657829.21], [411422.03, 5657834.38], [411424.15, 5657834.91], [411425.44, 5657829.74], [411423.32, 5657829.21]]]}}, {"type": "Feature", "properties": {"z": 112.66, "h": 5.8, "hc": [5.11, 5.45, 6.35, 6.01]}, "geometry": {"type": "Polygon", "coordinates": [[[411425.5, 5657865.0], [411425.5, 5657869.0], [411428.0, 5657869.0], [411428.0, 5657865.0], [411425.5, 5657865.0]]]}}, {"type": "Feature", "properties": {"z": 113.12, "h": 2.52}, "geometry": {"type": "Polygon", "coordinates": [[[411427.0, 5657770.0], [411427.0, 5657774.0], [411430.0, 5657774.0], [411430.0, 5657770.0], [411427.0, 5657770.0]]]}}, {"type": "Feature", "properties": {"z": 113.51, "h": 4.82}, "geometry": {"type": "Polygon", "coordinates": [[[411431.5, 5656014.0], [411431.5, 5656023.5], [411433.5, 5656023.5], [411433.5, 5656014.0], [411431.5, 5656014.0]]]}}, {"type": "Feature", "properties": {"z": 111.12, "h": 2.94, "hc": [3.29, 2.71, 2.53, 3.11]}, "geometry": {"type": "Polygon", "coordinates": [[[411431.5, 5656302.5], [411431.5, 5656306.0], [411435.5, 5656306.0], [411435.5, 5656302.5], [411431.5, 5656302.5]]]}}, {"type": "Feature", "properties": {"z": 113.23, "h": 2.55}, "geometry": {"type": "Polygon", "coordinates": [[[411434.5, 5657760.5], [411434.5, 5657764.5], [411438.5, 5657764.5], [411438.5, 5657760.5], [411434.5, 5657760.5]]]}}, {"type": "Feature", "properties": {"z": 111.17, "h": 2.93}, "geometry": {"type": "Polygon", "coordinates": [[[411436.0, 5656301.0], [411436.0, 5656304.0], [411440.0, 5656304.0], [411440.0, 5656301.0], [411436.0, 5656301.0]]]}}, {"type": "Feature", "properties": {"z": 112.92, "h": 2.83}, "geometry": {"type": "Polygon", "coordinates": [[[411453.08, 5657730.39], [411450.54, 5657734.19], [411454.46, 5657736.81], [411457.0, 5657733.0], [411453.08, 5657730.39]]]}}, {"type": "Feature", "properties": {"z": 112.76, "h": 3.24}, "geometry": {"type": "Polygon", "coordinates": [[[411455.5, 5657949.0], [411455.5, 5657953.5], [411458.5, 5657953.5], [411458.5, 5657949.0], [411455.5, 5657949.0]]]}}, {"type": "Feature", "properties": {"z": 112.72, "h": 3.18}, "geometry": {"type": "Polygon", "coordinates": [[[411459.0, 5657727.5], [411459.0, 5657735.5], [411463.5, 5657735.5], [411463.5, 5657727.5], [411459.0, 5657727.5]]]}}, {"type": "Feature", "properties": {"z": 113.01, "h": 4.07}, "geometry": {"type": "Polygon", "coordinates": [[[411464.05, 5657791.08], [411460.48, 5657803.57], [411463.39, 5657804.4], [411466.95, 5657791.92], [411464.05, 5657791.08]]]}}, {"type": "Feature", "properties": {"z": 113.64, "h": 2.88}, "geometry": {"type": "Polygon", "coordinates": [[[411489.5, 5656016.5], [411489.5, 5656020.0], [411493.0, 5656020.0], [411493.0, 5656016.5], [411489.5, 5656016.5]]]}}, {"type": "Feature", "properties": {"z": 113.63, "h": 2.84}, "geometry": {"type": "Polygon", "coordinates": [[[411489.5, 5656020.0], [411489.5, 5656024.0], [411497.0, 5656024.0], [411497.0, 5656020.0], [411489.5, 5656020.0]]]}}, {"type": "Feature", "properties": {"z": 113.01, "h": 2.7}, "geometry": {"type": "Polygon", "coordinates": [[[411489.5, 5656261.0], [411489.5, 5656264.5], [411492.0, 5656264.5], [411492.0, 5656261.0], [411489.5, 5656261.0]]]}}, {"type": "Feature", "properties": {"z": 112.62, "h": 2.7}, "geometry": {"type": "Polygon", "coordinates": [[[411497.0, 5656312.0], [411497.0, 5656315.5], [411500.5, 5656315.5], [411500.5, 5656312.0], [411497.0, 5656312.0]]]}}, {"type": "Feature", "properties": {"z": 112.54, "h": 2.71}, "geometry": {"type": "Polygon", "coordinates": [[[411498.0, 5656316.0], [411498.0, 5656320.0], [411501.5, 5656320.0], [411501.5, 5656316.0], [411498.0, 5656316.0]]]}}, {"type": "Feature", "properties": {"z": 112.74, "h": 2.67}, "geometry": {"type": "Polygon", "coordinates": [[[411498.2, 5656303.6], [411494.45, 5656304.85], [411495.65, 5656308.45], [411499.4, 5656307.2], [411498.2, 5656303.6]]]}}, {"type": "Feature", "properties": {"z": 111.71, "h": 5.59}, "geometry": {"type": "Polygon", "coordinates": [[[411527.45, 5656489.62], [411531.0, 5656498.5], [411536.6, 5656496.26], [411533.05, 5656487.38], [411527.45, 5656489.62]]]}}, {"type": "Feature", "properties": {"z": 111.98, "h": 3.75}, "geometry": {"type": "Polygon", "coordinates": [[[411532.0, 5657414.5], [411532.0, 5657418.0], [411535.5, 5657418.0], [411535.5, 5657414.5], [411532.0, 5657414.5]]]}}, {"type": "Feature", "properties": {"z": 111.9, "h": 5.22}, "geometry": {"type": "Polygon", "coordinates": [[[411553.0, 5657144.5], [411550.25, 5657147.25], [411553.25, 5657150.25], [411556.0, 5657147.5], [411553.0, 5657144.5]]]}}, {"type": "Feature", "properties": {"z": 113.17, "h": 5.04}, "geometry": {"type": "Polygon", "coordinates": [[[411574.5, 5657979.5], [411574.5, 5657983.5], [411577.0, 5657983.5], [411577.0, 5657979.5], [411574.5, 5657979.5]]]}}, {"type": "Feature", "properties": {"z": 112.92, "h": 3.05}, "geometry": {"type": "Polygon", "coordinates": [[[411576.29, 5657903.41], [411578.36, 5657894.43], [411575.62, 5657893.8], [411573.55, 5657902.78], [411576.29, 5657903.41]]]}}, {"type": "Feature", "properties": {"z": 112.98, "h": 2.39}, "geometry": {"type": "Polygon", "coordinates": [[[411588.5, 5657938.5], [411588.5, 5657944.5], [411592.5, 5657944.5], [411592.5, 5657938.5], [411588.5, 5657938.5]]]}}, {"type": "Feature", "properties": {"z": 112.18, "h": 5.04}, "geometry": {"type": "Polygon", "coordinates": [[[411598.52, 5657118.77], [411604.5, 5657111.93], [411600.64, 5657108.56], [411594.66, 5657115.39], [411598.52, 5657118.77]]]}}, {"type": "Feature", "properties": {"z": 113.01, "h": 2.33}, "geometry": {"type": "Polygon", "coordinates": [[[411606.5, 5657934.0], [411606.5, 5657937.5], [411611.0, 5657937.5], [411611.0, 5657934.0], [411606.5, 5657934.0]]]}}, {"type": "Feature", "properties": {"z": 112.12, "h": 5.09}, "geometry": {"type": "Polygon", "coordinates": [[[411616.14, 5657092.98], [411624.3, 5657099.1], [411628.56, 5657093.42], [411620.4, 5657087.3], [411616.14, 5657092.98]]]}}, {"type": "Feature", "properties": {"z": 112.21, "h": 2.26}, "geometry": {"type": "Polygon", "coordinates": [[[411637.88, 5656489.03], [411644.94, 5656487.26], [411642.76, 5656478.56], [411635.71, 5656480.32], [411637.88, 5656489.03]]]}}, {"type": "Feature", "properties": {"z": 112.15, "h": 2.41}, "geometry": {"type": "Polygon", "coordinates": [[[411641.91, 5656489.03], [411644.02, 5656494.29], [411647.47, 5656492.91], [411645.36, 5656487.66], [411641.91, 5656489.03]]]}}, {"type": "Feature", "properties": {"z": 110.24, "h": 3.55, "hc": [3.12, 2.47, 3.92, 4.56]}, "geometry": {"type": "Polygon", "coordinates": [[[411658.5, 5656958.5], [411656.25, 5656960.75], [411659.5, 5656964.0], [411661.75, 5656961.75], [411658.5, 5656958.5]]]}}, {"type": "Feature", "properties": {"z": 110.18, "h": 3.62, "hc": [3.23, 2.62, 4.1, 4.71]}, "geometry": {"type": "Polygon", "coordinates": [[[411662.0, 5656956.0], [411659.75, 5656958.25], [411663.0, 5656961.5], [411665.25, 5656959.25], [411662.0, 5656956.0]]]}}, {"type": "Feature", "properties": {"z": 110.23, "h": 3.56, "hc": [4.72, 3.17, 2.49, 4.05]}, "geometry": {"type": "Polygon", "coordinates": [[[411668.52, 5656957.86], [411665.4, 5656953.7], [411663.0, 5656955.5], [411666.12, 5656959.66], [411668.52, 5656957.86]]]}}, {"type": "Feature", "properties": {"z": 111.97, "h": 3.73}, "geometry": {"type": "Polygon", "coordinates": [[[411673.11, 5657471.4], [411667.59, 5657481.33], [411673.45, 5657484.59], [411678.97, 5657474.65], [411673.11, 5657471.4]]]}}, {"type": "Feature", "properties": {"z": 110.23, "h": 3.61, "hc": [3.07, 2.52, 4.09, 4.63]}, "geometry": {"type": "Polygon", "coordinates": [[[411673.75, 5656948.25], [411671.5, 5656950.5], [411674.75, 5656953.75], [411677.0, 5656951.5], [411673.75, 5656948.25]]]}}, {"type": "Feature", "properties": {"z": 110.08, "h": 3.61, "hc": [2.58, 4.03, 4.6, 3.16]}, "geometry": {"type": "Polygon", "coordinates": [[[411674.9, 5656947.7], [411677.72, 5656951.46], [411680.04, 5656949.72], [411677.22, 5656945.96], [411674.9, 5656947.7]]]}}, {"type": "Feature", "properties": {"z": 110.12, "h": 3.69, "hc": [2.57, 4.12, 4.8, 3.25]}, "geometry": {"type": "Polygon", "coordinates": [[[411678.46, 5656945.78], [411681.28, 5656949.54], [411683.76, 5656947.68], [411680.94, 5656943.92], [411678.46, 5656945.78]]]}}, {"type": "Feature", "properties": {"z": 110.08, "h": 3.72, "hc": [3.25, 2.68, 4.07, 4.64]}, "geometry": {"type": "Polygon", "coordinates": [[[411684.0, 5656942.0], [411681.75, 5656944.25], [411684.75, 5656947.25], [411687.0, 5656945.0], [411684.0, 5656942.0]]]}}, {"type": "Feature", "properties": {"z": 113.58, "h": 2.9}, "geometry": {"type": "Polygon", "coordinates": [[[411690.05, 5656044.15], [411693.8, 5656055.4], [411697.25, 5656054.25], [411693.5, 5656043.0], [411690.05, 5656044.15]]]}}, {"type": "Feature", "properties": {"z": 112.5, "h": 2.72}, "geometry": {"type": "Polygon", "coordinates": [[[411692.2, 5656367.1], [411690.7, 5656370.1], [411693.9, 5656371.7], [411695.4, 5656368.7], [411692.2, 5656367.1]]]}}, {"type": "Feature", "properties": {"z": 112.54, "h": 2.69}, "geometry": {"type": "Polygon", "coordinates": [[[411693.0, 5656363.5], [411693.0, 5656367.0], [411696.5, 5656367.0], [411696.5, 5656363.5], [411693.0, 5656363.5]]]}}, {"type": "Feature", "properties": {"z": 113.47, "h": 2.8}, "geometry": {"type": "Polygon", "coordinates": [[[411696.0, 5656058.5], [411696.0, 5656062.0], [411700.0, 5656062.0], [411700.0, 5656058.5], [411696.0, 5656058.5]]]}}, {"type": "Feature", "properties": {"z": 113.39, "h": 2.77}, "geometry": {"type": "Polygon", "coordinates": [[[411696.65, 5656063.45], [411697.8, 5656066.9], [411701.7, 5656065.6], [411700.55, 5656062.15], [411696.65, 5656063.45]]]}}, {"type": "Feature", "properties": {"z": 113.5, "h": 2.74}, "geometry": {"type": "Polygon", "coordinates": [[[411710.03, 5656041.24], [411712.8, 5656048.64], [411719.43, 5656046.15], [411716.66, 5656038.75], [411710.03, 5656041.24]]]}}, {"type": "Feature", "properties": {"z": 110.57, "h": 3.01}, "geometry": {"type": "Polygon", "coordinates": [[[411712.8, 5657731.54], [411723.2, 5657736.27], [411724.55, 5657733.29], [411714.15, 5657728.57], [411712.8, 5657731.54]]]}}, {"type": "Feature", "properties": {"z": 110.2, "h": 2.71}, "geometry": {"type": "Polygon", "coordinates": [[[411731.75, 5656951.75], [411729.25, 5656949.25], [411727.0, 5656951.5], [411729.5, 5656954.0], [411731.75, 5656951.75]]]}}, {"type": "Feature", "properties": {"z": 113.26, "h": 3.4}, "geometry": {"type": "Polygon", "coordinates": [[[411734.25, 5657186.75], [411729.0, 5657188.5], [411730.55, 5657193.15], [411735.8, 5657191.4], [411734.25, 5657186.75]]]}}, {"type": "Feature", "properties": {"z": 112.81, "h": 2.9}, "geometry": {"type": "Polygon", "coordinates": [[[411746.25, 5657310.25], [411748.75, 5657312.75], [411751.5, 5657310.0], [411749.0, 5657307.5], [411746.25, 5657310.25]]]}}, {"type": "Feature", "properties": {"z": 113.39, "h": 2.53}, "geometry": {"type": "Polygon", "coordinates": [[[411763.0, 5657423.0], [411763.0, 5657427.5], [411766.0, 5657427.5], [411766.0, 5657423.0], [411763.0, 5657423.0]]]}}, {"type": "Feature", "properties": {"z": 110.13, "h": 4.41}, "geometry": {"type": "Polygon", "coordinates": [[[411770.26, 5656502.04], [411769.09, 5656495.07], [411761.31, 5656496.36], [411762.47, 5656503.34], [411770.26, 5656502.04]]]}}, {"type": "Feature", "properties": {"z": 112.66, "h": 2.28}, "geometry": {"type": "Polygon", "coordinates": [[[411777.5, 5657134.0], [411780.3, 5657132.6], [411778.9, 5657129.8], [411776.1, 5657131.2], [411777.5, 5657134.0]]]}}, {"type": "Feature", "properties": {"z": 110.19, "h": 2.7, "hc": [2.93, 2.99, 2.33, 2.27]}, "geometry": {"type": "Polygon", "coordinates": [[[411799.0, 5656893.5], [411799.0, 5656899.5], [411802.5, 5656899.5], [411802.5, 5656893.5], [411799.0, 5656893.5]]]}}, {"type": "Feature", "properties": {"z": 113.95, "h": 3.11}, "geometry": {"type": "Polygon", "coordinates": [[[411805.85, 5656016.41], [411796.32, 5656018.79], [411797.38, 5656023.03], [411806.91, 5656020.65], [411805.85, 5656016.41]]]}}, {"type": "Feature", "properties": {"z": 114.0, "h": 2.49, "hc": [3.07, 2.58, 1.89, 2.38]}, "geometry": {"type": "Polygon", "coordinates": [[[411811.0, 5656014.5], [411808.5, 5656017.0], [411811.5, 5656020.0], [411814.0, 5656017.5], [411811.0, 5656014.5]]]}}, {"type": "Feature", "properties": {"z": 110.27, "h": 3.32}, "geometry": {"type": "Polygon", "coordinates": [[[411814.5, 5656926.0], [411814.5, 5656931.5], [411820.5, 5656931.5], [411820.5, 5656926.0], [411814.5, 5656926.0]]]}}, {"type": "Feature", "properties": {"z": 110.38, "h": 2.48}, "geometry": {"type": "Polygon", "coordinates": [[[411833.0, 5656948.0], [411829.5, 5656941.0], [411825.3, 5656943.1], [411828.8, 5656950.1], [411833.0, 5656948.0]]]}}, {"type": "Feature", "properties": {"z": 112.63, "h": 3.88, "hc": [3.0, 3.65, 4.82, 4.17]}, "geometry": {"type": "Polygon", "coordinates": [[[411858.75, 5656464.75], [411856.5, 5656467.0], [411859.75, 5656470.25], [411862.0, 5656468.0], [411858.75, 5656464.75]]]}}, {"type": "Feature", "properties": {"z": 111.41, "h": 4.59}, "geometry": {"type": "Polygon", "coordinates": [[[411880.28, 5657069.54], [411876.14, 5657064.02], [411874.06, 5657065.58], [411878.2, 5657071.1], [411880.28, 5657069.54]]]}}, {"type": "Feature", "properties": {"z": 111.5, "h": 4.5}, "geometry": {"type": "Polygon", "coordinates": [[[411885.56, 5657082.76], [411889.04, 5657088.57], [411891.47, 5657087.12], [411887.99, 5657081.31], [411885.56, 5657082.76]]]}}, {"type": "Feature", "properties": {"z": 112.7, "h": 2.72}, "geometry": {"type": "Polygon", "coordinates": [[[411894.67, 5657716.37], [411900.35, 5657715.23], [411899.15, 5657709.27], [411893.48, 5657710.4], [411894.67, 5657716.37]]]}}, {"type": "Feature", "properties": {"z": 112.7, "h": 3.51, "hc": [4.21, 4.17, 2.84, 2.88]}, "geometry": {"type": "Polygon", "coordinates": [[[411895.96, 5657788.81], [411891.15, 5657789.77], [411892.37, 5657795.83], [411897.17, 5657794.87], [411895.96, 5657788.81]]]}}, {"type": "Feature", "properties": {"z": 112.71, "h": 2.67}, "geometry": {"type": "Polygon", "coordinates": [[[411901.0, 5657715.5], [411901.0, 5657721.0], [411907.0, 5657721.0], [411907.0, 5657715.5], [411901.0, 5657715.5]]]}}, {"type": "Feature", "properties": {"z": 113.96, "h": 3.51}, "geometry": {"type": "Polygon", "coordinates": [[[411904.1, 5657319.8], [411907.86, 5657316.98], [411906.0, 5657314.5], [411902.24, 5657317.32], [411904.1, 5657319.8]]]}}, {"type": "Feature", "properties": {"z": 111.92, "h": 4.47}, "geometry": {"type": "Polygon", "coordinates": [[[411904.85, 5657115.27], [411908.54, 5657120.81], [411910.5, 5657119.5], [411906.81, 5657113.96], [411904.85, 5657115.27]]]}}, {"type": "Feature", "properties": {"z": 112.49, "h": 2.18}, "geometry": {"type": "Polygon", "coordinates": [[[411908.75, 5656448.75], [411905.25, 5656452.25], [411911.25, 5656458.25], [411914.75, 5656454.75], [411908.75, 5656448.75]]]}}, {"type": "Feature", "properties": {"z": 111.44, "h": 4.48}, "geometry": {"type": "Polygon", "coordinates": [[[411909.35, 5657040.77], [411914.42, 5657037.38], [411913.19, 5657035.54], [411908.11, 5657038.92], [411909.35, 5657040.77]]]}}, {"type": "Feature", "properties": {"z": 112.67, "h": 3.29}, "geometry": {"type": "Polygon", "coordinates": [[[411916.25, 5657805.75], [411913.25, 5657808.75], [411915.5, 5657811.0], [411918.5, 5657808.0], [411916.25, 5657805.75]]]}}, {"type": "Feature", "properties": {"z": 111.86, "h": 4.52}, "geometry": {"type": "Polygon", "coordinates": [[[411920.38, 5657139.2], [411924.14, 5657145.22], [411926.34, 5657143.85], [411922.58, 5657137.83], [411920.38, 5657139.2]]]}}, {"type": "Feature", "properties": {"z": 113.71, "h": 4.67}, "geometry": {"type": "Polygon", "coordinates": [[[411934.96, 5656241.69], [411931.27, 5656244.15], [411933.35, 5656247.27], [411937.04, 5656244.81], [411934.96, 5656241.69]]]}}, {"type": "Feature", "properties": {"z": 113.64, "h": 4.77}, "geometry": {"type": "Polygon", "coordinates": [[[411939.0, 5656249.5], [411935.2, 5656251.4], [411937.0, 5656255.0], [411940.8, 5656253.1], [411939.0, 5656249.5]]]}}, {"type": "Feature", "properties": {"z": 113.34, "h": 3.36, "hc": [1.92, 5.41, 5.43, 1.95]}, "geometry": {"type": "Polygon", "coordinates": [[[411974.0, 5657150.5], [411983.75, 5657160.25], [411989.0, 5657155.0], [411979.25, 5657145.25], [411974.0, 5657150.5]]]}}, {"type": "Feature", "properties": {"z": 113.55, "h": 4.3}, "geometry": {"type": "Polygon", "coordinates": [[[411976.83, 5657268.39], [411967.54, 5657272.67], [411970.37, 5657278.79], [411979.66, 5657274.5], [411976.83, 5657268.39]]]}}, {"type": "Feature", "properties": {"z": 113.39, "h": 4.87, "hc": [5.6, 3.83, 3.86, 5.63]}, "geometry": {"type": "Polygon", "coordinates": [[[411982.85, 5657161.91], [411978.37, 5657156.68], [411975.9, 5657158.8], [411980.38, 5657164.03], [411982.85, 5657161.91]]]}}, {"type": "Feature", "properties": {"z": 112.46, "h": 4.43}, "geometry": {"type": "Polygon", "coordinates": [[[411983.61, 5657228.42], [411986.69, 5657233.04], [411989.11, 5657231.42], [411986.04, 5657226.81], [411983.61, 5657228.42]]]}}, {"type": "Feature", "properties": {"z": 112.53, "h": 2.68, "hc": [2.82, 2.31, 2.53, 3.03]}, "geometry": {"type": "Polygon", "coordinates": [[[411987.5, 5657530.5], [411987.5, 5657534.0], [411991.0, 5657534.0], [411991.0, 5657530.5], [411987.5, 5657530.5]]]}}]}