{"type": "FeatureCollection", "attribution": "Quelle: GeoSN, dl-de/by-2-0 (laser scan, LoD2)", "crs": {"type": "name", "properties": {"name": "urn:ogc:def:crs:EPSG::25833"}}, "features": [{"type": "Feature", "properties": {"z": 113.93, "h": 2.65, "hc": [3.44, 2.65, 1.8, 2.55]}, "geometry": {"type": "Polygon", "coordinates": [[[416000.0, 5654082.0], [416000.0, 5654088.0], [416005.0, 5654088.0], [416005.0, 5654082.0], [416000.0, 5654082.0]]]}}, {"type": "Feature", "properties": {"z": 114.1, "h": 2.82}, "geometry": {"type": "Polygon", "coordinates": [[[416001.75, 5654035.25], [415997.25, 5654039.75], [416000.25, 5654042.75], [416004.75, 5654038.25], [416001.75, 5654035.25]]]}}, {"type": "Feature", "properties": {"z": 113.76, "h": 2.76, "hc": [3.2, 2.33, 2.32, 3.19]}, "geometry": {"type": "Polygon", "coordinates": [[[416004.45, 5654009.12], [416002.28, 5654003.69], [415998.48, 5654005.21], [416000.65, 5654010.64], [416004.45, 5654009.12]]]}}, {"type": "Feature", "properties": {"z": 114.22, "h": 2.99, "hc": [2.71, 3.71, 3.39, 2.39]}, "geometry": {"type": "Polygon", "coordinates": [[[416007.25, 5655485.25], [416012.25, 5655490.25], [416015.75, 5655486.75], [416010.75, 5655481.75], [416007.25, 5655485.25]]]}}, {"type": "Feature", "properties": {"z": 113.94, "h": 2.94}, "geometry": {"type": "Polygon", "coordinates": [[[416016.38, 5654032.53], [416011.79, 5654033.68], [416012.71, 5654037.32], [416017.29, 5654036.18], [416016.38, 5654032.53]]]}}, {"type": "Feature", "properties": {"z": 115.2, "h": 4.63}, "geometry": {"type": "Polygon", "coordinates": [[[416023.8, 5654690.37], [416034.99, 5654683.84], [416033.7, 5654681.63], [416022.51, 5654688.16], [416023.8, 5654690.37]]]}}, {"type": "Feature", "properties": {"z": 115.16, "h": 5.27}, "geometry": {"type": "Polygon", "coordinates": [[[416029.5, 5654722.5], [416023.9, 5654725.3], [416027.8, 5654733.1], [416033.4, 5654730.3], [416029.5, 5654722.5]]]}}, {"type": "Feature", "properties": {"z": 113.65, "h": 2.79, "hc": [2.4, 3.32, 3.11, 2.19]}, "geometry": {"type": "Polygon", "coordinates": [[[416031.35, 5654028.23], [416025.1, 5654029.48], [416026.06, 5654034.29], [416032.31, 5654033.04], [416031.35, 5654028.23]]]}}, {"type": "Feature", "properties": {"z": 113.9, "h": 2.59}, "geometry": {"type": "Polygon", "coordinates": [[[416037.0, 5654043.0], [416037.0, 5654046.5], [416041.0, 5654046.5], [416041.0, 5654043.0], [416037.0, 5654043.0]]]}}, {"type": "Feature", "properties": {"z": 114.65, "h": 2.39, "hc": [1.86, 2.25, 2.89, 2.5]}, "geometry": {"type": "Polygon", "coordinates": [[[416043.5, 5655398.0], [416040.25, 5655401.25], [416043.25, 5655404.25], [416046.5, 5655401.0], [416043.5, 5655398.0]]]}}, {"type": "Feature", "properties": {"z": 115.21, "h": 5.21}, "geometry": {"type": "Polygon", "coordinates": [[[416044.1, 5654708.34], [416051.78, 5654721.13], [416060.16, 5654716.1], [416052.49, 5654703.31], [416044.1, 5654708.34]]]}}, {"type": "Feature", "properties": {"z": 115.14, "h": 4.69}, "geometry": {"type": "Polygon", "coordinates": [[[416048.43, 5654673.45], [416035.46, 5654680.52], [416036.71, 5654682.8], [416049.67, 5654675.73], [416048.43, 5654673.45]]]}}, {"type": "Feature", "properties": {"z": 114.8, "h": 2.63}, "geometry": {"type": "Polygon", "coordinates": [[[416048.85, 5654072.59], [416046.07, 5654067.96], [416042.47, 5654070.12], [416045.25, 5654074.75], [416048.85, 5654072.59]]]}}, {"type": "Feature", "properties": {"z": 113.54, "h": 2.54}, "geometry": {"type": "Polygon", "coordinates": [[[416050.3, 5654022.26], [416041.63, 5654021.29], [416041.12, 5654025.9], [416049.79, 5654026.87], [416050.3, 5654022.26]]]}}, {"type": "Feature", "properties": {"z": 113.65, "h": 2.84}, "geometry": {"type": "Polygon", "coordinates": [[[416055.0, 5654034.5], [416051.75, 5654037.75], [416054.0, 5654040.0], [416057.25, 5654036.75], [416055.0, 5654034.5]]]}}, {"type": "Feature", "properties": {"z": 115.1, "h": 4.73}, "geometry": {"type": "Polygon", "coordinates": [[[416055.0, 5654669.5], [416049.46, 5654673.19], [416050.85, 5654675.27], [416056.38, 5654671.58], [416055.0, 5654669.5]]]}}, {"type": "Feature", "properties": {"z": 113.64, "h": 2.91}, "geometry": {"type": "Polygon", "coordinates": [[[416056.5, 5654018.0], [416053.25, 5654021.25], [416056.5, 5654024.5], [416059.75, 5654021.25], [416056.5, 5654018.0]]]}}, {"type": "Feature", "properties": {"z": 113.49, "h": 2.86}, "geometry": {"type": "Polygon", "coordinates": [[[416063.1, 5654016.7], [416065.3, 5654021.1], [416069.3, 5654019.1], [416067.1, 5654014.7], [416063.1, 5654016.7]]]}}, {"type": "Feature", "properties": {"z": 114.41, "h": 2.89}, "geometry": {"type": "Polygon", "coordinates": [[[416063.6, 5655937.3], [416059.1, 5655931.3], [416056.38, 5655933.34], [416060.88, 5655939.34], [416063.6, 5655937.3]]]}}, {"type": "Feature", "properties": {"z": 114.21, "h": 2.42}, "geometry": {"type": "Polygon", "coordinates": [[[416063.7, 5654065.4], [416062.0, 5654062.0], [416057.0, 5654064.5], [416058.7, 5654067.9], [416063.7, 5654065.4]]]}}, {"type": "Feature", "properties": {"z": 113.95, "h": 2.85}, "geometry": {"type": "Polygon", "coordinates": [[[416064.25, 5655902.25], [416062.25, 5655904.25], [416065.5, 5655907.5], [416067.5, 5655905.5], [416064.25, 5655902.25]]]}}, {"type": "Feature", "properties": {"z": 113.97, "h": 2.74}, "geometry": {"type": "Polygon", "coordinates": [[[416064.6, 5654043.7], [416066.7, 5654047.9], [416070.9, 5654045.8], [416068.8, 5654041.6], [416064.6, 5654043.7]]]}}, {"type": "Feature", "properties": {"z": 114.33, "h": 2.67}, "geometry": {"type": "Polygon", "coordinates": [[[416065.25, 5655948.75], [416068.0, 5655951.5], [416071.0, 5655948.5], [416068.25, 5655945.75], [416065.25, 5655948.75]]]}}, {"type": "Feature", "properties": {"z": 114.85, "h": 2.43}, "geometry": {"type": "Polygon", "coordinates": [[[416069.75, 5655982.25], [416066.5, 5655985.5], [416068.75, 5655987.75], [416072.0, 5655984.5], [416069.75, 5655982.25]]]}}, {"type": "Feature", "properties": {"z": 114.94, "h": 3.94}, "geometry": {"type": "Polygon", "coordinates": [[[416070.04, 5654469.12], [416063.76, 5654473.52], [416066.13, 5654476.91], [416072.41, 5654472.51], [416070.04, 5654469.12]]]}}, {"type": "Feature", "properties": {"z": 113.64, "h": 2.88}, "geometry": {"type": "Polygon", "coordinates": [[[416073.75, 5654016.25], [416078.27, 5654015.35], [416077.44, 5654011.21], [416072.92, 5654012.12], [416073.75, 5654016.25]]]}}, {"type": "Feature", "properties": {"z": 114.04, "h": 2.3}, "geometry": {"type": "Polygon", "coordinates": [[[416076.75, 5655808.25], [416074.25, 5655810.75], [416077.75, 5655814.25], [416080.25, 5655811.75], [416076.75, 5655808.25]]]}}, {"type": "Feature", "properties": {"z": 114.65, "h": 2.54}, "geometry": {"type": "Polygon", "coordinates": [[[416077.65, 5655969.79], [416082.72, 5655965.57], [416079.85, 5655962.12], [416074.79, 5655966.35], [416077.65, 5655969.79]]]}}, {"type": "Feature", "properties": {"z": 113.77, "h": 2.47}, "geometry": {"type": "Polygon", "coordinates": [[[416079.33, 5654024.63], [416080.06, 5654028.29], [416083.23, 5654027.65], [416082.5, 5654024.0], [416079.33, 5654024.63]]]}}, {"type": "Feature", "properties": {"z": 113.72, "h": 2.66}, "geometry": {"type": "Polygon", "coordinates": [[[416081.2, 5654037.4], [416083.3, 5654041.6], [416087.7, 5654039.4], [416085.6, 5654035.2], [416081.2, 5654037.4]]]}}, {"type": "Feature", "properties": {"z": 113.39, "h": 2.99}, "geometry": {"type": "Polygon", "coordinates": [[[416082.0, 5654009.0], [416084.0, 5654013.0], [416088.0, 5654011.0], [416086.0, 5654007.0], [416082.0, 5654009.0]]]}}, {"type": "Feature", "properties": {"z": 114.39, "h": 2.77, "hc": [2.31, 3.65, 3.32, 1.98]}, "geometry": {"type": "Polygon", "coordinates": [[[416083.0, 5655642.5], [416079.75, 5655645.75], [416083.25, 5655649.25], [416086.5, 5655646.0], [416083.0, 5655642.5]]]}}, {"type": "Feature", "properties": {"z": 113.54, "h": 3.73, "hc": [4.3, 4.0, 3.14, 3.44]}, "geometry": {"type": "Polygon", "coordinates": [[[416088.5, 5655659.0], [416093.25, 5655663.75], [416096.25, 5655660.75], [416091.5, 5655656.0], [416088.5, 5655659.0]]]}}, {"type": "Feature", "properties": {"z": 114.44, "h": 2.8}, "geometry": {"type": "Polygon", "coordinates": [[[416089.75, 5655966.25], [416088.0, 5655968.0], [416091.0, 5655971.0], [416092.75, 5655969.25], [416089.75, 5655966.25]]]}}, {"type": "Feature", "properties": {"z": 114.6, "h": 3.2}, "geometry": {"type": "Polygon", "coordinates": [[[416092.25, 5655704.75], [416089.75, 5655702.25], [416087.5, 5655704.5], [416090.0, 5655707.0], [416092.25, 5655704.75]]]}}, {"type": "Feature", "properties": {"z": 113.55, "h": 2.45}, "geometry": {"type": "Polygon", "coordinates": [[[416098.25, 5654028.75], [416095.75, 5654026.25], [416093.5, 5654028.5], [416096.0, 5654031.0], [416098.25, 5654028.75]]]}}, {"type": "Feature", "properties": {"z": 114.76, "h": 2.27}, "geometry": {"type": "Polygon", "coordinates": [[[416099.61, 5655276.42], [416103.31, 5655281.96], [416107.81, 5655278.96], [416104.11, 5655273.42], [416099.61, 5655276.42]]]}}, {"type": "Feature", "properties": {"z": 113.94, "h": 2.54}, "geometry": {"type": "Polygon", "coordinates": [[[416102.25, 5655099.25], [416099.25, 5655102.25], [416102.0, 5655105.0], [416105.0, 5655102.0], [416102.25, 5655099.25]]]}}, {"type": "Feature", "properties": {"z": 114.49, "h": 2.84, "hc": [2.62, 2.54, 3.05, 3.13]}, "geometry": {"type": "Polygon", "coordinates": [[[416106.34, 5654077.86], [416108.45, 5654083.12], [416111.72, 5654081.81], [416109.62, 5654076.55], [416106.34, 5654077.86]]]}}, {"type": "Feature", "properties": {"z": 114.3, "h": 2.59}, "geometry": {"type": "Polygon", "coordinates": [[[416107.1, 5654066.8], [416102.3, 5654068.4], [416103.65, 5654072.45], [416108.45, 5654070.85], [416107.1, 5654066.8]]]}}, {"type": "Feature", "properties": {"z": 112.88, "h": 3.18}, "geometry": {"type": "Polygon", "coordinates": [[[416112.5, 5654015.5], [416109.75, 5654018.25], [416114.5, 5654023.0], [416117.25, 5654020.25], [416112.5, 5654015.5]]]}}, {"type": "Feature", "properties": {"z": 114.68, "h": 2.8, "hc": [2.99, 3.37, 2.66, 2.28]}, "geometry": {"type": "Polygon", "coordinates": [[[416113.5, 5654092.0], [416113.5, 5654099.0], [416118.0, 5654099.0], [416118.0, 5654092.0], [416113.5, 5654092.0]]]}}, {"type": "Feature", "properties": {"z": 114.01, "h": 2.82}, "geometry": {"type": "Polygon", "coordinates": [[[416115.45, 5655524.35], [416120.4, 5655522.7], [416119.4, 5655519.7], [416114.45, 5655521.35], [416115.45, 5655524.35]]]}}, {"type": "Feature", "properties": {"z": 115.05, "h": 2.65}, "geometry": {"type": "Polygon", "coordinates": [[[416123.44, 5654109.24], [416121.02, 5654105.19], [416117.56, 5654107.26], [416119.99, 5654111.31], [416123.44, 5654109.24]]]}}, {"type": "Feature", "properties": {"z": 113.45, "h": 2.64}, "geometry": {"type": "Polygon", "coordinates": [[[416124.5, 5654035.0], [416120.75, 5654031.25], [416117.75, 5654034.25], [416121.5, 5654038.0], [416124.5, 5654035.0]]]}}, {"type": "Feature", "properties": {"z": 113.9, "h": 2.62}, "geometry": {"type": "Polygon", "coordinates": [[[416128.7, 5655101.4], [416132.5, 5655099.5], [416130.5, 5655095.5], [416126.7, 5655097.4], [416128.7, 5655101.4]]]}}, {"type": "Feature", "properties": {"z": 115.07, "h": 2.43}, "geometry": {"type": "Polygon", "coordinates": [[[416137.46, 5654207.83], [416141.37, 5654212.71], [416144.96, 5654209.83], [416141.06, 5654204.95], [416137.46, 5654207.83]]]}}, {"type": "Feature", "properties": {"z": 115.12, "h": 2.41}, "geometry": {"type": "Polygon", "coordinates": [[[416139.0, 5655333.5], [416135.0, 5655337.5], [416139.0, 5655341.5], [416143.0, 5655337.5], [416139.0, 5655333.5]]]}}, {"type": "Feature", "properties": {"z": 114.25, "h": 2.96}, "geometry": {"type": "Polygon", "coordinates": [[[416139.31, 5654078.01], [416142.49, 5654083.31], [416145.87, 5654081.28], [416142.69, 5654075.99], [416139.31, 5654078.01]]]}}, {"type": "Feature", "properties": {"z": 114.18, "h": 2.9}, "geometry": {"type": "Polygon", "coordinates": [[[416144.5, 5654068.5], [416141.0, 5654072.0], [416143.75, 5654074.75], [416147.25, 5654071.25], [416144.5, 5654068.5]]]}}, {"type": "Feature", "properties": {"z": 114.73, "h": 2.81}, "geometry": {"type": "Polygon", "coordinates": [[[416144.69, 5655704.54], [416147.54, 5655708.81], [416151.35, 5655706.27], [416148.5, 5655702.0], [416144.69, 5655704.54]]]}}, {"type": "Feature", "properties": {"z": 114.8, "h": 2.62}, "geometry": {"type": "Polygon", "coordinates": [[[416156.75, 5654100.75], [416153.75, 5654103.75], [416156.75, 5654106.75], [416159.75, 5654103.75], [416156.75, 5654100.75]]]}}, {"type": "Feature", "properties": {"z": 114.62, "h": 2.42}, "geometry": {"type": "Polygon", "coordinates": [[[416159.54, 5654091.31], [416155.96, 5654093.69], [416158.27, 5654097.15], [416161.85, 5654094.77], [416159.54, 5654091.31]]]}}, {"type": "Feature", "properties": {"z": 113.8, "h": 2.55}, "geometry": {"type": "Polygon", "coordinates": [[[416163.46, 5654007.69], [416160.0, 5654010.0], [416162.0, 5654013.0], [416165.46, 5654010.69], [416163.46, 5654007.69]]]}}, {"type": "Feature", "properties": {"z": 114.34, "h": 2.83}, "geometry": {"type": "Polygon", "coordinates": [[[416168.11, 5655568.42], [416173.31, 5655564.96], [416170.23, 5655560.35], [416165.04, 5655563.81], [416168.11, 5655568.42]]]}}, {"type": "Feature", "properties": {"z": 114.89, "h": 2.94}, "geometry": {"type": "Polygon", "coordinates": [[[416170.7, 5654106.4], [416168.2, 5654101.4], [416164.0, 5654103.5], [416166.5, 5654108.5], [416170.7, 5654106.4]]]}}, {"type": "Feature", "properties": {"z": 114.4, "h": 2.89}, "geometry": {"type": "Polygon", "coordinates": [[[416176.69, 5654006.04], [416172.77, 5654008.65], [416174.85, 5654011.77], [416178.77, 5654009.15], [416176.69, 5654006.04]]]}}, {"type": "Feature", "properties": {"z": 114.06, "h": 2.5}, "geometry": {"type": "Polygon", "coordinates": [[[416181.33, 5654005.54], [416185.72, 5654002.02], [416183.67, 5653999.46], [416179.28, 5654002.98], [416181.33, 5654005.54]]]}}, {"type": "Feature", "properties": {"z": 114.97, "h": 2.9}, "geometry": {"type": "Polygon", "coordinates": [[[416183.46, 5654645.19], [416177.92, 5654648.88], [416179.92, 5654651.88], [416185.46, 5654648.19], [416183.46, 5654645.19]]]}}, {"type": "Feature", "properties": {"z": 115.23, "h": 2.43}, "geometry": {"type": "Polygon", "coordinates": [[[416198.1, 5654290.7], [416194.1, 5654292.7], [416196.9, 5654298.3], [416200.9, 5654296.3], [416198.1, 5654290.7]]]}}, {"type": "Feature", "properties": {"z": 113.53, "h": 3.41}, "geometry": {"type": "Polygon", "coordinates": [[[416199.25, 5655992.75], [416197.25, 5655994.75], [416201.75, 5655999.25], [416203.75, 5655997.25], [416199.25, 5655992.75]]]}}, {"type": "Feature", "properties": {"z": 115.01, "h": 2.27}, "geometry": {"type": "Polygon", "coordinates": [[[416211.44, 5654008.87], [416207.56, 5654005.63], [416205.71, 5654007.85], [416209.6, 5654011.08], [416211.44, 5654008.87]]]}}, {"type": "Feature", "properties": {"z": 115.11, "h": 2.53, "hc": [2.85, 2.15, 2.14, 2.85]}, "geometry": {"type": "Polygon", "coordinates": [[[416212.5, 5654011.0], [416209.75, 5654013.75], [416212.0, 5654016.0], [416214.75, 5654013.25], [416212.5, 5654011.0]]]}}, {"type": "Feature", "properties": {"z": 115.01, "h": 2.63}, "geometry": {"type": "Polygon", "coordinates": [[[416214.25, 5654035.25], [416211.75, 5654037.75], [416216.25, 5654042.25], [416218.75, 5654039.75], [416214.25, 5654035.25]]]}}, {"type": "Feature", "properties": {"z": 115.13, "h": 2.32}, "geometry": {"type": "Polygon", "coordinates": [[[416217.22, 5654003.54], [416212.9, 5654009.3], [416215.62, 5654011.34], [416219.94, 5654005.58], [416217.22, 5654003.54]]]}}, {"type": "Feature", "properties": {"z": 115.05, "h": 2.49}, "geometry": {"type": "Polygon", "coordinates": [[[416222.75, 5654030.75], [416220.25, 5654028.25], [416218.0, 5654030.5], [416220.5, 5654033.0], [416222.75, 5654030.75]]]}}, {"type": "Feature", "properties": {"z": 115.12, "h": 2.33}, "geometry": {"type": "Polygon", "coordinates": [[[416226.75, 5654019.75], [416224.25, 5654022.25], [416226.5, 5654024.5], [416229.0, 5654022.0], [416226.75, 5654019.75]]]}}, {"type": "Feature", "properties": {"z": 115.03, "h": 2.56}, "geometry": {"type": "Polygon", "coordinates": [[[416232.0, 5654012.0], [416232.0, 5654016.5], [416235.5, 5654016.5], [416235.5, 5654012.0], [416232.0, 5654012.0]]]}}, {"type": "Feature", "properties": {"z": 114.43, "h": 2.93}, "geometry": {"type": "Polygon", "coordinates": [[[416235.25, 5654967.75], [416232.0, 5654971.0], [416235.5, 5654974.5], [416238.75, 5654971.25], [416235.25, 5654967.75]]]}}, {"type": "Feature", "properties": {"z": 115.07, "h": 2.52}, "geometry": {"type": "Polygon", "coordinates": [[[416244.25, 5654031.75], [416249.0, 5654036.5], [416251.25, 5654034.25], [416246.5, 5654029.5], [416244.25, 5654031.75]]]}}, {"type": "Feature", "properties": {"z": 114.62, "h": 2.37}, "geometry": {"type": "Polygon", "coordinates": [[[416246.46, 5654703.19], [416243.46, 5654698.69], [416239.77, 5654701.15], [416242.77, 5654705.65], [416246.46, 5654703.19]]]}}, {"type": "Feature", "properties": {"z": 114.98, "h": 2.42, "hc": [2.06, 2.78, 2.76, 2.04]}, "geometry": {"type": "Polygon", "coordinates": [[[416250.46, 5654038.78], [416253.46, 5654042.78], [416256.1, 5654040.8], [416253.1, 5654036.8], [416250.46, 5654038.78]]]}}, {"type": "Feature", "properties": {"z": 115.02, "h": 2.74}, "geometry": {"type": "Polygon", "coordinates": [[[416255.58, 5654045.1], [416261.32, 5654051.98], [416263.63, 5654050.06], [416257.89, 5654043.17], [416255.58, 5654045.1]]]}}, {"type": "Feature", "properties": {"z": 114.46, "h": 3.03, "hc": [3.36, 2.76, 2.69, 3.28]}, "geometry": {"type": "Polygon", "coordinates": [[[416263.22, 5655195.81], [416264.64, 5655199.34], [416267.48, 5655198.21], [416266.07, 5655194.67], [416263.22, 5655195.81]]]}}, {"type": "Feature", "properties": {"z": 114.7, "h": 2.97}, "geometry": {"type": "Polygon", "coordinates": [[[416269.61, 5655784.06], [416264.7, 5655787.57], [416266.52, 5655790.13], [416271.44, 5655786.62], [416269.61, 5655784.06]]]}}, {"type": "Feature", "properties": {"z": 114.61, "h": 2.41}, "geometry": {"type": "Polygon", "coordinates": [[[416273.75, 5654683.75], [416272.65, 5654689.23], [416275.83, 5654689.87], [416276.92, 5654684.38], [416273.75, 5654683.75]]]}}, {"type": "Feature", "properties": {"z": 114.35, "h": 2.41}, "geometry": {"type": "Polygon", "coordinates": [[[416273.99, 5654011.81], [416271.34, 5654007.4], [416268.18, 5654009.29], [416270.82, 5654013.71], [416273.99, 5654011.81]]]}}, {"type": "Feature", "properties": {"z": 114.29, "h": 2.51}, "geometry": {"type": "Polygon", "coordinates": [[[416277.89, 5654024.99], [416274.67, 5654020.96], [416272.11, 5654023.01], [416275.33, 5654027.04], [416277.89, 5654024.99]]]}}, {"type": "Feature", "properties": {"z": 113.6, "h": 3.82, "hc": [3.33, 3.84, 4.33, 3.81]}, "geometry": {"type": "Polygon", "coordinates": [[[416278.5, 5655910.0], [416278.5, 5655914.0], [416282.5, 5655914.0], [416282.5, 5655910.0], [416278.5, 5655910.0]]]}}, {"type": "Feature", "properties": {"z": 114.44, "h": 2.53}, "geometry": {"type": "Polygon", "coordinates": [[[416283.29, 5655166.18], [416288.71, 5655164.82], [416287.91, 5655161.65], [416282.5, 5655163.0], [416283.29, 5655166.18]]]}}, {"type": "Feature", "properties": {"z": 114.45, "h": 2.47}, "geometry": {"type": "Polygon", "coordinates": [[[416284.3, 5654036.1], [416282.6, 5654032.7], [416277.8, 5654035.1], [416279.5, 5654038.5], [416284.3, 5654036.1]]]}}, {"type": "Feature", "properties": {"z": 114.87, "h": 2.33}, "geometry": {"type": "Polygon", "coordinates": [[[416285.93, 5654133.02], [416287.82, 5654139.62], [416292.71, 5654138.23], [416290.82, 5654131.62], [416285.93, 5654133.02]]]}}, {"type": "Feature", "properties": {"z": 114.67, "h": 2.83}, "geometry": {"type": "Polygon", "coordinates": [[[416292.72, 5654695.01], [416298.99, 5654693.22], [416297.97, 5654689.65], [416291.7, 5654691.44], [416292.72, 5654695.01]]]}}, {"type": "Feature", "properties": {"z": 114.89, "h": 2.27}, "geometry": {"type": "Polygon", "coordinates": [[[416297.19, 5654121.72], [416290.21, 5654124.52], [416291.28, 5654127.19], [416298.26, 5654124.4], [416297.19, 5654121.72]]]}}, {"type": "Feature", "properties": {"z": 114.47, "h": 2.78}, "geometry": {"type": "Polygon", "coordinates": [[[416300.42, 5655252.38], [416294.54, 5655256.31], [416296.85, 5655259.77], [416302.73, 5655255.85], [416300.42, 5655252.38]]]}}, {"type": "Feature", "properties": {"z": 115.03, "h": 2.8}, "geometry": {"type": "Polygon", "coordinates": [[[416300.75, 5654117.75], [416298.25, 5654120.25], [416300.5, 5654122.5], [416303.0, 5654120.0], [416300.75, 5654117.75]]]}}, {"type": "Feature", "properties": {"z": 114.78, "h": 2.59}, "geometry": {"type": "Polygon", "coordinates": [[[416304.5, 5654015.5], [416301.75, 5654018.25], [416305.25, 5654021.75], [416308.0, 5654019.0], [416304.5, 5654015.5]]]}}, {"type": "Feature", "properties": {"z": 114.41, "h": 2.56}, "geometry": {"type": "Polygon", "coordinates": [[[416309.49, 5655062.72], [416302.75, 5655064.64], [416303.72, 5655068.01], [416310.45, 5655066.09], [416309.49, 5655062.72]]]}}, {"type": "Feature", "properties": {"z": 114.68, "h": 2.18}, "geometry": {"type": "Polygon", "coordinates": [[[416310.5, 5655244.0], [416305.9, 5655246.3], [416307.2, 5655248.9], [416311.8, 5655246.6], [416310.5, 5655244.0]]]}}, {"type": "Feature", "properties": {"z": 114.96, "h": 2.54}, "geometry": {"type": "Polygon", "coordinates": [[[416310.71, 5654524.27], [416309.27, 5654529.29], [416312.64, 5654530.25], [416314.08, 5654525.24], [416310.71, 5654524.27]]]}}, {"type": "Feature", "properties": {"z": 114.7, "h": 2.72}, "geometry": {"type": "Polygon", "coordinates": [[[416314.0, 5654181.0], [416309.75, 5654185.25], [416312.0, 5654187.5], [416316.25, 5654183.25], [416314.0, 5654181.0]]]}}, {"type": "Feature", "properties": {"z": 114.84, "h": 2.55}, "geometry": {"type": "Polygon", "coordinates": [[[416314.75, 5654011.75], [416317.5, 5654014.5], [416319.75, 5654012.25], [416317.0, 5654009.5], [416314.75, 5654011.75]]]}}, {"type": "Feature", "properties": {"z": 114.72, "h": 2.38}, "geometry": {"type": "Polygon", "coordinates": [[[416318.3, 5654192.1], [416319.9, 5654195.3], [416323.3, 5654193.6], [416321.7, 5654190.4], [416318.3, 5654192.1]]]}}, {"type": "Feature", "properties": {"z": 114.96, "h": 2.79}, "geometry": {"type": "Polygon", "coordinates": [[[416334.31, 5654207.46], [416336.77, 5654211.15], [416339.77, 5654209.15], [416337.31, 5654205.46], [416334.31, 5654207.46]]]}}, {"type": "Feature", "properties": {"z": 114.86, "h": 2.49}, "geometry": {"type": "Polygon", "coordinates": [[[416335.0, 5654124.5], [416331.25, 5654128.25], [416334.25, 5654131.25], [416338.0, 5654127.5], [416335.0, 5654124.5]]]}}, {"type": "Feature", "properties": {"z": 114.11, "h": 2.65}, "geometry": {"type": "Polygon", "coordinates": [[[416335.0, 5655081.0], [416338.75, 5655077.25], [416335.75, 5655074.25], [416332.0, 5655078.0], [416335.0, 5655081.0]]]}}, {"type": "Feature", "properties": {"z": 114.97, "h": 2.3}, "geometry": {"type": "Polygon", "coordinates": [[[416336.78, 5654220.22], [416342.81, 5654219.46], [416342.28, 5654215.22], [416336.25, 5654215.97], [416336.78, 5654220.22]]]}}, {"type": "Feature", "properties": {"z": 114.72, "h": 2.27}, "geometry": {"type": "Polygon", "coordinates": [[[416337.46, 5654117.69], [416333.31, 5654120.46], [416334.77, 5654122.65], [416338.92, 5654119.88], [416337.46, 5654117.69]]]}}, {"type": "Feature", "properties": {"z": 113.85, "h": 2.67}, "geometry": {"type": "Polygon", "coordinates": [[[416337.5, 5654733.5], [416337.5, 5654737.0], [416342.0, 5654737.0], [416342.0, 5654733.5], [416337.5, 5654733.5]]]}}, {"type": "Feature", "properties": {"z": 114.9, "h": 2.82}, "geometry": {"type": "Polygon", "coordinates": [[[416338.7, 5654106.9], [416340.4, 5654110.3], [416343.2, 5654108.9], [416341.5, 5654105.5], [416338.7, 5654106.9]]]}}, {"type": "Feature", "properties": {"z": 115.2, "h": 2.79}, "geometry": {"type": "Polygon", "coordinates": [[[416344.81, 5654238.78], [416349.9, 5654236.74], [416348.48, 5654233.21], [416343.4, 5654235.24], [416344.81, 5654238.78]]]}}, {"type": "Feature", "properties": {"z": 114.71, "h": 2.7, "hc": [2.33, 2.45, 3.02, 2.9]}, "geometry": {"type": "Polygon", "coordinates": [[[416348.04, 5655866.78], [416351.1, 5655862.7], [416348.7, 5655860.9], [416345.64, 5655864.98], [416348.04, 5655866.78]]]}}, {"type": "Feature", "properties": {"z": 114.48, "h": 2.44, "hc": [2.67, 2.68, 2.14, 2.14]}, "geometry": {"type": "Polygon", "coordinates": [[[416349.73, 5654787.62], [416342.22, 5654794.18], [416344.61, 5654796.91], [416352.11, 5654790.34], [416349.73, 5654787.62]]]}}, {"type": "Feature", "properties": {"z": 115.02, "h": 2.97}, "geometry": {"type": "Polygon", "coordinates": [[[416354.0, 5654087.5], [416354.0, 5654091.5], [416359.5, 5654091.5], [416359.5, 5654087.5], [416354.0, 5654087.5]]]}}, {"type": "Feature", "properties": {"z": 115.29, "h": 2.31}, "geometry": {"type": "Polygon", "coordinates": [[[416359.78, 5654249.54], [416355.86, 5654252.48], [416357.78, 5654255.04], [416361.7, 5654252.1], [416359.78, 5654249.54]]]}}, {"type": "Feature", "properties": {"z": 114.57, "h": 3.15}, "geometry": {"type": "Polygon", "coordinates": [[[416362.0, 5654943.0], [416366.75, 5654947.75], [416372.0, 5654942.5], [416367.25, 5654937.75], [416362.0, 5654943.0]]]}}, {"type": "Feature", "properties": {"z": 114.45, "h": 2.74}, "geometry": {"type": "Polygon", "coordinates": [[[416363.05, 5655307.65], [416358.55, 5655309.15], [416359.7, 5655312.6], [416364.2, 5655311.1], [416363.05, 5655307.65]]]}}, {"type": "Feature", "properties": {"z": 115.17, "h": 2.42}, "geometry": {"type": "Polygon", "coordinates": [[[416364.0, 5654188.5], [416364.0, 5654193.0], [416368.0, 5654193.0], [416368.0, 5654188.5], [416364.0, 5654188.5]]]}}, {"type": "Feature", "properties": {"z": 114.68, "h": 2.36, "hc": [2.27, 1.91, 2.58, 2.94]}, "geometry": {"type": "Polygon", "coordinates": [[[416365.5, 5655008.5], [416365.5, 5655012.0], [416370.5, 5655012.0], [416370.5, 5655008.5], [416365.5, 5655008.5]]]}}, {"type": "Feature", "properties": {"z": 115.17, "h": 2.59}, "geometry": {"type": "Polygon", "coordinates": [[[416373.5, 5654258.5], [416373.5, 5654262.5], [416376.5, 5654262.5], [416376.5, 5654258.5], [416373.5, 5654258.5]]]}}, {"type": "Feature", "properties": {"z": 114.84, "h": 2.84}, "geometry": {"type": "Polygon", "coordinates": [[[416374.0, 5654088.5], [416376.75, 5654091.25], [416379.0, 5654089.0], [416376.25, 5654086.25], [416374.0, 5654088.5]]]}}, {"type": "Feature", "properties": {"z": 114.19, "h": 2.7}, "geometry": {"type": "Polygon", "coordinates": [[[416380.0, 5655216.0], [416381.75, 5655217.75], [416386.25, 5655213.25], [416384.5, 5655211.5], [416380.0, 5655216.0]]]}}, {"type": "Feature", "properties": {"z": 115.04, "h": 2.7}, "geometry": {"type": "Polygon", "coordinates": [[[416381.75, 5654075.25], [416378.75, 5654078.25], [416381.5, 5654081.0], [416384.5, 5654078.0], [416381.75, 5654075.25]]]}}, {"type": "Feature", "properties": {"z": 115.25, "h": 2.75}, "geometry": {"type": "Polygon", "coordinates": [[[416382.5, 5654147.0], [416382.5, 5654151.0], [416385.0, 5654151.0], [416385.0, 5654147.0], [416382.5, 5654147.0]]]}}, {"type": "Feature", "properties": {"z": 114.2, "h": 2.6}, "geometry": {"type": "Polygon", "coordinates": [[[416382.75, 5655974.25], [416381.0, 5655976.0], [416383.5, 5655978.5], [416385.25, 5655976.75], [416382.75, 5655974.25]]]}}, {"type": "Feature", "properties": {"z": 115.03, "h": 2.85}, "geometry": {"type": "Polygon", "coordinates": [[[416396.25, 5654977.75], [416398.75, 5654980.25], [416401.0, 5654978.0], [416398.5, 5654975.5], [416396.25, 5654977.75]]]}}, {"type": "Feature", "properties": {"z": 114.31, "h": 2.61}, "geometry": {"type": "Polygon", "coordinates": [[[416397.5, 5655239.5], [416397.5, 5655243.5], [416401.0, 5655243.5], [416401.0, 5655239.5], [416397.5, 5655239.5]]]}}, {"type": "Feature", "properties": {"z": 114.37, "h": 2.98}, "geometry": {"type": "Polygon", "coordinates": [[[416403.5, 5654741.0], [416407.0, 5654744.5], [416411.25, 5654740.25], [416407.75, 5654736.75], [416403.5, 5654741.0]]]}}, {"type": "Feature", "properties": {"z": 114.67, "h": 2.93}, "geometry": {"type": "Polygon", "coordinates": [[[416408.5, 5654905.0], [416405.5, 5654908.0], [416408.5, 5654911.0], [416411.5, 5654908.0], [416408.5, 5654905.0]]]}}, {"type": "Feature", "properties": {"z": 114.98, "h": 2.86}, "geometry": {"type": "Polygon", "coordinates": [[[416409.25, 5655007.75], [416411.75, 5655010.25], [416415.0, 5655007.0], [416412.5, 5655004.5], [416409.25, 5655007.75]]]}}, {"type": "Feature", "properties": {"z": 114.39, "h": 2.23}, "geometry": {"type": "Polygon", "coordinates": [[[416409.9, 5655265.8], [416412.9, 5655264.3], [416410.6, 5655259.7], [416407.6, 5655261.2], [416409.9, 5655265.8]]]}}, {"type": "Feature", "properties": {"z": 114.74, "h": 3.84}, "geometry": {"type": "Polygon", "coordinates": [[[416410.75, 5654754.25], [416408.5, 5654756.5], [416413.25, 5654761.25], [416415.5, 5654759.0], [416410.75, 5654754.25]]]}}, {"type": "Feature", "properties": {"z": 114.34, "h": 2.73}, "geometry": {"type": "Polygon", "coordinates": [[[416412.3, 5655254.6], [416414.4, 5655258.8], [416420.0, 5655256.0], [416417.9, 5655251.8], [416412.3, 5655254.6]]]}}, {"type": "Feature", "properties": {"z": 114.86, "h": 2.41}, "geometry": {"type": "Polygon", "coordinates": [[[416415.0, 5655830.5], [416415.0, 5655834.5], [416419.5, 5655834.5], [416419.5, 5655830.5], [416415.0, 5655830.5]]]}}, {"type": "Feature", "properties": {"z": 114.72, "h": 2.3}, "geometry": {"type": "Polygon", "coordinates": [[[416415.85, 5655306.05], [416420.95, 5655304.35], [416419.25, 5655299.25], [416414.15, 5655300.95], [416415.85, 5655306.05]]]}}, {"type": "Feature", "properties": {"z": 114.57, "h": 3.0}, "geometry": {"type": "Polygon", "coordinates": [[[416417.28, 5655278.66], [416415.16, 5655273.72], [416412.45, 5655274.88], [416414.57, 5655279.83], [416417.28, 5655278.66]]]}}, {"type": "Feature", "properties": {"z": 114.69, "h": 2.38}, "geometry": {"type": "Polygon", "coordinates": [[[416422.33, 5655305.63], [416415.6, 5655306.98], [416416.19, 5655309.96], [416422.92, 5655308.62], [416422.33, 5655305.63]]]}}, {"type": "Feature", "properties": {"z": 114.29, "h": 2.71}, "geometry": {"type": "Polygon", "coordinates": [[[416428.8, 5655231.1], [416427.35, 5655235.45], [416430.8, 5655236.6], [416432.25, 5655232.25], [416428.8, 5655231.1]]]}}, {"type": "Feature", "properties": {"z": 115.17, "h": 2.74}, "geometry": {"type": "Polygon", "coordinates": [[[416429.0, 5654379.0], [416429.0, 5654382.5], [416432.0, 5654382.5], [416432.0, 5654379.0], [416429.0, 5654379.0]]]}}, {"type": "Feature", "properties": {"z": 114.56, "h": 6.25, "hc": [6.68, 6.77, 5.81, 5.72]}, "geometry": {"type": "Polygon", "coordinates": [[[416434.96, 5655235.67], [416444.84, 5655243.57], [416446.94, 5655240.95], [416437.06, 5655233.05], [416434.96, 5655235.67]]]}}, {"type": "Feature", "properties": {"z": 113.8, "h": 3.65}, "geometry": {"type": "Polygon", "coordinates": [[[416437.85, 5654740.77], [416434.08, 5654735.12], [416430.38, 5654737.58], [416434.15, 5654743.23], [416437.85, 5654740.77]]]}}, {"type": "Feature", "properties": {"z": 114.36, "h": 3.19}, "geometry": {"type": "Polygon", "coordinates": [[[416439.35, 5655951.11], [416427.16, 5655940.15], [416424.78, 5655942.8], [416436.96, 5655953.76], [416439.35, 5655951.11]]]}}, {"type": "Feature", "properties": {"z": 115.08, "h": 4.5}, "geometry": {"type": "Polygon", "coordinates": [[[416443.0, 5654446.5], [416443.0, 5654451.0], [416446.0, 5654451.0], [416446.0, 5654446.5], [416443.0, 5654446.5]]]}}, {"type": "Feature", "properties": {"z": 114.74, "h": 2.45}, "geometry": {"type": "Polygon", "coordinates": [[[416465.0, 5655245.5], [416467.0, 5655247.5], [416470.25, 5655244.25], [416468.25, 5655242.25], [416465.0, 5655245.5]]]}}, {"type": "Feature", "properties": {"z": 114.37, "h": 2.57}, "geometry": {"type": "Polygon", "coordinates": [[[416468.3, 5654998.9], [416470.0, 5654995.5], [416466.4, 5654993.7], [416464.7, 5654997.1], [416468.3, 5654998.9]]]}}, {"type": "Feature", "properties": {"z": 114.51, "h": 3.05}, "geometry": {"type": "Polygon", "coordinates": [[[416469.75, 5655447.25], [416467.25, 5655449.75], [416470.25, 5655452.75], [416472.75, 5655450.25], [416469.75, 5655447.25]]]}}, {"type": "Feature", "properties": {"z": 114.54, "h": 3.39, "hc": [3.87, 3.15, 2.93, 3.65]}, "geometry": {"type": "Polygon", "coordinates": [[[416477.0, 5655122.5], [416474.5, 5655125.0], [416477.5, 5655128.0], [416480.0, 5655125.5], [416477.0, 5655122.5]]]}}, {"type": "Feature", "properties": {"z": 114.65, "h": 2.67}, "geometry": {"type": "Polygon", "coordinates": [[[416493.8, 5655672.6], [416490.8, 5655674.1], [416492.6, 5655677.7], [416495.6, 5655676.2], [416493.8, 5655672.6]]]}}, {"type": "Feature", "properties": {"z": 114.5, "h": 3.52}, "geometry": {"type": "Polygon", "coordinates": [[[416496.55, 5654734.21], [416513.46, 5654722.38], [416510.46, 5654718.08], [416493.54, 5654729.92], [416496.55, 5654734.21]]]}}, {"type": "Feature", "properties": {"z": 115.0, "h": 3.02, "hc": [3.44, 3.46, 2.58, 2.56]}, "geometry": {"type": "Polygon", "coordinates": [[[416505.78, 5655824.02], [416501.03, 5655820.22], [416499.12, 5655822.6], [416503.88, 5655826.4], [416505.78, 5655824.02]]]}}, {"type": "Feature", "properties": {"z": 115.06, "h": 3.69, "hc": [3.49, 3.26, 3.94, 4.18]}, "geometry": {"type": "Polygon", "coordinates": [[[416507.5, 5655827.5], [416507.5, 5655830.5], [416511.0, 5655830.5], [416511.0, 5655827.5], [416507.5, 5655827.5]]]}}, {"type": "Feature", "properties": {"z": 114.3, "h": 2.69}, "geometry": {"type": "Polygon", "coordinates": [[[416508.58, 5655911.89], [416503.65, 5655919.27], [416507.46, 5655921.81], [416512.39, 5655914.42], [416508.58, 5655911.89]]]}}, {"type": "Feature", "properties": {"z": 115.7, "h": 2.62}, "geometry": {"type": "Polygon", "coordinates": [[[416508.9, 5654309.3], [416511.3, 5654314.1], [416514.1, 5654312.7], [416511.7, 5654307.9], [416508.9, 5654309.3]]]}}, {"type": "Feature", "properties": {"z": 115.13, "h": 2.89}, "geometry": {"type": "Polygon", "coordinates": [[[416527.5, 5655368.5], [416525.0, 5655371.0], [416527.75, 5655373.75], [416530.25, 5655371.25], [416527.5, 5655368.5]]]}}, {"type": "Feature", "properties": {"z": 114.7, "h": 2.48}, "geometry": {"type": "Polygon", "coordinates": [[[416534.55, 5655645.65], [416528.7, 5655647.6], [416530.3, 5655652.4], [416536.15, 5655650.45], [416534.55, 5655645.65]]]}}, {"type": "Feature", "properties": {"z": 115.35, "h": 2.89}, "geometry": {"type": "Polygon", "coordinates": [[[416534.62, 5654185.53], [416542.74, 5654187.56], [416543.59, 5654184.15], [416535.47, 5654182.12], [416534.62, 5654185.53]]]}}, {"type": "Feature", "properties": {"z": 115.56, "h": 2.73}, "geometry": {"type": "Polygon", "coordinates": [[[416535.5, 5654279.0], [416535.5, 5654283.0], [416542.0, 5654283.0], [416542.0, 5654279.0], [416535.5, 5654279.0]]]}}, {"type": "Feature", "properties": {"z": 114.8, "h": 2.8}, "geometry": {"type": "Polygon", "coordinates": [[[416538.75, 5655853.75], [416541.25, 5655856.25], [416543.5, 5655854.0], [416541.0, 5655851.5], [416538.75, 5655853.75]]]}}, {"type": "Feature", "properties": {"z": 115.45, "h": 2.73}, "geometry": {"type": "Polygon", "coordinates": [[[416539.77, 5654121.15], [416538.65, 5654126.73], [416541.44, 5654127.29], [416542.56, 5654121.71], [416539.77, 5654121.15]]]}}, {"type": "Feature", "properties": {"z": 115.29, "h": 2.39}, "geometry": {"type": "Polygon", "coordinates": [[[416550.75, 5655345.75], [416548.0, 5655348.5], [416552.5, 5655353.0], [416555.25, 5655350.25], [416550.75, 5655345.75]]]}}, {"type": "Feature", "properties": {"z": 114.9, "h": 2.6}, "geometry": {"type": "Polygon", "coordinates": [[[416554.0, 5655538.5], [416554.0, 5655543.0], [416558.5, 5655543.0], [416558.5, 5655538.5], [416554.0, 5655538.5]]]}}, {"type": "Feature", "properties": {"z": 115.27, "h": 5.72}, "geometry": {"type": "Polygon", "coordinates": [[[416555.12, 5654032.03], [416552.24, 5654043.56], [416557.88, 5654044.97], [416560.76, 5654033.44], [416555.12, 5654032.03]]]}}, {"type": "Feature", "properties": {"z": 115.2, "h": 2.37}, "geometry": {"type": "Polygon", "coordinates": [[[416560.5, 5654007.5], [416560.5, 5654012.5], [416563.5, 5654012.5], [416563.5, 5654007.5], [416560.5, 5654007.5]]]}}, {"type": "Feature", "properties": {"z": 115.16, "h": 2.42}, "geometry": {"type": "Polygon", "coordinates": [[[416561.05, 5654220.85], [416555.65, 5654219.05], [416553.8, 5654224.6], [416559.2, 5654226.4], [416561.05, 5654220.85]]]}}, {"type": "Feature", "properties": {"z": 115.61, "h": 2.71}, "geometry": {"type": "Polygon", "coordinates": [[[416561.5, 5654278.5], [416561.5, 5654282.5], [416565.5, 5654282.5], [416565.5, 5654278.5], [416561.5, 5654278.5]]]}}, {"type": "Feature", "properties": {"z": 115.37, "h": 2.9}, "geometry": {"type": "Polygon", "coordinates": [[[416565.88, 5654044.47], [416580.24, 5654048.06], [416581.91, 5654041.35], [416567.56, 5654037.76], [416565.88, 5654044.47]]]}}, {"type": "Feature", "properties": {"z": 115.44, "h": 2.5}, "geometry": {"type": "Polygon", "coordinates": [[[416571.18, 5654223.45], [416576.36, 5654224.31], [416577.24, 5654219.04], [416572.05, 5654218.18], [416571.18, 5654223.45]]]}}, {"type": "Feature", "properties": {"z": 114.71, "h": 2.72}, "geometry": {"type": "Polygon", "coordinates": [[[416581.5, 5654599.5], [416577.6, 5654600.8], [416578.95, 5654604.85], [416582.85, 5654603.55], [416581.5, 5654599.5]]]}}, {"type": "Feature", "properties": {"z": 114.72, "h": 2.39}, "geometry": {"type": "Polygon", "coordinates": [[[416582.0, 5654608.0], [416584.4, 5654612.8], [416587.0, 5654611.5], [416584.6, 5654606.7], [416582.0, 5654608.0]]]}}, {"type": "Feature", "properties": {"z": 114.4, "h": 2.56}, "geometry": {"type": "Polygon", "coordinates": [[[416585.66, 5654599.6], [416590.03, 5654606.88], [416594.07, 5654604.46], [416589.71, 5654597.18], [416585.66, 5654599.6]]]}}, {"type": "Feature", "properties": {"z": 114.57, "h": 3.63}, "geometry": {"type": "Polygon", "coordinates": [[[416589.25, 5654621.25], [416585.75, 5654624.75], [416588.5, 5654627.5], [416592.0, 5654624.0], [416589.25, 5654621.25]]]}}, {"type": "Feature", "properties": {"z": 115.2, "h": 2.55}, "geometry": {"type": "Polygon", "coordinates": [[[416589.75, 5655165.75], [416585.75, 5655169.75], [416588.25, 5655172.25], [416592.25, 5655168.25], [416589.75, 5655165.75]]]}}, {"type": "Feature", "properties": {"z": 114.37, "h": 2.94}, "geometry": {"type": "Polygon", "coordinates": [[[416604.8, 5654747.1], [416606.8, 5654751.1], [416610.4, 5654749.3], [416608.4, 5654745.3], [416604.8, 5654747.1]]]}}, {"type": "Feature", "properties": {"z": 115.36, "h": 2.78}, "geometry": {"type": "Polygon", "coordinates": [[[416619.14, 5655235.03], [416622.79, 5655230.66], [416619.44, 5655227.87], [416615.8, 5655232.25], [416619.14, 5655235.03]]]}}, {"type": "Feature", "properties": {"z": 114.81, "h": 2.88, "hc": [2.7, 2.6, 3.13, 3.24]}, "geometry": {"type": "Polygon", "coordinates": [[[416633.5, 5655985.0], [416631.0, 5655987.5], [416633.75, 5655990.25], [416636.25, 5655987.75], [416633.5, 5655985.0]]]}}, {"type": "Feature", "properties": {"z": 114.73, "h": 3.11}, "geometry": {"type": "Polygon", "coordinates": [[[416639.25, 5655533.25], [416641.25, 5655535.25], [416644.5, 5655532.0], [416642.5, 5655530.0], [416639.25, 5655533.25]]]}}, {"type": "Feature", "properties": {"z": 115.53, "h": 2.36}, "geometry": {"type": "Polygon", "coordinates": [[[416642.62, 5655747.6], [416647.87, 5655751.79], [416649.77, 5655749.42], [416644.53, 5655745.22], [416642.62, 5655747.6]]]}}, {"type": "Feature", "properties": {"z": 115.5, "h": 2.8}, "geometry": {"type": "Polygon", "coordinates": [[[416647.75, 5655616.75], [416644.25, 5655620.25], [416647.5, 5655623.5], [416651.0, 5655620.0], [416647.75, 5655616.75]]]}}, {"type": "Feature", "properties": {"z": 115.0, "h": 3.32}, "geometry": {"type": "Polygon", "coordinates": [[[416650.0, 5655200.0], [416646.75, 5655203.25], [416649.25, 5655205.75], [416652.5, 5655202.5], [416650.0, 5655200.0]]]}}, {"type": "Feature", "properties": {"z": 115.49, "h": 2.33}, "geometry": {"type": "Polygon", "coordinates": [[[416652.5, 5655172.5], [416648.5, 5655176.5], [416651.75, 5655179.75], [416655.75, 5655175.75], [416652.5, 5655172.5]]]}}, {"type": "Feature", "properties": {"z": 114.6, "h": 4.67}, "geometry": {"type": "Polygon", "coordinates": [[[416652.75, 5655305.25], [416650.0, 5655308.0], [416652.75, 5655310.75], [416655.5, 5655308.0], [416652.75, 5655305.25]]]}}, {"type": "Feature", "properties": {"z": 114.69, "h": 2.9}, "geometry": {"type": "Polygon", "coordinates": [[[416654.75, 5655409.25], [416657.25, 5655406.75], [416655.0, 5655404.5], [416652.5, 5655407.0], [416654.75, 5655409.25]]]}}, {"type": "Feature", "properties": {"z": 115.32, "h": 2.6}, "geometry": {"type": "Polygon", "coordinates": [[[416656.35, 5655198.08], [416664.63, 5655190.71], [416662.46, 5655188.26], [416654.17, 5655195.63], [416656.35, 5655198.08]]]}}, {"type": "Feature", "properties": {"z": 115.23, "h": 2.18}, "geometry": {"type": "Polygon", "coordinates": [[[416659.81, 5655186.46], [416654.96, 5655189.69], [416656.81, 5655192.46], [416661.65, 5655189.23], [416659.81, 5655186.46]]]}}, {"type": "Feature", "properties": {"z": 114.75, "h": 2.58}, "geometry": {"type": "Polygon", "coordinates": [[[416659.92, 5654860.88], [416663.69, 5654866.54], [416666.92, 5654864.38], [416663.15, 5654858.73], [416659.92, 5654860.88]]]}}, {"type": "Feature", "properties": {"z": 114.29, "h": 2.38}, "geometry": {"type": "Polygon", "coordinates": [[[416662.25, 5655379.25], [416660.25, 5655381.25], [416663.25, 5655384.25], [416665.25, 5655382.25], [416662.25, 5655379.25]]]}}, {"type": "Feature", "properties": {"z": 114.36, "h": 2.96}, "geometry": {"type": "Polygon", "coordinates": [[[416665.0, 5655426.5], [416665.0, 5655430.0], [416668.5, 5655430.0], [416668.5, 5655426.5], [416665.0, 5655426.5]]]}}, {"type": "Feature", "properties": {"z": 115.62, "h": 2.49}, "geometry": {"type": "Polygon", "coordinates": [[[416667.13, 5655073.17], [416670.79, 5655072.44], [416670.06, 5655068.79], [416666.4, 5655069.52], [416667.13, 5655073.17]]]}}, {"type": "Feature", "properties": {"z": 114.64, "h": 2.28}, "geometry": {"type": "Polygon", "coordinates": [[[416669.25, 5655398.25], [416671.75, 5655400.75], [416674.75, 5655397.75], [416672.25, 5655395.25], [416669.25, 5655398.25]]]}}, {"type": "Feature", "properties": {"z": 114.55, "h": 2.9}, "geometry": {"type": "Polygon", "coordinates": [[[416673.09, 5654596.13], [416677.68, 5654605.89], [416681.15, 5654604.25], [416676.56, 5654594.5], [416673.09, 5654596.13]]]}}, {"type": "Feature", "properties": {"z": 114.93, "h": 2.53}, "geometry": {"type": "Polygon", "coordinates": [[[416673.5, 5655921.5], [416670.0, 5655925.0], [416672.5, 5655927.5], [416676.0, 5655924.0], [416673.5, 5655921.5]]]}}, {"type": "Feature", "properties": {"z": 115.03, "h": 4.31}, "geometry": {"type": "Polygon", "coordinates": [[[416674.5, 5655146.5], [416674.5, 5655150.0], [416677.5, 5655150.0], [416677.5, 5655146.5], [416674.5, 5655146.5]]]}}, {"type": "Feature", "properties": {"z": 115.48, "h": 2.64}, "geometry": {"type": "Polygon", "coordinates": [[[416675.0, 5655842.0], [416672.3, 5655847.4], [416677.3, 5655849.9], [416680.0, 5655844.5], [416675.0, 5655842.0]]]}}, {"type": "Feature", "properties": {"z": 115.15, "h": 2.59}, "geometry": {"type": "Polygon", "coordinates": [[[416677.6, 5655905.94], [416672.88, 5655913.49], [416675.26, 5655914.98], [416679.98, 5655907.43], [416677.6, 5655905.94]]]}}, {"type": "Feature", "properties": {"z": 115.4, "h": 2.46}, "geometry": {"type": "Polygon", "coordinates": [[[416681.75, 5654969.75], [416684.25, 5654967.25], [416682.0, 5654965.0], [416679.5, 5654967.5], [416681.75, 5654969.75]]]}}, {"type": "Feature", "properties": {"z": 113.47, "h": 3.82}, "geometry": {"type": "Polygon", "coordinates": [[[416682.31, 5654777.96], [416689.31, 5654788.46], [416695.42, 5654784.38], [416688.42, 5654773.88], [416682.31, 5654777.96]]]}}, {"type": "Feature", "properties": {"z": 114.07, "h": 2.51}, "geometry": {"type": "Polygon", "coordinates": [[[416683.25, 5655437.25], [416680.0, 5655440.5], [416682.5, 5655443.0], [416685.75, 5655439.75], [416683.25, 5655437.25]]]}}, {"type": "Feature", "properties": {"z": 114.37, "h": 2.18}, "geometry": {"type": "Polygon", "coordinates": [[[416683.7, 5655418.6], [416679.9, 5655416.7], [416678.5, 5655419.5], [416682.3, 5655421.4], [416683.7, 5655418.6]]]}}, {"type": "Feature", "properties": {"z": 114.63, "h": 2.49}, "geometry": {"type": "Polygon", "coordinates": [[[416684.25, 5655361.75], [416682.0, 5655364.0], [416685.25, 5655367.25], [416687.5, 5655365.0], [416684.25, 5655361.75]]]}}, {"type": "Feature", "properties": {"z": 114.77, "h": 3.0}, "geometry": {"type": "Polygon", "coordinates": [[[416689.57, 5655119.84], [416693.72, 5655116.52], [416690.55, 5655112.56], [416686.4, 5655115.88], [416689.57, 5655119.84]]]}}, {"type": "Feature", "properties": {"z": 114.3, "h": 2.5}, "geometry": {"type": "Polygon", "coordinates": [[[416690.5, 5655434.5], [416694.25, 5655438.25], [416697.25, 5655435.25], [416693.5, 5655431.5], [416690.5, 5655434.5]]]}}, {"type": "Feature", "properties": {"z": 114.84, "h": 2.9, "hc": [3.13, 3.21, 2.64, 2.56]}, "geometry": {"type": "Polygon", "coordinates": [[[416695.15, 5654571.77], [416702.91, 5654572.74], [416703.37, 5654569.05], [416695.62, 5654568.08], [416695.15, 5654571.77]]]}}, {"type": "Feature", "properties": {"z": 114.21, "h": 2.24}, "geometry": {"type": "Polygon", "coordinates": [[[416696.0, 5654814.0], [416698.0, 5654816.0], [416700.5, 5654813.5], [416698.5, 5654811.5], [416696.0, 5654814.0]]]}}, {"type": "Feature", "properties": {"z": 114.41, "h": 2.31}, "geometry": {"type": "Polygon", "coordinates": [[[416705.0, 5655426.5], [416706.8, 5655430.1], [416710.0, 5655428.5], [416708.2, 5655424.9], [416705.0, 5655426.5]]]}}, {"type": "Feature", "properties": {"z": 114.43, "h": 2.87}, "geometry": {"type": "Polygon", "coordinates": [[[416713.5, 5655462.0], [416711.0, 5655464.5], [416713.5, 5655467.0], [416716.0, 5655464.5], [416713.5, 5655462.0]]]}}, {"type": "Feature", "properties": {"z": 114.49, "h": 2.59}, "geometry": {"type": "Polygon", "coordinates": [[[416715.08, 5654335.12], [416712.85, 5654331.77], [416710.65, 5654333.23], [416712.88, 5654336.58], [416715.08, 5654335.12]]]}}, {"type": "Feature", "properties": {"z": 114.38, "h": 2.56}, "geometry": {"type": "Polygon", "coordinates": [[[416717.0, 5655456.0], [416719.25, 5655458.25], [416722.25, 5655455.25], [416720.0, 5655453.0], [416717.0, 5655456.0]]]}}, {"type": "Feature", "properties": {"z": 114.99, "h": 2.36}, "geometry": {"type": "Polygon", "coordinates": [[[416733.5, 5655131.5], [416737.5, 5655135.5], [416740.5, 5655132.5], [416736.5, 5655128.5], [416733.5, 5655131.5]]]}}, {"type": "Feature", "properties": {"z": 112.56, "h": 2.33}, "geometry": {"type": "Polygon", "coordinates": [[[416736.4, 5655947.7], [416740.2, 5655949.6], [416741.2, 5655947.6], [416737.4, 5655945.7], [416736.4, 5655947.7]]]}}, {"type": "Feature", "properties": {"z": 115.25, "h": 2.32}, "geometry": {"type": "Polygon", "coordinates": [[[416736.8, 5654985.1], [416732.8, 5654987.1], [416734.3, 5654990.1], [416738.3, 5654988.1], [416736.8, 5654985.1]]]}}, {"type": "Feature", "properties": {"z": 114.38, "h": 2.55}, "geometry": {"type": "Polygon", "coordinates": [[[416744.02, 5655427.36], [416740.9, 5655423.2], [416738.02, 5655425.36], [416741.14, 5655429.52], [416744.02, 5655427.36]]]}}, {"type": "Feature", "properties": {"z": 114.9, "h": 2.47}, "geometry": {"type": "Polygon", "coordinates": [[[416753.91, 5655375.56], [416757.4, 5655369.28], [416752.22, 5655366.4], [416748.73, 5655372.68], [416753.91, 5655375.56]]]}}, {"type": "Feature", "properties": {"z": 114.1, "h": 2.47}, "geometry": {"type": "Polygon", "coordinates": [[[416763.58, 5655540.39], [416758.04, 5655536.69], [416756.35, 5655539.23], [416761.89, 5655542.92], [416763.58, 5655540.39]]]}}, {"type": "Feature", "properties": {"z": 114.94, "h": 2.35}, "geometry": {"type": "Polygon", "coordinates": [[[416776.75, 5655702.25], [416773.97, 5655706.88], [416776.62, 5655708.47], [416779.4, 5655703.84], [416776.75, 5655702.25]]]}}, {"type": "Feature", "properties": {"z": 115.93, "h": 2.4}, "geometry": {"type": "Polygon", "coordinates": [[[416779.0, 5654075.0], [416779.0, 5654078.5], [416782.0, 5654078.5], [416782.0, 5654075.0], [416779.0, 5654075.0]]]}}, {"type": "Feature", "properties": {"z": 114.46, "h": 2.82}, "geometry": {"type": "Polygon", "coordinates": [[[416796.5, 5655090.5], [416799.25, 5655093.25], [416801.5, 5655091.0], [416798.75, 5655088.25], [416796.5, 5655090.5]]]}}, {"type": "Feature", "properties": {"z": 115.95, "h": 3.0}, "geometry": {"type": "Polygon", "coordinates": [[[416811.97, 5654008.59], [416783.33, 5654009.57], [416783.53, 5654015.45], [416812.17, 5654014.46], [416811.97, 5654008.59]]]}}, {"type": "Feature", "properties": {"z": 115.21, "h": 2.44}, "geometry": {"type": "Polygon", "coordinates": [[[416818.59, 5655379.85], [416823.53, 5655375.62], [416820.88, 5655372.53], [416815.94, 5655376.76], [416818.59, 5655379.85]]]}}, {"type": "Feature", "properties": {"z": 115.57, "h": 3.05}, "geometry": {"type": "Polygon", "coordinates": [[[416834.82, 5655247.22], [416829.54, 5655251.84], [416832.7, 5655255.45], [416837.98, 5655250.83], [416834.82, 5655247.22]]]}}, {"type": "Feature", "properties": {"z": 115.91, "h": 2.67}, "geometry": {"type": "Polygon", "coordinates": [[[416839.89, 5655301.65], [416840.65, 5655297.11], [416837.08, 5655296.51], [416836.32, 5655301.05], [416839.89, 5655301.65]]]}}, {"type": "Feature", "properties": {"z": 115.43, "h": 3.31, "hc": [2.79, 3.28, 3.8, 3.31]}, "geometry": {"type": "Polygon", "coordinates": [[[416844.5, 5655137.5], [416844.5, 5655142.0], [416848.0, 5655142.0], [416848.0, 5655137.5], [416844.5, 5655137.5]]]}}, {"type": "Feature", "properties": {"z": 115.23, "h": 2.89}, "geometry": {"type": "Polygon", "coordinates": [[[416851.8, 5654920.76], [416861.54, 5654914.56], [416857.71, 5654908.55], [416847.97, 5654914.74], [416851.8, 5654920.76]]]}}, {"type": "Feature", "properties": {"z": 114.64, "h": 2.91}, "geometry": {"type": "Polygon", "coordinates": [[[416852.5, 5654090.5], [416852.5, 5654093.5], [416859.5, 5654093.5], [416859.5, 5654090.5], [416852.5, 5654090.5]]]}}, {"type": "Feature", "properties": {"z": 115.02, "h": 2.51}, "geometry": {"type": "Polygon", "coordinates": [[[416864.5, 5654892.0], [416871.25, 5654898.75], [416881.75, 5654888.25], [416875.0, 5654881.5], [416864.5, 5654892.0]]]}}, {"type": "Feature", "properties": {"z": 114.38, "h": 3.48}, "geometry": {"type": "Polygon", "coordinates": [[[416882.2, 5655603.1], [416888.2, 5655606.1], [416889.8, 5655602.9], [416883.8, 5655599.9], [416882.2, 5655603.1]]]}}, {"type": "Feature", "properties": {"z": 115.91, "h": 2.41}, "geometry": {"type": "Polygon", "coordinates": [[[416884.5, 5655203.0], [416881.75, 5655205.75], [416884.75, 5655208.75], [416887.5, 5655206.0], [416884.5, 5655203.0]]]}}, {"type": "Feature", "properties": {"z": 115.23, "h": 3.31}, "geometry": {"type": "Polygon", "coordinates": [[[416895.3, 5654464.1], [416890.9, 5654466.3], [416893.7, 5654471.9], [416898.1, 5654469.7], [416895.3, 5654464.1]]]}}, {"type": "Feature", "properties": {"z": 115.21, "h": 2.74}, "geometry": {"type": "Polygon", "coordinates": [[[416918.5, 5654483.0], [416920.9, 5654487.8], [416924.1, 5654486.2], [416921.7, 5654481.4], [416918.5, 5654483.0]]]}}, {"type": "Feature", "properties": {"z": 115.48, "h": 2.39}, "geometry": {"type": "Polygon", "coordinates": [[[416935.5, 5655259.0], [416935.5, 5655262.5], [416940.5, 5655262.5], [416940.5, 5655259.0], [416935.5, 5655259.0]]]}}, {"type": "Feature", "properties": {"z": 115.37, "h": 3.74}, "geometry": {"type": "Polygon", "coordinates": [[[416968.5, 5654474.0], [416968.5, 5654476.5], [416972.5, 5654476.5], [416972.5, 5654474.0], [416968.5, 5654474.0]]]}}, {"type": "Feature", "properties": {"z": 114.47, "h": 2.88}, "geometry": {"type": "Polygon", "coordinates": [[[417030.25, 5654209.75], [417032.25, 5654211.75], [417036.0, 5654208.0], [417034.0, 5654206.0], [417030.25, 5654209.75]]]}}, {"type": "Feature", "properties": {"z": 115.22, "h": 3.55}, "geometry": {"type": "Polygon", "coordinates": [[[417104.81, 5654025.39], [417100.16, 5654042.13], [417103.25, 5654042.99], [417107.9, 5654026.25], [417104.81, 5654025.39]]]}}, {"type": "Feature", "properties": {"z": 115.87, "h": 2.33}, "geometry": {"type": "Polygon", "coordinates": [[[417107.5, 5654238.0], [417107.5, 5654241.5], [417110.0, 5654241.5], [417110.0, 5654238.0], [417107.5, 5654238.0]]]}}, {"type": "Feature", "properties": {"z": 115.21, "h": 3.57}, "geometry": {"type": "Polygon", "coordinates": [[[417108.68, 5654034.75], [417105.99, 5654043.7], [417108.97, 5654044.59], [417111.66, 5654035.65], [417108.68, 5654034.75]]]}}, {"type": "Feature", "properties": {"z": 116.74, "h": 2.43}, "geometry": {"type": "Polygon", "coordinates": [[[417110.4, 5654336.8], [417114.8, 5654334.6], [417112.8, 5654330.6], [417108.4, 5654332.8], [417110.4, 5654336.8]]]}}, {"type": "Feature", "properties": {"z": 115.14, "h": 2.81}, "geometry": {"type": "Polygon", "coordinates": [[[417113.5, 5654070.0], [417113.5, 5654073.5], [417117.5, 5654073.5], [417117.5, 5654070.0], [417113.5, 5654070.0]]]}}, {"type": "Feature", "properties": {"z": 115.25, "h": 2.5}, "geometry": {"type": "Polygon", "coordinates": [[[417116.08, 5654212.44], [417120.8, 5654208.9], [417117.62, 5654204.66], [417112.9, 5654208.2], [417116.08, 5654212.44]]]}}, {"type": "Feature", "properties": {"z": 115.16, "h": 2.62}, "geometry": {"type": "Polygon", "coordinates": [[[417131.38, 5654107.47], [417149.5, 5654112.0], [417150.35, 5654108.59], [417132.24, 5654104.06], [417131.38, 5654107.47]]]}}, {"type": "Feature", "properties": {"z": 116.66, "h": 2.81}, "geometry": {"type": "Polygon", "coordinates": [[[417141.5, 5654239.5], [417144.5, 5654245.5], [417146.9, 5654244.3], [417143.9, 5654238.3], [417141.5, 5654239.5]]]}}, {"type": "Feature", "properties": {"z": 116.61, "h": 2.97}, "geometry": {"type": "Polygon", "coordinates": [[[417147.5, 5654236.5], [417151.7, 5654234.4], [417150.4, 5654231.8], [417146.2, 5654233.9], [417147.5, 5654236.5]]]}}, {"type": "Feature", "properties": {"z": 116.78, "h": 2.82}, "geometry": {"type": "Polygon", "coordinates": [[[417174.0, 5654335.5], [417174.0, 5654339.0], [417177.5, 5654339.0], [417177.5, 5654335.5], [417174.0, 5654335.5]]]}}, {"type": "Feature", "properties": {"z": 117.01, "h": 3.04}, "geometry": {"type": "Polygon", "coordinates": [[[417176.4, 5654262.3], [417172.7, 5654254.9], [417169.3, 5654256.6], [417173.0, 5654264.0], [417176.4, 5654262.3]]]}}, {"type": "Feature", "properties": {"z": 114.95, "h": 2.6}, "geometry": {"type": "Polygon", "coordinates": [[[417182.75, 5654902.25], [417179.25, 5654905.75], [417182.25, 5654908.75], [417185.75, 5654905.25], [417182.75, 5654902.25]]]}}, {"type": "Feature", "properties": {"z": 111.82, "h": 2.69}, "geometry": {"type": "Polygon", "coordinates": [[[417186.5, 5654945.0], [417186.5, 5654949.5], [417189.0, 5654949.5], [417189.0, 5654945.0], [417186.5, 5654945.0]]]}}, {"type": "Feature", "properties": {"z": 116.99, "h": 2.36}, "geometry": {"type": "Polygon", "coordinates": [[[417195.25, 5654268.25], [417192.75, 5654270.75], [417195.0, 5654273.0], [417197.5, 5654270.5], [417195.25, 5654268.25]]]}}, {"type": "Feature", "properties": {"z": 116.75, "h": 2.93}, "geometry": {"type": "Polygon", "coordinates": [[[417199.06, 5654314.24], [417204.0, 5654313.0], [417203.09, 5654309.35], [417198.15, 5654310.59], [417199.06, 5654314.24]]]}}, {"type": "Feature", "properties": {"z": 116.72, "h": 2.8}, "geometry": {"type": "Polygon", "coordinates": [[[417210.5, 5654183.5], [417210.5, 5654187.0], [417214.5, 5654187.0], [417214.5, 5654183.5], [417210.5, 5654183.5]]]}}, {"type": "Feature", "properties": {"z": 116.91, "h": 2.4}, "geometry": {"type": "Polygon", "coordinates": [[[417230.86, 5654270.47], [417234.47, 5654279.14], [417237.49, 5654277.88], [417233.88, 5654269.22], [417230.86, 5654270.47]]]}}, {"type": "Feature", "properties": {"z": 116.84, "h": 2.33}, "geometry": {"type": "Polygon", "coordinates": [[[417255.02, 5654326.79], [417257.88, 5654333.95], [417261.15, 5654332.64], [417258.29, 5654325.48], [417255.02, 5654326.79]]]}}, {"type": "Feature", "properties": {"z": 114.62, "h": 2.95}, "geometry": {"type": "Polygon", "coordinates": [[[417262.6, 5655947.8], [417258.0, 5655945.5], [417257.0, 5655947.5], [417261.6, 5655949.8], [417262.6, 5655947.8]]]}}, {"type": "Feature", "properties": {"z": 115.46, "h": 2.47}, "geometry": {"type": "Polygon", "coordinates": [[[417264.09, 5654129.65], [417258.65, 5654132.91], [417260.81, 5654136.51], [417266.25, 5654133.25], [417264.09, 5654129.65]]]}}, {"type": "Feature", "properties": {"z": 117.12, "h": 2.45}, "geometry": {"type": "Polygon", "coordinates": [[[417274.5, 5654304.5], [417278.5, 5654308.5], [417281.0, 5654306.0], [417277.0, 5654302.0], [417274.5, 5654304.5]]]}}, {"type": "Feature", "properties": {"z": 117.1, "h": 2.58}, "geometry": {"type": "Polygon", "coordinates": [[[417281.5, 5654307.5], [417278.5, 5654309.0], [417280.5, 5654313.0], [417283.5, 5654311.5], [417281.5, 5654307.5]]]}}, {"type": "Feature", "properties": {"z": 117.21, "h": 2.49}, "geometry": {"type": "Polygon", "coordinates": [[[417290.29, 5654278.18], [417286.18, 5654279.21], [417287.35, 5654283.91], [417291.47, 5654282.88], [417290.29, 5654278.18]]]}}, {"type": "Feature", "properties": {"z": 116.9, "h": 2.6}, "geometry": {"type": "Polygon", "coordinates": [[[417305.8, 5654245.9], [417309.4, 5654244.7], [417307.05, 5654237.65], [417303.45, 5654238.85], [417305.8, 5654245.9]]]}}, {"type": "Feature", "properties": {"z": 114.29, "h": 2.72, "hc": [3.21, 2.1, 2.33, 3.44]}, "geometry": {"type": "Polygon", "coordinates": [[[417316.9, 5654021.98], [417324.02, 5654023.4], [417325.06, 5654018.21], [417317.94, 5654016.79], [417316.9, 5654021.98]]]}}, {"type": "Feature", "properties": {"z": 115.8, "h": 2.39}, "geometry": {"type": "Polygon", "coordinates": [[[417336.75, 5654127.25], [417333.5, 5654130.5], [417336.75, 5654133.75], [417340.0, 5654130.5], [417336.75, 5654127.25]]]}}, {"type": "Feature", "properties": {"z": 115.57, "h": 2.36}, "geometry": {"type": "Polygon", "coordinates": [[[417342.47, 5654255.41], [417344.71, 5654261.02], [417347.29, 5654259.98], [417345.05, 5654254.38], [417342.47, 5654255.41]]]}}, {"type": "Feature", "properties": {"z": 114.77, "h": 2.54}, "geometry": {"type": "Polygon", "coordinates": [[[417366.0, 5654103.0], [417366.0, 5654106.5], [417369.5, 5654106.5], [417369.5, 5654103.0], [417366.0, 5654103.0]]]}}, {"type": "Feature", "properties": {"z": 114.77, "h": 2.88}, "geometry": {"type": "Polygon", "coordinates": [[[417373.22, 5654094.67], [417377.17, 5654099.28], [417380.05, 5654096.81], [417376.1, 5654092.2], [417373.22, 5654094.67]]]}}, {"type": "Feature", "properties": {"z": 110.68, "h": 2.36}, "geometry": {"type": "Polygon", "coordinates": [[[417376.0, 5655342.5], [417376.0, 5655346.5], [417380.0, 5655346.5], [417380.0, 5655342.5], [417376.0, 5655342.5]]]}}, {"type": "Feature", "properties": {"z": 114.09, "h": 3.08}, "geometry": {"type": "Polygon", "coordinates": [[[417383.2, 5655743.1], [417380.4, 5655741.7], [417379.0, 5655744.5], [417381.8, 5655745.9], [417383.2, 5655743.1]]]}}, {"type": "Feature", "properties": {"z": 112.1, "h": 4.74}, "geometry": {"type": "Polygon", "coordinates": [[[417389.81, 5655543.04], [417393.04, 5655538.19], [417389.0, 5655535.5], [417385.77, 5655540.35], [417389.81, 5655543.04]]]}}, {"type": "Feature", "properties": {"z": 115.24, "h": 2.62}, "geometry": {"type": "Polygon", "coordinates": [[[417390.0, 5654342.0], [417384.6, 5654344.7], [417386.9, 5654349.3], [417392.3, 5654346.6], [417390.0, 5654342.0]]]}}, {"type": "Feature", "properties": {"z": 114.65, "h": 2.55}, "geometry": {"type": "Polygon", "coordinates": [[[417402.22, 5654092.44], [417407.44, 5654096.78], [417409.53, 5654094.27], [417404.31, 5654089.93], [417402.22, 5654092.44]]]}}, {"type": "Feature", "properties": {"z": 110.96, "h": 2.88}, "geometry": {"type": "Polygon", "coordinates": [[[417403.75, 5655333.25], [417407.25, 5655336.75], [417410.25, 5655333.75], [417406.75, 5655330.25], [417403.75, 5655333.25]]]}}, {"type": "Feature", "properties": {"z": 115.43, "h": 2.65}, "geometry": {"type": "Polygon", "coordinates": [[[417409.0, 5654334.0], [417409.0, 5654337.5], [417412.5, 5654337.5], [417412.5, 5654334.0], [417409.0, 5654334.0]]]}}, {"type": "Feature", "properties": {"z": 147.48, "h": 2.75}, "geometry": {"type": "Polygon", "coordinates": [[[417422.25, 5655993.25], [417425.0, 5655996.0], [417428.5, 5655992.5], [417425.75, 5655989.75], [417422.25, 5655993.25]]]}}, {"type": "Feature", "properties": {"z": 111.0, "h": 3.11, "hc": [3.41, 3.31, 2.79, 2.89]}, "geometry": {"type": "Polygon", "coordinates": [[[417437.96, 5655285.22], [417441.48, 5655287.86], [417443.04, 5655285.78], [417439.52, 5655283.14], [417437.96, 5655285.22]]]}}, {"type": "Feature", "properties": {"z": 111.09, "h": 2.7}, "geometry": {"type": "Polygon", "coordinates": [[[417438.0, 5655350.5], [417434.0, 5655354.5], [417437.0, 5655357.5], [417441.0, 5655353.5], [417438.0, 5655350.5]]]}}, {"type": "Feature", "properties": {"z": 114.8, "h": 2.28}, "geometry": {"type": "Polygon", "coordinates": [[[417438.25, 5654319.75], [417440.25, 5654321.75], [417443.25, 5654318.75], [417441.25, 5654316.75], [417438.25, 5654319.75]]]}}, {"type": "Feature", "properties": {"z": 110.85, "h": 2.83}, "geometry": {"type": "Polygon", "coordinates": [[[417446.5, 5655373.5], [417446.5, 5655377.0], [417452.0, 5655377.0], [417452.0, 5655373.5], [417446.5, 5655373.5]]]}}, {"type": "Feature", "properties": {"z": 113.16, "h": 6.61}, "geometry": {"type": "Polygon", "coordinates": [[[417449.75, 5654286.75], [417451.3, 5654291.4], [417456.7, 5654289.6], [417455.15, 5654284.95], [417449.75, 5654286.75]]]}}, {"type": "Feature", "properties": {"z": 111.25, "h": 2.46}, "geometry": {"type": "Polygon", "coordinates": [[[417456.4, 5655298.7], [417460.2, 5655300.6], [417461.5, 5655298.0], [417457.7, 5655296.1], [417456.4, 5655298.7]]]}}, {"type": "Feature", "properties": {"z": 110.93, "h": 3.02}, "geometry": {"type": "Polygon", "coordinates": [[[417457.75, 5655173.75], [417454.0, 5655170.0], [417451.0, 5655173.0], [417454.75, 5655176.75], [417457.75, 5655173.75]]]}}, {"type": "Feature", "properties": {"z": 146.71, "h": 3.8}, "geometry": {"type": "Polygon", "coordinates": [[[417467.31, 5655833.96], [417466.02, 5655840.4], [417472.37, 5655841.67], [417473.65, 5655835.23], [417467.31, 5655833.96]]]}}, {"type": "Feature", "properties": {"z": 115.52, "h": 2.59}, "geometry": {"type": "Polygon", "coordinates": [[[417476.25, 5655503.25], [417472.25, 5655507.25], [417474.25, 5655509.25], [417478.25, 5655505.25], [417476.25, 5655503.25]]]}}, {"type": "Feature", "properties": {"z": 111.36, "h": 3.18, "hc": [3.41, 2.69, 2.97, 3.68]}, "geometry": {"type": "Polygon", "coordinates": [[[417477.25, 5655341.75], [417473.75, 5655345.25], [417476.5, 5655348.0], [417480.0, 5655344.5], [417477.25, 5655341.75]]]}}, {"type": "Feature", "properties": {"z": 118.71, "h": 2.46}, "geometry": {"type": "Polygon", "coordinates": [[[417487.14, 5655627.16], [417489.41, 5655621.47], [417486.05, 5655620.12], [417483.78, 5655625.81], [417487.14, 5655627.16]]]}}, {"type": "Feature", "properties": {"z": 112.55, "h": 3.26}, "geometry": {"type": "Polygon", "coordinates": [[[417495.75, 5655440.25], [417491.75, 5655444.25], [417496.75, 5655449.25], [417500.75, 5655445.25], [417495.75, 5655440.25]]]}}, {"type": "Feature", "properties": {"z": 114.13, "h": 2.39}, "geometry": {"type": "Polygon", "coordinates": [[[417496.75, 5654087.75], [417493.5, 5654091.0], [417495.75, 5654093.25], [417499.0, 5654090.0], [417496.75, 5654087.75]]]}}, {"type": "Feature", "properties": {"z": 110.77, "h": 2.52}, "geometry": {"type": "Polygon", "coordinates": [[[417498.7, 5655199.1], [417495.6, 5655205.3], [417497.8, 5655206.4], [417500.9, 5655200.2], [417498.7, 5655199.1]]]}}, {"type": "Feature", "properties": {"z": 110.74, "h": 2.58}, "geometry": {"type": "Polygon", "coordinates": [[[417500.7, 5655198.6], [417505.7, 5655201.1], [417507.4, 5655197.7], [417502.4, 5655195.2], [417500.7, 5655198.6]]]}}, {"type": "Feature", "properties": {"z": 151.79, "h": 2.4}, "geometry": {"type": "Polygon", "coordinates": [[[417504.25, 5655937.25], [417501.75, 5655939.75], [417505.25, 5655943.25], [417507.75, 5655940.75], [417504.25, 5655937.25]]]}}, {"type": "Feature", "properties": {"z": 148.47, "h": 2.6}, "geometry": {"type": "Polygon", "coordinates": [[[417504.5, 5655812.5], [417506.5, 5655814.5], [417509.75, 5655811.25], [417507.75, 5655809.25], [417504.5, 5655812.5]]]}}, {"type": "Feature", "properties": {"z": 114.1, "h": 2.41}, "geometry": {"type": "Polygon", "coordinates": [[[417508.73, 5654042.35], [417509.87, 5654036.67], [417506.79, 5654036.06], [417505.65, 5654041.73], [417508.73, 5654042.35]]]}}, {"type": "Feature", "properties": {"z": 151.78, "h": 3.26}, "geometry": {"type": "Polygon", "coordinates": [[[417518.25, 5655935.75], [417520.25, 5655937.75], [417524.0, 5655934.0], [417522.0, 5655932.0], [417518.25, 5655935.75]]]}}, {"type": "Feature", "properties": {"z": 110.58, "h": 2.77}, "geometry": {"type": "Polygon", "coordinates": [[[417525.16, 5655049.35], [417529.03, 5655043.15], [417525.62, 5655041.01], [417521.74, 5655047.21], [417525.16, 5655049.35]]]}}, {"type": "Feature", "properties": {"z": 147.71, "h": 5.25}, "geometry": {"type": "Polygon", "coordinates": [[[417526.4, 5655729.2], [417523.2, 5655735.6], [417526.0, 5655737.0], [417529.2, 5655730.6], [417526.4, 5655729.2]]]}}, {"type": "Feature", "properties": {"z": 154.86, "h": 2.8}, "geometry": {"type": "Polygon", "coordinates": [[[417543.5, 5655960.5], [417543.5, 5655964.5], [417546.5, 5655964.5], [417546.5, 5655960.5], [417543.5, 5655960.5]]]}}, {"type": "Feature", "properties": {"z": 111.47, "h": 2.66}, "geometry": {"type": "Polygon", "coordinates": [[[417548.8, 5655285.1], [417550.35, 5655280.45], [417546.75, 5655279.25], [417545.2, 5655283.9], [417548.8, 5655285.1]]]}}, {"type": "Feature", "properties": {"z": 150.18, "h": 2.6}, "geometry": {"type": "Polygon", "coordinates": [[[417575.5, 5655784.5], [417575.5, 5655787.5], [417579.5, 5655787.5], [417579.5, 5655784.5], [417575.5, 5655784.5]]]}}, {"type": "Feature", "properties": {"z": 154.7, "h": 2.27}, "geometry": {"type": "Polygon", "coordinates": [[[417578.35, 5655856.95], [417583.15, 5655858.55], [417584.05, 5655855.85], [417579.25, 5655854.25], [417578.35, 5655856.95]]]}}, {"type": "Feature", "properties": {"z": 112.07, "h": 2.88}, "geometry": {"type": "Polygon", "coordinates": [[[417583.25, 5654017.25], [417579.5, 5654021.0], [417581.5, 5654023.0], [417585.25, 5654019.25], [417583.25, 5654017.25]]]}}, {"type": "Feature", "properties": {"z": 155.6, "h": 3.27}, "geometry": {"type": "Polygon", "coordinates": [[[417586.35, 5655887.45], [417584.7, 5655892.4], [417586.65, 5655893.05], [417588.3, 5655888.1], [417586.35, 5655887.45]]]}}, {"type": "Feature", "properties": {"z": 111.35, "h": 2.65}, "geometry": {"type": "Polygon", "coordinates": [[[417595.0, 5654355.0], [417597.5, 5654357.5], [417600.5, 5654354.5], [417598.0, 5654352.0], [417595.0, 5654355.0]]]}}, {"type": "Feature", "properties": {"z": 141.97, "h": 3.1}, "geometry": {"type": "Polygon", "coordinates": [[[417597.75, 5655445.75], [417595.25, 5655448.25], [417598.0, 5655451.0], [417600.5, 5655448.5], [417597.75, 5655445.75]]]}}, {"type": "Feature", "properties": {"z": 111.21, "h": 2.56}, "geometry": {"type": "Polygon", "coordinates": [[[417598.5, 5654986.5], [417598.5, 5654990.5], [417603.5, 5654990.5], [417603.5, 5654986.5], [417598.5, 5654986.5]]]}}, {"type": "Feature", "properties": {"z": 111.23, "h": 2.56, "hc": [2.88, 2.58, 2.21, 2.51]}, "geometry": {"type": "Polygon", "coordinates": [[[417601.0, 5654357.5], [417601.0, 5654361.0], [417604.0, 5654361.0], [417604.0, 5654357.5], [417601.0, 5654357.5]]]}}, {"type": "Feature", "properties": {"z": 111.28, "h": 2.78, "hc": [2.89, 2.23, 2.62, 3.27]}, "geometry": {"type": "Polygon", "coordinates": [[[417605.28, 5654947.2], [417610.15, 5654946.39], [417609.57, 5654942.91], [417604.7, 5654943.72], [417605.28, 5654947.2]]]}}, {"type": "Feature", "properties": {"z": 111.13, "h": 2.54}, "geometry": {"type": "Polygon", "coordinates": [[[417611.2, 5655000.4], [417607.2, 5654997.4], [417604.98, 5655000.36], [417608.98, 5655003.36], [417611.2, 5655000.4]]]}}, {"type": "Feature", "properties": {"z": 113.8, "h": 2.28}, "geometry": {"type": "Polygon", "coordinates": [[[417612.32, 5654173.74], [417614.54, 5654170.78], [417611.66, 5654168.62], [417609.44, 5654171.58], [417612.32, 5654173.74]]]}}, {"type": "Feature", "properties": {"z": 113.93, "h": 2.32}, "geometry": {"type": "Polygon", "coordinates": [[[417620.5, 5654171.0], [417618.25, 5654173.25], [417621.25, 5654176.25], [417623.5, 5654174.0], [417620.5, 5654171.0]]]}}, {"type": "Feature", "properties": {"z": 118.74, "h": 3.16}, "geometry": {"type": "Polygon", "coordinates": [[[417623.95, 5655125.88], [417621.71, 5655131.48], [417624.9, 5655132.76], [417627.14, 5655127.16], [417623.95, 5655125.88]]]}}, {"type": "Feature", "properties": {"z": 152.18, "h": 2.87}, "geometry": {"type": "Polygon", "coordinates": [[[417639.3, 5655460.9], [417642.7, 5655454.1], [417639.5, 5655452.5], [417636.1, 5655459.3], [417639.3, 5655460.9]]]}}, {"type": "Feature", "properties": {"z": 117.48, "h": 3.83}, "geometry": {"type": "Polygon", "coordinates": [[[417642.6, 5655122.3], [417641.0, 5655125.5], [417646.4, 5655128.2], [417648.0, 5655125.0], [417642.6, 5655122.3]]]}}, {"type": "Feature", "properties": {"z": 111.6, "h": 2.97}, "geometry": {"type": "Polygon", "coordinates": [[[417645.5, 5654899.5], [417645.5, 5654903.0], [417649.5, 5654903.0], [417649.5, 5654899.5], [417645.5, 5654899.5]]]}}, {"type": "Feature", "properties": {"z": 113.57, "h": 2.58}, "geometry": {"type": "Polygon", "coordinates": [[[417646.5, 5654125.5], [417648.5, 5654127.5], [417651.75, 5654124.25], [417649.75, 5654122.25], [417646.5, 5654125.5]]]}}, {"type": "Feature", "properties": {"z": 113.06, "h": 2.8}, "geometry": {"type": "Polygon", "coordinates": [[[417655.75, 5654079.25], [417657.75, 5654081.25], [417662.5, 5654076.5], [417660.5, 5654074.5], [417655.75, 5654079.25]]]}}, {"type": "Feature", "properties": {"z": 113.05, "h": 2.52}, "geometry": {"type": "Polygon", "coordinates": [[[417657.5, 5654146.0], [417653.5, 5654150.0], [417657.25, 5654153.75], [417661.25, 5654149.75], [417657.5, 5654146.0]]]}}, {"type": "Feature", "properties": {"z": 113.07, "h": 3.32}, "geometry": {"type": "Polygon", "coordinates": [[[417670.2, 5654036.66], [417665.24, 5654042.62], [417669.22, 5654045.94], [417674.18, 5654039.98], [417670.2, 5654036.66]]]}}, {"type": "Feature", "properties": {"z": 111.62, "h": 2.78}, "geometry": {"type": "Polygon", "coordinates": [[[417682.25, 5654894.25], [417687.0, 5654899.0], [417690.0, 5654896.0], [417685.25, 5654891.25], [417682.25, 5654894.25]]]}}, {"type": "Feature", "properties": {"z": 150.28, "h": 3.1}, "geometry": {"type": "Polygon", "coordinates": [[[417684.46, 5655401.94], [417695.28, 5655407.77], [417697.67, 5655403.32], [417686.85, 5655397.5], [417684.46, 5655401.94]]]}}, {"type": "Feature", "properties": {"z": 111.47, "h": 2.68}, "geometry": {"type": "Polygon", "coordinates": [[[417687.97, 5654919.34], [417693.04, 5654912.24], [417690.34, 5654910.32], [417685.28, 5654917.41], [417687.97, 5654919.34]]]}}, {"type": "Feature", "properties": {"z": 113.85, "h": 2.63}, "geometry": {"type": "Polygon", "coordinates": [[[417689.5, 5655034.0], [417689.5, 5655038.0], [417693.0, 5655038.0], [417693.0, 5655034.0], [417689.5, 5655034.0]]]}}, {"type": "Feature", "properties": {"z": 111.78, "h": 2.31}, "geometry": {"type": "Polygon", "coordinates": [[[417691.62, 5654090.08], [417689.39, 5654093.42], [417691.92, 5654095.12], [417694.15, 5654091.77], [417691.62, 5654090.08]]]}}, {"type": "Feature", "properties": {"z": 119.63, "h": 2.93, "hc": [3.01, 2.49, 2.87, 3.4]}, "geometry": {"type": "Polygon", "coordinates": [[[417717.0, 5655075.5], [417717.0, 5655078.0], [417721.0, 5655078.0], [417721.0, 5655075.5], [417717.0, 5655075.5]]]}}, {"type": "Feature", "properties": {"z": 112.02, "h": 2.27}, "geometry": {"type": "Polygon", "coordinates": [[[417738.96, 5654134.17], [417743.72, 5654137.98], [417745.57, 5654135.66], [417740.82, 5654131.85], [417738.96, 5654134.17]]]}}, {"type": "Feature", "properties": {"z": 127.68, "h": 5.11, "hc": [6.44, 4.74, 3.8, 5.51]}, "geometry": {"type": "Polygon", "coordinates": [[[417741.25, 5655100.75], [417743.25, 5655102.75], [417746.25, 5655099.75], [417744.25, 5655097.75], [417741.25, 5655100.75]]]}}, {"type": "Feature", "properties": {"z": 111.46, "h": 4.1}, "geometry": {"type": "Polygon", "coordinates": [[[417747.0, 5654805.0], [417744.0, 5654808.0], [417747.25, 5654811.25], [417750.25, 5654808.25], [417747.0, 5654805.0]]]}}, {"type": "Feature", "properties": {"z": 131.11, "h": 2.77}, "geometry": {"type": "Polygon", "coordinates": [[[417747.4, 5655193.2], [417741.15, 5655191.81], [417740.42, 5655195.09], [417746.67, 5655196.48], [417747.4, 5655193.2]]]}}, {"type": "Feature", "properties": {"z": 175.07, "h": 2.92, "hc": [3.18, 3.12, 2.66, 2.72]}, "geometry": {"type": "Polygon", "coordinates": [[[417752.55, 5655856.12], [417750.38, 5655861.55], [417753.22, 5655862.69], [417755.4, 5655857.26], [417752.55, 5655856.12]]]}}, {"type": "Feature", "properties": {"z": 111.62, "h": 2.36}, "geometry": {"type": "Polygon", "coordinates": [[[417778.75, 5654841.75], [417783.75, 5654846.75], [417786.5, 5654844.0], [417781.5, 5654839.0], [417778.75, 5654841.75]]]}}, {"type": "Feature", "properties": {"z": 172.4, "h": 2.95}, "geometry": {"type": "Polygon", "coordinates": [[[417784.7, 5655716.6], [417787.2, 5655711.6], [417784.0, 5655710.0], [417781.5, 5655715.0], [417784.7, 5655716.6]]]}}, {"type": "Feature", "properties": {"z": 111.66, "h": 2.4}, "geometry": {"type": "Polygon", "coordinates": [[[417786.25, 5654807.75], [417789.5, 5654811.0], [417792.5, 5654808.0], [417789.25, 5654804.75], [417786.25, 5654807.75]]]}}, {"type": "Feature", "properties": {"z": 137.45, "h": 2.53}, "geometry": {"type": "Polygon", "coordinates": [[[417799.2, 5655086.6], [417796.3, 5655092.4], [417801.5, 5655095.0], [417804.4, 5655089.2], [417799.2, 5655086.6]]]}}, {"type": "Feature", "properties": {"z": 177.1, "h": 2.61}, "geometry": {"type": "Polygon", "coordinates": [[[417801.75, 5655754.25], [417805.75, 5655750.25], [417802.25, 5655746.75], [417798.25, 5655750.75], [417801.75, 5655754.25]]]}}, {"type": "Feature", "properties": {"z": 139.31, "h": 2.29}, "geometry": {"type": "Polygon", "coordinates": [[[417810.4, 5655122.2], [417807.7, 5655127.6], [417810.1, 5655128.8], [417812.8, 5655123.4], [417810.4, 5655122.2]]]}}, {"type": "Feature", "properties": {"z": 135.66, "h": 2.54}, "geometry": {"type": "Polygon", "coordinates": [[[417810.96, 5655063.22], [417815.28, 5655066.46], [417817.02, 5655064.14], [417812.7, 5655060.9], [417810.96, 5655063.22]]]}}, {"type": "Feature", "properties": {"z": 111.45, "h": 2.56}, "geometry": {"type": "Polygon", "coordinates": [[[417820.0, 5654761.0], [417816.25, 5654764.75], [417818.75, 5654767.25], [417822.5, 5654763.5], [417820.0, 5654761.0]]]}}, {"type": "Feature", "properties": {"z": 130.62, "h": 2.87}, "geometry": {"type": "Polygon", "coordinates": [[[417847.41, 5654909.35], [417849.06, 5654902.76], [417847.06, 5654902.26], [417845.41, 5654908.85], [417847.41, 5654909.35]]]}}, {"type": "Feature", "properties": {"z": 142.38, "h": 2.47}, "geometry": {"type": "Polygon", "coordinates": [[[417853.8, 5655158.6], [417858.54, 5655152.28], [417855.34, 5655149.88], [417850.6, 5655156.2], [417853.8, 5655158.6]]]}}, {"type": "Feature", "properties": {"z": 136.77, "h": 2.61}, "geometry": {"type": "Polygon", "coordinates": [[[417890.8, 5655018.6], [417892.4, 5655021.8], [417896.6, 5655019.7], [417895.0, 5655016.5], [417890.8, 5655018.6]]]}}, {"type": "Feature", "properties": {"z": 111.48, "h": 3.19}, "geometry": {"type": "Polygon", "coordinates": [[[417908.0, 5654714.0], [417908.0, 5654719.0], [417911.5, 5654719.0], [417911.5, 5654714.0], [417908.0, 5654714.0]]]}}, {"type": "Feature", "properties": {"z": 136.82, "h": 3.18}, "geometry": {"type": "Polygon", "coordinates": [[[417934.0, 5654931.5], [417931.25, 5654934.25], [417933.5, 5654936.5], [417936.25, 5654933.75], [417934.0, 5654931.5]]]}}, {"type": "Feature", "properties": {"z": 138.56, "h": 3.44}, "geometry": {"type": "Polygon", "coordinates": [[[417938.75, 5654908.25], [417936.25, 5654905.75], [417934.0, 5654908.0], [417936.5, 5654910.5], [417938.75, 5654908.25]]]}}, {"type": "Feature", "properties": {"z": 142.51, "h": 2.43}, "geometry": {"type": "Polygon", "coordinates": [[[417941.25, 5655070.75], [417938.25, 5655073.75], [417940.5, 5655076.0], [417943.5, 5655073.0], [417941.25, 5655070.75]]]}}, {"type": "Feature", "properties": {"z": 139.82, "h": 2.25}, "geometry": {"type": "Polygon", "coordinates": [[[417948.0, 5655025.5], [417948.0, 5655028.5], [417952.5, 5655028.5], [417952.5, 5655025.5], [417948.0, 5655025.5]]]}}, {"type": "Feature", "properties": {"z": 138.23, "h": 3.45}, "geometry": {"type": "Polygon", "coordinates": [[[417949.0, 5654940.0], [417954.0, 5654945.0], [417957.25, 5654941.75], [417952.25, 5654936.75], [417949.0, 5654940.0]]]}}, {"type": "Feature", "properties": {"z": 148.1, "h": 2.99}, "geometry": {"type": "Polygon", "coordinates": [[[417962.0, 5655131.5], [417956.96, 5655127.72], [417954.74, 5655130.68], [417959.78, 5655134.46], [417962.0, 5655131.5]]]}}, {"type": "Feature", "properties": {"z": 138.08, "h": 3.5}, "geometry": {"type": "Polygon", "coordinates": [[[417963.22, 5654934.31], [417969.09, 5654939.52], [417972.4, 5654935.8], [417966.53, 5654930.59], [417963.22, 5654934.31]]]}}, {"type": "Feature", "properties": {"z": 144.78, "h": 2.78}, "geometry": {"type": "Polygon", "coordinates": [[[417989.75, 5655046.75], [417992.5, 5655049.5], [417997.0, 5655045.0], [417994.25, 5655042.25], [417989.75, 5655046.75]]]}}]}