{"type": "FeatureCollection", "attribution": "\u00a9 OpenStreetMap contributors (ODbL)", "crs": {"type": "name", "properties": {"name": "urn:ogc:def:crs:EPSG::25833"}}, "features": [{"type": "Feature", "properties": {"w": 2.5, "n": 9, "z": [109.26, 110.65]}, "geometry": {"type": "LineString", "coordinates": [[408191.2, 5658801.14], [408198.0, 5658801.0]]}}, {"type": "Feature", "properties": {"w": 2.5, "n": 29, "z": [105.35, 110.01]}, "geometry": {"type": "LineString", "coordinates": [[408886.06, 5658313.37], [408882.94, 5658314.21], [408880.31, 5658304.51]]}}, {"type": "Feature", "properties": {"w": 2.5, "n": 13, "z": [108.74, 110.89]}, "geometry": {"type": "LineString", "coordinates": [[408403.59, 5659171.76], [408400.34, 5659164.63]]}}, {"type": "Feature", "properties": {"w": 2.5, "n": 20, "z": [108.23, 111.43]}, "geometry": {"type": "LineString", "coordinates": [[408248.82, 5659249.09], [408249.72, 5659257.27]]}}, {"type": "Feature", "properties": {"w": 2.5, "n": 11, "z": [108.87, 110.72]}, "geometry": {"type": "LineString", "coordinates": [[408808.41, 5659110.98], [408809.08, 5659105.21]]}}, {"type": "Feature", "properties": {"w": 2.5, "n": 13, "z": [108.56, 110.77]}, "geometry": {"type": "LineString", "coordinates": [[408620.62, 5659113.63], [408621.24, 5659102.45]]}}, {"type": "Feature", "properties": {"w": 2.0, "n": 19, "z": [107.06, 110.06]}, "geometry": {"type": "LineString", "coordinates": [[409961.6, 5659215.09], [409961.72, 5659220.7]]}}, {"type": "Feature", "properties": {"w": 2.0, "n": 10, "z": [107.28, 109.35]}, "geometry": {"type": "LineString", "coordinates": [[409669.83, 5659227.74], [409669.78, 5659231.49]]}}, {"type": "Feature", "properties": {"w": 2.0, "n": 14, "z": [107.03, 109.33]}, "geometry": {"type": "LineString", "coordinates": [[409596.6, 5659216.0], [409595.82, 5659220.66]]}}, {"type": "Feature", "properties": {"w": 2.0, "n": 10, "z": [107.83, 109.55]}, "geometry": {"type": "LineString", "coordinates": [[409484.82, 5659185.41], [409483.43, 5659189.05], [409482.35, 5659191.99]]}}, {"type": "Feature", "properties": {"w": 2.0, "n": 10, "z": [107.31, 109.58]}, "geometry": {"type": "LineString", "coordinates": [[409543.58, 5659205.19], [409542.2, 5659209.96]]}}, {"type": "Feature", "properties": {"w": 2.0, "n": 16, "z": [107.16, 110.11]}, "geometry": {"type": "LineString", "coordinates": [[409837.62, 5659221.03], [409834.06, 5659221.25], [409834.24, 5659225.28]]}}, {"type": "Feature", "properties": {"w": 2.5, "n": 29, "z": [106.14, 110.75]}, "geometry": {"type": "LineString", "coordinates": [[408256.78, 5659089.33], [408255.71, 5659076.98]]}}, {"type": "Feature", "properties": {"w": 2.5, "n": 33, "z": [105.86, 112.03]}, "geometry": {"type": "LineString", "coordinates": [[408851.42, 5659092.85], [408850.16, 5659108.0]]}}, {"type": "Feature", "properties": {"w": 2.5, "n": 37, "z": [106.14, 112.11]}, "geometry": {"type": "LineString", "coordinates": [[408820.32, 5658969.92], [408821.27, 5658956.79]]}}, {"type": "Feature", "properties": {"w": 2.5, "n": 3, "z": [109.35, 109.88]}, "geometry": {"type": "LineString", "coordinates": [[409129.6, 5659753.34], [409140.49, 5659754.34]]}}, {"type": "Feature", "properties": {"w": 2.5, "n": 10, "z": [109.14, 110.73]}, "geometry": {"type": "LineString", "coordinates": [[409285.04, 5659874.63], [409285.94, 5659866.4]]}}, {"type": "Feature", "properties": {"w": 2.5, "n": 4, "z": [110.1, 110.71]}, "geometry": {"type": "LineString", "coordinates": [[409019.37, 5659430.85], [409017.97, 5659428.1]]}}, {"type": "Feature", "properties": {"w": 2.5, "n": 22, "z": [106.58, 110.13]}, "geometry": {"type": "LineString", "coordinates": [[408882.94, 5658314.21], [408885.15, 5658322.83]]}}]}