{"type": "FeatureCollection", "attribution": "\u00a9 OpenStreetMap contributors (ODbL)", "crs": {"type": "name", "properties": {"name": "urn:ogc:def:crs:EPSG::25833"}}, "features": [{"type": "Feature", "properties": {"w": 2.5, "n": 5, "z": [110.84, 111.61]}, "geometry": {"type": "LineString", "coordinates": [[411335.54, 5659249.81], [411332.84, 5659249.43]]}}, {"type": "Feature", "properties": {"w": 2.5, "n": 6, "z": [110.28, 111.32]}, "geometry": {"type": "LineString", "coordinates": [[411702.77, 5659974.36], [411701.2, 5659971.96]]}}, {"type": "Feature", "properties": {"w": 2.5, "n": 20, "z": [103.78, 106.96]}, "geometry": {"type": "LineString", "coordinates": [[410936.02, 5658068.22], [410937.4, 5658065.07]]}}, {"type": "Feature", "properties": {"w": 2.5, "n": 8, "z": [111.53, 112.79]}, "geometry": {"type": "LineString", "coordinates": [[411214.27, 5659146.86], [411211.21, 5659146.18]]}}, {"type": "Feature", "properties": {"w": 2.0, "n": 25, "z": [105.99, 110.61]}, "geometry": {"type": "LineString", "coordinates": [[410014.75, 5659202.05], [410016.34, 5659209.72], [410016.76, 5659211.71]]}}, {"type": "Feature", "properties": {"w": 2.5, "n": 4, "z": [110.96, 111.85]}, "geometry": {"type": "LineString", "coordinates": [[410045.78, 5658236.61], [410045.33, 5658234.04]]}}, {"type": "Feature", "properties": {"w": 2.5, "n": 6, "z": [111.24, 112.19]}, "geometry": {"type": "LineString", "coordinates": [[410133.78, 5658212.92], [410132.67, 5658209.8]]}}, {"type": "Feature", "properties": {"w": 2.5, "n": 8, "z": [109.74, 111.06]}, "geometry": {"type": "LineString", "coordinates": [[410243.52, 5658451.96], [410237.62, 5658447.77], [410232.51, 5658444.14]]}}, {"type": "Feature", "properties": {"w": 2.5, "n": 6, "z": [108.4, 109.16]}, "geometry": {"type": "LineString", "coordinates": [[411750.87, 5658454.17], [411760.61, 5658454.09]]}}, {"type": "Feature", "properties": {"w": 2.5, "n": 6, "z": [108.5, 109.46]}, "geometry": {"type": "LineString", "coordinates": [[411760.61, 5658454.09], [411766.33, 5658454.08]]}}, {"type": "Feature", "properties": {"w": 2.5, "n": 11, "z": [111.08, 112.9]}, "geometry": {"type": "LineString", "coordinates": [[411975.27, 5659894.3], [411981.9, 5659898.35]]}}, {"type": "Feature", "properties": {"w": 2.5, "n": 7, "z": [110.89, 111.68]}, "geometry": {"type": "LineString", "coordinates": [[410807.06, 5659758.67], [410808.92, 5659758.45]]}}, {"type": "Feature", "properties": {"w": 2.5, "n": 28, "z": [106.82, 111.44]}, "geometry": {"type": "LineString", "coordinates": [[410109.0, 5659177.22], [410111.51, 5659185.34], [410112.05, 5659187.01]]}}, {"type": "Feature", "properties": {"w": 2.5, "n": 27, "z": [103.75, 108.08]}, "geometry": {"type": "LineString", "coordinates": [[411044.55, 5658031.95], [411042.88, 5658038.3]]}}, {"type": "Feature", "properties": {"w": 2.5, "n": 3, "z": [110.72, 111.33]}, "geometry": {"type": "LineString", "coordinates": [[410684.34, 5659822.42], [410681.75, 5659826.39]]}}, {"type": "Feature", "properties": {"w": 2.5, "n": 4, "z": [110.83, 111.41]}, "geometry": {"type": "LineString", "coordinates": [[410593.68, 5659861.05], [410596.16, 5659863.65]]}}, {"type": "Feature", "properties": {"w": 2.5, "n": 39, "z": [110.21, 115.64]}, "geometry": {"type": "LineString", "coordinates": [[410755.25, 5659672.26], [410744.76, 5659682.89]]}}, {"type": "Feature", "properties": {"w": 2.5, "n": 3, "z": [112.25, 112.65]}, "geometry": {"type": "LineString", "coordinates": [[410410.45, 5659171.85], [410412.18, 5659171.87]]}}, {"type": "Feature", "properties": {"w": 15.0, "n": 7, "z": [112.07, 113.06]}, "geometry": {"type": "LineString", "coordinates": [[411835.28, 5658348.0], [411837.71, 5658348.02]]}}, {"type": "Feature", "properties": {"w": 2.5, "n": 7, "z": [112.04, 113.03]}, "geometry": {"type": "LineString", "coordinates": [[411835.42, 5658339.97], [411837.93, 5658339.99]]}}, {"type": "Feature", "properties": {"w": 2.5, "n": 13, "z": [109.85, 110.9]}, "geometry": {"type": "LineString", "coordinates": [[410758.48, 5659669.07], [410755.25, 5659672.26]]}}, {"type": "Feature", "properties": {"w": 2.5, "n": 4, "z": [110.74, 111.33]}, "geometry": {"type": "LineString", "coordinates": [[410672.69, 5659915.3], [410670.98, 5659914.3]]}}, {"type": "Feature", "properties": {"w": 2.5, "n": 9, "z": [111.3, 112.84]}, "geometry": {"type": "LineString", "coordinates": [[411917.5, 5659969.13], [411914.92, 5659972.46]]}}, {"type": "Feature", "properties": {"w": 2.5, "n": 9, "z": [109.0, 110.5]}, "geometry": {"type": "LineString", "coordinates": [[410919.2, 5658160.37], [410920.53, 5658162.96]]}}, {"type": "Feature", "properties": {"w": 2.5, "n": 9, "z": [111.76, 113.14]}, "geometry": {"type": "LineString", "coordinates": [[411835.43, 5658957.13], [411835.43, 5658963.38]]}}, {"type": "Feature", "properties": {"w": 2.5, "n": 7, "z": [110.03, 111.32]}, "geometry": {"type": "LineString", "coordinates": [[410831.19, 5659663.16], [410832.52, 5659667.05]]}}, {"type": "Feature", "properties": {"w": 2.5, "n": 24, "z": [111.23, 115.32]}, "geometry": {"type": "LineString", "coordinates": [[411002.52, 5659057.38], [411009.95, 5659055.09]]}}, {"type": "Feature", "properties": {"w": 2.5, "n": 3, "z": [111.76, 112.07]}, "geometry": {"type": "LineString", "coordinates": [[411260.85, 5659326.81], [411263.01, 5659327.13]]}}, {"type": "Feature", "properties": {"w": 2.5, "n": 5, "z": [111.95, 112.77]}, "geometry": {"type": "LineString", "coordinates": [[411880.84, 5658992.88], [411877.72, 5658993.87]]}}, {"type": "Feature", "properties": {"w": 2.5, "n": 5, "z": [111.39, 112.35]}, "geometry": {"type": "LineString", "coordinates": [[411012.69, 5658174.55], [411013.82, 5658172.75]]}}, {"type": "Feature", "properties": {"w": 2.5, "n": 7, "z": [109.83, 111.03]}, "geometry": {"type": "LineString", "coordinates": [[411711.44, 5658558.73], [411711.47, 5658560.43], [411707.53, 5658560.52], [411707.54, 5658561.19]]}}, {"type": "Feature", "properties": {"w": 2.5, "n": 3, "z": [109.67, 110.18]}, "geometry": {"type": "LineString", "coordinates": [[411711.33, 5658552.29], [411711.44, 5658558.73]]}}, {"type": "Feature", "properties": {"w": 2.5, "n": 6, "z": [111.21, 112.42]}, "geometry": {"type": "LineString", "coordinates": [[410975.0, 5659486.44], [410979.56, 5659492.49]]}}, {"type": "Feature", "properties": {"w": 2.5, "n": 11, "z": [109.76, 111.55]}, "geometry": {"type": "LineString", "coordinates": [[411718.91, 5658415.03], [411713.67, 5658415.19]]}}, {"type": "Feature", "properties": {"w": 1.0, "n": 21, "z": [106.32, 110.37]}, "geometry": {"type": "LineString", "coordinates": [[410281.93, 5659083.89], [410284.1, 5659087.7], [410285.01, 5659089.28]]}}, {"type": "Feature", "properties": {"w": 2.5, "n": 16, "z": [106.92, 110.57]}, "geometry": {"type": "LineString", "coordinates": [[410335.64, 5659046.27], [410339.51, 5659051.16]]}}, {"type": "Feature", "properties": {"w": 2.5, "n": 13, "z": [103.53, 106.31]}, "geometry": {"type": "LineString", "coordinates": [[410307.02, 5659054.6], [410310.14, 5659058.28]]}}, {"type": "Feature", "properties": {"w": 2.5, "n": 3, "z": [110.92, 111.47]}, "geometry": {"type": "LineString", "coordinates": [[410918.64, 5659669.69], [410917.81, 5659670.79]]}}, {"type": "Feature", "properties": {"w": 2.5, "n": 3, "z": [110.64, 111.2]}, "geometry": {"type": "LineString", "coordinates": [[410934.29, 5659621.33], [410935.48, 5659618.94]]}}, {"type": "Feature", "properties": {"w": 2.5, "n": 3, "z": [111.82, 112.13]}, "geometry": {"type": "LineString", "coordinates": [[411847.51, 5658799.13], [411846.68, 5658798.17]]}}, {"type": "Feature", "properties": {"w": 2.5, "n": 15, "z": [109.36, 111.69]}, "geometry": {"type": "LineString", "coordinates": [[411084.45, 5658033.6], [411092.11, 5658038.46]]}}, {"type": "Feature", "properties": {"w": 2.5, "n": 16, "z": [109.37, 111.86]}, "geometry": {"type": "LineString", "coordinates": [[411099.53, 5658008.72], [411107.3, 5658013.31]]}}, {"type": "Feature", "properties": {"w": 2.5, "n": 18, "z": [111.07, 113.9]}, "geometry": {"type": "LineString", "coordinates": [[411271.87, 5658613.29], [411268.46, 5658618.63]]}}, {"type": "Feature", "properties": {"w": 2.5, "n": 3, "z": [110.5, 111.04]}, "geometry": {"type": "LineString", "coordinates": [[410792.58, 5659690.28], [410795.43, 5659692.27]]}}, {"type": "Feature", "properties": {"w": 2.5, "n": 25, "z": [104.23, 108.17]}, "geometry": {"type": "LineString", "coordinates": [[411016.39, 5658045.38], [411026.28, 5658053.09]]}}, {"type": "Feature", "properties": {"w": 2.5, "n": 8, "z": [109.69, 111.04]}, "geometry": {"type": "LineString", "coordinates": [[410380.98, 5659908.57], [410376.33, 5659909.03]]}}, {"type": "Feature", "properties": {"w": 2.5, "n": 9, "z": [106.54, 108.38]}, "geometry": {"type": "LineString", "coordinates": [[410494.35, 5658628.36], [410498.41, 5658636.63]]}}, {"type": "Feature", "properties": {"w": 2.5, "n": 7, "z": [109.91, 111.02]}, "geometry": {"type": "LineString", "coordinates": [[410897.09, 5658352.68], [410898.41, 5658350.29]]}}, {"type": "Feature", "properties": {"w": 2.5, "n": 3, "z": [113.97, 114.5]}, "geometry": {"type": "LineString", "coordinates": [[410432.56, 5659317.61], [410432.36, 5659320.71]]}}, {"type": "Feature", "properties": {"w": 2.5, "n": 6, "z": [110.46, 111.47]}, "geometry": {"type": "LineString", "coordinates": [[410884.12, 5659672.17], [410889.7, 5659664.7]]}}, {"type": "Feature", "properties": {"w": 2.5, "n": 14, "z": [108.92, 111.0]}, "geometry": {"type": "LineString", "coordinates": [[410268.52, 5658143.03], [410270.51, 5658148.06]]}}, {"type": "Feature", "properties": {"w": 2.5, "n": 24, "z": [103.58, 107.39]}, "geometry": {"type": "LineString", "coordinates": [[410380.45, 5658965.85], [410387.86, 5658971.01]]}}, {"type": "Feature", "properties": {"w": 2.5, "n": 20, "z": [103.51, 106.72]}, "geometry": {"type": "LineString", "coordinates": [[410368.53, 5658983.31], [410376.54, 5658989.43]]}}, {"type": "Feature", "properties": {"w": 2.5, "n": 24, "z": [103.53, 107.36]}, "geometry": {"type": "LineString", "coordinates": [[410397.48, 5658938.15], [410403.73, 5658941.5]]}}, {"type": "Feature", "properties": {"w": 2.5, "n": 20, "z": [103.55, 106.71]}, "geometry": {"type": "LineString", "coordinates": [[410393.8, 5658944.73], [410400.06, 5658948.34]]}}, {"type": "Feature", "properties": {"w": 2.5, "n": 20, "z": [103.55, 106.75]}, "geometry": {"type": "LineString", "coordinates": [[410371.67, 5658978.86], [410379.74, 5658984.85]]}}, {"type": "Feature", "properties": {"w": 2.5, "n": 21, "z": [103.56, 107.0]}, "geometry": {"type": "LineString", "coordinates": [[410386.31, 5658956.99], [410393.12, 5658961.24]]}}, {"type": "Feature", "properties": {"w": 2.5, "n": 3, "z": [112.26, 112.78]}, "geometry": {"type": "LineString", "coordinates": [[411792.47, 5658994.48], [411792.96, 5658993.13]]}}]}