{"type": "FeatureCollection", "attribution": "\u00a9 OpenStreetMap contributors (ODbL)", "crs": {"type": "name", "properties": {"name": "urn:ogc:def:crs:EPSG::25833"}}, "features": [{"type": "Feature", "properties": {"w": 2.5, "n": 17, "z": [140.9, 143.55]}, "geometry": {"type": "LineString", "coordinates": [[417964.69, 5655028.63], [417978.3, 5655034.81]]}}, {"type": "Feature", "properties": {"w": 2.5, "n": 31, "z": [166.01, 170.93]}, "geometry": {"type": "LineString", "coordinates": [[417877.12, 5655408.51], [417884.64, 5655409.69], [417888.94, 5655412.66]]}}, {"type": "Feature", "properties": {"w": 2.5, "n": 12, "z": [150.41, 151.47]}, "geometry": {"type": "LineString", "coordinates": [[417924.41, 5655207.41], [417922.78, 5655214.1]]}}, {"type": "Feature", "properties": {"w": 2.5, "n": 20, "z": [190.85, 194.0]}, "geometry": {"type": "LineString", "coordinates": [[417961.43, 5655440.89], [417960.67, 5655432.68]]}}, {"type": "Feature", "properties": {"w": 2.5, "n": 8, "z": [117.22, 118.57]}, "geometry": {"type": "LineString", "coordinates": [[417471.0, 5655583.01], [417474.92, 5655584.87], [417481.12, 5655586.97]]}}, {"type": "Feature", "properties": {"w": 2.5, "n": 5, "z": [113.52, 114.33]}, "geometry": {"type": "LineString", "coordinates": [[417434.41, 5655590.71], [417438.38, 5655583.61]]}}, {"type": "Feature", "properties": {"w": 2.5, "n": 9, "z": [114.7, 116.08]}, "geometry": {"type": "LineString", "coordinates": [[417456.68, 5655602.03], [417463.16, 5655605.27]]}}, {"type": "Feature", "properties": {"w": 2.5, "n": 26, "z": [110.67, 114.83]}, "geometry": {"type": "LineString", "coordinates": [[417050.09, 5655266.27], [417045.25, 5655263.98], [417044.42, 5655265.97], [417042.55, 5655265.08]]}}, {"type": "Feature", "properties": {"w": 2.0, "n": 2, "z": [114.65, 114.97]}, "geometry": {"type": "LineString", "coordinates": [[417480.58, 5654165.23], [417475.76, 5654170.1]]}}, {"type": "Feature", "properties": {"w": 2.0, "n": 3, "z": [114.6, 115.13]}, "geometry": {"type": "LineString", "coordinates": [[417496.03, 5654229.17], [417493.64, 5654226.95]]}}, {"type": "Feature", "properties": {"w": 2.5, "n": 5, "z": [114.8, 115.86]}, "geometry": {"type": "LineString", "coordinates": [[416350.48, 5654517.28], [416351.3, 5654514.54]]}}, {"type": "Feature", "properties": {"w": 2.5, "n": 5, "z": [114.99, 115.83]}, "geometry": {"type": "LineString", "coordinates": [[416364.7, 5654482.66], [416362.32, 5654482.19]]}}, {"type": "Feature", "properties": {"w": 2.5, "n": 3, "z": [115.05, 115.62]}, "geometry": {"type": "LineString", "coordinates": [[416331.23, 5654469.14], [416331.69, 5654467.15]]}}, {"type": "Feature", "properties": {"w": 1.0, "n": 6, "z": [115.08, 116.11]}, "geometry": {"type": "LineString", "coordinates": [[417473.74, 5654175.19], [417470.02, 5654175.66]]}}, {"type": "Feature", "properties": {"w": 2.5, "n": 12, "z": [112.08, 114.05]}, "geometry": {"type": "LineString", "coordinates": [[417679.24, 5654196.02], [417677.81, 5654191.48]]}}, {"type": "Feature", "properties": {"w": 2.5, "n": 12, "z": [112.17, 114.01]}, "geometry": {"type": "LineString", "coordinates": [[417640.5, 5654207.58], [417639.18, 5654203.55]]}}, {"type": "Feature", "properties": {"w": 2.5, "n": 10, "z": [112.31, 113.9]}, "geometry": {"type": "LineString", "coordinates": [[417608.37, 5654217.43], [417607.09, 5654213.18]]}}, {"type": "Feature", "properties": {"w": 2.5, "n": 7, "z": [148.22, 149.5]}, "geometry": {"type": "LineString", "coordinates": [[417528.23, 5655811.29], [417530.25, 5655806.89]]}}, {"type": "Feature", "properties": {"w": 2.5, "n": 35, "z": [171.02, 176.57]}, "geometry": {"type": "LineString", "coordinates": [[417895.67, 5655405.02], [417904.64, 5655410.65]]}}, {"type": "Feature", "properties": {"w": 5.55, "n": 9, "z": [114.86, 115.61]}, "geometry": {"type": "LineString", "coordinates": [[416765.03, 5655186.02], [416760.83, 5655180.6]]}}, {"type": "Feature", "properties": {"w": 2.5, "n": 10, "z": [113.39, 114.92]}, "geometry": {"type": "LineString", "coordinates": [[416740.71, 5655217.59], [416735.27, 5655221.7]]}}, {"type": "Feature", "properties": {"w": 2.5, "n": 37, "z": [153.11, 159.05]}, "geometry": {"type": "LineString", "coordinates": [[417771.09, 5655566.83], [417789.24, 5655545.75]]}}, {"type": "Feature", "properties": {"w": 2.5, "n": 59, "z": [175.93, 185.31]}, "geometry": {"type": "LineString", "coordinates": [[417904.64, 5655410.65], [417919.93, 5655410.33], [417923.98, 5655413.47]]}}, {"type": "Feature", "properties": {"w": 2.5, "n": 8, "z": [136.94, 138.19]}, "geometry": {"type": "LineString", "coordinates": [[417978.95, 5654801.64], [417982.08, 5654803.47]]}}, {"type": "Feature", "properties": {"w": 1.0, "n": 14, "z": [153.52, 155.83]}, "geometry": {"type": "LineString", "coordinates": [[417771.09, 5655566.83], [417764.79, 5655557.83]]}}, {"type": "Feature", "properties": {"w": 2.5, "n": 27, "z": [171.67, 175.99]}, "geometry": {"type": "LineString", "coordinates": [[417902.54, 5655450.78], [417908.42, 5655438.78]]}}, {"type": "Feature", "properties": {"w": 2.5, "n": 4, "z": [153.16, 154.05]}, "geometry": {"type": "LineString", "coordinates": [[417771.09, 5655566.83], [417768.21, 5655575.88]]}}, {"type": "Feature", "properties": {"w": 15.64, "n": 10, "z": [113.29, 114.82]}, "geometry": {"type": "LineString", "coordinates": [[417263.15, 5654612.77], [417261.07, 5654609.5]]}}, {"type": "Feature", "properties": {"w": 2.5, "n": 147, "z": [184.41, 207.93]}, "geometry": {"type": "LineString", "coordinates": [[417922.12, 5655415.97], [417923.98, 5655413.47], [417924.92, 5655412.2], [417930.85, 5655402.72], [417947.83, 5655401.26], [417985.37, 5655392.4], [417987.89, 5655391.29], [417990.1, 5655388.2]]}}, {"type": "Feature", "properties": {"w": 1.0, "n": 118, "z": [152.13, 173.62]}, "geometry": {"type": "LineString", "coordinates": [[417936.45, 5655210.48], [417981.14, 5655248.2], [417981.97, 5655248.88]]}}, {"type": "Feature", "properties": {"w": 2.5, "n": 4, "z": [114.01, 114.69]}, "geometry": {"type": "LineString", "coordinates": [[416452.79, 5654562.78], [416455.95, 5654560.89]]}}, {"type": "Feature", "properties": {"w": 2.5, "n": 5, "z": [113.81, 114.66]}, "geometry": {"type": "LineString", "coordinates": [[416442.77, 5654559.01], [416445.76, 5654557.08]]}}, {"type": "Feature", "properties": {"w": 2.5, "n": 3, "z": [113.45, 114.01]}, "geometry": {"type": "LineString", "coordinates": [[416448.44, 5654565.49], [416450.48, 5654564.15]]}}, {"type": "Feature", "properties": {"w": 2.5, "n": 3, "z": [115.51, 116.01]}, "geometry": {"type": "LineString", "coordinates": [[416718.37, 5654068.92], [416718.49, 5654073.76]]}}, {"type": "Feature", "properties": {"w": 2.5, "n": 56, "z": [174.95, 183.97]}, "geometry": {"type": "LineString", "coordinates": [[417988.26, 5655495.87], [417983.43, 5655476.45]]}}, {"type": "Feature", "properties": {"w": 2.5, "n": 4, "z": [112.1, 112.66]}, "geometry": {"type": "LineString", "coordinates": [[417697.39, 5654140.12], [417693.99, 5654144.32]]}}, {"type": "Feature", "properties": {"w": 2.5, "n": 5, "z": [112.18, 112.93]}, "geometry": {"type": "LineString", "coordinates": [[417685.03, 5654129.2], [417681.22, 5654133.9]]}}, {"type": "Feature", "properties": {"w": 2.5, "n": 6, "z": [112.19, 113.31]}, "geometry": {"type": "LineString", "coordinates": [[417668.56, 5654115.9], [417664.52, 5654120.76]]}}, {"type": "Feature", "properties": {"w": 2.5, "n": 8, "z": [114.9, 116.18]}, "geometry": {"type": "LineString", "coordinates": [[417451.95, 5654159.44], [417454.2, 5654161.59]]}}, {"type": "Feature", "properties": {"w": 2.5, "n": 162, "z": [186.18, 212.02]}, "geometry": {"type": "LineString", "coordinates": [[417834.83, 5655610.0], [417847.25, 5655615.73], [417875.82, 5655627.13]]}}, {"type": "Feature", "properties": {"w": 2.5, "n": 14, "z": [146.49, 148.67]}, "geometry": {"type": "LineString", "coordinates": [[417443.3, 5655946.57], [417448.86, 5655951.47]]}}, {"type": "Feature", "properties": {"w": 2.5, "n": 6, "z": [144.08, 145.02]}, "geometry": {"type": "LineString", "coordinates": [[417460.19, 5655931.18], [417457.78, 5655933.23]]}}, {"type": "Feature", "properties": {"w": 2.5, "n": 8, "z": [112.23, 113.55]}, "geometry": {"type": "LineString", "coordinates": [[417328.92, 5654437.85], [417324.35, 5654430.73]]}}, {"type": "Feature", "properties": {"w": 2.5, "n": 8, "z": [112.24, 113.5]}, "geometry": {"type": "LineString", "coordinates": [[417313.39, 5654448.42], [417306.31, 5654446.12]]}}, {"type": "Feature", "properties": {"w": 2.5, "n": 7, "z": [112.27, 113.31]}, "geometry": {"type": "LineString", "coordinates": [[417319.18, 5654457.12], [417318.5, 5654466.08]]}}, {"type": "Feature", "properties": {"w": 2.5, "n": 7, "z": [112.22, 113.4]}, "geometry": {"type": "LineString", "coordinates": [[417336.04, 5654448.69], [417340.26, 5654455.68]]}}, {"type": "Feature", "properties": {"w": 2.5, "n": 8, "z": [112.23, 113.59]}, "geometry": {"type": "LineString", "coordinates": [[417350.93, 5654437.81], [417358.74, 5654440.15]]}}, {"type": "Feature", "properties": {"w": 2.5, "n": 8, "z": [112.24, 113.49]}, "geometry": {"type": "LineString", "coordinates": [[417345.64, 5654429.25], [417346.67, 5654421.06]]}}, {"type": "Feature", "properties": {"w": 2.5, "n": 5, "z": [113.48, 114.23]}, "geometry": {"type": "LineString", "coordinates": [[417330.58, 5654579.52], [417329.82, 5654578.27]]}}, {"type": "Feature", "properties": {"w": 2.5, "n": 3, "z": [114.24, 114.66]}, "geometry": {"type": "LineString", "coordinates": [[417313.33, 5654552.76], [417312.8, 5654551.91]]}}, {"type": "Feature", "properties": {"w": 2.5, "n": 4, "z": [113.45, 114.14]}, "geometry": {"type": "LineString", "coordinates": [[417274.94, 5654623.3], [417277.8, 5654627.83]]}}, {"type": "Feature", "properties": {"w": 2.5, "n": 4, "z": [113.47, 114.12]}, "geometry": {"type": "LineString", "coordinates": [[417267.41, 5654628.0], [417270.76, 5654633.29]]}}, {"type": "Feature", "properties": {"w": 2.5, "n": 6, "z": [153.22, 154.16]}, "geometry": {"type": "LineString", "coordinates": [[417986.43, 5655139.76], [417991.63, 5655143.11]]}}, {"type": "Feature", "properties": {"w": 2.5, "n": 12, "z": [153.19, 155.06]}, "geometry": {"type": "LineString", "coordinates": [[417995.72, 5655128.13], [417998.28, 5655129.49]]}}, {"type": "Feature", "properties": {"w": 2.5, "n": 14, "z": [147.93, 150.11]}, "geometry": {"type": "LineString", "coordinates": [[417953.02, 5655146.46], [417957.17, 5655148.02]]}}, {"type": "Feature", "properties": {"w": 2.5, "n": 3, "z": [147.49, 147.89]}, "geometry": {"type": "LineString", "coordinates": [[417947.4, 5655122.71], [417948.45, 5655123.29]]}}, {"type": "Feature", "properties": {"w": 2.5, "n": 6, "z": [122.09, 123.06]}, "geometry": {"type": "LineString", "coordinates": [[417761.21, 5655011.61], [417762.07, 5655009.57]]}}, {"type": "Feature", "properties": {"w": 2.5, "n": 11, "z": [125.0, 126.78]}, "geometry": {"type": "LineString", "coordinates": [[417778.68, 5655014.89], [417780.83, 5655015.69]]}}, {"type": "Feature", "properties": {"w": 2.5, "n": 8, "z": [126.07, 127.38]}, "geometry": {"type": "LineString", "coordinates": [[417781.68, 5655016.0], [417782.9, 5655016.46]]}}, {"type": "Feature", "properties": {"w": 2.5, "n": 64, "z": [205.14, 215.39]}, "geometry": {"type": "LineString", "coordinates": [[417867.05, 5655968.41], [417864.65, 5655957.89], [417864.14, 5655951.67], [417864.37, 5655945.11], [417864.89, 5655937.83], [417866.32, 5655932.96], [417868.57, 5655929.93], [417873.65, 5655927.63]]}}, {"type": "Feature", "properties": {"w": 2.5, "n": 7, "z": [172.79, 174.25]}, "geometry": {"type": "LineString", "coordinates": [[417921.52, 5655362.13], [417922.27, 5655363.32], [417922.66, 5655365.14]]}}, {"type": "Feature", "properties": {"w": 2.5, "n": 9, "z": [172.87, 174.25]}, "geometry": {"type": "LineString", "coordinates": [[417918.16, 5655368.88], [417919.53, 5655368.94], [417921.15, 5655368.31]]}}, {"type": "Feature", "properties": {"w": 2.5, "n": 5, "z": [162.26, 163.13]}, "geometry": {"type": "LineString", "coordinates": [[417806.45, 5655519.13], [417807.71, 5655516.6]]}}, {"type": "Feature", "properties": {"w": 2.5, "n": 6, "z": [160.41, 161.41]}, "geometry": {"type": "LineString", "coordinates": [[417787.68, 5655494.75], [417789.11, 5655495.3]]}}, {"type": "Feature", "properties": {"w": 2.5, "n": 56, "z": [175.31, 184.33]}, "geometry": {"type": "LineString", "coordinates": [[417908.42, 5655438.78], [417910.82, 5655434.86], [417917.0, 5655424.71], [417920.52, 5655421.32]]}}, {"type": "Feature", "properties": {"w": 2.5, "n": 3, "z": [135.4, 135.96]}, "geometry": {"type": "LineString", "coordinates": [[417977.87, 5654766.16], [417976.89, 5654766.97]]}}, {"type": "Feature", "properties": {"w": 2.5, "n": 2, "z": [133.08, 133.45]}, "geometry": {"type": "LineString", "coordinates": [[417994.24, 5654752.09], [417996.94, 5654751.15]]}}, {"type": "Feature", "properties": {"w": 2.5, "n": 17, "z": [175.0, 177.66]}, "geometry": {"type": "LineString", "coordinates": [[417988.26, 5655495.87], [417978.15, 5655487.67]]}}, {"type": "Feature", "properties": {"w": 2.5, "n": 186, "z": [114.16, 143.91]}, "geometry": {"type": "LineString", "coordinates": [[417584.46, 5655323.28], [417645.31, 5655354.95]]}}, {"type": "Feature", "properties": {"w": 2.5, "n": 37, "z": [128.19, 134.15]}, "geometry": {"type": "LineString", "coordinates": [[417604.25, 5655359.38], [417612.17, 5655363.14]]}}, {"type": "Feature", "properties": {"w": 2.5, "n": 17, "z": [139.47, 142.27]}, "geometry": {"type": "LineString", "coordinates": [[417687.24, 5655271.21], [417692.01, 5655274.56]]}}, {"type": "Feature", "properties": {"w": 2.5, "n": 14, "z": [137.26, 139.44]}, "geometry": {"type": "LineString", "coordinates": [[417681.42, 5655267.21], [417684.51, 5655269.24]]}}, {"type": "Feature", "properties": {"w": 2.5, "n": 24, "z": [132.36, 136.24]}, "geometry": {"type": "LineString", "coordinates": [[417676.86, 5655258.24], [417679.08, 5655255.33], [417683.7, 5655258.1]]}}, {"type": "Feature", "properties": {"w": 2.5, "n": 6, "z": [113.97, 114.94]}, "geometry": {"type": "LineString", "coordinates": [[416279.22, 5654319.95], [416278.07, 5654317.93]]}}, {"type": "Feature", "properties": {"w": 2.5, "n": 5, "z": [114.13, 114.99]}, "geometry": {"type": "LineString", "coordinates": [[416305.73, 5654359.12], [416304.78, 5654357.55]]}}]}