{"type": "FeatureCollection", "attribution": "Verkehrsmengen \u00a9 Landeshauptstadt Dresden (dl-de/by-2-0)", "crs": {"type": "name", "properties": {"name": "urn:ogc:def:crs:EPSG::25833"}}, "features": [{"type": "Feature", "properties": {"t": 10900, "f": 5700, "hf": 0.028, "b": 5200, "hb": 0.031, "y": 2020, "m": "man", "n": "Fischhausstra\u00dfe"}, "geometry": {"type": "LineString", "coordinates": [[414907.14, 5657972.41], [414919.38, 5658000.0]]}}, {"type": "Feature", "properties": {"t": 500, "b": 500, "hb": 0.006, "y": 2010, "m": "man", "n": "Wilhelminenstra\u00dfe"}, "geometry": {"type": "LineString", "coordinates": [[415183.68, 5657993.02], [415180.86, 5658000.0]]}}, {"type": "Feature", "properties": {"t": 14700, "f": 7800, "hf": 0.026, "b": 6900, "hb": 0.026, "y": 2020, "m": "man", "n": "Bautzner Stra\u00dfe"}, "geometry": {"type": "LineString", "coordinates": [[414000.0, 5657965.57], [414031.74, 5657974.77]]}}, {"type": "Feature", "properties": {"t": 18200, "f": 5800, "hf": 0.031, "b": 12400, "hb": 0.032, "y": 2020, "m": "man", "n": "Bautzner Stra\u00dfe"}, "geometry": {"type": "LineString", "coordinates": [[414031.74, 5657974.77], [414114.31, 5657998.55]]}}, {"type": "Feature", "properties": {"t": 18300, "f": 5900, "hf": 0.031, "b": 12400, "hb": 0.032, "y": 2020, "m": "man", "n": "Bautzner Stra\u00dfe"}, "geometry": {"type": "LineString", "coordinates": [[414114.31, 5657998.55], [414119.66, 5658000.0]]}}, {"type": "Feature", "properties": {"t": 9600, "f": 9600, "hf": 0.036, "y": 2020, "m": "man", "n": "Bautzner Stra\u00dfe"}, "geometry": {"type": "LineString", "coordinates": [[414340.07, 5658000.0], [414356.98, 5657995.35], [414382.02, 5657991.83], [414411.03, 5657988.55], [414439.6, 5657986.19], [414454.76, 5657982.24], [414468.94, 5657978.13], [414486.37, 5657974.89]]}}, {"type": "Feature", "properties": {"t": 14700, "b": 14700, "hb": 0.032, "y": 2020, "m": "man", "n": "Bautzner Stra\u00dfe"}, "geometry": {"type": "LineString", "coordinates": [[414450.35, 5658000.0], [414468.35, 5657987.99], [414486.37, 5657974.89]]}}, {"type": "Feature", "properties": {"t": 33700, "f": 17900, "hf": 0.032, "b": 15800, "hb": 0.033, "y": 2016, "m": "man", "n": "Bautzner Stra\u00dfe"}, "geometry": {"type": "LineString", "coordinates": [[414486.37, 5657974.89], [414494.85, 5657970.09], [414520.24, 5657961.2], [414544.67, 5657956.3]]}}, {"type": "Feature", "properties": {"t": 33700, "f": 17900, "hf": 0.032, "b": 15800, "hb": 0.033, "y": 2016, "m": "man", "n": "Bautzner Stra\u00dfe"}, "geometry": {"type": "LineString", "coordinates": [[414544.67, 5657956.3], [414560.97, 5657955.1], [414579.22, 5657956.44], [414596.79, 5657959.29], [414634.62, 5657969.67], [414661.39, 5657977.59]]}}, {"type": "Feature", "properties": {"t": 31200, "f": 16800, "hf": 0.028, "b": 14400, "hb": 0.033, "y": 2020, "m": "man", "n": "Bautzner Stra\u00dfe"}, "geometry": {"type": "LineString", "coordinates": [[414695.33, 5657982.53], [414706.33, 5657983.32], [414721.69, 5657983.07], [414799.17, 5657978.23], [414883.97, 5657971.81], [414907.14, 5657972.41]]}}, {"type": "Feature", "properties": {"t": 19600, "f": 10200, "hf": 0.036, "b": 9400, "hb": 0.044, "y": 2025, "m": "detector", "n": "Bautzner Stra\u00dfe"}, "geometry": {"type": "LineString", "coordinates": [[414907.14, 5657972.41], [414934.94, 5657966.32], [414964.4, 5657965.32], [415080.24, 5657979.71], [415183.68, 5657993.02]]}}, {"type": "Feature", "properties": {"t": 19600, "f": 10200, "hf": 0.036, "b": 9400, "hb": 0.044, "y": 2025, "m": "detector", "n": "Bautzner Stra\u00dfe"}, "geometry": {"type": "LineString", "coordinates": [[415183.68, 5657993.02], [415196.62, 5657992.67], [415209.13, 5657990.42], [415246.29, 5657981.54]]}}, {"type": "Feature", "properties": {"t": 19600, "f": 10200, "hf": 0.036, "b": 9400, "hb": 0.044, "y": 2025, "m": "detector", "n": "Bautzner Stra\u00dfe"}, "geometry": {"type": "LineString", "coordinates": [[415246.29, 5657981.54], [415288.22, 5657972.94], [415378.08, 5657949.4], [415492.58, 5657921.34], [415507.46, 5657916.37], [415539.31, 5657903.34], [415544.36, 5657900.69], [415571.85, 5657888.5], [415602.79, 5657873.89], [415627.04, 5657864.61], [415647.27, 5657858.49], [415676.85, 5657854.23], [415713.94, 5657851.0], [415739.0, 5657849.57], [415764.22, 5657849.31], [415885.5, 5657844.32], [415956.16, 5657842.36], [416000.0, 5657838.72]]}}, {"type": "Feature", "properties": {"t": 8800, "f": 5700, "hf": 0.009, "b": 3100, "hb": 0.01, "y": 2019, "m": "man", "n": "Blasewitzer Stra\u00dfe"}, "geometry": {"type": "LineString", "coordinates": [[414000.0, 5656367.11], [414019.24, 5656370.19]]}}, {"type": "Feature", "properties": {"t": 8800, "f": 5700, "hf": 0.009, "b": 3100, "hb": 0.01, "y": 2019, "m": "man", "n": "Blasewitzer Stra\u00dfe"}, "geometry": {"type": "LineString", "coordinates": [[414019.24, 5656370.19], [414074.31, 5656377.66], [414129.37, 5656386.1]]}}, {"type": "Feature", "properties": {"t": 8800, "f": 5700, "hf": 0.009, "b": 3100, "hb": 0.01, "y": 2019, "m": "man", "n": "Blasewitzer Stra\u00dfe"}, "geometry": {"type": "LineString", "coordinates": [[414129.37, 5656386.1], [414334.23, 5656414.75]]}}, {"type": "Feature", "properties": {"t": 11900, "f": 6000, "hf": 0.03, "b": 5900, "hb": 0.029, "y": 2019, "m": "man", "n": "Blasewitzer Stra\u00dfe"}, "geometry": {"type": "LineString", "coordinates": [[414334.23, 5656414.75], [414422.66, 5656429.65], [414601.05, 5656454.72]]}}, {"type": "Feature", "properties": {"t": 7700, "f": 4200, "hf": 0.007, "b": 3500, "hb": 0.006, "y": 2024, "m": "man", "n": "Blasewitzer Stra\u00dfe"}, "geometry": {"type": "LineString", "coordinates": [[414601.05, 5656454.72], [414693.95, 5656467.89], [414787.2, 5656482.24]]}}, {"type": "Feature", "properties": {"t": 7700, "f": 4200, "hf": 0.007, "b": 3500, "hb": 0.006, "y": 2024, "m": "man", "n": "Blasewitzer Stra\u00dfe"}, "geometry": {"type": "LineString", "coordinates": [[414787.2, 5656482.24], [414839.0, 5656489.59], [414891.38, 5656497.53]]}}, {"type": "Feature", "properties": {"t": 7700, "f": 4200, "hf": 0.007, "b": 3500, "hb": 0.006, "y": 2024, "m": "man", "n": "K\u00f6nigsheimplatz"}, "geometry": {"type": "LineString", "coordinates": [[414891.38, 5656497.53], [414923.36, 5656502.28], [414956.31, 5656506.71]]}}, {"type": "Feature", "properties": {"t": 7700, "f": 4200, "hf": 0.007, "b": 3500, "hb": 0.006, "y": 2024, "m": "man", "n": "K\u00f6nigsheimplatz"}, "geometry": {"type": "LineString", "coordinates": [[414956.31, 5656506.71], [414988.57, 5656511.37], [415020.99, 5656516.86]]}}, {"type": "Feature", "properties": {"t": 7400, "f": 4100, "hf": 0.005, "b": 3300, "hb": 0.006, "y": 2024, "m": "man", "n": "Loschwitzer Stra\u00dfe"}, "geometry": {"type": "LineString", "coordinates": [[415020.99, 5656516.86], [415033.88, 5656517.64], [415048.12, 5656517.23], [415066.71, 5656515.87]]}}, {"type": "Feature", "properties": {"t": 7400, "f": 4100, "hf": 0.005, "b": 3300, "hb": 0.006, "y": 2024, "m": "man", "n": "Loschwitzer Stra\u00dfe"}, "geometry": {"type": "LineString", "coordinates": [[415066.71, 5656515.87], [415149.09, 5656508.37], [415218.8, 5656503.64]]}}, {"type": "Feature", "properties": {"t": 6900, "f": 3900, "hf": 0.008, "b": 3000, "hb": 0.007, "y": 2024, "m": "man", "n": "Loschwitzer Stra\u00dfe"}, "geometry": {"type": "LineString", "coordinates": [[415218.8, 5656503.64], [415288.16, 5656500.83], [415358.6, 5656499.33]]}}, {"type": "Feature", "properties": {"t": 7000, "f": 3800, "hf": 0.005, "b": 3200, "hb": 0.006, "y": 2024, "m": "man", "n": "Loschwitzer Stra\u00dfe"}, "geometry": {"type": "LineString", "coordinates": [[415358.6, 5656499.33], [415383.53, 5656498.5], [415398.23, 5656496.23], [415422.03, 5656491.33], [415498.17, 5656474.27]]}}, {"type": "Feature", "properties": {"t": 7000, "f": 3800, "hf": 0.005, "b": 3200, "hb": 0.006, "y": 2024, "m": "man", "n": "Loschwitzer Stra\u00dfe"}, "geometry": {"type": "LineString", "coordinates": [[415498.17, 5656474.27], [415640.98, 5656440.87]]}}, {"type": "Feature", "properties": {"t": 6900, "f": 3100, "hf": 0.013, "b": 3800, "hb": 0.005, "y": 2024, "m": "man", "n": "Loschwitzer Stra\u00dfe"}, "geometry": {"type": "LineString", "coordinates": [[415640.98, 5656440.87], [415725.69, 5656421.37], [415809.88, 5656400.83]]}}, {"type": "Feature", "properties": {"t": 6900, "f": 3100, "hf": 0.013, "b": 3800, "hb": 0.005, "y": 2024, "m": "man", "n": "Loschwitzer Stra\u00dfe"}, "geometry": {"type": "LineString", "coordinates": [[415809.88, 5656400.83], [415885.84, 5656383.44], [415961.98, 5656365.43]]}}, {"type": "Feature", "properties": {"t": 6900, "f": 3100, "hf": 0.013, "b": 3800, "hb": 0.005, "y": 2024, "m": "man", "n": "Loschwitzer Stra\u00dfe"}, "geometry": {"type": "LineString", "coordinates": [[415961.98, 5656365.43], [416000.0, 5656357.52]]}}, {"type": "Feature", "properties": {"t": 14400, "f": 6700, "hf": 0.021, "b": 7700, "hb": 0.017, "y": 2025, "m": "loop", "n": "K\u00e4the-Kollwitz-Ufer"}, "geometry": {"type": "LineString", "coordinates": [[414000.0, 5657265.42], [414052.9, 5657272.84]]}}, {"type": "Feature", "properties": {"t": 14400, "f": 6700, "hf": 0.021, "b": 7700, "hb": 0.017, "y": 2025, "m": "loop", "n": "K\u00e4the-Kollwitz-Ufer"}, "geometry": {"type": "LineString", "coordinates": [[414052.9, 5657272.84], [414117.95, 5657283.96]]}}, {"type": "Feature", "properties": {"t": 20100, "f": 11400, "hf": 0.018, "b": 8700, "hb": 0.016, "y": 2021, "m": "man", "n": "K\u00e4the-Kollwitz-Ufer"}, "geometry": {"type": "LineString", "coordinates": [[414117.95, 5657283.96], [414157.73, 5657287.78], [414258.61, 5657298.45], [414303.44, 5657300.11], [414322.49, 5657301.19], [414351.39, 5657300.64], [414398.78, 5657301.0], [414425.37, 5657300.43], [414470.86, 5657298.07]]}}, {"type": "Feature", "properties": {"t": 17900, "f": 9700, "hf": 0.015, "b": 8200, "hb": 0.01, "y": 2026, "m": "man", "n": "K\u00e4the-Kollwitz-Ufer"}, "geometry": {"type": "LineString", "coordinates": [[414470.86, 5657298.07], [414550.53, 5657293.94], [414593.52, 5657292.39], [414652.29, 5657287.14], [414715.2, 5657280.21], [414800.38, 5657267.76], [414828.97, 5657261.26], [414856.47, 5657253.36], [414887.83, 5657242.87], [414957.73, 5657218.77]]}}, {"type": "Feature", "properties": {"t": 17900, "f": 9700, "hf": 0.015, "b": 8200, "hb": 0.01, "y": 2026, "m": "man", "n": "K\u00e4the-Kollwitz-Ufer"}, "geometry": {"type": "LineString", "coordinates": [[414957.73, 5657218.77], [415009.19, 5657207.82], [415060.11, 5657199.06]]}}, {"type": "Feature", "properties": {"t": 17900, "f": 9700, "hf": 0.015, "b": 8200, "hb": 0.01, "y": 2026, "m": "man", "n": "K\u00e4the-Kollwitz-Ufer"}, "geometry": {"type": "LineString", "coordinates": [[415060.11, 5657199.06], [415131.99, 5657184.3], [415171.6, 5657176.71], [415234.73, 5657162.64], [415304.16, 5657145.42], [415400.35, 5657118.72]]}}, {"type": "Feature", "properties": {"t": 17900, "f": 9700, "hf": 0.015, "b": 8200, "hb": 0.01, "y": 2026, "m": "man", "n": "K\u00e4the-Kollwitz-Ufer"}, "geometry": {"type": "LineString", "coordinates": [[415400.35, 5657118.72], [415424.67, 5657112.03], [415505.17, 5657087.44], [415559.83, 5657068.04], [415595.93, 5657054.71], [415641.66, 5657036.38], [415703.12, 5657009.35], [415782.91, 5656971.58], [415810.87, 5656956.77], [415838.82, 5656940.48], [415906.43, 5656897.13]]}}, {"type": "Feature", "properties": {"t": 17900, "f": 9700, "hf": 0.015, "b": 8200, "hb": 0.01, "y": 2026, "m": "man", "n": "K\u00e4the-Kollwitz-Ufer"}, "geometry": {"type": "LineString", "coordinates": [[415906.43, 5656897.13], [415925.41, 5656883.06], [415966.53, 5656849.89], [415978.66, 5656839.39], [415989.63, 5656829.39], [416000.0, 5656819.24]]}}, {"type": "Feature", "properties": {"t": 6900, "f": 3400, "hf": 0.062, "b": 3500, "hb": 0.051, "y": 2021, "m": "man", "n": "Pfotenhauerstra\u00dfe"}, "geometry": {"type": "LineString", "coordinates": [[414000.0, 5656968.36], [414109.18, 5657001.7]]}}, {"type": "Feature", "properties": {"t": 6900, "f": 3400, "hf": 0.062, "b": 3500, "hb": 0.051, "y": 2021, "m": "man", "n": "Pfotenhauerstra\u00dfe"}, "geometry": {"type": "LineString", "coordinates": [[414109.18, 5657001.7], [414267.46, 5657051.42], [414317.01, 5657065.59]]}}, {"type": "Feature", "properties": {"t": 7100, "f": 3200, "hf": 0.087, "b": 3900, "hb": 0.072, "y": 2021, "m": "man", "n": "Pfotenhauerstra\u00dfe"}, "geometry": {"type": "LineString", "coordinates": [[414317.01, 5657065.59], [414334.29, 5657071.63], [414556.58, 5657096.41]]}}, {"type": "Feature", "properties": {"t": 7100, "f": 3200, "hf": 0.087, "b": 3900, "hb": 0.072, "y": 2021, "m": "man", "n": "Pfotenhauerstra\u00dfe"}, "geometry": {"type": "LineString", "coordinates": [[414556.58, 5657096.41], [414932.32, 5657133.9]]}}, {"type": "Feature", "properties": {"t": 2400, "f": 1000, "hf": 0.04, "b": 1400, "hb": 0.021, "y": 2012, "m": "man", "n": "Goetheallee"}, "geometry": {"type": "LineString", "coordinates": [[414932.32, 5657133.9], [415028.68, 5657089.59]]}}, {"type": "Feature", "properties": {"t": 2400, "f": 1000, "hf": 0.04, "b": 1400, "hb": 0.021, "y": 2012, "m": "man", "n": "Goetheallee"}, "geometry": {"type": "LineString", "coordinates": [[415028.68, 5657089.59], [415096.52, 5657062.45], [415139.5, 5657046.99], [415292.56, 5657007.9], [415376.7, 5656987.15]]}}, {"type": "Feature", "properties": {"t": 1700, "f": 700, "hf": 0.029, "b": 1000, "hb": 0.02, "y": 2022, "m": "man", "n": "Goetheallee"}, "geometry": {"type": "LineString", "coordinates": [[415376.7, 5656987.15], [415475.04, 5656963.63], [415547.81, 5656945.21], [415607.21, 5656929.61], [415653.62, 5656918.1], [415682.74, 5656903.75], [415716.97, 5656883.76], [415810.22, 5656833.78], [415858.62, 5656804.3]]}}, {"type": "Feature", "properties": {"t": 1300, "f": 100, "hf": 0.0, "b": 1200, "hb": 0.033, "y": 2022, "m": "man", "n": "Goetheallee"}, "geometry": {"type": "LineString", "coordinates": [[415858.62, 5656804.3], [415904.51, 5656778.69], [415971.18, 5656728.49], [416000.0, 5656707.48]]}}, {"type": "Feature", "properties": {"t": 3800, "f": 1600, "hf": 0.013, "b": 2200, "hb": 0.018, "y": 2023, "m": "man", "n": "D\u00fcrerstra\u00dfe"}, "geometry": {"type": "LineString", "coordinates": [[414000.0, 5656197.62], [414083.68, 5656194.82]]}}, {"type": "Feature", "properties": {"t": 3800, "f": 1600, "hf": 0.013, "b": 2200, "hb": 0.018, "y": 2023, "m": "man", "n": "D\u00fcrerstra\u00dfe"}, "geometry": {"type": "LineString", "coordinates": [[414083.68, 5656194.82], [414187.58, 5656189.05]]}}, {"type": "Feature", "properties": {"t": 2500, "b": 2500, "hb": 0.012, "y": 2023, "m": "man", "n": "D\u00fcrerstra\u00dfe"}, "geometry": {"type": "LineString", "coordinates": [[414187.58, 5656189.05], [414327.79, 5656182.76]]}}, {"type": "Feature", "properties": {"t": 2500, "b": 2500, "hb": 0.012, "y": 2023, "m": "man", "n": "D\u00fcrerstra\u00dfe"}, "geometry": {"type": "LineString", "coordinates": [[414327.79, 5656182.76], [414439.89, 5656173.54]]}}, {"type": "Feature", "properties": {"t": 1900, "f": 500, "hf": 0.0, "b": 1400, "hb": 0.007, "y": 2019, "m": "man", "n": "Fiedlerstra\u00dfe"}, "geometry": {"type": "LineString", "coordinates": [[414000.0, 5656481.44], [414004.48, 5656482.32]]}}, {"type": "Feature", "properties": {"t": 1900, "f": 500, "hf": 0.0, "b": 1400, "hb": 0.007, "y": 2019, "m": "man", "n": "Fiedlerstra\u00dfe"}, "geometry": {"type": "LineString", "coordinates": [[414004.48, 5656482.32], [414344.17, 5656534.67]]}}, {"type": "Feature", "properties": {"t": 6100, "f": 3000, "hf": 0.013, "b": 3100, "hb": 0.013, "y": 2020, "m": "man", "n": "Fiedlerstra\u00dfe"}, "geometry": {"type": "LineString", "coordinates": [[414344.17, 5656534.67], [414584.6, 5656565.09]]}}, {"type": "Feature", "properties": {"t": 2500, "f": 1700, "hf": 0.071, "b": 800, "hb": 0.163, "y": 2020, "m": "man", "n": "Fiedlerstra\u00dfe"}, "geometry": {"type": "LineString", "coordinates": [[414584.6, 5656565.09], [414556.58, 5657096.41]]}}, {"type": "Feature", "properties": {"t": 4100, "f": 1500, "hf": 0.02, "b": 2600, "hb": 0.019, "y": 2020, "m": "man", "n": "Fiedlerstra\u00dfe"}, "geometry": {"type": "LineString", "coordinates": [[414584.6, 5656565.09], [414647.93, 5656574.99]]}}, {"type": "Feature", "properties": {"t": 4100, "f": 1500, "hf": 0.02, "b": 2600, "hb": 0.019, "y": 2020, "m": "man", "n": "Fiedlerstra\u00dfe"}, "geometry": {"type": "LineString", "coordinates": [[414647.93, 5656574.99], [414766.84, 5656591.02], [414774.43, 5656589.5]]}}, {"type": "Feature", "properties": {"t": 200, "f": 100, "hf": 0.0, "b": 100, "hb": 0.0, "y": 2012, "m": "man", "n": "Gabelsbergerstra\u00dfe"}, "geometry": {"type": "LineString", "coordinates": [[414000.0, 5656090.42], [414113.49, 5656073.64]]}}, {"type": "Feature", "properties": {"t": 700, "f": 300, "hf": 0.0, "b": 400, "hb": 0.025, "y": 2012, "m": "man", "n": "Gabelsbergerstra\u00dfe"}, "geometry": {"type": "LineString", "coordinates": [[414113.49, 5656073.64], [414123.47, 5656070.15], [414292.39, 5656000.0]]}}, {"type": "Feature", "properties": {"t": 3300, "f": 3300, "hf": 0.015, "y": 2023, "m": "man", "n": "Wormser Stra\u00dfe"}, "geometry": {"type": "LineString", "coordinates": [[414187.58, 5656189.05], [414192.3, 5656179.8], [414259.83, 5656129.23], [414350.46, 5656060.19]]}}, {"type": "Feature", "properties": {"t": 5000, "f": 3400, "hf": 0.006, "b": 1600, "hb": 0.006, "y": 2023, "m": "man", "n": "Wormser Stra\u00dfe"}, "geometry": {"type": "LineString", "coordinates": [[414350.46, 5656060.19], [414356.54, 5656058.34], [414430.18, 5656000.0]]}}, {"type": "Feature", "properties": {"t": 4200, "f": 2100, "hf": 0.067, "b": 2100, "hb": 0.052, "y": 2020, "m": "man", "n": "Augsburger Stra\u00dfe"}, "geometry": {"type": "LineString", "coordinates": [[414584.6, 5656565.09], [414601.05, 5656454.72]]}}, {"type": "Feature", "properties": {"t": 1800, "f": 1800, "hf": 0.022, "y": 2015, "m": "man", "n": "Augsburger Stra\u00dfe"}, "geometry": {"type": "LineString", "coordinates": [[414601.05, 5656454.72], [414610.16, 5656389.39]]}}, {"type": "Feature", "properties": {"t": 2200, "f": 1000, "hf": 0.0, "b": 1200, "hb": 0.008, "y": 2023, "m": "man", "n": "Augsburger Stra\u00dfe"}, "geometry": {"type": "LineString", "coordinates": [[414610.16, 5656389.39], [414624.27, 5656379.79], [414708.87, 5656314.84]]}}, {"type": "Feature", "properties": {"t": 2200, "f": 1000, "hf": 0.0, "b": 1200, "hb": 0.008, "y": 2023, "m": "man", "n": "Augsburger Stra\u00dfe"}, "geometry": {"type": "LineString", "coordinates": [[414708.87, 5656314.84], [414803.26, 5656240.03]]}}, {"type": "Feature", "properties": {"t": 2200, "f": 1000, "hf": 0.0, "b": 1200, "hb": 0.008, "y": 2023, "m": "man", "n": "Augsburger Stra\u00dfe"}, "geometry": {"type": "LineString", "coordinates": [[414803.26, 5656240.03], [414848.49, 5656205.0], [414900.34, 5656165.94]]}}, {"type": "Feature", "properties": {"t": 2600, "f": 1200, "hf": 0.0, "b": 1400, "hb": 0.007, "y": 2023, "m": "man", "n": "Augsburger Stra\u00dfe"}, "geometry": {"type": "LineString", "coordinates": [[414900.34, 5656165.94], [414946.58, 5656130.05], [414998.71, 5656089.02]]}}, {"type": "Feature", "properties": {"t": 2300, "f": 1200, "hf": 0.0, "b": 1100, "hb": 0.009, "y": 2023, "m": "man", "n": "Augsburger Stra\u00dfe"}, "geometry": {"type": "LineString", "coordinates": [[414998.71, 5656089.02], [415113.19, 5656000.0]]}}, {"type": "Feature", "properties": {"t": 14800, "f": 6600, "hf": 0.053, "b": 8200, "hb": 0.04, "y": 2023, "m": "man", "n": "Fetscherstra\u00dfe"}, "geometry": {"type": "LineString", "coordinates": [[414066.28, 5656000.0], [414076.95, 5656015.74], [414113.49, 5656073.64]]}}, {"type": "Feature", "properties": {"t": 14800, "f": 6600, "hf": 0.053, "b": 8200, "hb": 0.04, "y": 2023, "m": "man", "n": "Fetscherstra\u00dfe"}, "geometry": {"type": "LineString", "coordinates": [[414113.49, 5656073.64], [414149.1, 5656131.45], [414187.58, 5656189.05]]}}, {"type": "Feature", "properties": {"t": 16000, "f": 6500, "hf": 0.054, "b": 9500, "hb": 0.039, "y": 2023, "m": "man", "n": "Fetscherstra\u00dfe"}, "geometry": {"type": "LineString", "coordinates": [[414187.58, 5656189.05], [414259.85, 5656301.87], [414310.51, 5656376.4], [414323.78, 5656394.29], [414331.26, 5656405.09], [414334.2, 5656411.99], [414334.23, 5656414.75]]}}, {"type": "Feature", "properties": {"t": 22100, "f": 11100, "hf": 0.035, "b": 11000, "hb": 0.033, "y": 2025, "m": "loop", "n": "Fetscherstra\u00dfe"}, "geometry": {"type": "LineString", "coordinates": [[414334.23, 5656414.75], [414337.22, 5656432.75], [414340.56, 5656475.33], [414344.17, 5656534.67]]}}, {"type": "Feature", "properties": {"t": 22100, "f": 11100, "hf": 0.035, "b": 11000, "hb": 0.033, "y": 2025, "m": "loop", "n": "Fetscherstra\u00dfe"}, "geometry": {"type": "LineString", "coordinates": [[414344.17, 5656534.67], [414338.71, 5656650.83], [414332.6, 5656766.68]]}}, {"type": "Feature", "properties": {"t": 22100, "f": 11100, "hf": 0.035, "b": 11000, "hb": 0.033, "y": 2025, "m": "loop", "n": "Fetscherstra\u00dfe"}, "geometry": {"type": "LineString", "coordinates": [[414332.6, 5656766.68], [414323.69, 5656913.67], [414318.35, 5657027.39], [414317.01, 5657065.59]]}}, {"type": "Feature", "properties": {"t": 26900, "f": 13100, "hf": 0.033, "b": 13800, "hb": 0.033, "y": 2021, "m": "man", "n": "Fetscherstra\u00dfe"}, "geometry": {"type": "LineString", "coordinates": [[414317.01, 5657065.59], [414318.25, 5657084.79], [414315.75, 5657128.8], [414311.32, 5657161.93], [414308.48, 5657218.21]]}}, {"type": "Feature", "properties": {"t": 7900, "f": 2100, "hf": 0.029, "b": 5800, "hb": 0.028, "y": 2021, "m": "man", "n": "Fetscherstra\u00dfe"}, "geometry": {"type": "LineString", "coordinates": [[414308.48, 5657218.21], [414336.38, 5657219.71], [414393.18, 5657220.87], [414411.43, 5657224.31], [414427.51, 5657230.97], [414442.65, 5657241.51], [414451.12, 5657251.3], [414460.38, 5657266.38], [414468.84, 5657289.28], [414470.86, 5657298.07]]}}, {"type": "Feature", "properties": {"t": 7800, "f": 4600, "hf": 0.041, "b": 3200, "hb": 0.044, "y": 2014, "m": "man", "n": "Fetscherstra\u00dfe"}, "geometry": {"type": "LineString", "coordinates": [[414308.48, 5657218.21], [414184.79, 5657211.39]]}}, {"type": "Feature", "properties": {"t": 7800, "f": 4600, "hf": 0.041, "b": 3200, "hb": 0.044, "y": 2014, "m": "man", "n": "Fetscherstra\u00dfe"}, "geometry": {"type": "LineString", "coordinates": [[414184.79, 5657211.39], [414169.63, 5657213.04], [414159.24, 5657215.71], [414149.5, 5657220.16], [414138.5, 5657229.04], [414130.45, 5657240.05], [414125.16, 5657251.48], [414121.78, 5657264.61], [414117.95, 5657283.96]]}}, {"type": "Feature", "properties": {"t": 50, "b": 50, "hb": 0.0, "y": 2024, "m": "man", "n": "Schubertstra\u00dfe"}, "geometry": {"type": "LineString", "coordinates": [[414891.88, 5656565.38], [414893.86, 5656551.32], [414945.4, 5656547.47], [414947.32, 5656540.02], [414995.72, 5656527.69], [415020.99, 5656516.86]]}}, {"type": "Feature", "properties": {"t": 1200, "f": 500, "hf": 0.0, "b": 700, "hb": 0.0, "y": 2024, "m": "man", "n": "H\u00e4ndelallee"}, "geometry": {"type": "LineString", "coordinates": [[415028.68, 5657089.59], [415024.42, 5657043.29], [415021.99, 5656997.2], [415018.46, 5656955.35], [415016.48, 5656900.99], [415017.55, 5656848.28], [415017.91, 5656788.11], [415019.15, 5656715.05], [415019.09, 5656635.8], [415021.01, 5656551.58], [415020.99, 5656516.86]]}}, {"type": "Feature", "properties": {"t": 3300, "f": 1700, "hf": 0.0, "b": 1600, "hb": 0.0, "y": 2024, "m": "man", "n": "Lothringer Weg"}, "geometry": {"type": "LineString", "coordinates": [[415358.6, 5656499.33], [415362.75, 5656519.4], [415375.63, 5656594.02], [415376.49, 5656605.7], [415377.29, 5656627.84], [415375.28, 5656676.99], [415372.67, 5656693.57], [415368.1, 5656711.22], [415358.21, 5656744.61], [415353.03, 5656771.22], [415350.14, 5656794.23], [415349.35, 5656823.19], [415351.09, 5656855.19], [415355.75, 5656906.14], [415357.46, 5656915.21], [415376.7, 5656987.15]]}}, {"type": "Feature", "properties": {"t": 2300, "f": 1100, "hf": 0.009, "b": 1200, "hb": 0.008, "y": 2021, "m": "man", "n": "Lothringer Weg"}, "geometry": {"type": "LineString", "coordinates": [[415376.7, 5656987.15], [415400.35, 5657118.72]]}}, {"type": "Feature", "properties": {"t": 1900, "f": 600, "hf": 0.017, "b": 1300, "hb": 0.015, "y": 2022, "m": "man", "n": "Vogesenweg"}, "geometry": {"type": "LineString", "coordinates": [[415906.43, 5656897.13], [415885.49, 5656851.55], [415858.62, 5656804.3]]}}, {"type": "Feature", "properties": {"t": 2400, "f": 1200, "hf": 0.042, "b": 1200, "hb": 0.017, "y": 2022, "m": "man", "n": "Vogesenweg"}, "geometry": {"type": "LineString", "coordinates": [[415858.62, 5656804.3], [415854.7, 5656792.01], [415848.81, 5656753.08], [415842.54, 5656740.53], [415832.73, 5656722.09], [415819.01, 5656700.84]]}}, {"type": "Feature", "properties": {"t": 2400, "f": 1200, "hf": 0.042, "b": 1200, "hb": 0.017, "y": 2022, "m": "man", "n": "Vogesenweg"}, "geometry": {"type": "LineString", "coordinates": [[415819.01, 5656700.84], [415768.52, 5656644.44], [415754.86, 5656631.29], [415733.57, 5656617.39], [415719.91, 5656605.15], [415700.93, 5656590.64], [415682.41, 5656569.48], [415671.77, 5656555.43], [415664.36, 5656538.8], [415657.18, 5656514.02], [415640.98, 5656440.87]]}}, {"type": "Feature", "properties": {"t": 1600, "f": 1600, "hf": 0.019, "y": 2012, "m": "man", "n": "Prellerstra\u00dfe"}, "geometry": {"type": "LineString", "coordinates": [[416000.0, 5656632.58], [415972.35, 5656592.26]]}}, {"type": "Feature", "properties": {"t": 1800, "f": 1500, "hf": 0.007, "b": 300, "hb": 0.0, "y": 2012, "m": "man", "n": "Prellerstra\u00dfe"}, "geometry": {"type": "LineString", "coordinates": [[415972.35, 5656592.26], [415955.07, 5656569.48], [415928.22, 5656539.1], [415884.01, 5656486.51], [415809.88, 5656400.83]]}}, {"type": "Feature", "properties": {"t": 3200, "b": 3200, "hb": 0.016, "y": 2011, "m": "man", "n": "Regerstra\u00dfe"}, "geometry": {"type": "LineString", "coordinates": [[416000.0, 5656396.74], [415961.98, 5656365.43]]}}, {"type": "Feature", "properties": {"t": 3100, "f": 800, "hf": 0.025, "b": 2300, "hb": 0.013, "y": 2008, "m": "man", "n": "Huttenstra\u00dfe"}, "geometry": {"type": "LineString", "coordinates": [[414525.32, 5656284.02], [414482.83, 5656229.45], [414439.89, 5656173.54]]}}, {"type": "Feature", "properties": {"t": 3600, "f": 600, "hf": 0.0, "b": 3000, "hb": 0.01, "y": 2023, "m": "man", "n": "Huttenstra\u00dfe"}, "geometry": {"type": "LineString", "coordinates": [[414439.89, 5656173.54], [414395.74, 5656118.62], [414350.46, 5656060.19]]}}, {"type": "Feature", "properties": {"t": 2300, "f": 1000, "hf": 0.01, "b": 1300, "hb": 0.008, "y": 2023, "m": "man", "n": "Huttenstra\u00dfe"}, "geometry": {"type": "LineString", "coordinates": [[414350.46, 5656060.19], [414304.29, 5656001.36], [414302.73, 5656000.0]]}}, {"type": "Feature", "properties": {"t": 1800, "f": 800, "hf": 0.013, "b": 1000, "hb": 0.01, "y": 2023, "m": "man", "n": "Tittmannstra\u00dfe"}, "geometry": {"type": "LineString", "coordinates": [[415013.19, 5656323.68], [415005.82, 5656307.65], [415001.0, 5656299.05], [414984.57, 5656276.99]]}}, {"type": "Feature", "properties": {"t": 1800, "f": 800, "hf": 0.013, "b": 1000, "hb": 0.01, "y": 2023, "m": "man", "n": "Tittmannstra\u00dfe"}, "geometry": {"type": "LineString", "coordinates": [[414984.57, 5656276.99], [414945.09, 5656225.92], [414900.34, 5656165.94]]}}, {"type": "Feature", "properties": {"t": 2500, "f": 1200, "hf": 0.008, "b": 1300, "hb": 0.008, "y": 2023, "m": "man", "n": "Tittmannstra\u00dfe"}, "geometry": {"type": "LineString", "coordinates": [[414900.34, 5656165.94], [414816.95, 5656056.57]]}}, {"type": "Feature", "properties": {"t": 3500, "f": 1800, "hf": 0.006, "b": 1700, "hb": 0.012, "y": 2023, "m": "man", "n": "Tittmannstra\u00dfe"}, "geometry": {"type": "LineString", "coordinates": [[414816.95, 5656056.57], [414773.07, 5656000.0]]}}, {"type": "Feature", "properties": {"t": 2000, "f": 800, "hf": 0.013, "b": 1200, "hb": 0.0, "y": 2024, "m": "man", "n": "Forsthausstra\u00dfe"}, "geometry": {"type": "LineString", "coordinates": [[415020.99, 5656516.86], [415022.78, 5656390.51]]}}, {"type": "Feature", "properties": {"t": 1800, "f": 800, "hf": 0.013, "b": 1000, "hb": 0.01, "y": 2023, "m": "man", "n": "Forsthausstra\u00dfe"}, "geometry": {"type": "LineString", "coordinates": [[415022.78, 5656390.51], [415021.93, 5656367.22], [415018.17, 5656340.15], [415013.19, 5656323.68]]}}, {"type": "Feature", "properties": {"t": 1700, "f": 900, "hf": 0.022, "b": 800, "hb": 0.025, "y": 2008, "m": "man", "n": "Lene-Glatzer-Stra\u00dfe"}, "geometry": {"type": "LineString", "coordinates": [[415255.28, 5656000.0], [415265.56, 5656047.58]]}}, {"type": "Feature", "properties": {"t": 2400, "f": 1100, "hf": 0.0, "b": 1300, "hb": 0.008, "y": 2024, "m": "man", "n": "Lene-Glatzer-Stra\u00dfe"}, "geometry": {"type": "LineString", "coordinates": [[415333.17, 5656367.6], [415355.78, 5656478.58], [415358.6, 5656499.33]]}}, {"type": "Feature", "properties": {"t": 1500, "f": 600, "hf": 0.0, "b": 900, "hb": 0.0, "y": 2023, "m": "man", "n": "Kyffh\u00e4userstra\u00dfe"}, "geometry": {"type": "LineString", "coordinates": [[415639.61, 5656081.89], [415679.29, 5656071.78]]}}, {"type": "Feature", "properties": {"t": 4300, "f": 2900, "hf": 0.059, "b": 1400, "hb": 0.129, "y": 2026, "m": "man", "n": "H\u00fcblerstra\u00dfe"}, "geometry": {"type": "LineString", "coordinates": [[416000.0, 5656147.92], [415953.82, 5656135.58]]}}, {"type": "Feature", "properties": {"t": 4300, "f": 2900, "hf": 0.059, "b": 1400, "hb": 0.129, "y": 2026, "m": "man", "n": "H\u00fcblerstra\u00dfe"}, "geometry": {"type": "LineString", "coordinates": [[415953.82, 5656135.58], [415922.71, 5656126.76], [415889.99, 5656119.94]]}}, {"type": "Feature", "properties": {"t": 4300, "f": 2900, "hf": 0.059, "b": 1400, "hb": 0.129, "y": 2026, "m": "man", "n": "H\u00fcblerstra\u00dfe"}, "geometry": {"type": "LineString", "coordinates": [[415889.99, 5656119.94], [415877.45, 5656116.71], [415868.09, 5656115.35], [415826.03, 5656110.32], [415798.34, 5656108.14], [415789.08, 5656106.36], [415767.4, 5656099.92], [415741.51, 5656092.9]]}}, {"type": "Feature", "properties": {"t": 4300, "f": 2900, "hf": 0.059, "b": 1400, "hb": 0.129, "y": 2026, "m": "man", "n": "H\u00fcblerstra\u00dfe"}, "geometry": {"type": "LineString", "coordinates": [[415741.51, 5656092.9], [415709.54, 5656082.46], [415679.29, 5656071.78]]}}, {"type": "Feature", "properties": {"t": 4300, "f": 2900, "hf": 0.059, "b": 1400, "hb": 0.129, "y": 2026, "m": "man", "n": "H\u00fcblerstra\u00dfe"}, "geometry": {"type": "LineString", "coordinates": [[415679.29, 5656071.78], [415650.64, 5656060.46], [415623.93, 5656050.88]]}}, {"type": "Feature", "properties": {"t": 4300, "f": 2900, "hf": 0.059, "b": 1400, "hb": 0.129, "y": 2026, "m": "man", "n": "H\u00fcblerstra\u00dfe"}, "geometry": {"type": "LineString", "coordinates": [[415623.93, 5656050.88], [415561.3, 5656027.55], [415500.01, 5656003.86]]}}, {"type": "Feature", "properties": {"t": 4300, "f": 2900, "hf": 0.059, "b": 1400, "hb": 0.129, "y": 2026, "m": "man", "n": "H\u00fcblerstra\u00dfe"}, "geometry": {"type": "LineString", "coordinates": [[415500.01, 5656003.86], [415488.91, 5656000.0]]}}, {"type": "Feature", "properties": {"t": 500, "f": 100, "hf": 0.0, "b": 400, "hb": 0.0, "y": 2019, "m": "man", "n": "Paulusplatz"}, "geometry": {"type": "LineString", "coordinates": [[415889.99, 5656119.94], [415908.96, 5656140.93], [415923.04, 5656155.98]]}}, {"type": "Feature", "properties": {"t": 400, "f": 200, "hf": 0.0, "b": 200, "hb": 0.0, "y": 2019, "m": "man", "n": "Paulusplatz"}, "geometry": {"type": "LineString", "coordinates": [[415923.04, 5656155.98], [415939.55, 5656144.16], [415953.82, 5656135.58]]}}, {"type": "Feature", "properties": {"t": 1570, "f": 70, "hf": 0.0, "b": 1500, "hb": 0.067, "y": 2023, "m": "man", "n": "W\u00e4gnerstra\u00dfe"}, "geometry": {"type": "LineString", "coordinates": [[415953.82, 5656135.58], [415963.16, 5656125.57], [415990.51, 5656103.17], [416000.0, 5656095.03]]}}, {"type": "Feature", "properties": {"t": 520, "f": 500, "hf": 0.0, "b": 20, "hb": 0.0, "y": 2024, "m": "man", "n": "Justinenstra\u00dfe"}, "geometry": {"type": "LineString", "coordinates": [[416000.0, 5656231.87], [415923.04, 5656155.98]]}}, {"type": "Feature", "properties": {"t": 2000, "f": 1000, "hf": 0.11, "b": 1000, "hb": 0.11, "y": 2025, "m": "man", "n": "Niederwaldstra\u00dfe"}, "geometry": {"type": "LineString", "coordinates": [[415679.29, 5656071.78], [415680.39, 5656060.03], [415719.48, 5656035.32], [415762.92, 5656005.52]]}}, {"type": "Feature", "properties": {"t": 2000, "f": 1000, "hf": 0.11, "b": 1000, "hb": 0.11, "y": 2025, "m": "man", "n": "Niederwaldstra\u00dfe"}, "geometry": {"type": "LineString", "coordinates": [[415762.92, 5656005.52], [415771.38, 5656000.0]]}}, {"type": "Feature", "properties": {"t": 910, "f": 900, "hf": 0.1, "b": 10, "hb": 0.0, "y": 2023, "m": "man", "n": "Pohlandstra\u00dfe"}, "geometry": {"type": "LineString", "coordinates": [[415953.82, 5656135.58], [415959.23, 5656128.01], [415873.62, 5656000.0]]}}, {"type": "Feature", "properties": {"t": 34700, "f": 16800, "hf": 0.03, "b": 17900, "hb": 0.03, "y": 2025, "m": "loop", "n": "Waldschl\u00f6\u00dfchenbr\u00fccke", "br": 1}, "geometry": {"type": "LineString", "coordinates": [[414308.48, 5657218.21], [414306.67, 5657261.29], [414304.84, 5657291.2], [414304.21, 5657306.39], [414301.98, 5657378.99], [414296.39, 5657518.59], [414280.85, 5657861.38], [414280.96, 5657868.95], [414278.5, 5657950.68], [414274.53, 5657982.25]]}}, {"type": "Feature", "properties": {"t": 7400, "f": 7400, "hf": 0.032, "y": 2020, "m": "man", "n": "Waldschl\u00f6\u00dfchenbr\u00fccke", "br": 1}, "geometry": {"type": "LineString", "coordinates": [[414031.74, 5657974.77], [414058.57, 5657954.64], [414073.92, 5657952.93], [414087.24, 5657952.52], [414224.41, 5657988.45], [414247.01, 5657990.3], [414258.81, 5657989.21], [414274.53, 5657982.25]]}}, {"type": "Feature", "properties": {"t": 7800, "f": 7800, "hf": 0.026, "y": 2014, "m": "man", "n": "Waldschl\u00f6\u00dfchenbr\u00fccke", "br": 1}, "geometry": {"type": "LineString", "coordinates": [[414274.53, 5657982.25], [414285.55, 5657997.15], [414290.18, 5658000.0]]}}, {"type": "Feature", "properties": {"t": 7800, "f": 7800, "hf": 0.026, "y": 2014, "m": "man", "n": "Waldschl\u00f6\u00dfchenbr\u00fccke", "br": 1}, "geometry": {"type": "LineString", "coordinates": [[414401.63, 5658000.0], [414428.65, 5657994.33], [414454.12, 5657988.19], [414458.5, 5657986.78], [414494.05, 5657967.74], [414524.3, 5657957.16], [414546.1, 5657953.56], [414564.42, 5657952.72], [414596.16, 5657957.37], [414633.79, 5657968.62], [414661.39, 5657977.59]]}}, {"type": "Feature", "properties": {"t": 22700, "f": 11900, "hf": 0.041, "b": 10800, "hb": 0.031, "y": 2014, "m": "man", "n": "Waldschl\u00f6\u00dfchenbr\u00fccke", "br": 1}, "geometry": {"type": "LineString", "coordinates": [[414274.53, 5657982.25], [414272.4, 5658000.0]]}}]}