{"type": "FeatureCollection", "crs": {"type": "name", "properties": {"name": "urn:ogc:def:crs:EPSG::25833"}}, "features": [{"type": "Feature", "properties": {"kind": "treerow"}, "geometry": {"type": "LineString", "coordinates": [[408001.61, 5655380.54], [407915.35, 5655378.82]]}}, {"type": "Feature", "properties": {"kind": "treerow"}, "geometry": {"type": "LineString", "coordinates": [[407783.58, 5655955.89], [407823.55, 5655942.35], [407868.33, 5655925.97], [407909.17, 5655912.42], [407934.23, 5655906.35], [407951.38, 5655902.5], [407969.96, 5655899.79], [407991.92, 5655897.14], [408002.88, 5655897.12], [408049.4, 5655892.55], [408050.5, 5655871.36], [408003.97, 5655876.6], [407959.63, 5655884.25], [407927.52, 5655891.24], [407856.97, 5655908.06], [407815.9, 5655922.03]]}}, {"type": "Feature", "properties": {"kind": "treerow"}, "geometry": {"type": "LineString", "coordinates": [[407919.76, 5655365.59], [408001.42, 5655367.13]]}}, {"type": "Feature", "properties": {"kind": "treerow"}, "geometry": {"type": "LineString", "coordinates": [[408056.24, 5655366.17], [408157.08, 5655367.7], [408181.62, 5655369.43], [408211.14, 5655373.64]]}}, {"type": "Feature", "properties": {"kind": "treerow"}, "geometry": {"type": "LineString", "coordinates": [[408025.96, 5655379.78], [408099.76, 5655382.27], [408157.08, 5655382.85], [408183.92, 5655385.34], [408205.39, 5655388.4]]}}, {"type": "Feature", "properties": {"kind": "hedge"}, "geometry": {"type": "LineString", "coordinates": [[408877.04, 5655976.48], [408930.84, 5655945.21], [408943.66, 5655937.06]]}}, {"type": "Feature", "properties": {"kind": "treerow"}, "geometry": {"type": "LineString", "coordinates": [[409272.31, 5655937.65], [409270.63, 5655963.41], [409267.39, 5655987.73], [409261.4, 5656012.77], [409245.59, 5656086.7], [409239.36, 5656122.04], [409223.66, 5656189.02]]}}, {"type": "Feature", "properties": {"kind": "hedge"}, "geometry": {"type": "LineString", "coordinates": [[408777.24, 5656034.47], [408872.13, 5655979.59]]}}, {"type": "Feature", "properties": {"kind": "treerow"}, "geometry": {"type": "LineString", "coordinates": [[409158.81, 5656234.89], [409167.68, 5656193.44], [409184.45, 5656129.58], [409212.61, 5656002.22], [409218.79, 5655976.48], [409231.44, 5655908.62]]}}, {"type": "Feature", "properties": {"kind": "treerow"}, "geometry": {"type": "LineString", "coordinates": [[410128.04, 5654944.83], [410028.66, 5654811.93], [409975.97, 5654738.32]]}}, {"type": "Feature", "properties": {"kind": "treerow"}, "geometry": {"type": "LineString", "coordinates": [[409008.02, 5654031.17], [409031.56, 5654054.32], [409056.43, 5654082.88], [409089.59, 5654127.53], [409131.49, 5654186.93]]}}, {"type": "Feature", "properties": {"kind": "treerow"}, "geometry": {"type": "LineString", "coordinates": [[409120.79, 5654222.99], [409152.82, 5654281.69], [409158.29, 5654303.55], [409161.65, 5654323.71], [409163.47, 5654358.03], [409150.09, 5654448.47]]}}, {"type": "Feature", "properties": {"kind": "treerow"}, "geometry": {"type": "LineString", "coordinates": [[408991.05, 5654054.32], [409026.04, 5654087.94], [409086.82, 5654172.2], [409110.31, 5654206.74]]}}]}