{"type": "FeatureCollection", "attribution": "\u00a9 OpenStreetMap contributors (ODbL)", "crs": {"type": "name", "properties": {"name": "urn:ogc:def:crs:EPSG::25833"}}, "features": [{"type": "Feature", "properties": {"kind": "wall", "h": 1.5}, "geometry": {"type": "LineString", "coordinates": [[414040.57, 5656627.28], [414037.63, 5656569.75]]}}, {"type": "Feature", "properties": {"kind": "wall", "h": 1.5}, "geometry": {"type": "LineString", "coordinates": [[414036.42, 5656563.78], [414033.88, 5656511.02], [414050.62, 5656511.37], [414061.63, 5656512.23], [414062.9, 5656513.7], [414064.99, 5656514.98], [414067.93, 5656515.45], [414070.61, 5656514.78], [414072.93, 5656513.02], [414073.95, 5656511.49], [414074.53, 5656509.8], [414099.56, 5656509.94], [414227.64, 5656525.59], [414220.54, 5656596.35], [414104.54, 5656597.03], [414102.83, 5656566.06]]}}, {"type": "Feature", "properties": {"kind": "wall", "h": 1.5}, "geometry": {"type": "LineString", "coordinates": [[414102.54, 5656561.9], [414099.56, 5656509.94]]}}, {"type": "Feature", "properties": {"kind": "wall", "h": 1.5}, "geometry": {"type": "LineString", "coordinates": [[414104.54, 5656597.03], [414107.13, 5656646.49], [414107.57, 5656674.51], [414110.57, 5656748.46]]}}, {"type": "Feature", "properties": {"kind": "wall", "h": 1.5}, "geometry": {"type": "LineString", "coordinates": [[414070.25, 5656732.51], [414000.0, 5656733.88]]}}, {"type": "Feature", "properties": {"kind": "wall", "h": 1.5}, "geometry": {"type": "LineString", "coordinates": [[414435.25, 5657884.04], [414496.06, 5657861.23], [414553.89, 5657839.53], [414555.74, 5657838.84], [414559.97, 5657837.27], [414563.7, 5657836.87], [414636.98, 5657828.89], [414641.4, 5657828.41], [414725.04, 5657819.11], [414802.62, 5657809.91], [414875.73, 5657797.28], [414915.35, 5657788.22], [415000.3, 5657769.36], [415033.44, 5657761.62], [415037.39, 5657760.67]]}}, {"type": "Feature", "properties": {"kind": "retaining_wall", "h": 3.0}, "geometry": {"type": "LineString", "coordinates": [[415053.06, 5657730.53], [415054.56, 5657730.1], [415056.5, 5657729.55], [415095.1, 5657718.53], [415098.01, 5657717.71], [415101.12, 5657716.82]]}}, {"type": "Feature", "properties": {"kind": "wall", "h": 1.5}, "geometry": {"type": "LineString", "coordinates": [[415877.0, 5656849.23], [415831.27, 5656876.74]]}}, {"type": "Feature", "properties": {"kind": "retaining_wall", "h": 3.0}, "geometry": {"type": "LineString", "coordinates": [[414674.83, 5657969.62], [414661.32, 5657966.99], [414647.45, 5657963.67], [414619.83, 5657956.39], [414605.52, 5657952.43], [414591.37, 5657949.61], [414577.67, 5657947.71], [414563.55, 5657947.16]]}}, {"type": "Feature", "properties": {"kind": "retaining_wall", "h": 3.0}, "geometry": {"type": "LineString", "coordinates": [[414563.6, 5657954.34], [414578.49, 5657954.79], [414591.99, 5657956.77], [414605.86, 5657959.89], [414619.31, 5657963.15], [414646.77, 5657970.15], [414660.54, 5657973.65], [414674.16, 5657976.23]]}}, {"type": "Feature", "properties": {"kind": "retaining_wall", "h": 3.0}, "geometry": {"type": "LineString", "coordinates": [[414206.38, 5657986.92], [414110.49, 5657960.36]]}}, {"type": "Feature", "properties": {"kind": "retaining_wall", "h": 3.0}, "geometry": {"type": "LineString", "coordinates": [[414115.12, 5657969.96], [414206.57, 5657994.98]]}}, {"type": "Feature", "properties": {"kind": "wall", "h": 1.5}, "geometry": {"type": "LineString", "coordinates": [[414245.46, 5657979.77], [414256.5, 5657982.4], [414262.21, 5657983.47], [414267.72, 5657984.18], [414276.47, 5657984.85], [414282.38, 5657984.79], [414290.06, 5657984.3]]}}, {"type": "Feature", "properties": {"kind": "wall", "h": 1.5}, "geometry": {"type": "LineString", "coordinates": [[414316.38, 5658000.0], [414316.4, 5657999.99]]}}, {"type": "Feature", "properties": {"kind": "wall", "h": 1.5}, "geometry": {"type": "LineString", "coordinates": [[414205.03, 5657998.37], [414210.96, 5658000.0]]}}, {"type": "Feature", "properties": {"kind": "wall", "h": 1.5}, "geometry": {"type": "LineString", "coordinates": [[414439.84, 5657974.01], [414454.29, 5657969.01], [414469.4, 5657962.93], [414473.74, 5657961.18]]}}, {"type": "Feature", "properties": {"kind": "wall", "h": 1.5}, "geometry": {"type": "LineString", "coordinates": [[414033.88, 5656511.02], [414033.36, 5656505.59], [414000.0, 5656506.19]]}}, {"type": "Feature", "properties": {"kind": "wall", "h": 1.1}, "geometry": {"type": "LineString", "coordinates": [[416000.0, 5657468.6], [415966.46, 5657455.01], [415954.19, 5657444.12], [415945.78, 5657430.71]]}}, {"type": "Feature", "properties": {"kind": "wall", "h": 1.5}, "geometry": {"type": "LineString", "coordinates": [[414827.87, 5656856.77], [414827.94, 5656864.76]]}}, {"type": "Feature", "properties": {"kind": "wall", "h": 1.5}, "geometry": {"type": "LineString", "coordinates": [[414798.17, 5656857.62], [414798.66, 5656865.54]]}}, {"type": "Feature", "properties": {"kind": "wall", "h": 1.5}, "geometry": {"type": "LineString", "coordinates": [[414801.47, 5656996.16], [414800.88, 5656967.14]]}}, {"type": "Feature", "properties": {"kind": "wall", "h": 1.5}, "geometry": {"type": "LineString", "coordinates": [[414831.78, 5656992.34], [414831.49, 5656979.9], [414831.36, 5656971.93], [414831.24, 5656966.75]]}}, {"type": "Feature", "properties": {"kind": "wall", "h": 1.5}, "geometry": {"type": "LineString", "coordinates": [[414616.87, 5657279.22], [414581.37, 5657280.76], [414561.8, 5657282.13], [414546.75, 5657282.63], [414542.52, 5657282.51], [414541.88, 5657282.49]]}}, {"type": "Feature", "properties": {"kind": "retaining_wall", "h": 3.0}, "geometry": {"type": "LineString", "coordinates": [[414457.68, 5657030.46], [414494.81, 5657033.55], [414499.95, 5657033.61], [414503.55, 5657031.67], [414505.69, 5657028.38], [414506.71, 5657006.56]]}}, {"type": "Feature", "properties": {"kind": "retaining_wall", "h": 3.0}, "geometry": {"type": "LineString", "coordinates": [[414732.23, 5657084.89], [414735.12, 5657026.03], [414719.55, 5657025.09]]}}, {"type": "Feature", "properties": {"kind": "wall", "h": 1.5}, "geometry": {"type": "LineString", "coordinates": [[414506.64, 5656278.03], [414508.23, 5656277.78], [414509.14, 5656277.13], [414509.69, 5656275.99], [414509.67, 5656274.84], [414509.31, 5656273.94]]}}, {"type": "Feature", "properties": {"kind": "wall", "h": 1.5}, "geometry": {"type": "LineString", "coordinates": [[414290.06, 5657984.3], [414289.53, 5657979.96], [414289.48, 5657973.61], [414290.26, 5657958.84]]}}, {"type": "Feature", "properties": {"kind": "retaining_wall", "h": 3.0}, "geometry": {"type": "LineString", "coordinates": [[414306.55, 5657980.86], [414313.52, 5657978.87], [414315.53, 5657986.4], [414313.41, 5657987.02]]}}, {"type": "Feature", "properties": {"kind": "retaining_wall", "h": 3.0}, "geometry": {"type": "LineString", "coordinates": [[414290.06, 5657984.3], [414296.61, 5657983.69], [414296.69, 5657979.58], [414296.62, 5657974.84], [414308.77, 5657975.23]]}}, {"type": "Feature", "properties": {"kind": "retaining_wall", "h": 3.0}, "geometry": {"type": "LineString", "coordinates": [[414262.54, 5657956.93], [414262.05, 5657970.45], [414261.21, 5657974.73], [414259.64, 5657978.03], [414256.5, 5657982.4]]}}, {"type": "Feature", "properties": {"kind": "retaining_wall", "h": 3.0}, "geometry": {"type": "LineString", "coordinates": [[414235.49, 5657990.49], [414233.06, 5657989.92], [414229.23, 5657989.02], [414221.85, 5657987.0], [414227.39, 5657977.75], [414234.97, 5657980.57], [414236.36, 5657981.0], [414241.9, 5657982.74], [414248.49, 5657984.36]]}}, {"type": "Feature", "properties": {"kind": "wall", "h": 1.5}, "geometry": {"type": "LineString", "coordinates": [[414428.29, 5657969.52], [414429.83, 5657969.24], [414430.87, 5657968.44], [414432.1, 5657968.11], [414433.66, 5657968.38], [414435.04, 5657967.73]]}}, {"type": "Feature", "properties": {"kind": "wall", "h": 1.0}, "geometry": {"type": "LineString", "coordinates": [[415395.55, 5657135.91], [415396.62, 5657140.02], [415412.89, 5657135.24], [415411.79, 5657131.35]]}}, {"type": "Feature", "properties": {"kind": "retaining_wall", "h": 3.0}, "geometry": {"type": "LineString", "coordinates": [[415137.2, 5657706.53], [415167.42, 5657698.32], [415210.38, 5657686.56], [415214.86, 5657685.33], [415249.02, 5657675.43], [415320.32, 5657655.76], [415430.95, 5657621.79], [415459.07, 5657615.9], [415459.36, 5657617.14], [415466.34, 5657615.55], [415467.51, 5657615.33], [415537.39, 5657600.07], [415536.99, 5657598.18], [415595.38, 5657582.75], [415652.92, 5657562.64], [415654.98, 5657561.91], [415761.21, 5657524.0], [415763.06, 5657523.54], [415765.21, 5657523.66], [415766.65, 5657524.19], [415768.14, 5657525.59], [415769.42, 5657528.92], [415861.46, 5657485.26], [415861.13, 5657482.21], [415894.92, 5657464.57], [415904.09, 5657464.31], [415932.8, 5657441.16], [415945.78, 5657430.71], [415947.97, 5657429.14], [415972.45, 5657411.62], [416000.0, 5657396.97]]}}, {"type": "Feature", "properties": {"kind": "wall", "h": 1.5}, "geometry": {"type": "LineString", "coordinates": [[414914.48, 5656531.59], [414919.89, 5656532.34], [414918.44, 5656530.96], [414919.59, 5656530.76], [414919.33, 5656530.09], [414920.19, 5656530.1], [414920.23, 5656528.72], [414921.22, 5656529.65], [414922.05, 5656528.55], [414922.5, 5656529.79], [414923.65, 5656529.27], [414923.28, 5656530.65], [414924.13, 5656530.88], [414923.49, 5656531.3], [414924.62, 5656531.98], [414922.9, 5656532.85], [414927.78, 5656533.42]]}}, {"type": "Feature", "properties": {"kind": "retaining_wall", "h": 3.0}, "geometry": {"type": "LineString", "coordinates": [[414508.14, 5657286.04], [414494.41, 5657286.52], [414490.27, 5657286.27], [414491.4, 5657282.97], [414486.11, 5657281.36], [414485.24, 5657284.77], [414482.13, 5657283.51], [414479.53, 5657281.06], [414471.74, 5657263.23], [414472.65, 5657262.82]]}}, {"type": "Feature", "properties": {"kind": "retaining_wall", "h": 3.0}, "geometry": {"type": "LineString", "coordinates": [[414541.88, 5657282.49], [414531.64, 5657281.99], [414523.21, 5657280.5], [414515.33, 5657278.13], [414504.91, 5657273.05], [414497.5, 5657268.28], [414478.18, 5657250.62], [414457.09, 5657234.33], [414449.22, 5657229.31], [414437.63, 5657222.04], [414428.6, 5657217.31], [414418.89, 5657213.02], [414405.85, 5657205.77]]}}, {"type": "Feature", "properties": {"kind": "retaining_wall", "h": 3.0}, "geometry": {"type": "LineString", "coordinates": [[414364.46, 5657290.91], [414318.65, 5657289.04], [414309.66, 5657288.64], [414302.21, 5657288.31], [414293.69, 5657287.93], [414247.69, 5657286.15]]}}, {"type": "Feature", "properties": {"kind": "retaining_wall", "h": 3.0}, "geometry": {"type": "LineString", "coordinates": [[415530.87, 5657803.34], [415528.35, 5657776.58], [415523.72, 5657777.26], [415522.41, 5657779.88], [415521.09, 5657781.33], [415519.48, 5657782.46], [415517.68, 5657783.21], [415515.76, 5657783.56], [415513.8, 5657783.49], [415511.91, 5657783.0], [415510.16, 5657782.12], [415508.64, 5657780.89], [415506.99, 5657778.58], [415502.13, 5657778.58], [415504.69, 5657805.79]]}}, {"type": "Feature", "properties": {"kind": "retaining_wall", "h": 3.0}, "geometry": {"type": "LineString", "coordinates": [[415334.5, 5657697.83], [415365.61, 5657688.71]]}}, {"type": "Feature", "properties": {"kind": "retaining_wall", "h": 3.0}, "geometry": {"type": "LineString", "coordinates": [[415298.02, 5657708.5], [415332.32, 5657698.42]]}}, {"type": "Feature", "properties": {"kind": "retaining_wall", "h": 3.0}, "geometry": {"type": "LineString", "coordinates": [[415260.15, 5657719.8], [415296.45, 5657708.99]]}}, {"type": "Feature", "properties": {"kind": "retaining_wall", "h": 3.0}, "geometry": {"type": "LineString", "coordinates": [[415525.76, 5657748.14], [415526.28, 5657754.05], [415518.32, 5657754.79], [415517.79, 5657748.9]]}}, {"type": "Feature", "properties": {"kind": "retaining_wall", "h": 3.0}, "geometry": {"type": "LineString", "coordinates": [[415507.35, 5657749.9], [415507.9, 5657755.75], [415500.04, 5657756.48], [415499.49, 5657750.65]]}}, {"type": "Feature", "properties": {"kind": "retaining_wall", "h": 3.0}, "geometry": {"type": "LineString", "coordinates": [[415448.43, 5657643.99], [415482.57, 5657640.54], [415481.88, 5657633.66], [415488.47, 5657633.2], [415489.14, 5657632.26], [415489.87, 5657631.36], [415490.67, 5657630.51], [415491.53, 5657629.73], [415492.44, 5657629.01], [415493.41, 5657628.37], [415494.41, 5657627.69], [415495.36, 5657627.32]]}}, {"type": "Feature", "properties": {"kind": "retaining_wall", "h": 3.0}, "geometry": {"type": "LineString", "coordinates": [[415504.6, 5657626.48], [415505.77, 5657626.6], [415506.83, 5657626.83], [415507.92, 5657627.25], [415508.97, 5657627.73], [415509.99, 5657628.3], [415510.95, 5657628.94], [415511.87, 5657629.65], [415512.74, 5657630.42], [415519.53, 5657629.39], [415520.12, 5657636.13], [415554.64, 5657633.14], [415554.73, 5657634.08]]}}, {"type": "Feature", "properties": {"kind": "retaining_wall", "h": 3.0}, "geometry": {"type": "LineString", "coordinates": [[415519.78, 5657650.94], [415538.97, 5657648.75]]}}, {"type": "Feature", "properties": {"kind": "retaining_wall", "h": 3.0}, "geometry": {"type": "LineString", "coordinates": [[415520.68, 5657654.59], [415549.92, 5657651.47]]}}, {"type": "Feature", "properties": {"kind": "retaining_wall", "h": 3.0}, "geometry": {"type": "LineString", "coordinates": [[415519.53, 5657629.39], [415535.79, 5657627.57]]}}, {"type": "Feature", "properties": {"kind": "retaining_wall", "h": 3.0}, "geometry": {"type": "LineString", "coordinates": [[415465.89, 5657656.59], [415485.62, 5657654.76]]}}, {"type": "Feature", "properties": {"kind": "retaining_wall", "h": 3.0}, "geometry": {"type": "LineString", "coordinates": [[415464.64, 5657635.03], [415481.88, 5657633.66]]}}, {"type": "Feature", "properties": {"kind": "retaining_wall", "h": 3.0}, "geometry": {"type": "LineString", "coordinates": [[415524.03, 5657626.22], [415557.04, 5657623.13]]}}, {"type": "Feature", "properties": {"kind": "retaining_wall", "h": 3.0}, "geometry": {"type": "LineString", "coordinates": [[415445.15, 5657634.66], [415465.13, 5657632.72], [415476.87, 5657631.55]]}}, {"type": "Feature", "properties": {"kind": "retaining_wall", "h": 3.0}, "geometry": {"type": "LineString", "coordinates": [[415538.91, 5657631.4], [415557.84, 5657629.57], [415558.5, 5657636.28], [415580.66, 5657635.61], [415626.73, 5657627.52], [415633.86, 5657625.9]]}}, {"type": "Feature", "properties": {"kind": "retaining_wall", "h": 3.0}, "geometry": {"type": "LineString", "coordinates": [[415466.34, 5657615.55], [415466.89, 5657618.02], [415475.96, 5657616.14]]}}, {"type": "Feature", "properties": {"kind": "retaining_wall", "h": 3.0}, "geometry": {"type": "LineString", "coordinates": [[415508.86, 5657609.69], [415505.39, 5657610.46], [415492.3, 5657613.26], [415488.59, 5657614.08]]}}, {"type": "Feature", "properties": {"kind": "retaining_wall", "h": 3.0}, "geometry": {"type": "LineString", "coordinates": [[415445.54, 5657650.39], [415445.07, 5657641.22], [415447.16, 5657640.98], [415462.84, 5657639.51]]}}, {"type": "Feature", "properties": {"kind": "retaining_wall", "h": 3.0}, "geometry": {"type": "LineString", "coordinates": [[415443.07, 5657662.55], [415446.57, 5657661.08], [415449.73, 5657660.89], [415466.33, 5657659.89], [415485.24, 5657658.24]]}}, {"type": "Feature", "properties": {"kind": "retaining_wall", "h": 3.0}, "geometry": {"type": "LineString", "coordinates": [[415613.56, 5657645.47], [415630.29, 5657642.18], [415652.75, 5657638.41], [415654.6, 5657637.54], [415655.97, 5657636.04], [415656.67, 5657634.11], [415656.58, 5657632.07], [415655.7, 5657630.22], [415654.19, 5657628.86], [415652.26, 5657628.17], [415650.22, 5657628.26]]}}, {"type": "Feature", "properties": {"kind": "retaining_wall", "h": 3.0}, "geometry": {"type": "LineString", "coordinates": [[415572.08, 5657660.32], [415569.76, 5657660.62], [415567.66, 5657660.89], [415565.51, 5657661.68], [415563.67, 5657663.01], [415562.27, 5657664.81], [415561.43, 5657666.93], [415561.22, 5657669.19], [415561.64, 5657671.42], [415562.67, 5657673.45], [415564.22, 5657675.11], [415566.18, 5657676.28]]}}, {"type": "Feature", "properties": {"kind": "retaining_wall", "h": 3.0}, "geometry": {"type": "LineString", "coordinates": [[415480.53, 5657723.98], [415479.9, 5657712.52], [415479.05, 5657712.49], [415478.23, 5657712.26], [415477.5, 5657711.85], [415476.88, 5657711.25], [415476.42, 5657710.55], [415476.15, 5657709.74], [415476.08, 5657708.9], [415476.22, 5657708.06], [415476.55, 5657707.29], [415477.07, 5657706.61], [415477.72, 5657706.08], [415478.49, 5657705.71], [415479.33, 5657705.55], [415479.01, 5657702.31]]}}, {"type": "Feature", "properties": {"kind": "retaining_wall", "h": 3.0}, "geometry": {"type": "LineString", "coordinates": [[415633.39, 5657646.51], [415615.19, 5657650.14]]}}, {"type": "Feature", "properties": {"kind": "retaining_wall", "h": 3.0}, "geometry": {"type": "LineString", "coordinates": [[415738.94, 5657638.72], [415737.03, 5657634.05]]}}, {"type": "Feature", "properties": {"kind": "wall", "h": 1.5}, "geometry": {"type": "LineString", "coordinates": [[415749.65, 5657620.86], [415750.47, 5657622.52]]}}, {"type": "Feature", "properties": {"kind": "retaining_wall", "h": 3.0}, "geometry": {"type": "LineString", "coordinates": [[415756.68, 5657624.48], [415758.91, 5657628.7]]}}, {"type": "Feature", "properties": {"kind": "wall", "h": 1.5}, "geometry": {"type": "LineString", "coordinates": [[415739.38, 5657628.04], [415738.52, 5657626.32]]}}, {"type": "Feature", "properties": {"kind": "retaining_wall", "h": 3.0}, "geometry": {"type": "LineString", "coordinates": [[415691.28, 5657641.03], [415732.67, 5657620.64], [415733.91, 5657620.04]]}}, {"type": "Feature", "properties": {"kind": "retaining_wall", "h": 3.0}, "geometry": {"type": "LineString", "coordinates": [[415734.67, 5657644.04], [415729.3, 5657633.05], [415739.38, 5657628.04]]}}, {"type": "Feature", "properties": {"kind": "retaining_wall", "h": 3.0}, "geometry": {"type": "LineString", "coordinates": [[415750.47, 5657622.52], [415760.24, 5657617.52], [415764.28, 5657625.34]]}}, {"type": "Feature", "properties": {"kind": "retaining_wall", "h": 3.0}, "geometry": {"type": "LineString", "coordinates": [[415747.16, 5657613.49], [415748.51, 5657612.82], [415789.19, 5657592.93]]}}, {"type": "Feature", "properties": {"kind": "retaining_wall", "h": 3.0}, "geometry": {"type": "LineString", "coordinates": [[415752.66, 5657627.42], [415754.32, 5657626.3], [415753.92, 5657625.52]]}}, {"type": "Feature", "properties": {"kind": "retaining_wall", "h": 3.0}, "geometry": {"type": "LineString", "coordinates": [[415739.69, 5657632.8], [415740.24, 5657633.99], [415741.91, 5657633.25]]}}, {"type": "Feature", "properties": {"kind": "retaining_wall", "h": 3.0}, "geometry": {"type": "LineString", "coordinates": [[415732.67, 5657620.64], [415731.85, 5657618.99], [415730.21, 5657619.8], [415728.45, 5657616.23], [415737.02, 5657612.01]]}}, {"type": "Feature", "properties": {"kind": "retaining_wall", "h": 3.0}, "geometry": {"type": "LineString", "coordinates": [[415648.83, 5657622.76], [415654.01, 5657621.93], [415656.61, 5657622.41], [415659.03, 5657623.47], [415661.14, 5657625.05]]}}, {"type": "Feature", "properties": {"kind": "retaining_wall", "h": 3.0}, "geometry": {"type": "LineString", "coordinates": [[415738.97, 5657611.07], [415748.12, 5657606.59], [415749.96, 5657610.33], [415747.8, 5657611.39], [415748.51, 5657612.82]]}}, {"type": "Feature", "properties": {"kind": "retaining_wall", "h": 3.0}, "geometry": {"type": "LineString", "coordinates": [[415726.45, 5657626.47], [415736.31, 5657621.55], [415735.71, 5657620.35], [415734.91, 5657618.74], [415737.67, 5657617.37], [415740.45, 5657615.98], [415743.28, 5657614.58], [415746.07, 5657613.2], [415746.91, 5657614.89], [415747.54, 5657616.14], [415756.91, 5657611.39]]}}, {"type": "Feature", "properties": {"kind": "wall", "h": 1.5}, "geometry": {"type": "LineString", "coordinates": [[415796.55, 5657597.93], [415799.04, 5657602.0], [415801.22, 5657605.75], [415802.71, 5657608.22], [415807.11, 5657615.84], [415812.42, 5657625.57], [415816.18, 5657634.38], [415826.38, 5657629.87], [415831.95, 5657633.0], [415835.14, 5657634.78], [415859.64, 5657639.59], [415872.03, 5657638.07], [415885.15, 5657633.02], [415893.84, 5657632.69], [415899.9, 5657637.16], [415904.23, 5657644.98], [415949.65, 5657660.54], [415982.95, 5657679.76], [415982.03, 5657682.58], [415982.63, 5657685.39], [415979.71, 5657685.34], [415977.1, 5657686.79], [415976.4, 5657689.71], [415977.67, 5657692.5]]}}, {"type": "Feature", "properties": {"kind": "retaining_wall", "h": 3.0}, "geometry": {"type": "LineString", "coordinates": [[415561.59, 5657681.45], [415564.39, 5657683.15], [415567.52, 5657684.16], [415570.79, 5657684.38], [415574.02, 5657683.83], [415576.51, 5657683.33], [415654.37, 5657667.7], [415654.58, 5657668.67]]}}, {"type": "Feature", "properties": {"kind": "retaining_wall", "h": 3.0}, "geometry": {"type": "LineString", "coordinates": [[415555.11, 5657670.87], [415555.11, 5657667.9], [415555.71, 5657664.98], [415556.91, 5657662.26], [415558.65, 5657659.84], [415560.86, 5657657.84], [415563.43, 5657656.33], [415566.26, 5657655.39], [415571.07, 5657654.45]]}}, {"type": "Feature", "properties": {"kind": "retaining_wall", "h": 3.0}, "geometry": {"type": "LineString", "coordinates": [[415847.34, 5657566.74], [415854.27, 5657563.64], [415855.48, 5657562.26], [415884.56, 5657549.84], [415886.14, 5657547.43], [415888.76, 5657546.0], [415890.66, 5657545.83], [415892.19, 5657546.11], [415893.66, 5657546.82], [415895.37, 5657548.53], [415901.52, 5657565.47]]}}, {"type": "Feature", "properties": {"kind": "retaining_wall", "h": 3.0}, "geometry": {"type": "LineString", "coordinates": [[415801.06, 5657592.28], [415855.27, 5657566.06]]}}, {"type": "Feature", "properties": {"kind": "wall", "h": 1.5}, "geometry": {"type": "LineString", "coordinates": [[414930.33, 5657215.49], [414945.97, 5657209.65], [414947.41, 5657207.72], [414939.77, 5657183.45]]}}, {"type": "Feature", "properties": {"kind": "wall", "h": 1.5}, "geometry": {"type": "LineString", "coordinates": [[414925.38, 5657217.25], [414902.66, 5657225.12], [414892.66, 5657188.27], [414936.9, 5657175.15]]}}, {"type": "Feature", "properties": {"kind": "wall", "h": 1.5}, "geometry": {"type": "LineString", "coordinates": [[415497.06, 5657806.52], [415491.22, 5657739.63], [415506.06, 5657738.13]]}}, {"type": "Feature", "properties": {"kind": "wall", "h": 1.5}, "geometry": {"type": "LineString", "coordinates": [[415538.49, 5657802.18], [415531.8, 5657735.54], [415516.51, 5657737.08]]}}, {"type": "Feature", "properties": {"kind": "wall", "h": 1.5}, "geometry": {"type": "LineString", "coordinates": [[415767.62, 5657525.81], [415793.15, 5657591.05]]}}, {"type": "Feature", "properties": {"kind": "retaining_wall", "h": 3.0}, "geometry": {"type": "LineString", "coordinates": [[415397.56, 5657730.91], [415394.77, 5657721.47], [415392.99, 5657715.47], [415417.17, 5657708.32]]}}, {"type": "Feature", "properties": {"kind": "retaining_wall", "h": 3.0}, "geometry": {"type": "LineString", "coordinates": [[415365.55, 5657737.44], [415367.78, 5657737.0], [415389.74, 5657732.68], [415390.24, 5657732.58]]}}, {"type": "Feature", "properties": {"kind": "wall", "h": 1.5}, "geometry": {"type": "LineString", "coordinates": [[415396.5, 5657754.11], [415399.43, 5657753.49]]}}, {"type": "Feature", "properties": {"kind": "retaining_wall", "h": 3.0}, "geometry": {"type": "LineString", "coordinates": [[415366.8, 5657744.73], [415368.65, 5657753.49], [415354.22, 5657756.58]]}}, {"type": "Feature", "properties": {"kind": "wall", "h": 1.5}, "geometry": {"type": "LineString", "coordinates": [[415369.19, 5657756.04], [415368.65, 5657753.49], [415369.34, 5657753.35], [415370.97, 5657752.99]]}}, {"type": "Feature", "properties": {"kind": "wall", "h": 1.5}, "geometry": {"type": "LineString", "coordinates": [[415800.88, 5657785.18], [415811.13, 5657831.78]]}}, {"type": "Feature", "properties": {"kind": "wall", "h": 1.5}, "geometry": {"type": "LineString", "coordinates": [[415955.58, 5657824.83], [415857.91, 5657829.53]]}}, {"type": "Feature", "properties": {"kind": "wall", "h": 1.5}, "geometry": {"type": "LineString", "coordinates": [[415968.69, 5657825.5], [415991.1, 5657826.55]]}}, {"type": "Feature", "properties": {"kind": "wall", "h": 1.5}, "geometry": {"type": "LineString", "coordinates": [[415991.1, 5657826.55], [415982.66, 5657761.9]]}}, {"type": "Feature", "properties": {"kind": "wall", "h": 1.5}, "geometry": {"type": "LineString", "coordinates": [[415852.61, 5657829.79], [415812.89, 5657831.7], [415811.13, 5657831.78]]}}, {"type": "Feature", "properties": {"kind": "retaining_wall", "h": 3.0}, "geometry": {"type": "LineString", "coordinates": [[414469.23, 5658000.0], [414471.39, 5657998.33], [414485.17, 5657988.61], [414485.73, 5657989.6]]}}, {"type": "Feature", "properties": {"kind": "wall", "h": 1.5}, "geometry": {"type": "LineString", "coordinates": [[414811.84, 5657994.53], [414812.66, 5657992.98], [414846.21, 5657990.0], [414879.98, 5657987.52], [414886.27, 5657987.09], [414903.2, 5657996.56], [414904.78, 5658000.0]]}}, {"type": "Feature", "properties": {"kind": "retaining_wall", "h": 3.0}, "geometry": {"type": "LineString", "coordinates": [[415954.81, 5656294.87], [415959.3, 5656297.92], [415960.99, 5656298.78], [415963.67, 5656298.9], [415965.46, 5656296.99], [415968.52, 5656299.76], [415966.14, 5656302.17], [415961.75, 5656302.87], [415957.86, 5656301.64], [415953.22, 5656298.35]]}}, {"type": "Feature", "properties": {"kind": "wall", "h": 1.5}, "geometry": {"type": "LineString", "coordinates": [[414320.51, 5657998.43], [414338.44, 5657993.38], [414352.14, 5657990.02], [414371.5, 5657985.57]]}}, {"type": "Feature", "properties": {"kind": "wall", "h": 1.5}, "geometry": {"type": "LineString", "coordinates": [[414375.86, 5657984.96], [414395.24, 5657982.2], [414407.53, 5657980.51], [414418.47, 5657978.33], [414427.91, 5657976.89]]}}, {"type": "Feature", "properties": {"kind": "wall", "h": 1.5}, "geometry": {"type": "LineString", "coordinates": [[414312.05, 5656537.63], [414298.62, 5656620.81], [414290.11, 5656686.5], [414288.16, 5656701.55], [414270.58, 5656698.56], [414267.47, 5656698.03], [414211.47, 5656695.55], [414220.54, 5656596.35]]}}, {"type": "Feature", "properties": {"kind": "wall", "h": 1.5}, "geometry": {"type": "LineString", "coordinates": [[414227.64, 5656525.59], [414270.14, 5656531.64], [414312.05, 5656537.63]]}}, {"type": "Feature", "properties": {"kind": "retaining_wall", "h": 3.0}, "geometry": {"type": "LineString", "coordinates": [[414147.24, 5656851.94], [414146.96, 5656860.82], [414124.7, 5656860.09]]}}, {"type": "Feature", "properties": {"kind": "retaining_wall", "h": 3.0}, "geometry": {"type": "LineString", "coordinates": [[414124.24, 5656868.91], [414175.58, 5656870.63], [414176.0, 5656858.84], [414200.14, 5656859.74], [414254.36, 5656861.77], [414256.39, 5656863.59], [414289.85, 5656864.57]]}}, {"type": "Feature", "properties": {"kind": "wall", "h": 1.5}, "geometry": {"type": "LineString", "coordinates": [[414865.7, 5657119.04], [414868.46, 5657093.59], [414870.22, 5657077.49], [414863.34, 5657069.84], [414860.71, 5657050.17], [414859.37, 5657040.16], [414856.96, 5657021.89], [414855.81, 5656994.82], [414854.72, 5656967.87], [414853.83, 5656940.66], [414852.78, 5656913.24], [414852.53, 5656904.96], [414852.37, 5656899.26], [414852.22, 5656894.26], [414851.62, 5656874.11], [414850.71, 5656853.94], [414850.56, 5656848.13], [414851.77, 5656848.15], [414860.37, 5656848.55]]}}, {"type": "Feature", "properties": {"kind": "retaining_wall", "h": 3.0}, "geometry": {"type": "LineString", "coordinates": [[414450.47, 5656686.46], [414450.21, 5656692.3]]}}, {"type": "Feature", "properties": {"kind": "retaining_wall", "h": 3.0}, "geometry": {"type": "LineString", "coordinates": [[414464.68, 5656681.18], [414464.72, 5656680.53], [414457.19, 5656680.15]]}}, {"type": "Feature", "properties": {"kind": "retaining_wall", "h": 3.0}, "geometry": {"type": "LineString", "coordinates": [[414457.3, 5656676.81], [414472.49, 5656677.66], [414472.25, 5656681.6]]}}, {"type": "Feature", "properties": {"kind": "retaining_wall", "h": 3.0}, "geometry": {"type": "LineString", "coordinates": [[414448.32, 5656726.66], [414444.37, 5656726.51], [414446.44, 5656692.39], [414447.19, 5656690.92], [414447.37, 5656686.43]]}}, {"type": "Feature", "properties": {"kind": "wall", "h": 1.5}, "geometry": {"type": "LineString", "coordinates": [[415751.17, 5656001.86], [415753.36, 5656005.11], [415749.99, 5656007.35]]}}, {"type": "Feature", "properties": {"kind": "retaining_wall", "h": 3.0}, "geometry": {"type": "LineString", "coordinates": [[415668.74, 5657595.73], [415716.54, 5657572.89]]}}, {"type": "Feature", "properties": {"kind": "retaining_wall", "h": 3.0}, "geometry": {"type": "LineString", "coordinates": [[415673.68, 5657611.82], [415723.41, 5657587.48]]}}, {"type": "Feature", "properties": {"kind": "retaining_wall", "h": 3.0}, "geometry": {"type": "LineString", "coordinates": [[415680.46, 5657627.27], [415730.78, 5657602.31]]}}, {"type": "Feature", "properties": {"kind": "retaining_wall", "h": 3.0}, "geometry": {"type": "LineString", "coordinates": [[415734.56, 5657600.42], [415785.9, 5657574.54]]}}, {"type": "Feature", "properties": {"kind": "retaining_wall", "h": 3.0}, "geometry": {"type": "LineString", "coordinates": [[415726.95, 5657586.33], [415779.7, 5657560.48]]}}, {"type": "Feature", "properties": {"kind": "retaining_wall", "h": 3.0}, "geometry": {"type": "LineString", "coordinates": [[415719.22, 5657571.99], [415773.93, 5657546.25]]}}, {"type": "Feature", "properties": {"kind": "retaining_wall", "h": 3.0}, "geometry": {"type": "LineString", "coordinates": [[415656.91, 5657572.3], [415660.36, 5657572.01], [415663.12, 5657570.62], [415664.37, 5657568.73], [415670.05, 5657566.76]]}}, {"type": "Feature", "properties": {"kind": "retaining_wall", "h": 3.0}, "geometry": {"type": "LineString", "coordinates": [[415741.02, 5657542.25], [415746.98, 5657542.91], [415754.63, 5657542.14], [415761.17, 5657539.34], [415763.57, 5657540.72], [415766.05, 5657540.65], [415768.34, 5657539.55], [415769.77, 5657537.24]]}}, {"type": "Feature", "properties": {"kind": "wall", "h": 1.5}, "geometry": {"type": "LineString", "coordinates": [[414070.62, 5656746.95], [414081.06, 5656747.35], [414099.35, 5656748.03], [414110.57, 5656748.46]]}}, {"type": "Feature", "properties": {"kind": "wall", "h": 1.5}, "geometry": {"type": "LineString", "coordinates": [[414804.5, 5657994.99], [414802.77, 5657993.87], [414757.57, 5657996.91]]}}, {"type": "Feature", "properties": {"kind": "wall", "h": 1.5}, "geometry": {"type": "LineString", "coordinates": [[414528.86, 5656567.12], [414535.41, 5656567.94], [414572.64, 5656572.67]]}}, {"type": "Feature", "properties": {"kind": "wall", "h": 1.5}, "geometry": {"type": "LineString", "coordinates": [[414522.1, 5656566.22], [414363.68, 5656545.04], [414360.93, 5656547.25], [414356.01, 5656662.73]]}}, {"type": "Feature", "properties": {"kind": "wall", "h": 1.5}, "geometry": {"type": "LineString", "coordinates": [[414343.13, 5656872.95], [414348.3, 5656793.38], [414350.84, 5656749.86]]}}, {"type": "Feature", "properties": {"kind": "wall", "h": 1.5}, "geometry": {"type": "LineString", "coordinates": [[414342.57, 5656879.25], [414338.58, 5656940.17], [414347.51, 5656940.75], [414347.35, 5656943.68]]}}, {"type": "Feature", "properties": {"kind": "wall", "h": 1.5}, "geometry": {"type": "LineString", "coordinates": [[414071.28, 5656961.88], [414073.62, 5656953.19], [414077.23, 5656954.97], [414079.45, 5656944.86], [414069.52, 5656941.57], [414052.24, 5656935.62]]}}, {"type": "Feature", "properties": {"kind": "wall", "h": 1.5}, "geometry": {"type": "LineString", "coordinates": [[414359.11, 5656501.65], [414392.36, 5656498.56], [414402.04, 5656497.65], [414435.83, 5656502.57]]}}, {"type": "Feature", "properties": {"kind": "retaining_wall", "h": 3.0}, "geometry": {"type": "LineString", "coordinates": [[414609.56, 5657010.29], [414609.18, 5657016.77], [414601.32, 5657016.7], [414601.16, 5657018.68]]}}, {"type": "Feature", "properties": {"kind": "embankment", "h": 2.5}, "geometry": {"type": "LineString", "coordinates": [[414667.76, 5657021.97], [414668.07, 5657016.21], [414667.82, 5657015.23], [414667.09, 5657014.3], [414664.27, 5657013.77]]}}, {"type": "Feature", "properties": {"kind": "embankment", "h": 2.5}, "geometry": {"type": "LineString", "coordinates": [[414653.97, 5657013.42], [414651.36, 5657013.3], [414649.98, 5657014.19], [414648.98, 5657015.66], [414648.84, 5657021.05]]}}, {"type": "Feature", "properties": {"kind": "retaining_wall", "h": 3.0}, "geometry": {"type": "LineString", "coordinates": [[415993.45, 5657421.75], [416000.0, 5657418.91]]}}, {"type": "Feature", "properties": {"kind": "retaining_wall", "h": 3.0}, "geometry": {"type": "LineString", "coordinates": [[415999.17, 5657430.82], [416000.0, 5657430.36]]}}, {"type": "Feature", "properties": {"kind": "retaining_wall", "h": 3.0}, "geometry": {"type": "LineString", "coordinates": [[414493.07, 5656886.78], [414491.33, 5656891.36]]}}, {"type": "Feature", "properties": {"kind": "retaining_wall", "h": 3.0}, "geometry": {"type": "LineString", "coordinates": [[414477.53, 5656897.16], [414480.33, 5656890.73], [414482.27, 5656886.26]]}}, {"type": "Feature", "properties": {"kind": "wall", "h": 1.5}, "geometry": {"type": "LineString", "coordinates": [[414604.15, 5656507.63], [414606.4, 5656492.72], [414609.58, 5656471.61], [414610.55, 5656467.86], [414613.47, 5656465.79], [414663.81, 5656473.83], [414659.62, 5656500.66], [414657.83, 5656512.18]]}}, {"type": "Feature", "properties": {"kind": "wall", "h": 1.5}, "geometry": {"type": "LineString", "coordinates": [[414655.28, 5656550.94], [414658.29, 5656551.42], [414662.29, 5656552.05], [414666.93, 5656552.78]]}}, {"type": "Feature", "properties": {"kind": "retaining_wall", "h": 3.0}, "geometry": {"type": "LineString", "coordinates": [[414407.37, 5656883.9], [414473.61, 5656886.97], [414474.92, 5656883.88]]}}, {"type": "Feature", "properties": {"kind": "wall", "h": 1.5}, "geometry": {"type": "LineString", "coordinates": [[415498.37, 5656867.46], [415518.35, 5656943.53], [415410.01, 5656970.87], [415383.47, 5656977.57], [415380.88, 5656977.1], [415379.19, 5656974.64], [415362.01, 5656912.61], [415410.93, 5656891.25], [415426.3, 5656885.41], [415498.37, 5656867.46]]}}, {"type": "Feature", "properties": {"kind": "wall", "h": 1.5}, "geometry": {"type": "LineString", "coordinates": [[415803.7, 5656720.04], [415812.03, 5656713.33]]}}, {"type": "Feature", "properties": {"kind": "wall", "h": 1.5}, "geometry": {"type": "LineString", "coordinates": [[415819.37, 5656707.85], [415815.91, 5656710.43]]}}, {"type": "Feature", "properties": {"kind": "wall", "h": 1.5}, "geometry": {"type": "LineString", "coordinates": [[414001.49, 5658000.0], [414007.87, 5657977.5]]}}, {"type": "Feature", "properties": {"kind": "wall", "h": 1.5}, "geometry": {"type": "LineString", "coordinates": [[414030.44, 5657983.68], [414028.81, 5657989.94]]}}, {"type": "Feature", "properties": {"kind": "wall", "h": 1.5}, "geometry": {"type": "LineString", "coordinates": [[414033.71, 5657990.7], [414035.45, 5657985.14]]}}, {"type": "Feature", "properties": {"kind": "wall", "h": 1.5}, "geometry": {"type": "LineString", "coordinates": [[414050.65, 5657989.21], [414054.57, 5657990.35], [414053.41, 5657994.58], [414051.91, 5658000.0]]}}, {"type": "Feature", "properties": {"kind": "wall", "h": 1.5}, "geometry": {"type": "LineString", "coordinates": [[414060.33, 5657991.99], [414059.08, 5657996.33]]}}, {"type": "Feature", "properties": {"kind": "wall", "h": 1.5}, "geometry": {"type": "LineString", "coordinates": [[414078.46, 5657997.13], [414077.7, 5658000.0]]}}, {"type": "Feature", "properties": {"kind": "wall", "h": 1.5}, "geometry": {"type": "LineString", "coordinates": [[414078.46, 5657997.13], [414082.26, 5657998.18], [414088.81, 5658000.0]]}}, {"type": "Feature", "properties": {"kind": "retaining_wall", "h": 3.0}, "geometry": {"type": "LineString", "coordinates": [[414493.58, 5657953.77], [414509.81, 5657945.05], [414511.4, 5657943.86], [414512.12, 5657942.3], [414511.98, 5657940.88], [414511.09, 5657939.96], [414509.98, 5657940.17]]}}, {"type": "Feature", "properties": {"kind": "retaining_wall", "h": 3.0}, "geometry": {"type": "LineString", "coordinates": [[414471.88, 5657968.63], [414479.56, 5657964.78], [414487.25, 5657960.83], [414489.82, 5657959.64], [414498.33, 5657955.7], [414502.62, 5657953.96], [414504.37, 5657953.25], [414522.43, 5657947.19], [414544.7, 5657940.27], [414545.32, 5657940.18], [414563.6, 5657937.72], [414567.66, 5657937.16], [414574.97, 5657936.92], [414577.35, 5657937.14], [414589.56, 5657938.23], [414598.84, 5657940.05]]}}, {"type": "Feature", "properties": {"kind": "retaining_wall", "h": 3.0}, "geometry": {"type": "LineString", "coordinates": [[414498.33, 5657955.7], [414501.45, 5657952.99], [414506.68, 5657950.61], [414516.72, 5657946.61], [414522.51, 5657944.47]]}}, {"type": "Feature", "properties": {"kind": "retaining_wall", "h": 3.0}, "geometry": {"type": "LineString", "coordinates": [[414463.33, 5657938.43], [414466.28, 5657936.37], [414470.72, 5657934.7], [414470.43, 5657933.96], [414474.34, 5657932.3], [414474.54, 5657932.81], [414474.68, 5657932.75], [414478.09, 5657931.4], [414481.09, 5657930.78], [414481.38, 5657931.43], [414485.49, 5657929.68]]}}, {"type": "Feature", "properties": {"kind": "retaining_wall", "h": 3.0}, "geometry": {"type": "LineString", "coordinates": [[414490.2, 5657941.97], [414507.98, 5657934.69]]}}, {"type": "Feature", "properties": {"kind": "wall", "h": 1.5}, "geometry": {"type": "LineString", "coordinates": [[414435.25, 5657884.04], [414459.7, 5657939.64], [414466.2, 5657953.71], [414465.37, 5657955.35], [414469.4, 5657962.93]]}}, {"type": "Feature", "properties": {"kind": "retaining_wall", "h": 3.0}, "geometry": {"type": "LineString", "coordinates": [[414444.61, 5657897.82], [414470.99, 5657888.1], [414498.81, 5657878.03]]}}, {"type": "Feature", "properties": {"kind": "wall", "h": 1.5}, "geometry": {"type": "LineString", "coordinates": [[414518.85, 5657935.14], [414517.01, 5657928.89], [414496.06, 5657861.23]]}}, {"type": "Feature", "properties": {"kind": "retaining_wall", "h": 3.0}, "geometry": {"type": "LineString", "coordinates": [[414559.66, 5657919.12], [414567.99, 5657918.08]]}}, {"type": "Feature", "properties": {"kind": "wall", "h": 1.5}, "geometry": {"type": "LineString", "coordinates": [[414567.66, 5657937.16], [414567.99, 5657918.08], [414568.53, 5657891.63], [414559.97, 5657837.27]]}}, {"type": "Feature", "properties": {"kind": "wall", "h": 1.5}, "geometry": {"type": "LineString", "coordinates": [[414598.84, 5657940.05], [414599.36, 5657938.83], [414607.78, 5657941.02], [414624.75, 5657945.43], [414634.95, 5657948.16], [414639.55, 5657949.4], [414641.17, 5657949.83], [414648.26, 5657951.72], [414652.2, 5657952.81]]}}, {"type": "Feature", "properties": {"kind": "retaining_wall", "h": 3.0}, "geometry": {"type": "LineString", "coordinates": [[414617.21, 5657897.6], [414620.54, 5657898.62], [414643.96, 5657905.77], [414647.15, 5657908.0], [414654.0, 5657912.79], [414653.21, 5657914.76], [414654.13, 5657916.06], [414655.94, 5657916.67], [414659.78, 5657918.87], [414662.47, 5657920.4], [414661.22, 5657923.89], [414660.32, 5657926.4], [414658.01, 5657932.88], [414654.99, 5657943.05], [414652.2, 5657952.81]]}}, {"type": "Feature", "properties": {"kind": "retaining_wall", "h": 3.0}, "geometry": {"type": "LineString", "coordinates": [[414632.25, 5657897.13], [414645.16, 5657903.17]]}}, {"type": "Feature", "properties": {"kind": "retaining_wall", "h": 3.0}, "geometry": {"type": "LineString", "coordinates": [[414586.01, 5657892.49], [414595.49, 5657891.52]]}}, {"type": "Feature", "properties": {"kind": "wall", "h": 1.5}, "geometry": {"type": "LineString", "coordinates": [[414644.37, 5657904.32], [414645.16, 5657903.17]]}}, {"type": "Feature", "properties": {"kind": "wall", "h": 1.5}, "geometry": {"type": "LineString", "coordinates": [[414646.52, 5657899.56], [414650.07, 5657888.89], [414658.71, 5657885.36]]}}, {"type": "Feature", "properties": {"kind": "wall", "h": 1.5}, "geometry": {"type": "LineString", "coordinates": [[414683.98, 5657960.46], [414686.87, 5657960.81], [414689.47, 5657961.12]]}}, {"type": "Feature", "properties": {"kind": "wall", "h": 1.5}, "geometry": {"type": "LineString", "coordinates": [[414678.49, 5657958.01], [414679.4, 5657958.03]]}}, {"type": "Feature", "properties": {"kind": "retaining_wall", "h": 3.0}, "geometry": {"type": "LineString", "coordinates": [[414680.52, 5657944.2], [414698.88, 5657944.37]]}}, {"type": "Feature", "properties": {"kind": "retaining_wall", "h": 3.0}, "geometry": {"type": "LineString", "coordinates": [[414698.88, 5657944.37], [414698.94, 5657949.52]]}}, {"type": "Feature", "properties": {"kind": "wall", "h": 1.5}, "geometry": {"type": "LineString", "coordinates": [[415534.94, 5656005.28], [415538.1, 5656006.45], [415540.14, 5656007.22]]}}, {"type": "Feature", "properties": {"kind": "wall", "h": 1.5}, "geometry": {"type": "LineString", "coordinates": [[415561.54, 5656015.18], [415567.09, 5656017.24]]}}, {"type": "Feature", "properties": {"kind": "wall", "h": 1.5}, "geometry": {"type": "LineString", "coordinates": [[415615.33, 5656035.26], [415617.42, 5656035.98], [415618.74, 5656036.47]]}}, {"type": "Feature", "properties": {"kind": "wall", "h": 1.5}, "geometry": {"type": "LineString", "coordinates": [[415736.98, 5656033.67], [415735.57, 5656031.62], [415712.47, 5656046.85]]}}, {"type": "Feature", "properties": {"kind": "wall", "h": 1.5}, "geometry": {"type": "LineString", "coordinates": [[415695.2, 5656058.24], [415692.39, 5656060.09], [415694.34, 5656062.8]]}}, {"type": "Feature", "properties": {"kind": "wall", "h": 1.5}, "geometry": {"type": "LineString", "coordinates": [[415729.0, 5656079.79], [415735.45, 5656081.73]]}}, {"type": "Feature", "properties": {"kind": "wall", "h": 1.5}, "geometry": {"type": "LineString", "coordinates": [[415349.28, 5656915.99], [415352.09, 5656915.56], [415357.75, 5656938.85], [415367.84, 5656977.48], [415367.89, 5656979.03], [415367.45, 5656980.23], [415365.83, 5656981.56], [415315.28, 5656994.34], [415295.3, 5656999.51]]}}, {"type": "Feature", "properties": {"kind": "wall", "h": 1.5}, "geometry": {"type": "LineString", "coordinates": [[414767.08, 5656908.45], [414763.8, 5656908.3], [414764.16, 5656900.14], [414767.11, 5656900.27]]}}]}