{"type": "FeatureCollection", "attribution": "\u00a9 OpenStreetMap contributors (ODbL)", "crs": {"type": "name", "properties": {"name": "urn:ogc:def:crs:EPSG::25833"}}, "features": [{"type": "Feature", "properties": {"kind": "wall", "h": 3.0}, "geometry": {"type": "LineString", "coordinates": [[412887.78, 5654020.43], [412887.47, 5654021.69], [412887.75, 5654025.67], [412890.83, 5654028.31], [412893.9, 5654028.1], [412895.08, 5654027.43]]}}, {"type": "Feature", "properties": {"kind": "wall", "h": 1.5}, "geometry": {"type": "LineString", "coordinates": [[412000.88, 5655760.3], [412002.49, 5655759.3], [412035.43, 5655738.98], [412067.22, 5655719.38]]}}, {"type": "Feature", "properties": {"kind": "wall", "h": 1.5}, "geometry": {"type": "LineString", "coordinates": [[412049.7, 5654834.65], [412042.59, 5654816.53], [412000.0, 5654832.63]]}}, {"type": "Feature", "properties": {"kind": "wall", "h": 1.5}, "geometry": {"type": "LineString", "coordinates": [[412040.61, 5654676.88], [412032.29, 5654661.74], [412019.6, 5654638.63]]}}, {"type": "Feature", "properties": {"kind": "wall", "h": 1.5}, "geometry": {"type": "LineString", "coordinates": [[412017.71, 5655229.16], [412031.04, 5655269.07], [412041.56, 5655265.61]]}}, {"type": "Feature", "properties": {"kind": "retaining_wall", "h": 3.0}, "geometry": {"type": "LineString", "coordinates": [[412370.98, 5654016.55], [412368.8, 5654029.62], [412367.32, 5654040.45]]}}, {"type": "Feature", "properties": {"kind": "wall", "h": 1.5}, "geometry": {"type": "LineString", "coordinates": [[412138.88, 5655675.19], [412139.22, 5655675.74], [412141.05, 5655678.73], [412142.52, 5655681.12], [412144.02, 5655683.56], [412145.72, 5655686.34], [412147.33, 5655688.97], [412148.98, 5655691.66], [412149.52, 5655692.54], [412151.4, 5655695.74]]}}, {"type": "Feature", "properties": {"kind": "wall", "h": 1.5}, "geometry": {"type": "LineString", "coordinates": [[412149.52, 5655692.54], [412099.99, 5655723.02], [412081.32, 5655734.52]]}}, {"type": "Feature", "properties": {"kind": "wall", "h": 1.5}, "geometry": {"type": "LineString", "coordinates": [[412078.36, 5655738.48], [412077.4, 5655736.83]]}}, {"type": "Feature", "properties": {"kind": "wall", "h": 1.5}, "geometry": {"type": "LineString", "coordinates": [[412081.32, 5655734.52], [412082.1, 5655736.01]]}}, {"type": "Feature", "properties": {"kind": "wall", "h": 1.5}, "geometry": {"type": "LineString", "coordinates": [[412077.4, 5655736.83], [412047.28, 5655755.55], [412013.35, 5655776.64], [412011.79, 5655777.62]]}}, {"type": "Feature", "properties": {"kind": "wall", "h": 1.5}, "geometry": {"type": "LineString", "coordinates": [[412070.46, 5655717.37], [412089.88, 5655705.4], [412114.57, 5655690.17], [412138.88, 5655675.19]]}}, {"type": "Feature", "properties": {"kind": "wall", "h": 1.5}, "geometry": {"type": "LineString", "coordinates": [[412206.03, 5655496.26], [412195.96, 5655481.41], [412200.93, 5655478.42]]}}, {"type": "Feature", "properties": {"kind": "wall", "h": 1.5}, "geometry": {"type": "LineString", "coordinates": [[412167.04, 5655436.85], [412176.35, 5655451.61], [412181.08, 5655448.8]]}}, {"type": "Feature", "properties": {"kind": "retaining_wall", "h": 3.0}, "geometry": {"type": "LineString", "coordinates": [[412248.92, 5655734.85], [412209.23, 5655721.42], [412198.55, 5655727.66]]}}, {"type": "Feature", "properties": {"kind": "retaining_wall", "h": 3.0}, "geometry": {"type": "LineString", "coordinates": [[412055.8, 5655917.08], [412053.24, 5655912.6], [412054.74, 5655911.93], [412057.48, 5655910.35], [412082.98, 5655895.62], [412102.26, 5655884.29], [412144.21, 5655859.65], [412145.51, 5655858.88], [412146.6, 5655858.25], [412202.76, 5655825.73], [412216.03, 5655818.05]]}}, {"type": "Feature", "properties": {"kind": "wall", "h": 1.0}, "geometry": {"type": "LineString", "coordinates": [[413962.07, 5655379.14], [413959.97, 5655380.47], [413943.02, 5655352.79], [413941.47, 5655350.26], [413953.05, 5655320.89], [413955.72, 5655321.93]]}}, {"type": "Feature", "properties": {"kind": "wall", "h": 1.5}, "geometry": {"type": "LineString", "coordinates": [[413081.52, 5654000.0], [412998.6, 5654044.56], [412955.22, 5654068.04], [412942.97, 5654074.32], [412923.93, 5654084.66], [412876.24, 5654110.77]]}}, {"type": "Feature", "properties": {"kind": "wall", "h": 1.5}, "geometry": {"type": "LineString", "coordinates": [[412680.93, 5654215.59], [412730.04, 5654188.35], [412779.34, 5654161.07]]}}, {"type": "Feature", "properties": {"kind": "wall", "h": 1.5}, "geometry": {"type": "LineString", "coordinates": [[412322.87, 5655272.05], [412322.57, 5655271.58], [412322.38, 5655270.92], [412322.22, 5655270.18], [412322.11, 5655269.34], [412322.15, 5655268.59], [412322.32, 5655267.64], [412322.73, 5655266.79], [412323.37, 5655265.76], [412324.02, 5655264.99], [412324.76, 5655264.42], [412325.36, 5655264.12], [412326.02, 5655263.88], [412326.91, 5655263.73], [412327.99, 5655263.76], [412328.98, 5655263.87], [412329.78, 5655264.19], [412330.31, 5655264.69]]}}, {"type": "Feature", "properties": {"kind": "wall", "h": 1.5}, "geometry": {"type": "LineString", "coordinates": [[412325.85, 5655270.69], [412325.23, 5655270.18], [412324.9, 5655269.67], [412324.79, 5655269.1], [412324.92, 5655268.49], [412325.24, 5655267.83], [412325.7, 5655267.4], [412326.35, 5655266.96], [412326.96, 5655266.78], [412327.61, 5655266.66], [412328.47, 5655266.84], [412329.18, 5655267.02], [412329.84, 5655267.52], [412330.04, 5655267.98], [412330.29, 5655268.69], [412330.44, 5655269.48], [412330.4, 5655270.04], [412330.27, 5655270.61], [412329.95, 5655271.03], [412329.29, 5655271.23]]}}, {"type": "Feature", "properties": {"kind": "wall", "h": 1.5}, "geometry": {"type": "LineString", "coordinates": [[413092.35, 5654209.37], [413124.02, 5654191.79], [413124.96, 5654193.19]]}}, {"type": "Feature", "properties": {"kind": "embankment", "h": 2.5}, "geometry": {"type": "LineString", "coordinates": [[412608.31, 5655946.98], [412614.22, 5655944.93], [412619.72, 5655962.87], [412603.43, 5655968.5], [412597.85, 5655950.78], [412602.07, 5655949.33]]}}, {"type": "Feature", "properties": {"kind": "wall", "h": 19.0}, "geometry": {"type": "LineString", "coordinates": [[412715.74, 5655502.69], [412712.88, 5655502.97]]}}, {"type": "Feature", "properties": {"kind": "wall", "h": 19.0}, "geometry": {"type": "LineString", "coordinates": [[412712.88, 5655502.97], [412710.3, 5655504.15], [412708.05, 5655506.06], [412705.69, 5655508.95], [412704.34, 5655512.44], [412704.3, 5655515.83], [412705.37, 5655518.24], [412707.19, 5655520.09], [412709.76, 5655522.02], [412712.98, 5655523.37], [412715.44, 5655523.98]]}}, {"type": "Feature", "properties": {"kind": "wall", "h": 19.0}, "geometry": {"type": "LineString", "coordinates": [[412715.44, 5655523.98], [412718.55, 5655524.31], [412722.91, 5655524.1]]}}, {"type": "Feature", "properties": {"kind": "wall", "h": 2.0}, "geometry": {"type": "LineString", "coordinates": [[412915.86, 5655507.89], [412923.79, 5655502.89], [412929.58, 5655512.14], [412922.04, 5655517.05]]}}, {"type": "Feature", "properties": {"kind": "wall", "h": 1.5}, "geometry": {"type": "LineString", "coordinates": [[412845.21, 5654127.54], [412833.48, 5654110.35]]}}, {"type": "Feature", "properties": {"kind": "wall", "h": 1.5}, "geometry": {"type": "LineString", "coordinates": [[412838.52, 5654107.62], [412801.9, 5654019.49]]}}, {"type": "Feature", "properties": {"kind": "wall", "h": 1.5}, "geometry": {"type": "LineString", "coordinates": [[412577.37, 5654056.66], [412573.88, 5654054.18], [412552.11, 5654082.41]]}}, {"type": "Feature", "properties": {"kind": "retaining_wall", "h": 3.0}, "geometry": {"type": "LineString", "coordinates": [[412497.61, 5654024.3], [412478.3, 5654013.97], [412472.6, 5654016.83]]}}, {"type": "Feature", "properties": {"kind": "wall", "h": 1.0}, "geometry": {"type": "LineString", "coordinates": [[413490.01, 5655583.87], [413489.94, 5655573.58]]}}, {"type": "Feature", "properties": {"kind": "retaining_wall", "h": 3.0}, "geometry": {"type": "LineString", "coordinates": [[413180.47, 5655697.11], [413170.04, 5655699.48], [413167.33, 5655701.03], [413165.33, 5655703.52], [413164.04, 5655706.54], [413164.03, 5655709.55], [413165.43, 5655715.73], [413164.72, 5655716.89], [413164.27, 5655717.61], [413164.12, 5655717.84], [413165.81, 5655725.42]]}}, {"type": "Feature", "properties": {"kind": "retaining_wall", "h": 3.0}, "geometry": {"type": "LineString", "coordinates": [[412294.21, 5654447.5], [412281.6, 5654454.55], [412278.48, 5654456.22], [412247.7, 5654472.88], [412240.12, 5654476.98], [412241.2, 5654478.97], [412237.22, 5654481.12], [412236.14, 5654479.13], [412231.8, 5654481.48], [412228.74, 5654483.11], [412181.91, 5654508.41], [412178.82, 5654510.1], [412132.02, 5654535.38], [412129.01, 5654537.0], [412082.2, 5654562.29], [412079.1, 5654563.99], [412032.42, 5654589.21], [412029.23, 5654590.81], [412015.65, 5654598.14], [412012.65, 5654599.83], [412002.08, 5654605.55], [412002.02, 5654605.88], [412000.0, 5654606.97]]}}, {"type": "Feature", "properties": {"kind": "retaining_wall", "h": 3.0}, "geometry": {"type": "LineString", "coordinates": [[412000.0, 5654584.3], [412003.28, 5654582.52], [412006.62, 5654580.73], [412019.86, 5654573.67], [412023.24, 5654571.86], [412069.74, 5654546.7], [412073.1, 5654544.94], [412119.48, 5654519.84], [412122.97, 5654517.99], [412169.42, 5654492.84], [412172.76, 5654491.08], [412219.25, 5654466.04], [412222.59, 5654464.31], [412227.02, 5654461.93], [412225.39, 5654458.91], [412228.51, 5654457.22], [412230.14, 5654460.24], [412269.27, 5654439.11], [412272.51, 5654437.23], [412288.55, 5654428.5], [412290.64, 5654429.06]]}}, {"type": "Feature", "properties": {"kind": "wall", "h": 1.5}, "geometry": {"type": "LineString", "coordinates": [[412748.48, 5655878.8], [412747.12, 5655875.61], [412747.31, 5655872.23], [412747.39, 5655871.2], [412747.46, 5655870.28], [412744.87, 5655870.13], [412744.63, 5655866.66], [412745.72, 5655862.38], [412747.54, 5655859.87], [412749.41, 5655859.75]]}}, {"type": "Feature", "properties": {"kind": "wall", "h": 0.5}, "geometry": {"type": "LineString", "coordinates": [[412901.52, 5655653.63], [412901.13, 5655654.22], [412900.01, 5655655.79], [412898.94, 5655657.27], [412897.6, 5655663.62], [412899.77, 5655670.03]]}}, {"type": "Feature", "properties": {"kind": "wall", "h": 0.5}, "geometry": {"type": "LineString", "coordinates": [[412872.46, 5655655.03], [412873.0, 5655657.35], [412873.43, 5655658.54], [412873.8, 5655659.57], [412874.8, 5655662.32], [412877.54, 5655666.54], [412880.06, 5655668.8], [412884.96, 5655671.66], [412888.67, 5655672.51], [412891.08, 5655672.74], [412898.18, 5655671.09], [412899.77, 5655670.03], [412903.55, 5655667.54], [412907.75, 5655661.56], [412909.16, 5655658.11]]}}, {"type": "Feature", "properties": {"kind": "wall", "h": 0.5}, "geometry": {"type": "LineString", "coordinates": [[412879.33, 5655650.2], [412880.47, 5655652.2], [412881.45, 5655653.89], [412881.84, 5655654.68], [412883.52, 5655656.69], [412887.28, 5655657.94], [412891.09, 5655658.02], [412894.66, 5655656.02], [412896.48, 5655653.21], [412897.46, 5655649.02]]}}, {"type": "Feature", "properties": {"kind": "wall", "h": 1.5}, "geometry": {"type": "LineString", "coordinates": [[412862.08, 5655651.61], [412866.84, 5655652.48], [412873.02, 5655650.88], [412879.72, 5655646.74], [412887.36, 5655643.61], [412896.73, 5655645.71], [412904.04, 5655650.95], [412911.38, 5655655.42], [412914.3, 5655656.07]]}}, {"type": "Feature", "properties": {"kind": "retaining_wall", "h": 3.0}, "geometry": {"type": "LineString", "coordinates": [[413711.97, 5655415.4], [413727.2, 5655405.61], [413726.55, 5655404.56], [413725.62, 5655403.06]]}}, {"type": "Feature", "properties": {"kind": "retaining_wall", "h": 3.0}, "geometry": {"type": "LineString", "coordinates": [[413712.76, 5655411.02], [413710.45, 5655412.48]]}}, {"type": "Feature", "properties": {"kind": "wall", "h": 1.5}, "geometry": {"type": "LineString", "coordinates": [[413006.52, 5654861.88], [413011.47, 5654858.45], [413017.28, 5654854.7], [413021.84, 5654851.76], [413034.62, 5654843.99], [413037.8, 5654842.38], [413057.95, 5654829.11], [413052.36, 5654819.95], [413053.46, 5654819.28], [413061.07, 5654814.72], [413041.44, 5654788.94], [413027.83, 5654792.65], [413002.28, 5654754.43], [412999.25, 5654756.46], [412963.42, 5654780.6], [412970.59, 5654791.85], [412962.71, 5654796.85], [413006.52, 5654861.88]]}}, {"type": "Feature", "properties": {"kind": "wall", "h": 0.6}, "geometry": {"type": "LineString", "coordinates": [[412414.97, 5655815.04], [412415.66, 5655810.54], [412415.21, 5655807.98], [412408.92, 5655791.81], [412408.11, 5655792.09], [412413.99, 5655808.32], [412414.42, 5655810.62], [412413.73, 5655814.82], [412412.74, 5655819.97], [412413.93, 5655820.18], [412414.97, 5655815.04]]}}, {"type": "Feature", "properties": {"kind": "wall", "h": 0.5}, "geometry": {"type": "LineString", "coordinates": [[412676.92, 5655660.72], [412680.48, 5655658.57], [412678.7, 5655655.65], [412682.06, 5655653.63], [412679.51, 5655649.43], [412675.52, 5655651.84], [412677.42, 5655654.97], [412674.5, 5655656.73], [412676.92, 5655660.72]]}}, {"type": "Feature", "properties": {"kind": "wall", "h": 0.5}, "geometry": {"type": "LineString", "coordinates": [[412683.42, 5655672.84], [412682.35, 5655670.63], [412680.35, 5655671.6], [412681.42, 5655673.79], [412683.42, 5655672.84]]}}, {"type": "Feature", "properties": {"kind": "wall", "h": 0.5}, "geometry": {"type": "LineString", "coordinates": [[412554.72, 5655748.88], [412598.76, 5655723.48], [412633.24, 5655705.76], [412682.49, 5655685.32], [412679.83, 5655679.82], [412631.69, 5655702.81], [412597.73, 5655721.36], [412553.48, 5655747.06], [412554.72, 5655748.88]]}}, {"type": "Feature", "properties": {"kind": "wall", "h": 0.5}, "geometry": {"type": "LineString", "coordinates": [[412550.99, 5655751.29], [412549.88, 5655749.11], [412510.22, 5655772.17], [412511.32, 5655774.07], [412550.99, 5655751.29]]}}, {"type": "Feature", "properties": {"kind": "wall", "h": 0.5}, "geometry": {"type": "LineString", "coordinates": [[412694.27, 5655722.2], [412671.96, 5655729.76], [412653.22, 5655736.17], [412625.99, 5655746.71], [412627.02, 5655749.54], [412648.81, 5655742.71], [412695.8, 5655727.37], [412694.27, 5655722.2]]}}]}