{"type": "FeatureCollection", "attribution": "\u00a9 OpenStreetMap contributors (ODbL)", "crs": {"type": "name", "properties": {"name": "urn:ogc:def:crs:EPSG::25833"}}, "features": [{"type": "Feature", "properties": {"kind": "retaining_wall", "h": 3.0}, "geometry": {"type": "LineString", "coordinates": [[410730.75, 5655276.5], [410672.35, 5655317.46], [410618.43, 5655355.42], [410581.83, 5655383.78], [410547.22, 5655410.37], [410531.0, 5655422.96]]}}, {"type": "Feature", "properties": {"kind": "wall", "h": 1.5}, "geometry": {"type": "LineString", "coordinates": [[410429.07, 5655023.86], [410410.07, 5655046.63]]}}, {"type": "Feature", "properties": {"kind": "wall", "h": 1.5}, "geometry": {"type": "LineString", "coordinates": [[410322.97, 5654856.39], [410363.29, 5654826.57], [410367.79, 5654823.09], [410382.68, 5654843.63], [410346.28, 5654870.03], [410337.16, 5654876.65]]}}, {"type": "Feature", "properties": {"kind": "wall", "h": 1.5}, "geometry": {"type": "LineString", "coordinates": [[410401.44, 5654775.54], [410397.33, 5654778.69], [410375.94, 5654794.7], [410381.37, 5654802.62]]}}, {"type": "Feature", "properties": {"kind": "wall", "h": 1.5}, "geometry": {"type": "LineString", "coordinates": [[410394.24, 5655071.58], [410375.87, 5655085.41], [410363.64, 5655068.25]]}}, {"type": "Feature", "properties": {"kind": "wall", "h": 1.5}, "geometry": {"type": "LineString", "coordinates": [[410000.0, 5655201.62], [410017.35, 5655188.99], [410044.64, 5655171.6]]}}, {"type": "Feature", "properties": {"kind": "wall", "h": 1.5}, "geometry": {"type": "LineString", "coordinates": [[410017.35, 5655188.99], [410028.23, 5655205.32], [410036.04, 5655212.26], [410042.41, 5655221.75], [410066.24, 5655203.71], [410048.11, 5655176.58]]}}, {"type": "Feature", "properties": {"kind": "wall", "h": 1.5}, "geometry": {"type": "LineString", "coordinates": [[411295.39, 5655376.95], [411296.77, 5655381.13]]}}, {"type": "Feature", "properties": {"kind": "retaining_wall", "h": 3.0}, "geometry": {"type": "LineString", "coordinates": [[411328.73, 5654564.72], [411332.16, 5654574.91], [411338.37, 5654594.31], [411353.57, 5654589.02]]}}, {"type": "Feature", "properties": {"kind": "wall", "h": 1.5}, "geometry": {"type": "LineString", "coordinates": [[411310.73, 5654562.44], [411329.29, 5654556.54], [411324.25, 5654540.42]]}}, {"type": "Feature", "properties": {"kind": "wall", "h": 1.5}, "geometry": {"type": "LineString", "coordinates": [[410063.16, 5655604.76], [410080.32, 5655615.82]]}}, {"type": "Feature", "properties": {"kind": "wall", "h": 1.5}, "geometry": {"type": "LineString", "coordinates": [[410000.0, 5655563.88], [410038.05, 5655588.69]]}}, {"type": "Feature", "properties": {"kind": "wall", "h": 1.5}, "geometry": {"type": "LineString", "coordinates": [[411953.6, 5654299.14], [411963.63, 5654325.16], [411966.64, 5654326.75], [411973.98, 5654324.31]]}}, {"type": "Feature", "properties": {"kind": "wall", "h": 1.5}, "geometry": {"type": "LineString", "coordinates": [[411339.2, 5654391.09], [411336.08, 5654381.29], [411334.61, 5654376.82]]}}, {"type": "Feature", "properties": {"kind": "wall", "h": 1.5}, "geometry": {"type": "LineString", "coordinates": [[411347.17, 5654417.7], [411343.97, 5654406.9], [411342.65, 5654402.44]]}}, {"type": "Feature", "properties": {"kind": "wall", "h": 1.5}, "geometry": {"type": "LineString", "coordinates": [[410214.12, 5655881.34], [410218.09, 5655870.97]]}}, {"type": "Feature", "properties": {"kind": "wall", "h": 1.5}, "geometry": {"type": "LineString", "coordinates": [[411332.49, 5654533.37], [411333.57, 5654536.96], [411333.92, 5654538.29], [411334.32, 5654539.57], [411335.27, 5654542.58], [411335.73, 5654544.05], [411336.4, 5654546.2], [411336.8, 5654547.43], [411337.37, 5654549.27], [411337.75, 5654550.45], [411338.79, 5654553.78], [411339.15, 5654554.92], [411340.05, 5654557.78], [411340.39, 5654558.84], [411341.8, 5654563.3], [411342.08, 5654564.21], [411344.23, 5654571.05], [411347.59, 5654570.14]]}}, {"type": "Feature", "properties": {"kind": "wall", "h": 0.8}, "geometry": {"type": "LineString", "coordinates": [[411857.39, 5654029.2], [411855.83, 5654013.33], [411857.5, 5654003.98], [411856.27, 5654002.22], [411855.69, 5654000.1], [411855.69, 5654000.0]]}}, {"type": "Feature", "properties": {"kind": "retaining_wall", "h": 3.0}, "geometry": {"type": "LineString", "coordinates": [[411503.31, 5654965.84], [411402.09, 5655018.22], [411400.57, 5655020.06], [411399.92, 5655023.01], [411400.24, 5655025.18], [411401.47, 5655027.4], [411403.68, 5655028.98], [411405.79, 5655029.35], [411408.73, 5655028.75], [411509.0, 5654976.86]]}}, {"type": "Feature", "properties": {"kind": "retaining_wall", "h": 3.0}, "geometry": {"type": "LineString", "coordinates": [[411429.63, 5655157.86], [411432.87, 5655152.18], [411435.2, 5655145.22], [411435.95, 5655138.14], [411435.26, 5655131.82], [411432.84, 5655125.65], [411428.25, 5655119.1], [411422.54, 5655115.31], [411417.45, 5655113.22], [411412.66, 5655112.02], [411422.28, 5655108.25], [411438.39, 5655103.35], [411450.62, 5655099.83], [411459.09, 5655096.66], [411466.7, 5655093.2], [411475.14, 5655088.16]]}}, {"type": "Feature", "properties": {"kind": "retaining_wall", "h": 3.0}, "geometry": {"type": "LineString", "coordinates": [[411469.35, 5655080.11], [411462.46, 5655084.0], [411451.63, 5655089.33], [411444.12, 5655091.83], [411425.73, 5655096.91], [411416.92, 5655100.06], [411403.61, 5655104.82], [411386.64, 5655111.65], [411369.3, 5655119.68], [411350.39, 5655129.31], [411346.45, 5655131.36], [411345.5, 5655134.16], [411345.36, 5655137.52], [411346.39, 5655139.29], [411348.17, 5655141.07], [411350.86, 5655142.02], [411353.88, 5655141.76], [411381.18, 5655128.53], [411392.77, 5655123.02], [411399.4, 5655120.45], [411405.21, 5655119.31], [411411.46, 5655119.33], [411416.47, 5655120.58], [411419.59, 5655122.35], [411421.54, 5655123.97], [411423.73, 5655125.79], [411426.02, 5655128.83], [411428.15, 5655133.83], [411428.52, 5655139.15], [411427.53, 5655144.48], [411425.44, 5655149.28], [411423.06, 5655153.36]]}}, {"type": "Feature", "properties": {"kind": "retaining_wall", "h": 3.0}, "geometry": {"type": "LineString", "coordinates": [[410944.3, 5655375.16], [410975.21, 5655353.15], [410987.81, 5655344.48], [411025.19, 5655319.55], [411028.65, 5655316.55], [411030.31, 5655312.78], [411030.92, 5655308.92], [411030.0, 5655304.26], [411027.65, 5655300.92], [411023.85, 5655298.25], [411019.71, 5655296.95], [411015.65, 5655297.03], [411011.82, 5655298.28], [410953.39, 5655337.55], [410916.44, 5655362.84]]}}, {"type": "Feature", "properties": {"kind": "retaining_wall", "h": 3.0}, "geometry": {"type": "LineString", "coordinates": [[410479.37, 5655482.56], [410491.31, 5655476.17], [410518.55, 5655460.81], [410590.3, 5655414.08]]}}, {"type": "Feature", "properties": {"kind": "wall", "h": 1.5}, "geometry": {"type": "LineString", "coordinates": [[412000.0, 5654832.63], [411998.94, 5654833.04], [411985.14, 5654837.99], [411966.12, 5654832.59]]}}, {"type": "Feature", "properties": {"kind": "wall", "h": 1.5}, "geometry": {"type": "LineString", "coordinates": [[411813.15, 5654836.43], [411808.91, 5654827.75], [411766.94, 5654850.53], [411753.7, 5654857.79], [411730.32, 5654870.62], [411713.77, 5654879.99], [411710.46, 5654894.14], [411716.97, 5654902.88]]}}, {"type": "Feature", "properties": {"kind": "wall", "h": 1.5}, "geometry": {"type": "LineString", "coordinates": [[411505.71, 5655141.19], [411500.13, 5655142.49], [411487.69, 5655145.41]]}}, {"type": "Feature", "properties": {"kind": "retaining_wall", "h": 3.0}, "geometry": {"type": "LineString", "coordinates": [[410775.98, 5655219.95], [410703.47, 5655279.32]]}}, {"type": "Feature", "properties": {"kind": "wall", "h": 1.5}, "geometry": {"type": "LineString", "coordinates": [[410211.7, 5655888.7], [410209.03, 5655895.58]]}}, {"type": "Feature", "properties": {"kind": "retaining_wall", "h": 3.0}, "geometry": {"type": "LineString", "coordinates": [[410798.03, 5655290.32], [410723.8, 5655340.15]]}}, {"type": "Feature", "properties": {"kind": "wall", "h": 1.5}, "geometry": {"type": "LineString", "coordinates": [[411468.09, 5655530.86], [411453.01, 5655481.56]]}}, {"type": "Feature", "properties": {"kind": "wall", "h": 1.1}, "geometry": {"type": "LineString", "coordinates": [[411443.51, 5655869.77], [411446.24, 5655870.44], [411448.12, 5655870.74], [411450.13, 5655870.75], [411450.45, 5655870.25], [411450.32, 5655869.66], [411449.26, 5655868.98], [411447.74, 5655868.17], [411444.3, 5655867.18]]}}, {"type": "Feature", "properties": {"kind": "retaining_wall", "h": 3.0}, "geometry": {"type": "LineString", "coordinates": [[410840.46, 5655139.75], [410830.64, 5655147.78], [410803.19, 5655170.52], [410788.4, 5655182.47], [410757.07, 5655207.52], [410729.39, 5655229.03], [410711.54, 5655243.48], [410664.71, 5655283.59], [410618.79, 5655322.56], [410583.8, 5655351.14], [410557.08, 5655370.29], [410552.95, 5655368.75]]}}, {"type": "Feature", "properties": {"kind": "retaining_wall", "h": 3.0}, "geometry": {"type": "LineString", "coordinates": [[410497.62, 5655482.7], [410522.08, 5655466.28], [410627.99, 5655396.8], [410650.33, 5655382.07], [410671.67, 5655365.33], [410694.97, 5655348.71], [410724.75, 5655331.91], [410748.44, 5655316.76]]}}, {"type": "Feature", "properties": {"kind": "retaining_wall", "h": 3.0}, "geometry": {"type": "LineString", "coordinates": [[411504.32, 5654907.28], [411499.6, 5654910.56], [411463.75, 5654934.67], [411445.04, 5654947.02], [411427.59, 5654957.49], [411426.57, 5654957.42], [411408.34, 5654968.04], [411386.99, 5654980.49], [411372.05, 5654988.7]]}}, {"type": "Feature", "properties": {"kind": "retaining_wall", "h": 3.0}, "geometry": {"type": "LineString", "coordinates": [[411677.89, 5654758.52], [411691.23, 5654751.29], [411729.72, 5654730.45], [411729.12, 5654729.34], [411732.04, 5654727.77], [411732.7, 5654728.98], [411754.39, 5654717.23], [411753.75, 5654716.07], [411756.84, 5654714.4], [411757.48, 5654715.57], [411770.96, 5654708.26], [411770.33, 5654707.1], [411773.29, 5654705.49], [411773.88, 5654706.57], [411820.82, 5654681.15], [411820.21, 5654680.04], [411822.39, 5654678.85], [411823.02, 5654680.02], [411844.54, 5654668.37], [411843.91, 5654667.22], [411847.09, 5654665.5], [411847.72, 5654666.64], [411861.29, 5654659.3], [411860.64, 5654658.1], [411863.53, 5654656.54], [411864.21, 5654657.8], [411910.53, 5654632.71], [411909.95, 5654631.67], [411912.95, 5654630.05], [411913.61, 5654631.25], [411927.02, 5654623.99], [411926.39, 5654622.84], [411929.29, 5654621.27], [411929.82, 5654622.24], [411938.15, 5654617.74]]}}, {"type": "Feature", "properties": {"kind": "retaining_wall", "h": 3.0}, "geometry": {"type": "LineString", "coordinates": [[410780.9, 5655280.46], [410956.96, 5655185.21], [410954.96, 5655181.62], [410966.04, 5655175.71]]}}, {"type": "Feature", "properties": {"kind": "retaining_wall", "h": 3.0}, "geometry": {"type": "LineString", "coordinates": [[410947.63, 5655118.15], [410938.25, 5655123.26], [410936.2, 5655122.59], [410919.47, 5655131.74], [410908.86, 5655137.55], [410884.44, 5655150.92], [410828.86, 5655180.64]]}}, {"type": "Feature", "properties": {"kind": "retaining_wall", "h": 3.0}, "geometry": {"type": "LineString", "coordinates": [[410342.98, 5655505.14], [410312.95, 5655514.16], [410283.55, 5655518.39], [410247.1, 5655521.01], [410211.81, 5655519.97], [410174.44, 5655510.9], [410145.61, 5655500.69], [410116.68, 5655487.81]]}}, {"type": "Feature", "properties": {"kind": "retaining_wall", "h": 3.0}, "geometry": {"type": "LineString", "coordinates": [[411947.07, 5654634.69], [411939.03, 5654639.19], [411939.59, 5654640.4], [411936.54, 5654642.14], [411935.85, 5654640.97], [411930.82, 5654643.77], [411931.39, 5654645.16], [411928.58, 5654646.78], [411927.81, 5654645.49], [411881.68, 5654670.31], [411882.08, 5654671.62], [411879.2, 5654673.17], [411878.02, 5654672.3], [411857.13, 5654683.73], [411857.51, 5654684.94], [411854.97, 5654686.24], [411853.98, 5654685.4], [411832.22, 5654697.1], [411832.21, 5654698.53], [411830.31, 5654699.65], [411829.05, 5654698.7], [411807.73, 5654710.36], [411808.37, 5654711.45], [411805.2, 5654713.23], [411804.52, 5654712.06], [411742.79, 5654745.85], [411725.99, 5654756.14], [411723.67, 5654757.74], [411694.81, 5654777.24], [411695.5, 5654778.33], [411693.36, 5654779.94], [411692.43, 5654778.81], [411665.14, 5654797.97], [411663.98, 5654796.5], [411658.57, 5654800.16]]}}, {"type": "Feature", "properties": {"kind": "retaining_wall", "h": 3.0}, "geometry": {"type": "LineString", "coordinates": [[411173.04, 5654234.61], [411172.54, 5654233.24], [411162.49, 5654236.6]]}}, {"type": "Feature", "properties": {"kind": "retaining_wall", "h": 3.0}, "geometry": {"type": "LineString", "coordinates": [[411162.84, 5654277.19], [411166.54, 5654287.05], [411170.58, 5654299.2], [411153.28, 5654304.65]]}}, {"type": "Feature", "properties": {"kind": "retaining_wall", "h": 3.0}, "geometry": {"type": "LineString", "coordinates": [[410761.21, 5655334.5], [410784.35, 5655318.58], [410785.3, 5655319.25], [410789.94, 5655316.26], [410789.67, 5655315.24], [410804.38, 5655305.67]]}}, {"type": "Feature", "properties": {"kind": "wall", "h": 1.5}, "geometry": {"type": "LineString", "coordinates": [[410228.03, 5655901.61], [410229.09, 5655895.71], [410224.98, 5655895.01], [410227.04, 5655886.59], [410232.92, 5655887.65], [410230.28, 5655901.9]]}}, {"type": "Feature", "properties": {"kind": "wall", "h": 1.5}, "geometry": {"type": "LineString", "coordinates": [[411353.1, 5655872.09], [411377.67, 5655873.02]]}}, {"type": "Feature", "properties": {"kind": "wall", "h": 1.5}, "geometry": {"type": "LineString", "coordinates": [[411386.53, 5655873.32], [411396.01, 5655873.55]]}}, {"type": "Feature", "properties": {"kind": "wall", "h": 1.5}, "geometry": {"type": "LineString", "coordinates": [[411324.92, 5655842.47], [411363.81, 5655845.56], [411363.39, 5655850.14], [411362.04, 5655863.85], [411356.14, 5655863.91]]}}, {"type": "Feature", "properties": {"kind": "wall", "h": 1.5}, "geometry": {"type": "LineString", "coordinates": [[411376.61, 5655930.52], [411379.91, 5655913.5]]}}, {"type": "Feature", "properties": {"kind": "wall", "h": 1.5}, "geometry": {"type": "LineString", "coordinates": [[411385.72, 5655904.88], [411384.81, 5655906.51], [411382.92, 5655908.58], [411379.88, 5655908.18], [411379.54, 5655910.76]]}}, {"type": "Feature", "properties": {"kind": "wall", "h": 1.5}, "geometry": {"type": "LineString", "coordinates": [[410337.52, 5654592.98], [410351.43, 5654613.37], [410356.28, 5654610.2], [410359.41, 5654608.14], [410351.53, 5654596.21]]}}, {"type": "Feature", "properties": {"kind": "wall", "h": 1.5}, "geometry": {"type": "LineString", "coordinates": [[410149.32, 5654737.62], [410150.94, 5654736.49], [410152.72, 5654737.14]]}}, {"type": "Feature", "properties": {"kind": "wall", "h": 1.5}, "geometry": {"type": "LineString", "coordinates": [[410156.24, 5654732.64], [410154.35, 5654733.96], [410154.49, 5654735.96]]}}, {"type": "Feature", "properties": {"kind": "wall", "h": 1.5}, "geometry": {"type": "LineString", "coordinates": [[411099.5, 5655038.79], [411102.33, 5655037.26]]}}, {"type": "Feature", "properties": {"kind": "wall", "h": 1.5}, "geometry": {"type": "LineString", "coordinates": [[411124.63, 5655085.28], [411127.45, 5655083.76]]}}, {"type": "Feature", "properties": {"kind": "wall", "h": 1.5}, "geometry": {"type": "LineString", "coordinates": [[411535.28, 5655733.8], [411534.12, 5655728.71], [411531.88, 5655722.07], [411530.09, 5655718.56]]}}, {"type": "Feature", "properties": {"kind": "wall", "h": 1.5}, "geometry": {"type": "LineString", "coordinates": [[411539.27, 5655758.63], [411538.93, 5655751.56], [411538.87, 5655750.35], [411538.78, 5655748.55], [411538.72, 5655747.11], [411538.47, 5655741.97], [411538.39, 5655740.23], [411538.35, 5655739.5], [411538.04, 5655732.84], [411536.5, 5655732.89], [411535.48, 5655728.58], [411533.18, 5655721.75], [411531.41, 5655717.59], [411529.12, 5655717.82], [411528.34, 5655704.52], [411528.23, 5655702.71]]}}, {"type": "Feature", "properties": {"kind": "wall", "h": 1.5}, "geometry": {"type": "LineString", "coordinates": [[411532.87, 5655790.73], [411532.76, 5655788.66], [411532.02, 5655774.75], [411532.97, 5655770.94], [411533.79, 5655768.75], [411535.05, 5655764.93], [411535.66, 5655761.78], [411535.98, 5655758.72]]}}, {"type": "Feature", "properties": {"kind": "wall", "h": 1.5}, "geometry": {"type": "LineString", "coordinates": [[411525.37, 5655733.17], [411526.16, 5655723.23], [411526.78, 5655717.31], [411528.07, 5655707.11], [411525.45, 5655708.01], [411524.09, 5655717.45], [411523.17, 5655723.39], [411522.64, 5655731.09], [411525.37, 5655733.17]]}}, {"type": "Feature", "properties": {"kind": "wall", "h": 1.5}, "geometry": {"type": "LineString", "coordinates": [[411519.23, 5655739.14], [411517.74, 5655740.49], [411517.84, 5655746.7], [411518.79, 5655754.74], [411519.44, 5655760.24], [411520.08, 5655764.48], [411522.54, 5655766.21], [411521.42, 5655760.46], [411520.57, 5655754.65], [411519.82, 5655746.47], [411519.23, 5655739.14]]}}, {"type": "Feature", "properties": {"kind": "wall", "h": 1.5}, "geometry": {"type": "LineString", "coordinates": [[411533.18, 5655756.01], [411532.6, 5655761.33], [411533.62, 5655761.46], [411534.19, 5655756.5], [411534.27, 5655751.94], [411533.94, 5655744.66], [411533.46, 5655737.58], [411532.67, 5655732.69], [411531.53, 5655728.3], [411530.47, 5655728.62], [411531.61, 5655733.11], [411529.96, 5655734.6], [411530.79, 5655738.28], [411531.15, 5655744.51], [411531.22, 5655751.69], [411531.23, 5655754.83], [411533.18, 5655756.01]]}}, {"type": "Feature", "properties": {"kind": "wall", "h": 1.5}, "geometry": {"type": "LineString", "coordinates": [[411530.74, 5655765.36], [411529.95, 5655760.57], [411529.32, 5655755.92], [411528.97, 5655753.4], [411523.41, 5655748.89], [411522.68, 5655741.56], [411527.85, 5655735.91], [411527.6, 5655729.74], [411528.23, 5655725.12]]}}, {"type": "Feature", "properties": {"kind": "wall", "h": 1.5}, "geometry": {"type": "LineString", "coordinates": [[411531.36, 5655786.15], [411526.81, 5655772.47], [411529.09, 5655769.85], [411528.53, 5655766.46], [411527.64, 5655762.13], [411526.68, 5655756.07]]}}, {"type": "Feature", "properties": {"kind": "wall", "h": 1.5}, "geometry": {"type": "LineString", "coordinates": [[411523.89, 5655770.79], [411520.45, 5655774.39], [411523.01, 5655784.47], [411526.96, 5655784.55]]}}, {"type": "Feature", "properties": {"kind": "wall", "h": 1.5}, "geometry": {"type": "LineString", "coordinates": [[411528.47, 5655786.71], [411525.37, 5655777.7], [411523.89, 5655770.79], [411525.78, 5655768.83], [411524.65, 5655765.26], [411523.66, 5655760.57], [411523.25, 5655757.34]]}}, {"type": "Feature", "properties": {"kind": "wall", "h": 1.5}, "geometry": {"type": "LineString", "coordinates": [[411512.04, 5655757.68], [411516.45, 5655757.3], [411517.47, 5655763.56], [411518.79, 5655769.92]]}}, {"type": "Feature", "properties": {"kind": "wall", "h": 1.5}, "geometry": {"type": "LineString", "coordinates": [[411521.11, 5655786.58], [411519.62, 5655782.3], [411518.27, 5655777.97], [411516.87, 5655772.74], [411515.17, 5655765.72], [411514.32, 5655760.68]]}}, {"type": "Feature", "properties": {"kind": "retaining_wall", "h": 3.0}, "geometry": {"type": "LineString", "coordinates": [[410990.85, 5655198.53], [410981.05, 5655203.78], [410938.89, 5655226.11]]}}, {"type": "Feature", "properties": {"kind": "retaining_wall", "h": 3.0}, "geometry": {"type": "LineString", "coordinates": [[411312.64, 5654883.23], [411452.35, 5654847.75]]}}, {"type": "Feature", "properties": {"kind": "wall", "h": 1.5}, "geometry": {"type": "LineString", "coordinates": [[411368.91, 5655575.83], [411368.62, 5655563.63]]}}, {"type": "Feature", "properties": {"kind": "wall", "h": 1.5}, "geometry": {"type": "LineString", "coordinates": [[411363.4, 5655577.35], [411363.11, 5655565.13]]}}, {"type": "Feature", "properties": {"kind": "wall", "h": 1.5}, "geometry": {"type": "LineString", "coordinates": [[411379.54, 5655910.76], [411379.19, 5655913.4], [411379.91, 5655913.5]]}}, {"type": "Feature", "properties": {"kind": "wall", "h": 1.5}, "geometry": {"type": "LineString", "coordinates": [[411747.2, 5655866.79], [411750.36, 5655867.75], [411753.7, 5655867.56], [411756.41, 5655866.5]]}}, {"type": "Feature", "properties": {"kind": "retaining_wall", "h": 3.0}, "geometry": {"type": "LineString", "coordinates": [[410698.33, 5655788.33], [410702.12, 5655784.66]]}}, {"type": "Feature", "properties": {"kind": "retaining_wall", "h": 3.0}, "geometry": {"type": "LineString", "coordinates": [[410701.32, 5655783.44], [410697.56, 5655787.14]]}}, {"type": "Feature", "properties": {"kind": "retaining_wall", "h": 3.0}, "geometry": {"type": "LineString", "coordinates": [[410706.16, 5655781.23], [410709.98, 5655777.6]]}}, {"type": "Feature", "properties": {"kind": "retaining_wall", "h": 3.0}, "geometry": {"type": "LineString", "coordinates": [[410707.9, 5655776.49], [410704.03, 5655780.1]]}}, {"type": "Feature", "properties": {"kind": "retaining_wall", "h": 3.0}, "geometry": {"type": "LineString", "coordinates": [[410699.7, 5655766.51], [410706.18, 5655771.0]]}}, {"type": "Feature", "properties": {"kind": "retaining_wall", "h": 3.0}, "geometry": {"type": "LineString", "coordinates": [[410688.14, 5655781.32], [410684.24, 5655775.56]]}}, {"type": "Feature", "properties": {"kind": "wall", "h": 0.5}, "geometry": {"type": "LineString", "coordinates": [[410736.32, 5655790.34], [410737.73, 5655791.24], [410738.66, 5655792.61], [410739.18, 5655794.33]]}}, {"type": "Feature", "properties": {"kind": "wall", "h": 0.5}, "geometry": {"type": "LineString", "coordinates": [[410725.28, 5655793.94], [410728.66, 5655794.51], [410729.05, 5655793.07], [410730.07, 5655791.48], [410732.07, 5655790.45]]}}, {"type": "Feature", "properties": {"kind": "wall", "h": 0.5}, "geometry": {"type": "LineString", "coordinates": [[410738.41, 5655798.83], [410737.13, 5655800.36], [410735.58, 5655801.35], [410733.71, 5655801.82], [410731.46, 5655801.55], [410729.35, 5655800.53], [410727.75, 5655799.05], [410724.61, 5655799.26]]}}, {"type": "Feature", "properties": {"kind": "retaining_wall", "h": 3.0}, "geometry": {"type": "LineString", "coordinates": [[411789.31, 5655723.21], [411790.58, 5655717.84], [411789.1, 5655717.38], [411787.61, 5655723.13]]}}, {"type": "Feature", "properties": {"kind": "embankment", "h": 2.5}, "geometry": {"type": "LineString", "coordinates": [[411728.33, 5654409.11], [411774.3, 5654393.76], [411775.07, 5654396.07], [411729.1, 5654411.42], [411728.33, 5654409.11]]}}, {"type": "Feature", "properties": {"kind": "embankment", "h": 2.5}, "geometry": {"type": "LineString", "coordinates": [[411754.46, 5654479.69], [411800.43, 5654464.32], [411801.21, 5654466.63], [411755.24, 5654482.0], [411754.46, 5654479.69]]}}, {"type": "Feature", "properties": {"kind": "embankment", "h": 2.5}, "geometry": {"type": "LineString", "coordinates": [[411742.43, 5654446.99], [411788.39, 5654431.63], [411789.16, 5654433.93], [411743.2, 5654449.3], [411742.43, 5654446.99]]}}, {"type": "Feature", "properties": {"kind": "wall", "h": 1.5}, "geometry": {"type": "LineString", "coordinates": [[411256.06, 5655622.57], [411245.55, 5655587.59], [411264.81, 5655581.12]]}}, {"type": "Feature", "properties": {"kind": "wall", "h": 1.5}, "geometry": {"type": "LineString", "coordinates": [[410000.02, 5654211.07], [410000.0, 5654211.04]]}}, {"type": "Feature", "properties": {"kind": "wall", "h": 1.5}, "geometry": {"type": "LineString", "coordinates": [[410000.0, 5654200.27], [410000.73, 5654199.74]]}}, {"type": "Feature", "properties": {"kind": "wall", "h": 1.5}, "geometry": {"type": "LineString", "coordinates": [[411260.87, 5655474.23], [411245.98, 5655427.56]]}}, {"type": "Feature", "properties": {"kind": "wall", "h": 0.5}, "geometry": {"type": "LineString", "coordinates": [[411765.42, 5655162.4], [411761.01, 5655168.28]]}}, {"type": "Feature", "properties": {"kind": "wall", "h": 0.5}, "geometry": {"type": "LineString", "coordinates": [[411755.53, 5655163.73], [411751.99, 5655168.52]]}}, {"type": "Feature", "properties": {"kind": "wall", "h": 1.5}, "geometry": {"type": "LineString", "coordinates": [[410624.15, 5654474.17], [410634.06, 5654489.01]]}}, {"type": "Feature", "properties": {"kind": "wall", "h": 1.5}, "geometry": {"type": "LineString", "coordinates": [[410662.29, 5654431.58], [410676.07, 5654451.16], [410683.55, 5654461.86]]}}, {"type": "Feature", "properties": {"kind": "wall", "h": 1.5}, "geometry": {"type": "LineString", "coordinates": [[411188.83, 5655283.75], [411198.28, 5655282.42], [411203.68, 5655281.66]]}}, {"type": "Feature", "properties": {"kind": "wall", "h": 1.5}, "geometry": {"type": "LineString", "coordinates": [[411222.06, 5655278.42], [411231.39, 5655276.61]]}}, {"type": "Feature", "properties": {"kind": "retaining_wall", "h": 3.0}, "geometry": {"type": "LineString", "coordinates": [[410214.02, 5655260.29], [410204.68, 5655273.13], [410073.52, 5655184.13], [410025.18, 5655112.52], [410026.12, 5655109.47], [410040.96, 5655099.24]]}}, {"type": "Feature", "properties": {"kind": "retaining_wall", "h": 3.0}, "geometry": {"type": "LineString", "coordinates": [[411309.43, 5654152.33], [411305.98, 5654152.74], [411306.5, 5654156.32]]}}, {"type": "Feature", "properties": {"kind": "retaining_wall", "h": 3.0}, "geometry": {"type": "LineString", "coordinates": [[411292.84, 5654135.79], [411294.68, 5654141.62], [411291.96, 5654142.41]]}}, {"type": "Feature", "properties": {"kind": "wall", "h": 1.5}, "geometry": {"type": "LineString", "coordinates": [[411413.93, 5654339.01], [411410.42, 5654328.41], [411407.06, 5654318.16]]}}, {"type": "Feature", "properties": {"kind": "wall", "h": 1.5}, "geometry": {"type": "LineString", "coordinates": [[411330.95, 5654365.11], [411327.47, 5654354.57], [411324.14, 5654344.41]]}}, {"type": "Feature", "properties": {"kind": "wall", "h": 1.5}, "geometry": {"type": "LineString", "coordinates": [[411421.88, 5654365.06], [411419.03, 5654355.41], [411417.53, 5654350.44]]}}, {"type": "Feature", "properties": {"kind": "wall", "h": 1.5}, "geometry": {"type": "LineString", "coordinates": [[411430.66, 5654391.26], [411427.14, 5654381.13], [411425.52, 5654376.47]]}}, {"type": "Feature", "properties": {"kind": "retaining_wall", "h": 3.0}, "geometry": {"type": "LineString", "coordinates": [[410576.78, 5654112.05], [410565.82, 5654106.34], [410563.69, 5654110.03], [410543.17, 5654099.71], [410544.38, 5654097.18]]}}, {"type": "Feature", "properties": {"kind": "retaining_wall", "h": 3.0}, "geometry": {"type": "LineString", "coordinates": [[410542.26, 5654096.17], [410540.98, 5654098.67], [410537.33, 5654096.79]]}}, {"type": "Feature", "properties": {"kind": "retaining_wall", "h": 3.0}, "geometry": {"type": "LineString", "coordinates": [[412000.0, 5654606.97], [411982.53, 5654616.39], [411979.26, 5654618.18], [411975.22, 5654620.4], [411975.0, 5654620.02], [411968.67, 5654623.38]]}}, {"type": "Feature", "properties": {"kind": "retaining_wall", "h": 3.0}, "geometry": {"type": "LineString", "coordinates": [[411959.74, 5654606.41], [411969.88, 5654600.73], [411973.35, 5654598.78], [412000.0, 5654584.3]]}}, {"type": "Feature", "properties": {"kind": "wall", "h": 0.5}, "geometry": {"type": "LineString", "coordinates": [[411456.78, 5654472.85], [411473.05, 5654467.44], [411473.23, 5654467.88], [411473.65, 5654468.59], [411474.04, 5654469.13], [411474.72, 5654469.73], [411475.43, 5654470.08], [411476.51, 5654470.52], [411474.28, 5654471.21], [411474.31, 5654472.22], [411474.16, 5654472.76], [411473.82, 5654473.29], [411473.37, 5654473.66], [411460.59, 5654478.01], [411459.95, 5654478.06], [411459.35, 5654477.9], [411458.81, 5654477.57], [411458.2, 5654476.71], [411455.16, 5654477.57], [411455.61, 5654477.01], [411455.94, 5654476.41], [411456.33, 5654475.68], [411456.51, 5654475.03], [411456.62, 5654474.25], [411456.66, 5654473.6], [411456.78, 5654472.85]]}}, {"type": "Feature", "properties": {"kind": "wall", "h": 0.5}, "geometry": {"type": "LineString", "coordinates": [[411448.39, 5654479.7], [411445.65, 5654480.76], [411445.68, 5654481.58], [411445.36, 5654482.31], [411444.96, 5654482.83], [411444.51, 5654483.26], [411439.39, 5654485.07], [411438.52, 5654485.1], [411437.76, 5654484.88], [411437.05, 5654484.43], [411436.67, 5654483.8], [411434.49, 5654484.47], [411435.2, 5654483.47], [411435.48, 5654482.84], [411435.63, 5654482.22], [411435.64, 5654481.55], [411435.6, 5654481.07], [411435.4, 5654480.12], [411444.36, 5654477.01], [411444.58, 5654477.45], [411445.25, 5654478.17], [411446.04, 5654478.71], [411446.74, 5654479.07], [411447.41, 5654479.45], [411448.39, 5654479.7]]}}, {"type": "Feature", "properties": {"kind": "wall", "h": 1.5}, "geometry": {"type": "LineString", "coordinates": [[411059.18, 5655325.49], [411056.86, 5655325.41]]}}, {"type": "Feature", "properties": {"kind": "retaining_wall", "h": 3.0}, "geometry": {"type": "LineString", "coordinates": [[411056.78, 5655323.71], [411055.52, 5655323.02], [411054.79, 5655322.61], [411053.45, 5655322.17], [411051.83, 5655321.78], [411050.7, 5655321.77], [411050.69, 5655322.74], [411050.68, 5655323.66], [411051.08, 5655324.23], [411051.61, 5655324.61], [411052.56, 5655324.98], [411055.37, 5655325.33], [411056.86, 5655325.41]]}}, {"type": "Feature", "properties": {"kind": "retaining_wall", "h": 3.0}, "geometry": {"type": "LineString", "coordinates": [[410840.46, 5655139.75], [410874.14, 5655114.55], [410904.64, 5655094.7], [410919.71, 5655085.67]]}}, {"type": "Feature", "properties": {"kind": "wall", "h": 1.5}, "geometry": {"type": "LineString", "coordinates": [[410108.51, 5655692.87], [410092.44, 5655718.31]]}}, {"type": "Feature", "properties": {"kind": "wall", "h": 1.5}, "geometry": {"type": "LineString", "coordinates": [[410099.05, 5655748.0], [410100.53, 5655743.92], [410099.61, 5655740.53]]}}, {"type": "Feature", "properties": {"kind": "wall", "h": 1.5}, "geometry": {"type": "LineString", "coordinates": [[410424.75, 5655447.28], [410434.32, 5655442.54]]}}, {"type": "Feature", "properties": {"kind": "retaining_wall", "h": 3.0}, "geometry": {"type": "LineString", "coordinates": [[410962.23, 5655267.44], [410930.96, 5655286.79], [410900.83, 5655306.11], [410870.36, 5655322.96], [410820.01, 5655350.14]]}}, {"type": "Feature", "properties": {"kind": "retaining_wall", "h": 3.0}, "geometry": {"type": "LineString", "coordinates": [[411199.9, 5654458.47], [411197.6, 5654459.13], [411194.17, 5654447.16]]}}, {"type": "Feature", "properties": {"kind": "retaining_wall", "h": 3.0}, "geometry": {"type": "LineString", "coordinates": [[410806.31, 5654012.3], [410818.41, 5654012.17]]}}, {"type": "Feature", "properties": {"kind": "retaining_wall", "h": 3.0}, "geometry": {"type": "LineString", "coordinates": [[411528.23, 5655522.89], [411481.33, 5655538.06], [411483.2, 5655544.84], [411530.56, 5655531.65]]}}, {"type": "Feature", "properties": {"kind": "embankment", "h": 2.5}, "geometry": {"type": "LineString", "coordinates": [[410525.6, 5655356.81], [410528.04, 5655356.32], [410530.24, 5655356.29], [410532.55, 5655356.99], [410535.99, 5655357.23], [410539.37, 5655356.37], [410542.03, 5655354.24]]}}, {"type": "Feature", "properties": {"kind": "wall", "h": 1.5}, "geometry": {"type": "LineString", "coordinates": [[410947.58, 5654026.46], [410945.88, 5654027.71], [410947.34, 5654028.52], [410947.58, 5654026.46]]}}, {"type": "Feature", "properties": {"kind": "retaining_wall", "h": 3.0}, "geometry": {"type": "LineString", "coordinates": [[411691.71, 5655789.55], [411703.12, 5655783.81], [411702.46, 5655779.18], [411690.65, 5655788.67], [411691.71, 5655789.55]]}}, {"type": "Feature", "properties": {"kind": "retaining_wall", "h": 3.0}, "geometry": {"type": "LineString", "coordinates": [[411711.62, 5655773.98], [411713.85, 5655775.83], [411717.15, 5655775.7], [411728.55, 5655761.64], [411726.51, 5655759.6], [411711.62, 5655773.98]]}}, {"type": "Feature", "properties": {"kind": "fence", "type": "railing", "h": 1.2}, "geometry": {"type": "LineString", "coordinates": [[410604.95, 5655200.41], [410594.47, 5655190.48]]}}, {"type": "Feature", "properties": {"kind": "fence", "type": "railing", "h": 1.2}, "geometry": {"type": "LineString", "coordinates": [[410619.84, 5655165.12], [410641.63, 5655186.13], [410616.72, 5655211.19], [410604.95, 5655200.41]]}}, {"type": "Feature", "properties": {"kind": "fence", "type": "railing", "h": 1.2}, "geometry": {"type": "LineString", "coordinates": [[410000.0, 5655253.25], [410010.84, 5655245.28], [410000.0, 5655228.55]]}}, {"type": "Feature", "properties": {"kind": "fence", "type": "railing", "h": 1.2}, "geometry": {"type": "LineString", "coordinates": [[410893.06, 5655761.63], [410867.28, 5655775.85], [410859.63, 5655780.84], [410852.35, 5655789.3], [410851.97, 5655789.08]]}}, {"type": "Feature", "properties": {"kind": "fence", "type": "railing", "h": 1.2}, "geometry": {"type": "LineString", "coordinates": [[410863.16, 5655765.1], [410862.18, 5655763.15], [410848.88, 5655770.08], [410839.84, 5655779.61], [410841.73, 5655781.41]]}}, {"type": "Feature", "properties": {"kind": "fence", "type": "railing", "h": 1.2}, "geometry": {"type": "LineString", "coordinates": [[410364.61, 5654987.0], [410410.07, 5655046.63]]}}, {"type": "Feature", "properties": {"kind": "fence", "type": "railing", "h": 1.2}, "geometry": {"type": "LineString", "coordinates": [[411379.74, 5654506.39], [411377.5, 5654500.05], [411401.21, 5654491.87], [411417.58, 5654486.38], [411424.49, 5654483.91], [411433.26, 5654480.87], [411435.4, 5654480.12], [411444.36, 5654477.01], [411445.17, 5654476.73], [411445.95, 5654476.47], [411451.6, 5654474.57], [411452.83, 5654474.16], [411455.12, 5654473.4], [411456.78, 5654472.85], [411473.05, 5654467.44], [411473.7, 5654467.23], [411474.68, 5654466.85], [411487.66, 5654462.51], [411495.06, 5654460.03], [411518.2, 5654452.47], [411531.55, 5654494.03], [411537.22, 5654509.92], [411528.61, 5654523.4], [411453.34, 5654548.82], [411479.97, 5654631.46], [411417.96, 5654651.89]]}}, {"type": "Feature", "properties": {"kind": "fence", "type": "railing", "h": 1.2}, "geometry": {"type": "LineString", "coordinates": [[411417.96, 5654651.89], [411408.36, 5654621.28], [411394.49, 5654576.78], [411389.6, 5654559.57], [411395.75, 5654557.46]]}}, {"type": "Feature", "properties": {"kind": "fence", "type": "railing", "h": 1.2}, "geometry": {"type": "LineString", "coordinates": [[410397.33, 5654778.69], [410398.97, 5654781.16], [410397.03, 5654783.97]]}}, {"type": "Feature", "properties": {"kind": "fence", "type": "railing", "h": 1.2}, "geometry": {"type": "LineString", "coordinates": [[410346.28, 5654870.03], [410348.84, 5654873.53]]}}, {"type": "Feature", "properties": {"kind": "fence", "type": "railing", "h": 1.2}, "geometry": {"type": "LineString", "coordinates": [[410394.84, 5655100.21], [410408.01, 5655090.44], [410394.24, 5655071.58]]}}, {"type": "Feature", "properties": {"kind": "fence", "type": "railing", "h": 1.2}, "geometry": {"type": "LineString", "coordinates": [[410378.97, 5654172.24], [410393.74, 5654193.45]]}}, {"type": "Feature", "properties": {"kind": "fence", "type": "railing", "h": 1.2}, "geometry": {"type": "LineString", "coordinates": [[410182.62, 5655437.66], [410176.02, 5655433.23], [410172.0, 5655438.42], [410169.05, 5655437.39], [410105.72, 5655394.12], [410061.39, 5655363.84], [410036.19, 5655393.72], [410069.56, 5655429.15], [410109.48, 5655456.67], [410162.53, 5655482.87], [410189.69, 5655443.27], [410182.62, 5655437.66]]}}, {"type": "Feature", "properties": {"kind": "fence", "type": "railing", "h": 1.2}, "geometry": {"type": "LineString", "coordinates": [[411697.31, 5654602.08], [411695.77, 5654597.97], [411683.53, 5654564.14]]}}, {"type": "Feature", "properties": {"kind": "fence", "type": "railing", "h": 1.2}, "geometry": {"type": "LineString", "coordinates": [[411722.22, 5654590.17], [411695.77, 5654597.97]]}}, {"type": "Feature", "properties": {"kind": "fence", "type": "railing", "h": 1.2}, "geometry": {"type": "LineString", "coordinates": [[411146.02, 5654845.32], [411067.95, 5654595.23]]}}, {"type": "Feature", "properties": {"kind": "fence", "type": "railing", "h": 1.2}, "geometry": {"type": "LineString", "coordinates": [[411348.89, 5655227.82], [411351.28, 5655230.95]]}}, {"type": "Feature", "properties": {"kind": "fence", "type": "railing", "h": 1.2}, "geometry": {"type": "LineString", "coordinates": [[411541.37, 5655494.45], [411543.77, 5655497.29]]}}, {"type": "Feature", "properties": {"kind": "fence", "type": "railing", "h": 1.2}, "geometry": {"type": "LineString", "coordinates": [[411296.47, 5655150.02], [411298.41, 5655153.06]]}}, {"type": "Feature", "properties": {"kind": "fence", "type": "railing", "h": 1.2}, "geometry": {"type": "LineString", "coordinates": [[411502.86, 5655435.96], [411508.35, 5655442.67]]}}, {"type": "Feature", "properties": {"kind": "fence", "type": "railing", "h": 1.2}, "geometry": {"type": "LineString", "coordinates": [[411243.93, 5655018.85], [411223.69, 5654980.93]]}}, {"type": "Feature", "properties": {"kind": "fence", "type": "railing", "h": 1.2}, "geometry": {"type": "LineString", "coordinates": [[411147.94, 5654850.62], [411162.02, 5654896.31]]}}, {"type": "Feature", "properties": {"kind": "fence", "type": "railing", "h": 1.2}, "geometry": {"type": "LineString", "coordinates": [[411546.42, 5655489.52], [411548.46, 5655492.14]]}}, {"type": "Feature", "properties": {"kind": "fence", "type": "railing", "h": 1.2}, "geometry": {"type": "LineString", "coordinates": [[411348.42, 5655240.03], [411357.64, 5655254.2]]}}, {"type": "Feature", "properties": {"kind": "fence", "type": "railing", "h": 1.2}, "geometry": {"type": "LineString", "coordinates": [[411499.2, 5655443.58], [411502.29, 5655447.09]]}}, {"type": "Feature", "properties": {"kind": "fence", "type": "railing", "h": 1.2}, "geometry": {"type": "LineString", "coordinates": [[411355.55, 5655235.77], [411366.47, 5655252.07], [411368.62, 5655250.54]]}}, {"type": "Feature", "properties": {"kind": "fence", "type": "railing", "h": 1.2}, "geometry": {"type": "LineString", "coordinates": [[411296.0, 5655140.07], [411292.16, 5655142.36], [411293.58, 5655144.51]]}}, {"type": "Feature", "properties": {"kind": "fence", "type": "railing", "h": 1.2}, "geometry": {"type": "LineString", "coordinates": [[411354.69, 5655230.33], [411349.09, 5655222.21], [411312.48, 5655166.7]]}}, {"type": "Feature", "properties": {"kind": "fence", "type": "railing", "h": 1.2}, "geometry": {"type": "LineString", "coordinates": [[411574.32, 5655522.89], [411615.64, 5655574.61], [411653.12, 5655619.96]]}}, {"type": "Feature", "properties": {"kind": "fence", "type": "railing", "h": 1.2}, "geometry": {"type": "LineString", "coordinates": [[411524.07, 5655454.09], [411528.53, 5655463.69], [411541.14, 5655478.56], [411545.99, 5655484.28], [411553.96, 5655493.67], [411556.54, 5655496.91], [411557.7, 5655499.54]]}}, {"type": "Feature", "properties": {"kind": "fence", "type": "railing", "h": 1.2}, "geometry": {"type": "LineString", "coordinates": [[411655.71, 5655623.22], [411701.01, 5655678.2], [411713.92, 5655692.56], [411730.12, 5655710.87]]}}, {"type": "Feature", "properties": {"kind": "fence", "type": "railing", "h": 1.2}, "geometry": {"type": "LineString", "coordinates": [[411286.78, 5655147.5], [411269.13, 5655121.13], [411264.99, 5655117.53], [411257.79, 5655114.64], [411252.34, 5655113.66], [411249.0, 5655113.29], [411245.48, 5655113.39], [411240.51, 5655114.33], [411235.18, 5655116.66], [411216.22, 5655125.8]]}}, {"type": "Feature", "properties": {"kind": "fence", "type": "railing", "h": 1.2}, "geometry": {"type": "LineString", "coordinates": [[411327.56, 5654685.24], [411322.8, 5654690.07], [411313.46, 5654693.37], [411266.95, 5654539.08], [411299.04, 5654528.28], [411301.37, 5654535.63], [411304.27, 5654545.35]]}}, {"type": "Feature", "properties": {"kind": "fence", "type": "railing", "h": 1.2}, "geometry": {"type": "LineString", "coordinates": [[410109.33, 5655270.71], [410110.05, 5655278.61]]}}, {"type": "Feature", "properties": {"kind": "fence", "type": "railing", "h": 1.2}, "geometry": {"type": "LineString", "coordinates": [[410046.85, 5655256.83], [410041.57, 5655250.54], [410040.31, 5655248.5], [410042.28, 5655243.03]]}}, {"type": "Feature", "properties": {"kind": "fence", "type": "railing", "h": 1.2}, "geometry": {"type": "LineString", "coordinates": [[410092.5, 5655303.7], [410110.05, 5655278.61]]}}, {"type": "Feature", "properties": {"kind": "fence", "type": "railing", "h": 1.2}, "geometry": {"type": "LineString", "coordinates": [[410042.28, 5655243.03], [410062.23, 5655227.58]]}}, {"type": "Feature", "properties": {"kind": "fence", "type": "railing", "h": 1.2}, "geometry": {"type": "LineString", "coordinates": [[410051.56, 5655262.85], [410058.39, 5655271.63], [410064.75, 5655280.44], [410069.46, 5655286.34], [410073.0, 5655289.94], [410077.86, 5655293.52], [410085.67, 5655298.74]]}}, {"type": "Feature", "properties": {"kind": "fence", "type": "railing", "h": 1.2}, "geometry": {"type": "LineString", "coordinates": [[410067.9, 5655223.73], [410076.06, 5655217.3]]}}, {"type": "Feature", "properties": {"kind": "fence", "type": "railing", "h": 1.2}, "geometry": {"type": "LineString", "coordinates": [[410110.05, 5655278.61], [410121.73, 5655285.15], [410142.93, 5655255.16]]}}, {"type": "Feature", "properties": {"kind": "fence", "type": "mesh", "h": 1.2}, "geometry": {"type": "LineString", "coordinates": [[410530.99, 5654231.99], [410447.2, 5654119.29], [410476.16, 5654097.71]]}}, {"type": "Feature", "properties": {"kind": "fence", "type": "railing", "h": 1.2}, "geometry": {"type": "LineString", "coordinates": [[410398.71, 5654052.87], [410438.69, 5654107.47], [410516.71, 5654049.23], [410517.94, 5654045.48], [410516.61, 5654041.87], [410489.56, 5654028.58]]}}, {"type": "Feature", "properties": {"kind": "fence", "type": "railing", "h": 2.0}, "geometry": {"type": "LineString", "coordinates": [[410194.05, 5655959.71], [410199.11, 5655961.41], [410200.55, 5655961.93], [410229.79, 5655972.63]]}}, {"type": "Feature", "properties": {"kind": "fence", "type": "railing", "h": 1.2}, "geometry": {"type": "LineString", "coordinates": [[410954.74, 5654134.91], [410955.05, 5654132.55], [410955.78, 5654127.38], [410959.33, 5654101.16]]}}, {"type": "Feature", "properties": {"kind": "fence", "type": "mesh", "h": 2.0}, "geometry": {"type": "LineString", "coordinates": [[410954.74, 5654134.91], [410854.04, 5654124.57], [410892.37, 5654095.4], [410899.68, 5654104.15], [410912.68, 5654095.27], [410959.33, 5654101.16]]}}, {"type": "Feature", "properties": {"kind": "fence", "type": "railing", "h": 1.5}, "geometry": {"type": "LineString", "coordinates": [[410965.83, 5654060.24], [410966.57, 5654055.1], [410966.65, 5654054.51], [410966.76, 5654053.77], [410969.09, 5654035.04], [410969.24, 5654033.64], [410969.32, 5654032.43], [410972.8, 5654008.41], [410967.83, 5654006.26], [410963.68, 5654003.89], [410963.19, 5654003.61]]}}, {"type": "Feature", "properties": {"kind": "fence", "type": "mesh", "h": 2.0}, "geometry": {"type": "LineString", "coordinates": [[410914.57, 5654042.17], [410911.18, 5654037.44], [410908.11, 5654033.14], [410887.73, 5654047.76], [410890.86, 5654051.94], [410900.78, 5654065.78], [410921.1, 5654051.28], [410923.79, 5654054.69]]}}, {"type": "Feature", "properties": {"kind": "fence", "type": "mesh", "h": 2.0}, "geometry": {"type": "LineString", "coordinates": [[410921.1, 5654051.28], [410917.68, 5654046.52]]}}, {"type": "Feature", "properties": {"kind": "fence", "type": "mesh", "h": 2.0}, "geometry": {"type": "LineString", "coordinates": [[410930.74, 5654017.13], [410912.3, 5654030.35]]}}, {"type": "Feature", "properties": {"kind": "fence", "type": "railing", "h": 1.5}, "geometry": {"type": "LineString", "coordinates": [[410954.78, 5654000.0], [410949.88, 5654003.95], [410949.48, 5654004.27]]}}, {"type": "Feature", "properties": {"kind": "fence", "type": "railing", "h": 1.5}, "geometry": {"type": "LineString", "coordinates": [[410961.35, 5654002.22], [410960.91, 5654001.86], [410958.59, 5654000.0]]}}, {"type": "Feature", "properties": {"kind": "fence", "type": "railing", "h": 1.2}, "geometry": {"type": "LineString", "coordinates": [[411822.53, 5654590.53], [411675.92, 5654670.04], [411679.03, 5654676.02], [411671.76, 5654680.02]]}}, {"type": "Feature", "properties": {"kind": "fence", "type": "railing", "h": 1.2}, "geometry": {"type": "LineString", "coordinates": [[411938.15, 5654617.74], [411903.66, 5654553.38], [411898.98, 5654555.83], [411896.78, 5654551.83], [411894.0, 5654552.48], [411827.71, 5654587.71]]}}, {"type": "Feature", "properties": {"kind": "fence", "type": "railing", "h": 1.2}, "geometry": {"type": "LineString", "coordinates": [[411310.14, 5654152.3], [411344.59, 5654148.65], [411346.75, 5654170.21], [411320.52, 5654173.17], [411310.73, 5654174.31], [411306.71, 5654157.76]]}}, {"type": "Feature", "properties": {"kind": "fence", "type": "railing", "h": 1.2}, "geometry": {"type": "LineString", "coordinates": [[411322.69, 5654197.11], [411321.3, 5654183.71], [411323.98, 5654180.94], [411351.74, 5654178.48], [411355.01, 5654180.65], [411356.37, 5654193.55]]}}, {"type": "Feature", "properties": {"kind": "fence", "type": "railing", "h": 1.2}, "geometry": {"type": "LineString", "coordinates": [[411323.04, 5654200.5], [411324.87, 5654218.06], [411358.63, 5654214.98], [411356.74, 5654197.07]]}}, {"type": "Feature", "properties": {"kind": "fence", "type": "railing", "h": 1.2}, "geometry": {"type": "LineString", "coordinates": [[411358.53, 5654197.12], [411360.17, 5654214.84], [411393.99, 5654211.39], [411392.31, 5654194.03]]}}, {"type": "Feature", "properties": {"kind": "fence", "type": "railing", "h": 1.2}, "geometry": {"type": "LineString", "coordinates": [[411358.17, 5654193.25], [411356.99, 5654180.49], [411359.3, 5654177.86], [411386.93, 5654174.91], [411390.74, 5654177.78], [411391.95, 5654190.29]]}}, {"type": "Feature", "properties": {"kind": "fence", "type": "railing", "h": 1.2}, "geometry": {"type": "LineString", "coordinates": [[411394.08, 5654194.05], [411395.66, 5654211.29], [411429.3, 5654207.54], [411427.59, 5654190.71]]}}, {"type": "Feature", "properties": {"kind": "fence", "type": "railing", "h": 1.2}, "geometry": {"type": "LineString", "coordinates": [[411393.73, 5654190.19], [411392.58, 5654177.74], [411394.98, 5654174.27], [411423.18, 5654171.74], [411425.98, 5654174.77], [411427.2, 5654186.89]]}}, {"type": "Feature", "properties": {"kind": "fence", "type": "railing", "h": 1.2}, "geometry": {"type": "LineString", "coordinates": [[411912.39, 5655017.6], [411916.17, 5655020.11], [411919.27, 5655015.4], [411920.91, 5655012.8], [411924.3, 5655007.53], [411937.94, 5654989.69], [411957.64, 5654964.57], [411973.25, 5654947.17], [411985.18, 5654933.85], [411989.43, 5654929.57], [411999.71, 5654918.37], [412000.0, 5654918.12]]}}, {"type": "Feature", "properties": {"kind": "fence", "type": "railing", "h": 1.2}, "geometry": {"type": "LineString", "coordinates": [[411966.12, 5654832.59], [411931.21, 5654844.17], [411922.73, 5654847.57]]}}, {"type": "Feature", "properties": {"kind": "fence", "type": "railing", "h": 1.2}, "geometry": {"type": "LineString", "coordinates": [[411924.03, 5654861.75], [411831.57, 5654897.29], [411799.24, 5654909.69], [411790.64, 5654918.94], [411776.19, 5654924.42], [411758.17, 5654941.68], [411756.46, 5654947.87], [411774.93, 5654964.41], [411792.76, 5654977.62], [411833.49, 5655001.99], [411847.39, 5655010.34], [411850.74, 5655004.2]]}}, {"type": "Feature", "properties": {"kind": "fence", "type": "railing", "h": 1.2}, "geometry": {"type": "LineString", "coordinates": [[411953.74, 5654811.46], [411958.57, 5654809.68], [411955.94, 5654802.65]]}}, {"type": "Feature", "properties": {"kind": "fence", "type": "railing", "h": 1.2}, "geometry": {"type": "LineString", "coordinates": [[411716.97, 5654902.88], [411742.73, 5654933.51], [411748.12, 5654932.44], [411788.94, 5654902.3], [411783.19, 5654890.93], [411786.71, 5654888.5], [411790.53, 5654885.83]]}}, {"type": "Feature", "properties": {"kind": "fence", "type": "railing", "h": 1.2}, "geometry": {"type": "LineString", "coordinates": [[411767.02, 5654879.5], [411753.7, 5654857.79]]}}, {"type": "Feature", "properties": {"kind": "fence", "type": "railing", "h": 1.2}, "geometry": {"type": "LineString", "coordinates": [[411810.22, 5655032.64], [411810.09, 5655034.17], [411819.4, 5655021.36], [411823.47, 5655024.31], [411829.18, 5655016.51], [411795.88, 5654998.5], [411790.7, 5655000.95]]}}, {"type": "Feature", "properties": {"kind": "fence", "type": "railing", "h": 1.2}, "geometry": {"type": "LineString", "coordinates": [[411481.7, 5655146.82], [411487.69, 5655145.41]]}}, {"type": "Feature", "properties": {"kind": "fence", "type": "railing", "h": 1.2}, "geometry": {"type": "LineString", "coordinates": [[411500.13, 5655142.49], [411502.64, 5655144.18], [411494.52, 5655154.97], [411505.03, 5655162.83], [411498.53, 5655169.74], [411489.18, 5655171.31]]}}, {"type": "Feature", "properties": {"kind": "fence", "type": "railing", "h": 1.2}, "geometry": {"type": "LineString", "coordinates": [[411723.14, 5655163.08], [411720.59, 5655166.83], [411731.39, 5655174.61], [411728.08, 5655178.72], [411743.3, 5655190.69], [411751.36, 5655196.69], [411794.72, 5655229.02], [411802.96, 5655235.17], [411825.17, 5655204.44], [411835.07, 5655191.27], [411738.55, 5655119.16], [411732.63, 5655126.39]]}}, {"type": "Feature", "properties": {"kind": "fence", "type": "railing", "h": 1.2}, "geometry": {"type": "LineString", "coordinates": [[411707.76, 5654937.18], [411709.63, 5654935.38], [411716.5, 5654942.35]]}}, {"type": "Feature", "properties": {"kind": "fence", "type": "railing", "h": 1.2}, "geometry": {"type": "LineString", "coordinates": [[411750.0, 5654969.06], [411751.28, 5654969.92], [411752.07, 5654969.06], [411752.93, 5654967.87], [411758.37, 5654973.68]]}}, {"type": "Feature", "properties": {"kind": "fence", "type": "railing", "h": 1.2}, "geometry": {"type": "LineString", "coordinates": [[411683.72, 5655047.9], [411682.75, 5655049.08], [411681.48, 5655050.72], [411690.61, 5655055.8]]}}, {"type": "Feature", "properties": {"kind": "fence", "type": "railing", "h": 1.2}, "geometry": {"type": "LineString", "coordinates": [[412000.0, 5654638.57], [411998.43, 5654639.46], [411992.63, 5654642.73], [412000.0, 5654656.82]]}}, {"type": "Feature", "properties": {"kind": "fence", "type": "railing", "h": 1.2}, "geometry": {"type": "LineString", "coordinates": [[411291.85, 5654146.97], [411299.05, 5654170.88], [411270.12, 5654181.07], [411277.81, 5654206.79], [411282.41, 5654222.08], [411285.94, 5654234.38], [411326.89, 5654220.93], [411342.87, 5654219.14], [411348.63, 5654218.5], [411352.66, 5654218.05], [411441.69, 5654208.11], [411441.28, 5654203.5], [411437.79, 5654165.35]]}}, {"type": "Feature", "properties": {"kind": "fence", "type": "railing", "h": 1.2}, "geometry": {"type": "LineString", "coordinates": [[411829.55, 5654498.79], [411827.19, 5654491.99], [411810.13, 5654442.81], [411836.19, 5654433.53], [411854.49, 5654427.36], [411873.11, 5654483.58]]}}, {"type": "Feature", "properties": {"kind": "fence", "type": "railing", "h": 1.2}, "geometry": {"type": "LineString", "coordinates": [[411796.07, 5655283.77], [411799.78, 5655275.03]]}}, {"type": "Feature", "properties": {"kind": "fence", "type": "railing", "h": 1.2}, "geometry": {"type": "LineString", "coordinates": [[411785.98, 5655309.57], [411794.04, 5655295.84], [411793.28, 5655294.81]]}}, {"type": "Feature", "properties": {"kind": "fence", "type": "railing", "h": 1.2}, "geometry": {"type": "LineString", "coordinates": [[411616.02, 5655369.89], [411611.49, 5655378.49], [411620.75, 5655385.82]]}}, {"type": "Feature", "properties": {"kind": "fence", "type": "railing", "h": 1.2}, "geometry": {"type": "LineString", "coordinates": [[411630.68, 5655293.12], [411671.27, 5655324.47]]}}, {"type": "Feature", "properties": {"kind": "fence", "type": "railing", "h": 1.2}, "geometry": {"type": "LineString", "coordinates": [[411721.78, 5655191.07], [411692.77, 5655232.75], [411689.67, 5655237.2], [411674.19, 5655259.5], [411668.01, 5655268.39], [411635.33, 5655245.81], [411621.64, 5655265.49], [411631.05, 5655272.0], [411634.83, 5655266.57]]}}, {"type": "Feature", "properties": {"kind": "fence", "type": "railing", "h": 1.2}, "geometry": {"type": "LineString", "coordinates": [[412000.0, 5655519.11], [411981.82, 5655529.33], [411943.39, 5655460.75], [411942.54, 5655459.24], [411991.36, 5655429.71]]}}, {"type": "Feature", "properties": {"kind": "fence", "type": "railing", "h": 1.2}, "geometry": {"type": "LineString", "coordinates": [[411983.45, 5655415.75], [411996.54, 5655408.63], [411933.77, 5655303.63], [411918.27, 5655296.39], [411916.11, 5655310.58], [411911.02, 5655317.6], [411909.18, 5655333.05], [411902.43, 5655345.25], [411897.7, 5655365.33], [411880.37, 5655400.25], [411888.5, 5655406.65], [411900.57, 5655425.28], [411920.16, 5655455.97], [411930.8, 5655447.76]]}}, {"type": "Feature", "properties": {"kind": "fence", "type": "railing", "h": 1.2}, "geometry": {"type": "LineString", "coordinates": [[411888.5, 5655406.65], [411907.77, 5655392.07]]}}, {"type": "Feature", "properties": {"kind": "fence", "type": "railing", "h": 1.2}, "geometry": {"type": "LineString", "coordinates": [[411884.81, 5654970.14], [411875.05, 5654984.09], [411920.91, 5655012.8]]}}, {"type": "Feature", "properties": {"kind": "fence", "type": "railing", "h": 1.2}, "geometry": {"type": "LineString", "coordinates": [[411875.05, 5654984.09], [411866.61, 5654978.26], [411858.85, 5654990.44]]}}, {"type": "Feature", "properties": {"kind": "fence", "type": "railing", "h": 1.2}, "geometry": {"type": "LineString", "coordinates": [[411404.84, 5655308.71], [411443.49, 5655361.06], [411457.57, 5655379.48], [411473.66, 5655399.34], [411488.82, 5655418.3], [411499.02, 5655430.89], [411501.64, 5655429.44], [411503.81, 5655431.98]]}}, {"type": "Feature", "properties": {"kind": "fence", "type": "railing", "h": 1.2}, "geometry": {"type": "LineString", "coordinates": [[411439.0, 5654843.83], [411462.22, 5654834.05], [411451.55, 5654814.35], [411450.41, 5654812.23], [411448.81, 5654813.07], [411428.53, 5654823.72], [411439.0, 5654843.83]]}}, {"type": "Feature", "properties": {"kind": "fence", "type": "railing", "h": 1.2}, "geometry": {"type": "LineString", "coordinates": [[410044.64, 5655171.6], [410020.62, 5655137.25]]}}, {"type": "Feature", "properties": {"kind": "fence", "type": "mesh", "h": 1.2}, "geometry": {"type": "LineString", "coordinates": [[411501.03, 5654766.69], [411514.9, 5654759.02], [411529.45, 5654751.09]]}}, {"type": "Feature", "properties": {"kind": "fence", "type": "railing", "h": 1.2}, "geometry": {"type": "LineString", "coordinates": [[411433.13, 5654451.95], [411438.72, 5654449.86], [411442.8, 5654460.23], [411488.69, 5654444.82], [411512.81, 5654436.42], [411496.0, 5654386.91]]}}, {"type": "Feature", "properties": {"kind": "fence", "type": "railing", "h": 1.2}, "geometry": {"type": "LineString", "coordinates": [[410478.79, 5656000.0], [410480.1, 5655995.88]]}}, {"type": "Feature", "properties": {"kind": "fence", "type": "railing", "h": 1.2}, "geometry": {"type": "LineString", "coordinates": [[410532.54, 5655129.7], [410570.22, 5655090.16], [410586.21, 5655105.08], [410613.68, 5655130.8], [410630.87, 5655147.77], [410618.17, 5655160.85], [410618.35, 5655163.86], [410619.84, 5655165.12], [410594.47, 5655190.48], [410579.37, 5655175.21], [410560.85, 5655157.82], [410551.79, 5655148.78], [410532.54, 5655129.7]]}}, {"type": "Feature", "properties": {"kind": "fence", "type": "rail", "h": 1.0}, "geometry": {"type": "LineString", "coordinates": [[411239.81, 5655090.42], [411242.29, 5655090.75], [411246.71, 5655088.36]]}}, {"type": "Feature", "properties": {"kind": "fence", "type": "railing", "h": 1.2}, "geometry": {"type": "LineString", "coordinates": [[412000.0, 5655615.97], [411953.95, 5655536.5], [411948.2, 5655533.75], [411938.2, 5655532.36], [411922.26, 5655523.44], [411921.21, 5655522.13], [411824.33, 5655583.05], [411825.02, 5655584.68], [411823.0, 5655586.97], [411822.66, 5655596.2], [411823.91, 5655598.4], [411818.03, 5655602.22], [411847.02, 5655646.74], [411852.92, 5655642.91], [411858.41, 5655651.06], [411852.83, 5655654.68], [411862.39, 5655669.62], [411858.05, 5655672.57], [411879.1, 5655702.73], [411906.96, 5655742.07]]}}, {"type": "Feature", "properties": {"kind": "fence", "type": "railing", "h": 1.2}, "geometry": {"type": "LineString", "coordinates": [[411971.02, 5655535.63], [411968.98, 5655536.81], [411927.87, 5655470.77], [411943.39, 5655460.75]]}}, {"type": "Feature", "properties": {"kind": "fence", "type": "railing", "h": 2.0}, "geometry": {"type": "LineString", "coordinates": [[410200.55, 5655961.93], [410205.79, 5655946.38]]}}, {"type": "Feature", "properties": {"kind": "fence", "type": "railing", "h": 2.0}, "geometry": {"type": "LineString", "coordinates": [[410204.38, 5655908.6], [410205.94, 5655909.17], [410207.2, 5655909.73]]}}, {"type": "Feature", "properties": {"kind": "fence", "type": "railing", "h": 2.0}, "geometry": {"type": "LineString", "coordinates": [[410205.55, 5655926.56], [410205.48, 5655922.93], [410200.75, 5655921.29]]}}, {"type": "Feature", "properties": {"kind": "fence", "type": "railing", "h": 2.0}, "geometry": {"type": "LineString", "coordinates": [[410177.17, 5655898.9], [410174.26, 5655906.38], [410171.03, 5655914.7], [410183.83, 5655919.07]]}}, {"type": "Feature", "properties": {"kind": "fence", "type": "railing", "h": 1.2}, "geometry": {"type": "LineString", "coordinates": [[411415.76, 5655535.79], [411414.05, 5655531.11], [411416.81, 5655530.1], [411418.53, 5655534.77], [411415.76, 5655535.79]]}}, {"type": "Feature", "properties": {"kind": "fence", "type": "railing", "h": 1.2}, "geometry": {"type": "LineString", "coordinates": [[411214.92, 5655033.46], [411229.0, 5655059.76], [411231.43, 5655068.88], [411232.26, 5655075.18]]}}, {"type": "Feature", "properties": {"kind": "fence", "type": "railing", "h": 1.2}, "geometry": {"type": "LineString", "coordinates": [[411244.08, 5655068.65], [411239.24, 5655061.65], [411221.85, 5655029.59]]}}, {"type": "Feature", "properties": {"kind": "fence", "type": "railing", "h": 1.2}, "geometry": {"type": "LineString", "coordinates": [[411926.42, 5655241.79], [411951.1, 5655189.02]]}}, {"type": "Feature", "properties": {"kind": "fence", "type": "railing", "h": 1.2}, "geometry": {"type": "LineString", "coordinates": [[410670.66, 5655213.86], [410651.83, 5655196.04], [410660.29, 5655187.1], [410675.43, 5655172.02], [410678.48, 5655168.97], [410685.68, 5655161.81]]}}, {"type": "Feature", "properties": {"kind": "fence", "type": "railing", "h": 1.2}, "geometry": {"type": "LineString", "coordinates": [[410337.77, 5655849.04], [410221.2, 5655808.14]]}}, {"type": "Feature", "properties": {"kind": "fence", "type": "railing", "h": 1.2}, "geometry": {"type": "LineString", "coordinates": [[410342.02, 5655835.41], [410316.95, 5655826.81], [410310.73, 5655828.23], [410303.3, 5655826.18], [410225.7, 5655801.65]]}}, {"type": "Feature", "properties": {"kind": "fence", "type": "railing", "h": 1.2}, "geometry": {"type": "LineString", "coordinates": [[410288.8, 5655834.47], [410291.88, 5655835.44], [410295.42, 5655821.85], [410293.05, 5655821.26], [410288.8, 5655834.47]]}}, {"type": "Feature", "properties": {"kind": "fence", "type": "railing", "h": 1.2}, "geometry": {"type": "LineString", "coordinates": [[410279.32, 5655872.2], [410279.76, 5655870.44], [410283.01, 5655856.86]]}}, {"type": "Feature", "properties": {"kind": "fence", "type": "railing", "h": 1.2}, "geometry": {"type": "LineString", "coordinates": [[410283.0, 5655871.18], [410286.57, 5655857.78]]}}, {"type": "Feature", "properties": {"kind": "fence", "type": "railing", "h": 1.2}, "geometry": {"type": "LineString", "coordinates": [[410327.1, 5655977.51], [410335.72, 5655979.95]]}}, {"type": "Feature", "properties": {"kind": "fence", "type": "railing", "h": 1.2}, "geometry": {"type": "LineString", "coordinates": [[410328.06, 5655972.78], [410337.0, 5655975.33]]}}, {"type": "Feature", "properties": {"kind": "fence", "type": "mesh", "h": 1.2}, "geometry": {"type": "LineString", "coordinates": [[411140.41, 5655720.26], [411138.6, 5655726.73]]}}, {"type": "Feature", "properties": {"kind": "fence", "type": "railing", "h": 1.2}, "geometry": {"type": "LineString", "coordinates": [[411978.31, 5654132.17], [411979.72, 5654130.85], [411981.61, 5654129.07], [411985.34, 5654125.57], [411982.29, 5654122.34], [411975.26, 5654128.93], [411978.31, 5654132.17]]}}, {"type": "Feature", "properties": {"kind": "fence", "type": "railing", "h": 1.2}, "geometry": {"type": "LineString", "coordinates": [[411988.35, 5654135.85], [411995.42, 5654158.61], [411912.39, 5654187.42], [411911.81, 5654187.86]]}}, {"type": "Feature", "properties": {"kind": "fence", "type": "railing", "h": 1.2}, "geometry": {"type": "LineString", "coordinates": [[411988.35, 5654135.85], [411983.55, 5654135.46], [411982.69, 5654132.78], [411981.61, 5654129.07]]}}, {"type": "Feature", "properties": {"kind": "fence", "type": "railing", "h": 1.2}, "geometry": {"type": "LineString", "coordinates": [[411945.46, 5654129.01], [411951.52, 5654127.0], [411951.6, 5654126.16], [411981.9, 5654115.6], [411985.34, 5654125.57]]}}, {"type": "Feature", "properties": {"kind": "fence", "type": "railing", "h": 1.2}, "geometry": {"type": "LineString", "coordinates": [[411983.55, 5654135.46], [411984.65, 5654139.47]]}}, {"type": "Feature", "properties": {"kind": "fence", "type": "railing", "h": 1.2}, "geometry": {"type": "LineString", "coordinates": [[411911.81, 5654187.86], [411896.24, 5654144.83], [411893.49, 5654136.92]]}}, {"type": "Feature", "properties": {"kind": "fence", "type": "railing", "h": 1.2}, "geometry": {"type": "LineString", "coordinates": [[411896.24, 5654144.83], [411898.27, 5654144.02]]}}, {"type": "Feature", "properties": {"kind": "fence", "type": "railing", "h": 1.2}, "geometry": {"type": "LineString", "coordinates": [[411659.52, 5655702.06], [411649.98, 5655706.44], [411629.98, 5655707.54], [411630.09, 5655712.07], [411607.67, 5655712.94], [411605.67, 5655713.02], [411565.11, 5655714.67], [411563.76, 5655690.22], [411543.57, 5655691.29], [411541.71, 5655686.52]]}}, {"type": "Feature", "properties": {"kind": "fence", "type": "mesh", "h": 1.2}, "geometry": {"type": "LineString", "coordinates": [[411663.28, 5655672.97], [411673.02, 5655686.38], [411681.76, 5655698.39], [411666.46, 5655710.1]]}}, {"type": "Feature", "properties": {"kind": "fence", "type": "railing", "h": 1.2}, "geometry": {"type": "LineString", "coordinates": [[411569.81, 5655805.22], [411565.92, 5655805.33], [411559.04, 5655805.63], [411558.68, 5655798.99]]}}, {"type": "Feature", "properties": {"kind": "fence", "type": "rail", "h": 1.0}, "geometry": {"type": "LineString", "coordinates": [[410362.67, 5654404.69], [410359.89, 5654407.74], [410356.79, 5654410.67], [410353.23, 5654413.29], [410319.3, 5654438.19]]}}, {"type": "Feature", "properties": {"kind": "fence", "type": "mesh", "h": 1.2}, "geometry": {"type": "LineString", "coordinates": [[411076.22, 5654072.99], [411102.38, 5654064.53], [411111.96, 5654061.43]]}}, {"type": "Feature", "properties": {"kind": "fence", "type": "railing", "h": 1.2}, "geometry": {"type": "LineString", "coordinates": [[411211.63, 5655118.88], [411217.28, 5655115.25], [411221.38, 5655110.81], [411223.82, 5655107.36], [411226.04, 5655102.81], [411228.11, 5655097.64], [411230.48, 5655089.4]]}}, {"type": "Feature", "properties": {"kind": "fence", "type": "mesh", "h": 1.5}, "geometry": {"type": "LineString", "coordinates": [[410201.51, 5654283.63], [410224.04, 5654265.79], [410206.6, 5654241.07]]}}, {"type": "Feature", "properties": {"kind": "fence", "type": "railing", "h": 1.2}, "geometry": {"type": "LineString", "coordinates": [[412000.0, 5655755.87], [411998.57, 5655756.76], [411952.75, 5655785.27], [411949.23, 5655795.33], [411948.81, 5655796.51]]}}, {"type": "Feature", "properties": {"kind": "fence", "type": "railing", "h": 1.2}, "geometry": {"type": "LineString", "coordinates": [[411510.07, 5655437.36], [411513.64, 5655441.43]]}}, {"type": "Feature", "properties": {"kind": "fence", "type": "railing", "h": 1.2}, "geometry": {"type": "LineString", "coordinates": [[411490.17, 5655437.72], [411492.79, 5655435.79], [411495.42, 5655439.34]]}}, {"type": "Feature", "properties": {"kind": "fence", "type": "railing", "h": 1.2}, "geometry": {"type": "LineString", "coordinates": [[411540.48, 5655499.17], [411542.96, 5655501.88], [411545.2, 5655500.02], [411555.31, 5655512.63]]}}, {"type": "Feature", "properties": {"kind": "fence", "type": "railing", "h": 1.2}, "geometry": {"type": "LineString", "coordinates": [[411551.52, 5655495.51], [411550.42, 5655496.32]]}}, {"type": "Feature", "properties": {"kind": "fence", "type": "railing", "h": 1.2}, "geometry": {"type": "LineString", "coordinates": [[411551.76, 5655496.03], [411559.21, 5655505.32]]}}, {"type": "Feature", "properties": {"kind": "fence", "type": "railing", "h": 1.2}, "geometry": {"type": "LineString", "coordinates": [[411492.76, 5655440.72], [411498.66, 5655447.84]]}}, {"type": "Feature", "properties": {"kind": "fence", "type": "railing", "h": 1.2}, "geometry": {"type": "LineString", "coordinates": [[411905.71, 5655747.48], [411910.44, 5655750.75], [411927.05, 5655765.47], [411927.44, 5655767.37], [411927.07, 5655769.94], [411926.85, 5655772.6], [411927.33, 5655775.93], [411928.27, 5655779.3], [411930.0, 5655782.49], [411932.67, 5655785.94], [411938.0, 5655792.37], [411942.75, 5655788.53]]}}, {"type": "Feature", "properties": {"kind": "fence", "type": "railing", "h": 1.2}, "geometry": {"type": "LineString", "coordinates": [[411906.96, 5655742.07], [411905.71, 5655747.48]]}}, {"type": "Feature", "properties": {"kind": "fence", "type": "mesh", "h": 2.0}, "geometry": {"type": "LineString", "coordinates": [[410929.15, 5654051.63], [410932.12, 5654055.66], [410950.03, 5654057.93], [410965.83, 5654060.24]]}}, {"type": "Feature", "properties": {"kind": "fence", "type": "railing", "h": 1.2}, "geometry": {"type": "LineString", "coordinates": [[410618.93, 5654444.4], [410619.8, 5654443.77], [410627.57, 5654438.06], [410621.9, 5654430.38], [410613.27, 5654436.73], [410618.93, 5654444.4]]}}, {"type": "Feature", "properties": {"kind": "fence", "type": "railing", "h": 1.2}, "geometry": {"type": "LineString", "coordinates": [[410662.29, 5654431.58], [410627.92, 5654456.95], [410619.92, 5654445.4]]}}, {"type": "Feature", "properties": {"kind": "fence", "type": "railing", "h": 1.2}, "geometry": {"type": "LineString", "coordinates": [[410613.27, 5654436.73], [410605.06, 5654442.8], [410610.77, 5654450.43], [410616.86, 5654445.9], [410617.48, 5654445.44], [410618.93, 5654444.4], [410613.27, 5654436.73]]}}, {"type": "Feature", "properties": {"kind": "fence", "type": "mesh", "h": 1.2}, "geometry": {"type": "LineString", "coordinates": [[410604.4, 5654000.0], [410604.14, 5654003.34]]}}, {"type": "Feature", "properties": {"kind": "fence", "type": "railing", "h": 1.2}, "geometry": {"type": "LineString", "coordinates": [[410591.13, 5655477.57], [410577.93, 5655492.43], [410559.6, 5655503.72], [410515.02, 5655530.38], [410506.41, 5655532.68], [410479.02, 5655547.88], [410477.19, 5655545.1], [410459.39, 5655559.67], [410439.43, 5655580.08], [410424.41, 5655603.6], [410411.97, 5655628.68], [410413.57, 5655634.18], [410401.58, 5655664.03], [410400.19, 5655668.45], [410391.25, 5655697.59], [410389.65, 5655702.97], [410360.4, 5655691.56], [410367.72, 5655674.93], [410385.29, 5655635.89], [410412.2, 5655588.25], [410418.9, 5655578.57], [410444.29, 5655550.56], [410481.72, 5655518.95], [410481.03, 5655516.99], [410485.86, 5655513.63], [410508.08, 5655498.7], [410547.12, 5655472.23], [410560.52, 5655464.22], [410613.82, 5655430.84], [410658.47, 5655402.22], [410711.84, 5655366.97], [410761.21, 5655334.5], [410767.77, 5655336.98], [410776.86, 5655343.72], [410777.82, 5655345.85], [410780.69, 5655352.28], [410780.94, 5655360.32], [410767.72, 5655367.97], [410706.9, 5655407.85], [410651.19, 5655445.04], [410647.7, 5655447.22], [410640.19, 5655443.34], [410633.82, 5655450.75], [410613.28, 5655464.52], [410591.13, 5655477.57]]}}, {"type": "Feature", "properties": {"kind": "fence", "type": "railing", "h": 1.2}, "geometry": {"type": "LineString", "coordinates": [[411545.19, 5655804.8], [411552.77, 5655804.66], [411552.66, 5655798.37], [411552.46, 5655797.38]]}}, {"type": "Feature", "properties": {"kind": "fence", "type": "railing", "h": 1.2}, "geometry": {"type": "LineString", "coordinates": [[411565.11, 5655714.67], [411569.81, 5655805.22]]}}, {"type": "Feature", "properties": {"kind": "fence", "type": "railing", "h": 1.2}, "geometry": {"type": "LineString", "coordinates": [[411294.38, 5654192.83], [411295.68, 5654192.46], [411292.41, 5654182.04], [411280.04, 5654186.12], [411283.29, 5654196.27], [411293.39, 5654193.13]]}}, {"type": "Feature", "properties": {"kind": "fence", "type": "railing", "h": 1.2}, "geometry": {"type": "LineString", "coordinates": [[411291.85, 5654146.97], [411368.86, 5654136.65]]}}, {"type": "Feature", "properties": {"kind": "fence", "type": "mesh", "h": 1.3}, "geometry": {"type": "LineString", "coordinates": [[411277.3, 5654091.11], [411275.11, 5654084.12]]}}, {"type": "Feature", "properties": {"kind": "fence", "type": "railing", "h": 1.2}, "geometry": {"type": "LineString", "coordinates": [[411291.85, 5654146.97], [411290.9, 5654143.98], [411290.55, 5654142.84], [411291.96, 5654142.41]]}}, {"type": "Feature", "properties": {"kind": "fence", "type": "railing", "h": 1.2}, "geometry": {"type": "LineString", "coordinates": [[411291.96, 5654142.41], [411294.68, 5654141.62], [411292.84, 5654135.79]]}}, {"type": "Feature", "properties": {"kind": "fence", "type": "railing", "h": 1.2}, "geometry": {"type": "LineString", "coordinates": [[410542.03, 5654101.78], [410544.27, 5654097.13]]}}, {"type": "Feature", "properties": {"kind": "fence", "type": "railing", "h": 1.2}, "geometry": {"type": "LineString", "coordinates": [[410540.08, 5654100.96], [410541.08, 5654098.9], [410542.36, 5654096.22]]}}, {"type": "Feature", "properties": {"kind": "fence", "type": "railing", "h": 1.2}, "geometry": {"type": "LineString", "coordinates": [[410579.18, 5654109.22], [410580.25, 5654109.8], [410585.78, 5654112.74]]}}, {"type": "Feature", "properties": {"kind": "fence", "type": "railing", "h": 1.2}, "geometry": {"type": "LineString", "coordinates": [[411050.98, 5654515.51], [411053.07, 5654514.85], [411047.01, 5654495.49]]}}, {"type": "Feature", "properties": {"kind": "fence", "type": "railing", "h": 1.2}, "geometry": {"type": "LineString", "coordinates": [[411044.66, 5654487.97], [411040.34, 5654474.19]]}}, {"type": "Feature", "properties": {"kind": "fence", "type": "railing", "h": 1.2}, "geometry": {"type": "LineString", "coordinates": [[411292.1, 5655020.88], [411293.51, 5655023.37], [411294.92, 5655025.85]]}}, {"type": "Feature", "properties": {"kind": "fence", "type": "rail", "h": 1.0}, "geometry": {"type": "LineString", "coordinates": [[411306.8, 5655062.69], [411304.65, 5655063.71], [411301.98, 5655063.95], [411299.67, 5655063.66], [411297.36, 5655063.08], [411294.95, 5655062.34], [411292.8, 5655060.81], [411283.42, 5655050.75]]}}, {"type": "Feature", "properties": {"kind": "fence", "type": "railing", "h": 1.2}, "geometry": {"type": "LineString", "coordinates": [[411635.35, 5655662.76], [411605.07, 5655660.97], [411564.41, 5655664.03], [411547.11, 5655665.9], [411540.77, 5655681.29]]}}, {"type": "Feature", "properties": {"kind": "fence", "type": "railing", "h": 1.2}, "geometry": {"type": "LineString", "coordinates": [[411055.37, 5655325.33], [411055.45, 5655324.23], [411055.52, 5655323.02]]}}, {"type": "Feature", "properties": {"kind": "fence", "type": "railing", "h": 1.2}, "geometry": {"type": "LineString", "coordinates": [[410137.53, 5656000.0], [410157.95, 5655946.74], [410173.4, 5655952.11]]}}, {"type": "Feature", "properties": {"kind": "fence", "type": "railing", "h": 1.2}, "geometry": {"type": "LineString", "coordinates": [[410095.65, 5655749.52], [410099.05, 5655748.0], [410103.66, 5655749.59], [410108.2, 5655751.39], [410108.83, 5655754.93], [410205.72, 5655792.1], [410216.86, 5655760.39], [410219.51, 5655758.36], [410221.63, 5655756.77], [410225.35, 5655744.05], [410223.19, 5655728.24], [410194.1, 5655709.56], [410177.83, 5655699.29], [410162.72, 5655726.02], [410108.51, 5655692.87], [410066.16, 5655665.44], [410000.0, 5655619.76]]}}, {"type": "Feature", "properties": {"kind": "fence", "type": "railing", "h": 1.2}, "geometry": {"type": "LineString", "coordinates": [[411462.54, 5655820.35], [411440.84, 5655820.67]]}}, {"type": "Feature", "properties": {"kind": "fence", "type": "railing", "h": 1.2}, "geometry": {"type": "LineString", "coordinates": [[411440.56, 5655829.48], [411462.3, 5655829.39]]}}, {"type": "Feature", "properties": {"kind": "fence", "type": "railing", "h": 1.2}, "geometry": {"type": "LineString", "coordinates": [[410000.0, 5655713.6], [410095.65, 5655749.52]]}}, {"type": "Feature", "properties": {"kind": "fence", "type": "railing", "h": 1.2}, "geometry": {"type": "LineString", "coordinates": [[411192.07, 5654654.95], [411187.69, 5654656.44]]}}, {"type": "Feature", "properties": {"kind": "fence", "type": "railing", "h": 1.2}, "geometry": {"type": "LineString", "coordinates": [[411196.22, 5654566.76], [411194.39, 5654561.17], [411203.69, 5654558.14], [411209.91, 5654577.15], [411200.61, 5654580.19], [411197.09, 5654569.42]]}}, {"type": "Feature", "properties": {"kind": "fence", "type": "railing", "h": 1.2}, "geometry": {"type": "LineString", "coordinates": [[410558.53, 5654007.17], [410557.35, 5654015.78], [410558.03, 5654018.58], [410559.61, 5654020.19], [410563.53, 5654022.52], [410701.73, 5654095.44], [410704.47, 5654094.81], [410730.04, 5654075.35], [410730.86, 5654073.44], [410735.88, 5654033.07], [410734.95, 5654031.06], [410734.18, 5654029.4]]}}, {"type": "Feature", "properties": {"kind": "fence", "type": "railing", "h": 1.2}, "geometry": {"type": "LineString", "coordinates": [[411772.99, 5654594.83], [411889.16, 5654531.82], [411873.11, 5654483.58], [411829.55, 5654498.79], [411750.14, 5654526.08], [411772.99, 5654594.83]]}}, {"type": "Feature", "properties": {"kind": "fence", "type": "railing", "h": 1.2}, "geometry": {"type": "LineString", "coordinates": [[411013.79, 5654107.78], [411001.4, 5654111.67], [410994.1, 5654088.65], [411006.37, 5654084.59], [411013.32, 5654106.3], [411013.79, 5654107.78]]}}, {"type": "Feature", "properties": {"kind": "fence", "type": "railing", "h": 1.2}, "geometry": {"type": "LineString", "coordinates": [[410965.58, 5654592.65], [411000.09, 5654582.05], [411019.78, 5654576.0], [411023.26, 5654573.73], [411025.31, 5654570.93], [411026.34, 5654567.8], [411026.49, 5654564.06], [411022.38, 5654551.45], [410999.38, 5654480.82], [410992.09, 5654458.45], [410991.44, 5654456.42], [410978.87, 5654460.36], [410965.58, 5654592.65]]}}, {"type": "Feature", "properties": {"kind": "fence", "type": "railing", "h": 1.2}, "geometry": {"type": "LineString", "coordinates": [[410000.0, 5654831.54], [410010.12, 5654821.04], [410009.14, 5654818.37], [410000.0, 5654806.39]]}}, {"type": "Feature", "properties": {"kind": "fence", "type": "railing", "h": 1.2}, "geometry": {"type": "LineString", "coordinates": [[411027.36, 5654741.56], [411022.31, 5654724.66], [410997.27, 5654732.49], [411002.08, 5654748.92], [411027.36, 5654741.56]]}}, {"type": "Feature", "properties": {"kind": "fence", "type": "railing", "h": 1.2}, "geometry": {"type": "LineString", "coordinates": [[411778.38, 5655324.8], [411770.48, 5655320.89], [411778.08, 5655305.64], [411785.98, 5655309.57], [411778.38, 5655324.8]]}}, {"type": "Feature", "properties": {"kind": "fence", "type": "railing", "h": 1.2}, "geometry": {"type": "LineString", "coordinates": [[410157.84, 5654173.9], [410159.97, 5654176.84], [410176.32, 5654199.41], [410200.84, 5654231.3], [410169.52, 5654253.21], [410161.53, 5654251.28], [410145.9, 5654262.74], [410129.9, 5654274.47], [410128.53, 5654275.48], [410089.89, 5654223.68], [410157.84, 5654173.9]]}}, {"type": "Feature", "properties": {"kind": "fence", "type": "railing", "h": 1.2}, "geometry": {"type": "LineString", "coordinates": [[410663.68, 5655281.13], [410656.02, 5655274.52], [410646.3, 5655266.13], [410623.54, 5655291.64], [410634.64, 5655301.24], [410663.68, 5655281.13]]}}, {"type": "Feature", "properties": {"kind": "fence", "type": "railing", "h": 1.2}, "geometry": {"type": "LineString", "coordinates": [[411440.98, 5654385.68], [411422.16, 5654327.35], [411470.59, 5654311.63], [411487.42, 5654361.52], [411489.88, 5654369.02], [411474.75, 5654374.16], [411464.91, 5654377.51], [411451.02, 5654382.23], [411440.98, 5654385.68]]}}, {"type": "Feature", "properties": {"kind": "fence", "type": "railing", "h": 1.2}, "geometry": {"type": "LineString", "coordinates": [[411413.17, 5654299.77], [411461.29, 5654284.24], [411470.59, 5654311.63], [411422.16, 5654327.35], [411413.17, 5654299.77]]}}, {"type": "Feature", "properties": {"kind": "fence", "type": "railing", "h": 1.2}, "geometry": {"type": "LineString", "coordinates": [[410217.12, 5654941.08], [410212.81, 5654944.26], [410204.6, 5654950.31], [410218.6, 5654969.18], [410231.11, 5654959.95], [410217.12, 5654941.08]]}}, {"type": "Feature", "properties": {"kind": "fence", "type": "railing", "h": 1.2}, "geometry": {"type": "LineString", "coordinates": [[410307.76, 5654998.21], [410309.87, 5654999.58], [410313.2, 5655000.25], [410316.75, 5655000.36], [410319.99, 5654999.77], [410323.98, 5654997.98], [410329.21, 5654994.47], [410336.66, 5654989.04], [410308.58, 5654949.91], [410265.54, 5654890.58], [410241.4, 5654908.48], [410269.49, 5654947.87], [410307.76, 5654998.21]]}}, {"type": "Feature", "properties": {"kind": "fence", "type": "railing", "h": 1.2}, "geometry": {"type": "LineString", "coordinates": [[411259.22, 5654325.94], [411285.55, 5654317.73], [411283.34, 5654310.66], [411272.52, 5654276.1], [411246.18, 5654284.31], [411251.3, 5654300.65], [411259.22, 5654325.94]]}}, {"type": "Feature", "properties": {"kind": "fence", "type": "railing", "h": 1.2}, "geometry": {"type": "LineString", "coordinates": [[410615.67, 5654462.34], [410602.86, 5654444.27], [410605.06, 5654442.8], [410610.77, 5654450.43], [410617.48, 5654445.44], [410624.7, 5654455.77], [410615.67, 5654462.34]]}}, {"type": "Feature", "properties": {"kind": "fence", "type": "mesh", "h": 1.2}, "geometry": {"type": "LineString", "coordinates": [[411198.71, 5654531.48], [411198.92, 5654532.14], [411199.27, 5654533.31], [411200.51, 5654537.33], [411191.4, 5654540.11], [411191.09, 5654539.1], [411189.61, 5654534.26], [411198.71, 5654531.48]]}}, {"type": "Feature", "properties": {"kind": "fence", "type": "railing", "h": 1.2}, "geometry": {"type": "LineString", "coordinates": [[411225.72, 5654646.38], [411223.33, 5654638.69], [411229.93, 5654636.66], [411232.32, 5654644.36], [411229.09, 5654645.35], [411225.72, 5654646.38]]}}, {"type": "Feature", "properties": {"kind": "gate", "w": 1.2, "on": "fence"}, "geometry": {"type": "Point", "coordinates": [411488.69, 5654444.82]}}, {"type": "Feature", "properties": {"kind": "gate", "w": 1.2, "on": "fence"}, "geometry": {"type": "Point", "coordinates": [410398.97, 5654781.16]}}, {"type": "Feature", "properties": {"kind": "gate", "w": 1.2, "on": "fence"}, "geometry": {"type": "Point", "coordinates": [410734.95, 5654031.06]}}, {"type": "Feature", "properties": {"kind": "gate", "w": 1.2, "on": "fence"}, "geometry": {"type": "Point", "coordinates": [410604.95, 5655200.41]}}, {"type": "Feature", "properties": {"kind": "gate", "w": 1.2, "on": "fence"}, "geometry": {"type": "Point", "coordinates": [411394.49, 5654576.78]}}, {"type": "Feature", "properties": {"kind": "gate", "w": 1.2, "on": "fence"}, "geometry": {"type": "Point", "coordinates": [411417.58, 5654486.38]}}, {"type": "Feature", "properties": {"kind": "gate", "w": 1.2, "on": "fence"}, "geometry": {"type": "Point", "coordinates": [411401.21, 5654491.87]}}, {"type": "Feature", "properties": {"kind": "gate", "w": 1.2, "on": "fence"}, "geometry": {"type": "Point", "coordinates": [410182.62, 5655437.66]}}, {"type": "Feature", "properties": {"kind": "gate", "w": 1.2, "on": "fence"}, "geometry": {"type": "Point", "coordinates": [410400.19, 5655668.45]}}, {"type": "Feature", "properties": {"kind": "gate", "w": 1.2, "on": "fence"}, "geometry": {"type": "Point", "coordinates": [411408.36, 5654621.28]}}, {"type": "Feature", "properties": {"kind": "gate", "w": 1.2, "on": "fence"}, "geometry": {"type": "Point", "coordinates": [411322.8, 5654690.07]}}, {"type": "Feature", "properties": {"kind": "gate", "w": 1.2, "on": "fence"}, "geometry": {"type": "Point", "coordinates": [411495.06, 5654460.03]}}, {"type": "Feature", "properties": {"kind": "gate", "w": 1.2, "on": "fence"}, "geometry": {"type": "Point", "coordinates": [411473.7, 5654467.23]}}, {"type": "Feature", "properties": {"kind": "gate", "w": 1.2, "on": "fence"}, "geometry": {"type": "Point", "coordinates": [411445.17, 5654476.73]}}, {"type": "Feature", "properties": {"kind": "gate", "w": 1.2, "on": "fence"}, "geometry": {"type": "Point", "coordinates": [411531.55, 5654494.03]}}, {"type": "Feature", "properties": {"kind": "gate", "w": 1.2, "on": "fence"}, "geometry": {"type": "Point", "coordinates": [410656.02, 5655274.52]}}, {"type": "Feature", "properties": {"kind": "gate", "w": 1.2, "on": "fence"}, "geometry": {"type": "Point", "coordinates": [410176.32, 5654199.41]}}, {"type": "Feature", "properties": {"kind": "gate", "w": 1.2, "on": "fence"}, "geometry": {"type": "Point", "coordinates": [411792.76, 5654977.62]}}, {"type": "Feature", "properties": {"kind": "gate", "w": 1.2, "on": "fence"}, "geometry": {"type": "Point", "coordinates": [410955.78, 5654127.38]}}, {"type": "Feature", "properties": {"kind": "gate", "w": 1.2, "on": "fence"}, "geometry": {"type": "Point", "coordinates": [410955.05, 5654132.55]}}, {"type": "Feature", "properties": {"kind": "gate", "w": 1.2, "on": "fence"}, "geometry": {"type": "Point", "coordinates": [411320.52, 5654173.17]}}, {"type": "Feature", "properties": {"kind": "gate", "w": 1.2, "on": "fence"}, "geometry": {"type": "Point", "coordinates": [411441.28, 5654203.5]}}, {"type": "Feature", "properties": {"kind": "gate", "w": 1.2, "on": "fence"}, "geometry": {"type": "Point", "coordinates": [411282.41, 5654222.08]}}, {"type": "Feature", "properties": {"kind": "gate", "w": 1.2, "on": "fence"}, "geometry": {"type": "Point", "coordinates": [411989.43, 5654929.57]}}, {"type": "Feature", "properties": {"kind": "gate", "w": 1.2, "on": "fence"}, "geometry": {"type": "Point", "coordinates": [411752.07, 5654969.06]}}, {"type": "Feature", "properties": {"kind": "gate", "w": 1.2, "on": "fence"}, "geometry": {"type": "Point", "coordinates": [411682.75, 5655049.08]}}, {"type": "Feature", "properties": {"kind": "gate", "w": 1.2, "on": "fence"}, "geometry": {"type": "Point", "coordinates": [411900.57, 5655425.28]}}, {"type": "Feature", "properties": {"kind": "gate", "w": 1.2, "on": "fence"}, "geometry": {"type": "Point", "coordinates": [411919.27, 5655015.4]}}, {"type": "Feature", "properties": {"kind": "gate", "w": 1.2, "on": "fence"}, "geometry": {"type": "Point", "coordinates": [410651.19, 5655445.04]}}, {"type": "Feature", "properties": {"kind": "gate", "w": 1.2, "on": "fence"}, "geometry": {"type": "Point", "coordinates": [411487.42, 5654361.52]}}, {"type": "Feature", "properties": {"kind": "gate", "w": 1.2, "on": "fence"}, "geometry": {"type": "Point", "coordinates": [410159.97, 5654176.84]}}, {"type": "Feature", "properties": {"kind": "gate", "w": 1.2, "on": "fence"}, "geometry": {"type": "Point", "coordinates": [410642.99, 5655444.79]}}, {"type": "Feature", "properties": {"kind": "gate", "w": 1.2, "on": "fence"}, "geometry": {"type": "Point", "coordinates": [411451.55, 5654814.35]}}, {"type": "Feature", "properties": {"kind": "gate", "w": 1.2, "on": "fence"}, "geometry": {"type": "Point", "coordinates": [410560.85, 5655157.82]}}, {"type": "Feature", "properties": {"kind": "gate", "w": 1.2, "on": "fence"}, "geometry": {"type": "Point", "coordinates": [410579.37, 5655175.21]}}, {"type": "Feature", "properties": {"kind": "gate", "w": 1.2, "on": "fence"}, "geometry": {"type": "Point", "coordinates": [410269.49, 5654947.87]}}, {"type": "Feature", "properties": {"kind": "gate", "w": 1.2, "on": "fence"}, "geometry": {"type": "Point", "coordinates": [410201.51, 5654283.63]}}, {"type": "Feature", "properties": {"kind": "gate", "w": 1.2, "on": "fence"}, "geometry": {"type": "Point", "coordinates": [411922.26, 5655523.44]}}, {"type": "Feature", "properties": {"kind": "gate", "w": 1.2, "on": "fence"}, "geometry": {"type": "Point", "coordinates": [410174.26, 5655906.38]}}, {"type": "Feature", "properties": {"kind": "gate", "w": 1.2, "on": "fence"}, "geometry": {"type": "Point", "coordinates": [410199.11, 5655961.41]}}, {"type": "Feature", "properties": {"kind": "gate", "w": 1.2, "on": "fence"}, "geometry": {"type": "Point", "coordinates": [410205.94, 5655909.17]}}, {"type": "Feature", "properties": {"kind": "gate", "w": 1.2, "on": "wall"}, "geometry": {"type": "Point", "coordinates": [411379.54, 5655910.76]}}, {"type": "Feature", "properties": {"kind": "gate", "w": 1.2, "on": "fence"}, "geometry": {"type": "Point", "coordinates": [410660.29, 5655187.1]}}, {"type": "Feature", "properties": {"kind": "gate", "w": 1.2, "on": "fence"}, "geometry": {"type": "Point", "coordinates": [410678.48, 5655168.97]}}, {"type": "Feature", "properties": {"kind": "gate", "w": 1.2, "on": "fence"}, "geometry": {"type": "Point", "coordinates": [410675.43, 5655172.02]}}, {"type": "Feature", "properties": {"kind": "gate", "w": 1.2, "on": "fence"}, "geometry": {"type": "Point", "coordinates": [411982.69, 5654132.78]}}, {"type": "Feature", "properties": {"kind": "gate", "w": 1.2, "on": "fence"}, "geometry": {"type": "Point", "coordinates": [411979.72, 5654130.85]}}, {"type": "Feature", "properties": {"kind": "gate", "w": 1.2, "on": "fence"}, "geometry": {"type": "Point", "coordinates": [411931.21, 5654844.17]}}, {"type": "Feature", "properties": {"kind": "gate", "w": 1.2, "on": "fence"}, "geometry": {"type": "Point", "coordinates": [411833.49, 5655001.99]}}, {"type": "Feature", "properties": {"kind": "gate", "w": 1.2, "on": "fence"}, "geometry": {"type": "Point", "coordinates": [411751.36, 5655196.69]}}, {"type": "Feature", "properties": {"kind": "gate", "w": 1.2, "on": "fence"}, "geometry": {"type": "Point", "coordinates": [410103.66, 5655749.59]}}, {"type": "Feature", "properties": {"kind": "gate", "w": 1.2, "on": "fence"}, "geometry": {"type": "Point", "coordinates": [410619.8, 5654443.77]}}, {"type": "Feature", "properties": {"kind": "gate", "w": 1.2, "on": "fence"}, "geometry": {"type": "Point", "coordinates": [410616.86, 5654445.9]}}, {"type": "Feature", "properties": {"kind": "gate", "w": 1.2, "on": "wall"}, "geometry": {"type": "Point", "coordinates": [410676.07, 5654451.16]}}, {"type": "Feature", "properties": {"kind": "gate", "w": 1.2, "on": "fence"}, "geometry": {"type": "Point", "coordinates": [411000.09, 5654582.05]}}, {"type": "Feature", "properties": {"kind": "gate", "w": 1.2, "on": "fence"}, "geometry": {"type": "Point", "coordinates": [411022.38, 5654551.45]}}, {"type": "Feature", "properties": {"kind": "gate", "w": 1.2, "on": "fence"}, "geometry": {"type": "Point", "coordinates": [410999.38, 5654480.82]}}, {"type": "Feature", "properties": {"kind": "gate", "w": 1.2, "on": "fence"}, "geometry": {"type": "Point", "coordinates": [410992.09, 5654458.45]}}, {"type": "Feature", "properties": {"kind": "gate", "w": 1.2, "on": "wall"}, "geometry": {"type": "Point", "coordinates": [411198.28, 5655282.42]}}, {"type": "Feature", "properties": {"kind": "gate", "w": 1.2, "on": "fence"}, "geometry": {"type": "Point", "coordinates": [410194.1, 5655709.56]}}, {"type": "Feature", "properties": {"kind": "gate", "w": 1.2, "on": "fence"}, "geometry": {"type": "Point", "coordinates": [410219.51, 5655758.36]}}, {"type": "Feature", "properties": {"kind": "gate", "w": 1.2, "on": "fence"}, "geometry": {"type": "Point", "coordinates": [411290.9, 5654143.98]}}, {"type": "Feature", "properties": {"kind": "gate", "w": 1.2, "on": "fence"}, "geometry": {"type": "Point", "coordinates": [411283.34, 5654310.66]}}, {"type": "Feature", "properties": {"kind": "gate", "w": 1.2, "on": "fence"}, "geometry": {"type": "Point", "coordinates": [411251.3, 5654300.65]}}, {"type": "Feature", "properties": {"kind": "gate", "w": 1.2, "on": "fence"}, "geometry": {"type": "Point", "coordinates": [410580.25, 5654109.8]}}, {"type": "Feature", "properties": {"kind": "gate", "w": 1.2, "on": "fence"}, "geometry": {"type": "Point", "coordinates": [411293.51, 5655023.37]}}, {"type": "Feature", "properties": {"kind": "gate", "w": 1.2, "on": "fence"}, "geometry": {"type": "Point", "coordinates": [411055.45, 5655324.23]}}, {"type": "Feature", "properties": {"kind": "gate", "w": 1.2, "on": "fence"}, "geometry": {"type": "Point", "coordinates": [411198.92, 5654532.14]}}, {"type": "Feature", "properties": {"kind": "gate", "w": 1.2, "on": "fence"}, "geometry": {"type": "Point", "coordinates": [411191.09, 5654539.1]}}, {"type": "Feature", "properties": {"kind": "gate", "w": 1.2, "on": "fence"}, "geometry": {"type": "Point", "coordinates": [411229.09, 5654645.35]}}]}