{"type": "FeatureCollection", "crs": {"type": "name", "properties": {"name": "urn:ogc:def:crs:EPSG::25833"}}, "features": [{"type": "Feature", "properties": {"kind": "wall", "h": 1.5}, "geometry": {"type": "LineString", "coordinates": [[412054.39, 5658544.74], [412053.73, 5658474.63]]}}, {"type": "Feature", "properties": {"kind": "wall", "h": 1.5}, "geometry": {"type": "LineString", "coordinates": [[412028.46, 5658591.84], [412018.86, 5658591.78], [412018.45, 5658579.62]]}}, {"type": "Feature", "properties": {"kind": "wall", "h": 1.5}, "geometry": {"type": "LineString", "coordinates": [[412250.01, 5658544.77], [412246.76, 5658544.75], [412243.5, 5658544.73], [412228.06, 5658544.61]]}}, {"type": "Feature", "properties": {"kind": "wall", "h": 1.5}, "geometry": {"type": "LineString", "coordinates": [[412750.05, 5659333.97], [412749.5, 5659333.06], [412732.3, 5659304.49], [412715.51, 5659276.62], [412709.93, 5659267.11], [412706.42, 5659261.29], [412667.02, 5659195.15]]}}, {"type": "Feature", "properties": {"kind": "retaining_wall", "h": 3.0}, "geometry": {"type": "LineString", "coordinates": [[412538.18, 5659294.99], [412546.79, 5659278.83], [412556.85, 5659263.01], [412568.89, 5659252.22], [412598.0, 5659234.85], [412667.02, 5659195.15]]}}, {"type": "Feature", "properties": {"kind": "wall", "h": 1.5}, "geometry": {"type": "LineString", "coordinates": [[412041.95, 5658677.76], [412035.07, 5658661.8]]}}, {"type": "Feature", "properties": {"kind": "wall", "h": 1.5}, "geometry": {"type": "LineString", "coordinates": [[413033.96, 5659431.75], [413035.31, 5659435.13], [413028.13, 5659438.45], [413029.03, 5659440.68], [413030.1, 5659442.69], [413036.81, 5659439.53], [413038.69, 5659444.08]]}}, {"type": "Feature", "properties": {"kind": "wall", "h": 1.5}, "geometry": {"type": "LineString", "coordinates": [[413015.57, 5659391.68], [413005.36, 5659369.56]]}}, {"type": "Feature", "properties": {"kind": "wall", "h": 1.5}, "geometry": {"type": "LineString", "coordinates": [[413003.06, 5659281.89], [413000.27, 5659276.87], [412998.36, 5659272.75]]}}, {"type": "Feature", "properties": {"kind": "wall", "h": 1.5}, "geometry": {"type": "LineString", "coordinates": [[412036.45, 5658579.19], [412036.68, 5658585.99], [412028.48, 5658586.13], [412028.46, 5658591.84], [412028.63, 5658598.41], [412037.21, 5658598.26], [412038.93, 5658602.65]]}}, {"type": "Feature", "properties": {"kind": "retaining_wall", "h": 3.0}, "geometry": {"type": "LineString", "coordinates": [[414000.0, 5658417.21], [413978.43, 5658428.98]]}}, {"type": "Feature", "properties": {"kind": "retaining_wall", "h": 3.0}, "geometry": {"type": "LineString", "coordinates": [[413989.29, 5658441.64], [414000.0, 5658435.67]]}}, {"type": "Feature", "properties": {"kind": "wall", "h": 1.5}, "geometry": {"type": "LineString", "coordinates": [[412683.86, 5658177.76], [412670.64, 5658184.22]]}}, {"type": "Feature", "properties": {"kind": "wall", "h": 1.5}, "geometry": {"type": "LineString", "coordinates": [[412708.03, 5658183.4], [412696.29, 5658171.67]]}}, {"type": "Feature", "properties": {"kind": "wall", "h": 1.5}, "geometry": {"type": "LineString", "coordinates": [[412696.26, 5658201.06], [412702.72, 5658197.66]]}}, {"type": "Feature", "properties": {"kind": "wall", "h": 1.5}, "geometry": {"type": "LineString", "coordinates": [[412698.07, 5658188.39], [412677.6, 5658197.82]]}}, {"type": "Feature", "properties": {"kind": "wall", "h": 1.5}, "geometry": {"type": "LineString", "coordinates": [[413064.95, 5659908.67], [413096.11, 5659964.66]]}}, {"type": "Feature", "properties": {"kind": "wall", "h": 1.5}, "geometry": {"type": "LineString", "coordinates": [[413013.36, 5659815.33], [413061.84, 5659902.77]]}}, {"type": "Feature", "properties": {"kind": "wall", "h": 1.5}, "geometry": {"type": "LineString", "coordinates": [[412366.79, 5659034.92], [412376.37, 5659033.84], [412385.4, 5659032.95]]}}, {"type": "Feature", "properties": {"kind": "wall", "h": 1.5}, "geometry": {"type": "LineString", "coordinates": [[412459.04, 5659058.26], [412460.33, 5659060.12], [412462.22, 5659061.79], [412464.51, 5659063.03], [412467.1, 5659064.05], [412470.1, 5659064.92], [412472.96, 5659065.73], [412475.18, 5659066.54], [412476.48, 5659067.08], [412479.21, 5659069.04], [412480.68, 5659071.22], [412481.58, 5659073.75], [412481.75, 5659075.66], [412481.51, 5659078.66]]}}, {"type": "Feature", "properties": {"kind": "wall", "h": 1.5}, "geometry": {"type": "LineString", "coordinates": [[412464.79, 5659033.05], [412465.23, 5659029.63], [412465.1, 5659025.72], [412464.75, 5659023.47], [412464.1, 5659021.83], [412463.21, 5659019.79], [412461.93, 5659017.15], [412459.72, 5659013.86], [412458.18, 5659012.3]]}}, {"type": "Feature", "properties": {"kind": "retaining_wall", "h": 3.0}, "geometry": {"type": "LineString", "coordinates": [[412038.46, 5658025.25], [412043.66, 5658032.28], [412047.25, 5658039.06], [412052.67, 5658053.12], [412062.51, 5658079.48], [412073.27, 5658109.57], [412084.05, 5658139.2], [412079.61, 5658141.86], [412081.98, 5658147.71], [412077.2, 5658149.84], [412084.34, 5658163.33], [412069.14, 5658163.94], [412061.62, 5658164.24], [412055.36, 5658164.49], [412047.18, 5658164.81], [412041.18, 5658165.05], [412033.48, 5658165.35], [412028.43, 5658165.56], [412020.12, 5658165.89], [412015.16, 5658166.09], [412001.92, 5658166.62], [412000.0, 5658166.69]]}}, {"type": "Feature", "properties": {"kind": "retaining_wall", "h": 3.0}, "geometry": {"type": "LineString", "coordinates": [[412317.23, 5658537.85], [412312.27, 5658539.34], [412308.94, 5658540.36], [412302.51, 5658542.29], [412299.82, 5658543.1], [412295.46, 5658544.42], [412288.19, 5658546.61], [412287.14, 5658546.93], [412285.36, 5658544.33], [412270.98, 5658523.26], [412232.29, 5658476.08], [412235.78, 5658456.25], [412235.83, 5658455.97], [412236.59, 5658451.57], [412237.73, 5658445.06], [412238.67, 5658439.72], [412241.24, 5658437.96], [412238.95, 5658434.27], [412239.7, 5658430.35], [412240.28, 5658427.32], [412241.07, 5658423.16], [412241.91, 5658418.72], [412281.89, 5658481.35], [412317.23, 5658537.85]]}}, {"type": "Feature", "properties": {"kind": "retaining_wall", "h": 3.0}, "geometry": {"type": "LineString", "coordinates": [[412018.02, 5658249.08], [412000.0, 5658224.41]]}}, {"type": "Feature", "properties": {"kind": "retaining_wall", "h": 3.0}, "geometry": {"type": "LineString", "coordinates": [[412000.0, 5658183.67], [412000.51, 5658183.65], [412005.78, 5658183.44], [412013.6, 5658183.12], [412018.82, 5658182.91], [412031.85, 5658182.4], [412036.8, 5658182.21], [412043.56, 5658181.96], [412048.38, 5658181.76], [412059.31, 5658181.22], [412063.24, 5658181.05], [412069.43, 5658180.64], [412077.99, 5658180.45], [412083.95, 5658180.2], [412087.47, 5658180.05], [412093.83, 5658179.8], [412132.15, 5658242.13], [412171.19, 5658305.41], [412225.66, 5658394.1], [412225.08, 5658398.72], [412224.12, 5658406.53], [412223.57, 5658411.2], [412222.82, 5658416.9], [412222.29, 5658421.18], [412221.4, 5658428.38], [412220.8, 5658433.18], [412220.24, 5658437.67], [412219.12, 5658446.76], [412217.74, 5658457.79], [412211.28, 5658449.84], [412209.58, 5658500.54], [412207.29, 5658530.43]]}}, {"type": "Feature", "properties": {"kind": "retaining_wall", "h": 3.0}, "geometry": {"type": "LineString", "coordinates": [[412307.98, 5658580.45], [412300.13, 5658568.31], [412301.72, 5658567.85], [412308.61, 5658565.87], [412313.33, 5658564.5], [412315.55, 5658563.86], [412321.84, 5658562.04], [412324.09, 5658561.39], [412331.75, 5658559.18], [412334.5, 5658563.66], [412329.63, 5658567.46]]}}, {"type": "Feature", "properties": {"kind": "retaining_wall", "h": 3.0}, "geometry": {"type": "LineString", "coordinates": [[412502.3, 5658844.72], [412496.57, 5658848.18], [412493.76, 5658849.91], [412489.99, 5658852.23], [412487.67, 5658853.57], [412484.03, 5658855.91], [412478.02, 5658859.77]]}}, {"type": "Feature", "properties": {"kind": "retaining_wall", "h": 3.0}, "geometry": {"type": "LineString", "coordinates": [[412207.29, 5658530.43], [412203.33, 5658533.7], [412202.14, 5658543.53], [412199.87, 5658543.66], [412191.19, 5658543.72], [412185.73, 5658543.7], [412181.87, 5658543.35], [412178.41, 5658543.04], [412179.93, 5658533.8], [412176.51, 5658498.43]]}}, {"type": "Feature", "properties": {"kind": "retaining_wall", "h": 3.0}, "geometry": {"type": "LineString", "coordinates": [[412171.82, 5658609.24], [412167.49, 5658617.45], [412153.27, 5658610.62], [412152.1, 5658607.2], [412155.41, 5658606.35], [412159.84, 5658605.22], [412164.78, 5658603.99], [412170.96, 5658602.36], [412172.43, 5658601.96], [412172.95, 5658602.51], [412171.42, 5658606.12], [412176.84, 5658608.46], [412177.13, 5658609.47], [412176.51, 5658610.69], [412175.03, 5658613.61], [412177.2, 5658614.79], [412178.06, 5658615.25], [412178.54, 5658619.09], [412176.92, 5658622.27], [412170.25, 5658618.72], [412174.6, 5658610.65]]}}, {"type": "Feature", "properties": {"kind": "retaining_wall", "h": 3.0}, "geometry": {"type": "LineString", "coordinates": [[412190.93, 5658566.8], [412190.27, 5658569.36], [412169.37, 5658576.57], [412167.17, 5658577.14], [412172.01, 5658563.76], [412174.02, 5658564.23], [412190.93, 5658566.8]]}}, {"type": "Feature", "properties": {"kind": "retaining_wall", "h": 7.0}, "geometry": {"type": "LineString", "coordinates": [[412075.44, 5658727.6], [412076.11, 5658732.3], [412076.93, 5658737.95], [412077.86, 5658744.42], [412078.83, 5658751.12], [412079.66, 5658756.15], [412075.72, 5658760.09], [412066.12, 5658769.33], [412049.05, 5658785.18], [412030.21, 5658799.29], [412013.91, 5658810.92], [412000.0, 5658820.61]]}}, {"type": "Feature", "properties": {"kind": "retaining_wall", "h": 7.0}, "geometry": {"type": "LineString", "coordinates": [[412000.0, 5658792.99], [412004.95, 5658789.64], [412020.5, 5658778.12], [412033.28, 5658768.07], [412055.4, 5658748.96], [412075.44, 5658727.6]]}}, {"type": "Feature", "properties": {"kind": "wall", "h": 1.5}, "geometry": {"type": "LineString", "coordinates": [[412019.08, 5658600.35], [412023.69, 5658609.94]]}}, {"type": "Feature", "properties": {"kind": "wall", "h": 1.5}, "geometry": {"type": "LineString", "coordinates": [[412007.57, 5658617.3], [412000.0, 5658603.79]]}}, {"type": "Feature", "properties": {"kind": "wall", "h": 1.5}, "geometry": {"type": "LineString", "coordinates": [[412087.09, 5658643.71], [412086.61, 5658639.03], [412088.86, 5658638.55], [412094.61, 5658642.15]]}}, {"type": "Feature", "properties": {"kind": "wall", "h": 1.5}, "geometry": {"type": "LineString", "coordinates": [[412144.34, 5658611.64], [412143.66, 5658609.08]]}}, {"type": "Feature", "properties": {"kind": "wall", "h": 1.5}, "geometry": {"type": "LineString", "coordinates": [[412104.86, 5658618.5], [412099.59, 5658619.91], [412100.15, 5658622.61], [412105.64, 5658625.82]]}}, {"type": "Feature", "properties": {"kind": "retaining_wall", "h": 3.0}, "geometry": {"type": "LineString", "coordinates": [[412146.91, 5658608.16], [412147.39, 5658610.83], [412144.34, 5658611.64], [412145.29, 5658616.14], [412141.0, 5658624.67], [412138.21, 5658625.66], [412127.61, 5658643.28], [412126.37, 5658645.55]]}}, {"type": "Feature", "properties": {"kind": "wall", "h": 1.5}, "geometry": {"type": "LineString", "coordinates": [[412092.86, 5658696.6], [412092.39, 5658692.3], [412091.63, 5658685.32], [412091.49, 5658684.05]]}}, {"type": "Feature", "properties": {"kind": "wall", "h": 1.5}, "geometry": {"type": "LineString", "coordinates": [[412040.77, 5658702.24], [412043.6, 5658701.88], [412042.97, 5658695.95], [412042.74, 5658692.16]]}}, {"type": "Feature", "properties": {"kind": "wall", "h": 1.5}, "geometry": {"type": "LineString", "coordinates": [[412022.28, 5658695.4], [412021.18, 5658685.89], [412010.13, 5658691.33], [412008.33, 5658692.22], [412001.27, 5658677.83]]}}, {"type": "Feature", "properties": {"kind": "wall", "h": 1.5}, "geometry": {"type": "LineString", "coordinates": [[412027.52, 5658732.07], [412022.88, 5658726.72]]}}, {"type": "Feature", "properties": {"kind": "wall", "h": 1.5}, "geometry": {"type": "LineString", "coordinates": [[412024.4, 5658715.13], [412032.85, 5658714.44], [412038.61, 5658721.52]]}}, {"type": "Feature", "properties": {"kind": "wall", "h": 1.5}, "geometry": {"type": "LineString", "coordinates": [[412043.6, 5658701.88], [412044.02, 5658705.51], [412049.42, 5658709.69]]}}, {"type": "Feature", "properties": {"kind": "wall", "h": 1.5}, "geometry": {"type": "LineString", "coordinates": [[412042.97, 5658695.95], [412053.66, 5658694.6]]}}, {"type": "Feature", "properties": {"kind": "wall", "h": 1.5}, "geometry": {"type": "LineString", "coordinates": [[412008.58, 5658248.5], [412012.66, 5658254.22], [412006.73, 5658258.81], [412008.17, 5658260.86], [412003.69, 5658265.08]]}}, {"type": "Feature", "properties": {"kind": "retaining_wall", "h": 3.0}, "geometry": {"type": "LineString", "coordinates": [[413051.67, 5658653.5], [413031.63, 5658663.67], [413032.41, 5658665.5], [413033.24, 5658667.1], [413053.36, 5658656.73]]}}, {"type": "Feature", "properties": {"kind": "retaining_wall", "h": 3.0}, "geometry": {"type": "LineString", "coordinates": [[412871.52, 5658764.9], [412885.37, 5658758.03], [412887.86, 5658755.67], [412889.63, 5658753.11], [412890.64, 5658749.69], [412890.57, 5658745.5], [412886.68, 5658747.52], [412883.16, 5658749.53], [412881.74, 5658751.84], [412868.07, 5658758.67]]}}, {"type": "Feature", "properties": {"kind": "retaining_wall", "h": 3.0}, "geometry": {"type": "LineString", "coordinates": [[413127.26, 5659195.28], [413132.91, 5659196.65], [413146.54, 5659189.7], [413191.94, 5659166.58], [413201.78, 5659169.1], [413205.18, 5659175.07]]}}, {"type": "Feature", "properties": {"kind": "wall", "h": 1.5}, "geometry": {"type": "LineString", "coordinates": [[412144.1, 5658626.37], [412129.63, 5658651.12], [412108.97, 5658684.57], [412093.99, 5658705.24]]}}, {"type": "Feature", "properties": {"kind": "retaining_wall", "h": 3.0}, "geometry": {"type": "LineString", "coordinates": [[412052.64, 5659638.8], [412051.78, 5659632.61]]}}, {"type": "Feature", "properties": {"kind": "wall", "h": 1.5}, "geometry": {"type": "LineString", "coordinates": [[412219.13, 5658737.73], [412226.15, 5658737.25], [412224.88, 5658716.06], [412219.84, 5658716.54]]}}, {"type": "Feature", "properties": {"kind": "wall", "h": 1.5}, "geometry": {"type": "LineString", "coordinates": [[412380.8, 5659021.85], [412382.72, 5659021.55], [412403.84, 5659019.31], [412403.14, 5659009.65], [412403.0, 5659007.61]]}}, {"type": "Feature", "properties": {"kind": "wall", "h": 1.5}, "geometry": {"type": "LineString", "coordinates": [[412372.7, 5659000.96], [412388.92, 5658999.58]]}}, {"type": "Feature", "properties": {"kind": "retaining_wall", "h": 3.0}, "geometry": {"type": "LineString", "coordinates": [[412343.0, 5658917.13], [412345.15, 5658921.12]]}}, {"type": "Feature", "properties": {"kind": "wall", "h": 1.5}, "geometry": {"type": "LineString", "coordinates": [[412246.52, 5658993.55], [412257.93, 5658991.86]]}}, {"type": "Feature", "properties": {"kind": "wall", "h": 1.5}, "geometry": {"type": "LineString", "coordinates": [[412294.45, 5659054.13], [412294.46, 5659053.35]]}}, {"type": "Feature", "properties": {"kind": "wall", "h": 1.5}, "geometry": {"type": "LineString", "coordinates": [[412366.48, 5659077.93], [412355.26, 5659079.23]]}}, {"type": "Feature", "properties": {"kind": "retaining_wall", "h": 3.0}, "geometry": {"type": "LineString", "coordinates": [[412369.64, 5659063.11], [412388.06, 5659061.29], [412396.2, 5659060.48]]}}, {"type": "Feature", "properties": {"kind": "wall", "h": 1.5}, "geometry": {"type": "LineString", "coordinates": [[412368.1, 5659047.71], [412369.29, 5659059.16]]}}, {"type": "Feature", "properties": {"kind": "wall", "h": 1.5}, "geometry": {"type": "LineString", "coordinates": [[412386.37, 5659042.45], [412388.06, 5659061.29]]}}, {"type": "Feature", "properties": {"kind": "wall", "h": 1.5}, "geometry": {"type": "LineString", "coordinates": [[412604.52, 5658807.52], [412618.38, 5658832.3]]}}, {"type": "Feature", "properties": {"kind": "wall", "h": 1.5}, "geometry": {"type": "LineString", "coordinates": [[412623.28, 5658829.37], [412644.8, 5658816.39]]}}, {"type": "Feature", "properties": {"kind": "retaining_wall", "h": 3.0}, "geometry": {"type": "LineString", "coordinates": [[412804.12, 5659083.88], [412685.39, 5659153.75], [412656.18, 5659171.34], [412598.36, 5659205.08]]}}, {"type": "Feature", "properties": {"kind": "retaining_wall", "h": 3.0}, "geometry": {"type": "LineString", "coordinates": [[412605.5, 5659221.31], [412700.0, 5659165.36], [412806.13, 5659102.52], [412810.74, 5659099.8]]}}, {"type": "Feature", "properties": {"kind": "wall", "h": 1.5}, "geometry": {"type": "LineString", "coordinates": [[412538.18, 5659294.99], [412528.01, 5659314.06], [412526.25, 5659317.36], [412524.13, 5659321.37], [412519.33, 5659330.48]]}}, {"type": "Feature", "properties": {"kind": "retaining_wall", "h": 3.0}, "geometry": {"type": "LineString", "coordinates": [[412548.12, 5659346.93], [412523.39, 5659332.8], [412520.4, 5659331.09], [412519.33, 5659330.48], [412475.93, 5659406.87], [412452.12, 5659449.3], [412455.07, 5659454.66], [412457.15, 5659456.65]]}}, {"type": "Feature", "properties": {"kind": "wall", "h": 1.5}, "geometry": {"type": "LineString", "coordinates": [[412863.23, 5659035.2], [412869.91, 5659030.97]]}}, {"type": "Feature", "properties": {"kind": "wall", "h": 1.5}, "geometry": {"type": "LineString", "coordinates": [[412680.87, 5658814.53], [412681.7, 5658815.93], [412681.07, 5658817.54], [412679.01, 5658818.55], [412682.77, 5658824.76], [412683.99, 5658826.78], [412688.03, 5658833.46]]}}, {"type": "Feature", "properties": {"kind": "retaining_wall", "h": 3.0}, "geometry": {"type": "LineString", "coordinates": [[413156.18, 5658782.09], [413165.9, 5658801.33]]}}, {"type": "Feature", "properties": {"kind": "wall", "h": 1.5}, "geometry": {"type": "LineString", "coordinates": [[413129.62, 5658726.18], [413144.17, 5658718.77], [413190.15, 5658695.34], [413194.39, 5658693.17], [413196.96, 5658691.86]]}}, {"type": "Feature", "properties": {"kind": "retaining_wall", "h": 3.0}, "geometry": {"type": "LineString", "coordinates": [[413301.42, 5658344.48], [413302.98, 5658347.45], [413304.79, 5658352.4], [413318.95, 5658385.44], [413317.39, 5658402.21], [413318.97, 5658403.05], [413323.19, 5658399.74], [413332.18, 5658397.38], [413334.5, 5658402.24], [413350.96, 5658396.69]]}}, {"type": "Feature", "properties": {"kind": "wall", "h": 1.5}, "geometry": {"type": "LineString", "coordinates": [[413304.12, 5658343.3], [413301.42, 5658344.48]]}}, {"type": "Feature", "properties": {"kind": "wall", "h": 1.5}, "geometry": {"type": "LineString", "coordinates": [[413309.84, 5658340.85], [413307.39, 5658341.91], [413308.84, 5658345.32]]}}, {"type": "Feature", "properties": {"kind": "wall", "h": 1.5}, "geometry": {"type": "LineString", "coordinates": [[413104.01, 5658304.37], [413105.02, 5658306.99], [413108.1, 5658313.37], [413110.44, 5658318.64]]}}, {"type": "Feature", "properties": {"kind": "wall", "h": 1.5}, "geometry": {"type": "LineString", "coordinates": [[412724.59, 5658106.41], [412723.32, 5658106.98]]}}, {"type": "Feature", "properties": {"kind": "wall", "h": 1.5}, "geometry": {"type": "LineString", "coordinates": [[412718.71, 5658109.45], [412720.54, 5658108.49]]}}, {"type": "Feature", "properties": {"kind": "wall", "h": 1.5}, "geometry": {"type": "LineString", "coordinates": [[412654.8, 5658142.82], [412646.36, 5658146.79]]}}, {"type": "Feature", "properties": {"kind": "wall", "h": 1.5}, "geometry": {"type": "LineString", "coordinates": [[412677.17, 5658132.31], [412682.32, 5658129.74]]}}, {"type": "Feature", "properties": {"kind": "retaining_wall", "h": 3.0}, "geometry": {"type": "LineString", "coordinates": [[413929.7, 5658483.23], [413934.07, 5658480.78], [414000.0, 5658443.82]]}}, {"type": "Feature", "properties": {"kind": "wall", "h": 1.5}, "geometry": {"type": "LineString", "coordinates": [[412359.16, 5658123.37], [412353.82, 5658111.74]]}}, {"type": "Feature", "properties": {"kind": "wall", "h": 1.5}, "geometry": {"type": "LineString", "coordinates": [[412388.26, 5658156.19], [412385.28, 5658149.14]]}}, {"type": "Feature", "properties": {"kind": "wall", "h": 1.5}, "geometry": {"type": "LineString", "coordinates": [[412394.16, 5658144.8], [412404.75, 5658139.92]]}}, {"type": "Feature", "properties": {"kind": "wall", "h": 1.5}, "geometry": {"type": "LineString", "coordinates": [[412331.33, 5658173.84], [412318.07, 5658179.85], [412311.37, 5658183.28]]}}, {"type": "Feature", "properties": {"kind": "wall", "h": 1.5}, "geometry": {"type": "LineString", "coordinates": [[412329.25, 5658537.24], [412331.95, 5658536.48], [412334.43, 5658535.81]]}}, {"type": "Feature", "properties": {"kind": "wall", "h": 1.5}, "geometry": {"type": "LineString", "coordinates": [[412309.88, 5658513.11], [412308.98, 5658511.12], [412308.51, 5658510.5]]}}, {"type": "Feature", "properties": {"kind": "wall", "h": 1.5}, "geometry": {"type": "LineString", "coordinates": [[412328.95, 5658479.14], [412312.42, 5658488.6]]}}, {"type": "Feature", "properties": {"kind": "wall", "h": 1.5}, "geometry": {"type": "LineString", "coordinates": [[412267.75, 5658447.14], [412276.08, 5658441.65]]}}, {"type": "Feature", "properties": {"kind": "wall", "h": 1.5}, "geometry": {"type": "LineString", "coordinates": [[412280.94, 5658468.14], [412282.59, 5658470.61]]}}, {"type": "Feature", "properties": {"kind": "wall", "h": 1.5}, "geometry": {"type": "LineString", "coordinates": [[412254.67, 5658427.29], [412252.65, 5658423.85], [412248.93, 5658418.15]]}}, {"type": "Feature", "properties": {"kind": "wall", "h": 1.5}, "geometry": {"type": "LineString", "coordinates": [[412270.51, 5658387.43], [412271.82, 5658386.92], [412273.23, 5658387.28], [412274.31, 5658388.53]]}}, {"type": "Feature", "properties": {"kind": "wall", "h": 1.5}, "geometry": {"type": "LineString", "coordinates": [[412270.01, 5658418.27], [412286.32, 5658408.75]]}}, {"type": "Feature", "properties": {"kind": "wall", "h": 1.5}, "geometry": {"type": "LineString", "coordinates": [[412284.92, 5658406.4], [412286.32, 5658408.75], [412286.94, 5658409.83]]}}, {"type": "Feature", "properties": {"kind": "wall", "h": 1.5}, "geometry": {"type": "LineString", "coordinates": [[412284.18, 5658436.74], [412298.49, 5658428.86]]}}, {"type": "Feature", "properties": {"kind": "wall", "h": 1.5}, "geometry": {"type": "LineString", "coordinates": [[412296.24, 5658456.1], [412310.14, 5658448.1]]}}, {"type": "Feature", "properties": {"kind": "wall", "h": 1.5}, "geometry": {"type": "LineString", "coordinates": [[412299.04, 5658496.33], [412296.56, 5658492.39]]}}, {"type": "Feature", "properties": {"kind": "wall", "h": 1.5}, "geometry": {"type": "LineString", "coordinates": [[412331.01, 5658509.46], [412334.99, 5658507.53]]}}, {"type": "Feature", "properties": {"kind": "wall", "h": 1.5}, "geometry": {"type": "LineString", "coordinates": [[412277.26, 5658261.88], [412282.83, 5658258.88], [412284.33, 5658261.29], [412286.9, 5658259.88]]}}, {"type": "Feature", "properties": {"kind": "wall", "h": 1.5}, "geometry": {"type": "LineString", "coordinates": [[412273.81, 5658251.83], [412277.32, 5658249.66], [412275.24, 5658246.08], [412277.12, 5658244.68]]}}, {"type": "Feature", "properties": {"kind": "wall", "h": 1.5}, "geometry": {"type": "LineString", "coordinates": [[412255.58, 5658271.45], [412266.72, 5658264.05]]}}, {"type": "Feature", "properties": {"kind": "wall", "h": 1.5}, "geometry": {"type": "LineString", "coordinates": [[412237.03, 5658265.81], [412238.39, 5658267.98], [412240.71, 5658266.5], [412246.93, 5658276.89]]}}, {"type": "Feature", "properties": {"kind": "wall", "h": 1.5}, "geometry": {"type": "LineString", "coordinates": [[412249.56, 5658287.1], [412249.03, 5658285.94], [412251.68, 5658284.31], [412250.06, 5658281.85]]}}, {"type": "Feature", "properties": {"kind": "wall", "h": 1.5}, "geometry": {"type": "LineString", "coordinates": [[412258.58, 5658276.22], [412260.94, 5658280.14]]}}, {"type": "Feature", "properties": {"kind": "wall", "h": 1.5}, "geometry": {"type": "LineString", "coordinates": [[412370.73, 5658357.36], [412372.14, 5658359.52], [412363.75, 5658364.75], [412353.55, 5658371.03]]}}, {"type": "Feature", "properties": {"kind": "wall", "h": 1.5}, "geometry": {"type": "LineString", "coordinates": [[412418.49, 5658648.95], [412424.07, 5658646.16]]}}, {"type": "Feature", "properties": {"kind": "wall", "h": 6.0}, "geometry": {"type": "LineString", "coordinates": [[413416.04, 5659533.7], [413425.3, 5659551.38]]}}, {"type": "Feature", "properties": {"kind": "retaining_wall", "h": 7.0}, "geometry": {"type": "LineString", "coordinates": [[412144.1, 5658626.37], [412150.69, 5658615.38], [412163.96, 5658622.23], [412164.26, 5658624.15], [412161.9, 5658628.22], [412164.95, 5658630.07], [412166.07, 5658628.28], [412172.03, 5658631.35], [412158.87, 5658655.78], [412153.1, 5658664.08], [412136.02, 5658688.66], [412104.94, 5658727.79], [412103.44, 5658726.92], [412100.38, 5658730.32], [412096.92, 5658734.48], [412096.77, 5658730.72], [412095.99, 5658723.23], [412095.42, 5658716.11], [412094.65, 5658710.24], [412093.99, 5658705.24], [412092.86, 5658696.6], [412100.22, 5658685.54], [412105.13, 5658684.57], [412105.43, 5658678.71]]}}, {"type": "Feature", "properties": {"kind": "retaining_wall", "h": 3.0}, "geometry": {"type": "LineString", "coordinates": [[412147.39, 5658610.83], [412148.31, 5658614.18], [412150.69, 5658615.38]]}}, {"type": "Feature", "properties": {"kind": "retaining_wall", "h": 3.0}, "geometry": {"type": "LineString", "coordinates": [[412185.94, 5658350.15], [412176.79, 5658330.16], [412166.28, 5658310.19], [412153.28, 5658287.08]]}}, {"type": "Feature", "properties": {"kind": "wall", "h": 1.5}, "geometry": {"type": "LineString", "coordinates": [[412664.12, 5658174.0], [412678.96, 5658167.89]]}}, {"type": "Feature", "properties": {"kind": "wall", "h": 1.5}, "geometry": {"type": "LineString", "coordinates": [[412329.31, 5659175.83], [412327.45, 5659156.93]]}}, {"type": "Feature", "properties": {"kind": "wall", "h": 1.5}, "geometry": {"type": "LineString", "coordinates": [[412826.97, 5658215.31], [412823.88, 5658216.87], [412820.79, 5658218.41]]}}, {"type": "Feature", "properties": {"kind": "wall", "h": 1.5}, "geometry": {"type": "LineString", "coordinates": [[413186.67, 5659183.28], [413125.12, 5659216.79], [413123.2, 5659213.01], [413120.85, 5659212.56], [413116.02, 5659214.98], [413109.07, 5659201.87]]}}, {"type": "Feature", "properties": {"kind": "wall", "h": 1.5}, "geometry": {"type": "LineString", "coordinates": [[413035.26, 5659265.44], [413098.91, 5659232.28], [413096.3, 5659227.19], [413096.83, 5659225.15], [413101.65, 5659222.66], [413094.71, 5659209.74]]}}, {"type": "Feature", "properties": {"kind": "wall", "h": 1.5}, "geometry": {"type": "LineString", "coordinates": [[412278.01, 5659067.14], [412277.58, 5659061.44]]}}, {"type": "Feature", "properties": {"kind": "wall", "h": 1.5}, "geometry": {"type": "LineString", "coordinates": [[412277.59, 5659051.93], [412276.9, 5659044.16], [412286.53, 5659043.15], [412288.03, 5659042.97], [412293.53, 5659042.37]]}}, {"type": "Feature", "properties": {"kind": "wall", "h": 1.5}, "geometry": {"type": "LineString", "coordinates": [[412314.41, 5659069.71], [412314.48, 5659070.6], [412318.68, 5659070.29], [412318.61, 5659069.34]]}}, {"type": "Feature", "properties": {"kind": "wall", "h": 1.5}, "geometry": {"type": "LineString", "coordinates": [[412318.57, 5659068.65], [412318.49, 5659067.78], [412314.29, 5659068.09], [412314.36, 5659069.04]]}}, {"type": "Feature", "properties": {"kind": "wall", "h": 1.5}, "geometry": {"type": "LineString", "coordinates": [[412334.62, 5659110.9], [412335.68, 5659122.13]]}}, {"type": "Feature", "properties": {"kind": "wall", "h": 1.5}, "geometry": {"type": "LineString", "coordinates": [[412235.24, 5658239.16], [412222.71, 5658218.64], [412222.96, 5658218.48], [412263.28, 5658192.62]]}}, {"type": "Feature", "properties": {"kind": "wall", "h": 1.5}, "geometry": {"type": "LineString", "coordinates": [[412053.58, 5658437.07], [412053.64, 5658463.17]]}}, {"type": "Feature", "properties": {"kind": "wall", "h": 1.5}, "geometry": {"type": "LineString", "coordinates": [[412412.19, 5658031.53], [412415.05, 5658037.19]]}}, {"type": "Feature", "properties": {"kind": "wall", "h": 1.5}, "geometry": {"type": "LineString", "coordinates": [[412372.71, 5658012.1], [412368.6, 5658000.0]]}}, {"type": "Feature", "properties": {"kind": "wall", "h": 1.5}, "geometry": {"type": "LineString", "coordinates": [[412318.68, 5659070.29], [412318.78, 5659071.91]]}}, {"type": "Feature", "properties": {"kind": "retaining_wall", "h": 3.0}, "geometry": {"type": "LineString", "coordinates": [[412737.23, 5658803.11], [412725.32, 5658781.25], [412712.62, 5658757.96], [412709.06, 5658751.41]]}}, {"type": "Feature", "properties": {"kind": "retaining_wall", "h": 3.0}, "geometry": {"type": "LineString", "coordinates": [[412760.8, 5658747.67], [412756.54, 5658740.71], [412761.68, 5658725.52], [412814.12, 5658699.65], [412816.33, 5658699.76], [412817.85, 5658700.38], [412819.07, 5658701.4]]}}, {"type": "Feature", "properties": {"kind": "retaining_wall", "h": 3.0}, "geometry": {"type": "LineString", "coordinates": [[412881.8, 5658817.98], [412863.18, 5658828.1], [412863.76, 5658829.16], [412864.61, 5658830.75], [412883.45, 5658820.77]]}}, {"type": "Feature", "properties": {"kind": "retaining_wall", "h": 3.0}, "geometry": {"type": "LineString", "coordinates": [[412724.45, 5658779.54], [412729.34, 5658776.92], [412734.93, 5658773.97], [412732.02, 5658768.96], [412729.18, 5658762.79]]}}, {"type": "Feature", "properties": {"kind": "retaining_wall", "h": 3.0}, "geometry": {"type": "LineString", "coordinates": [[412723.96, 5658750.64], [412722.3, 5658747.56], [412745.84, 5658734.93], [412747.46, 5658737.93]]}}, {"type": "Feature", "properties": {"kind": "wall", "h": 1.5}, "geometry": {"type": "LineString", "coordinates": [[412610.81, 5658067.34], [412605.23, 5658069.91], [412598.21, 5658075.42]]}}, {"type": "Feature", "properties": {"kind": "wall", "h": 1.5}, "geometry": {"type": "LineString", "coordinates": [[412629.97, 5658000.55], [412636.03, 5658013.64]]}}, {"type": "Feature", "properties": {"kind": "wall", "h": 1.5}, "geometry": {"type": "LineString", "coordinates": [[412631.88, 5658058.55], [412622.63, 5658062.27]]}}, {"type": "Feature", "properties": {"kind": "wall", "h": 1.5}, "geometry": {"type": "LineString", "coordinates": [[413855.26, 5658290.09], [413851.97, 5658279.45], [413848.67, 5658278.19], [413846.12, 5658277.39], [413843.75, 5658276.96], [413840.93, 5658276.35], [413838.86, 5658276.2], [413836.41, 5658276.15], [413833.59, 5658276.2], [413831.43, 5658276.23], [413829.08, 5658276.27], [413827.72, 5658273.95]]}}, {"type": "Feature", "properties": {"kind": "wall", "h": 1.5}, "geometry": {"type": "LineString", "coordinates": [[413922.16, 5658257.88], [413923.79, 5658263.94]]}}, {"type": "Feature", "properties": {"kind": "wall", "h": 1.5}, "geometry": {"type": "LineString", "coordinates": [[413924.34, 5658266.0], [413926.33, 5658273.42], [413929.29, 5658272.54]]}}, {"type": "Feature", "properties": {"kind": "wall", "h": 1.5}, "geometry": {"type": "LineString", "coordinates": [[413883.93, 5658167.87], [413905.08, 5658179.6], [413903.53, 5658182.44], [413906.34, 5658183.83]]}}, {"type": "Feature", "properties": {"kind": "wall", "h": 1.5}, "geometry": {"type": "LineString", "coordinates": [[413926.88, 5658199.12], [413927.83, 5658201.93]]}}, {"type": "Feature", "properties": {"kind": "wall", "h": 1.5}, "geometry": {"type": "LineString", "coordinates": [[413887.39, 5658215.76], [413865.01, 5658203.67]]}}, {"type": "Feature", "properties": {"kind": "wall", "h": 1.5}, "geometry": {"type": "LineString", "coordinates": [[413829.08, 5658276.27], [413854.57, 5658356.12], [413861.69, 5658384.77]]}}, {"type": "Feature", "properties": {"kind": "wall", "h": 1.5}, "geometry": {"type": "LineString", "coordinates": [[413931.98, 5658216.96], [413937.44, 5658236.57], [413942.96, 5658235.16], [413945.45, 5658244.54]]}}, {"type": "Feature", "properties": {"kind": "wall", "h": 1.5}, "geometry": {"type": "LineString", "coordinates": [[412426.42, 5658024.64], [412430.18, 5658034.23]]}}, {"type": "Feature", "properties": {"kind": "retaining_wall", "h": 3.0}, "geometry": {"type": "LineString", "coordinates": [[413733.7, 5660000.0], [413733.6, 5659997.42]]}}, {"type": "Feature", "properties": {"kind": "retaining_wall", "h": 3.0}, "geometry": {"type": "LineString", "coordinates": [[413459.35, 5658765.82], [413461.71, 5658763.99], [413463.88, 5658761.51], [413464.96, 5658758.64], [413465.85, 5658756.09], [413465.75, 5658752.57], [413465.04, 5658749.03], [413463.61, 5658745.62], [413462.36, 5658743.59]]}}, {"type": "Feature", "properties": {"kind": "retaining_wall", "h": 3.0}, "geometry": {"type": "LineString", "coordinates": [[413431.79, 5658761.44], [413435.11, 5658766.3], [413437.78, 5658768.75], [413442.28, 5658770.35], [413447.3, 5658770.65], [413449.84, 5658770.46], [413450.57, 5658770.2]]}}, {"type": "Feature", "properties": {"kind": "wall", "h": 1.5}, "geometry": {"type": "LineString", "coordinates": [[412312.62, 5659208.96], [412316.5, 5659208.51]]}}, {"type": "Feature", "properties": {"kind": "embankment", "h": 2.5}, "geometry": {"type": "LineString", "coordinates": [[412664.88, 5659967.5], [412668.11, 5659954.21], [412672.02, 5659942.52], [412675.47, 5659936.44], [412679.79, 5659930.33], [412685.03, 5659927.02], [412694.06, 5659925.25], [412707.52, 5659922.98], [412721.85, 5659921.98], [412730.88, 5659919.89], [412737.63, 5659916.33], [412744.31, 5659909.65], [412759.68, 5659892.81], [412778.71, 5659869.67], [412800.5, 5659843.25], [412810.36, 5659833.08], [412817.39, 5659827.46], [412823.36, 5659823.06], [412831.18, 5659819.7], [412839.15, 5659818.39], [412843.69, 5659819.17], [412848.27, 5659821.57], [412852.53, 5659824.83], [412854.98, 5659829.2], [412856.99, 5659833.47], [412857.52, 5659838.63], [412856.53, 5659844.13], [412854.57, 5659849.66], [412848.0, 5659863.44], [412839.25, 5659881.89], [412830.6, 5659900.23], [412827.53, 5659910.07], [412819.8, 5659957.46], [412812.44, 5660000.0]]}}, {"type": "Feature", "properties": {"kind": "embankment", "h": 2.5}, "geometry": {"type": "LineString", "coordinates": [[412634.68, 5660000.0], [412632.15, 5659990.82], [412629.66, 5659969.98], [412629.88, 5659949.95], [412635.04, 5659884.02]]}}, {"type": "Feature", "properties": {"kind": "embankment", "h": 2.5}, "geometry": {"type": "LineString", "coordinates": [[412664.82, 5660000.0], [412664.09, 5659987.88], [412664.32, 5659976.26], [412664.88, 5659967.5]]}}, {"type": "Feature", "properties": {"kind": "wall", "h": 1.0}, "geometry": {"type": "LineString", "coordinates": [[412349.62, 5659060.01], [412348.0, 5659048.28]]}}, {"type": "Feature", "properties": {"kind": "retaining_wall", "h": 3.0}, "geometry": {"type": "LineString", "coordinates": [[413550.45, 5659642.91], [413509.48, 5659564.69], [413504.27, 5659567.6], [413492.82, 5659545.86]]}}, {"type": "Feature", "properties": {"kind": "retaining_wall", "h": 3.0}, "geometry": {"type": "LineString", "coordinates": [[412548.6, 5659347.2], [412561.27, 5659329.14], [412572.23, 5659332.16], [412590.46, 5659337.91], [412618.86, 5659354.28], [412645.87, 5659370.57], [412659.41, 5659380.07], [412660.42, 5659383.92]]}}, {"type": "Feature", "properties": {"kind": "wall", "h": 1.5}, "geometry": {"type": "LineString", "coordinates": [[412739.13, 5659335.05], [412741.11, 5659336.33], [412749.5, 5659333.06]]}}, {"type": "Feature", "properties": {"kind": "wall", "h": 1.5}, "geometry": {"type": "LineString", "coordinates": [[412750.05, 5659333.97], [412744.22, 5659342.22], [412749.38, 5659344.91]]}}, {"type": "Feature", "properties": {"kind": "wall", "h": 1.5}, "geometry": {"type": "LineString", "coordinates": [[412733.74, 5659336.71], [412732.44, 5659334.85], [412715.69, 5659323.98], [412712.34, 5659325.34]]}}, {"type": "Feature", "properties": {"kind": "wall", "h": 1.5}, "geometry": {"type": "LineString", "coordinates": [[412721.96, 5659312.16], [412718.64, 5659316.31], [412717.94, 5659315.91], [412712.02, 5659320.17], [412710.75, 5659321.43]]}}, {"type": "Feature", "properties": {"kind": "retaining_wall", "h": 3.0}, "geometry": {"type": "LineString", "coordinates": [[413437.54, 5658510.54], [413434.55, 5658508.5], [413434.23, 5658508.13], [413434.05, 5658507.61], [413434.2, 5658507.09], [413434.48, 5658506.65], [413440.72, 5658496.06], [413442.16, 5658493.88]]}}, {"type": "Feature", "properties": {"kind": "wall", "h": 1.5}, "geometry": {"type": "LineString", "coordinates": [[412797.04, 5659274.88], [412798.65, 5659273.98], [412800.04, 5659274.5], [412801.21, 5659275.27], [412801.38, 5659276.68], [412800.89, 5659277.99]]}}, {"type": "Feature", "properties": {"kind": "wall", "h": 1.5}, "geometry": {"type": "LineString", "coordinates": [[412835.05, 5659234.45], [412836.5, 5659234.34], [412837.55, 5659233.1], [412838.22, 5659231.94], [412838.05, 5659230.72]]}}, {"type": "Feature", "properties": {"kind": "wall", "h": 1.5}, "geometry": {"type": "LineString", "coordinates": [[412832.97, 5659233.26], [412832.71, 5659232.12], [412833.68, 5659230.58], [412835.12, 5659229.94]]}}, {"type": "Feature", "properties": {"kind": "wall", "h": 1.5}, "geometry": {"type": "LineString", "coordinates": [[412327.68, 5658061.06], [412334.33, 5658076.1]]}}, {"type": "Feature", "properties": {"kind": "wall", "h": 1.5}, "geometry": {"type": "LineString", "coordinates": [[412462.51, 5658094.12], [412468.36, 5658112.34]]}}, {"type": "Feature", "properties": {"kind": "wall", "h": 1.5}, "geometry": {"type": "LineString", "coordinates": [[412453.47, 5658068.58], [412458.54, 5658082.91]]}}, {"type": "Feature", "properties": {"kind": "wall", "h": 1.5}, "geometry": {"type": "LineString", "coordinates": [[412754.5, 5659736.2], [412768.31, 5659747.72]]}}, {"type": "Feature", "properties": {"kind": "wall", "h": 1.5}, "geometry": {"type": "LineString", "coordinates": [[412723.36, 5659838.8], [412712.94, 5659851.41], [412692.62, 5659835.1]]}}, {"type": "Feature", "properties": {"kind": "wall", "h": 1.5}, "geometry": {"type": "LineString", "coordinates": [[413975.81, 5658714.04], [413937.43, 5658734.22]]}}, {"type": "Feature", "properties": {"kind": "retaining_wall", "h": 3.0}, "geometry": {"type": "LineString", "coordinates": [[413674.92, 5658884.29], [413682.17, 5658881.99], [413726.76, 5658858.0], [413728.85, 5658858.56], [413813.44, 5658813.15], [413816.55, 5658811.48], [413817.59, 5658808.39], [413855.25, 5658788.18]]}}, {"type": "Feature", "properties": {"kind": "retaining_wall", "h": 3.0}, "geometry": {"type": "LineString", "coordinates": [[413832.07, 5658803.88], [413857.23, 5658789.88], [413861.44, 5658791.71], [413872.27, 5658785.52]]}}, {"type": "Feature", "properties": {"kind": "retaining_wall", "h": 3.0}, "geometry": {"type": "LineString", "coordinates": [[413670.05, 5658673.99], [413651.46, 5658638.95], [413683.14, 5658621.32], [413684.32, 5658622.78], [413684.8, 5658622.51], [413685.3, 5658622.24], [413684.73, 5658620.41], [413770.2, 5658572.76]]}}, {"type": "Feature", "properties": {"kind": "retaining_wall", "h": 3.0}, "geometry": {"type": "LineString", "coordinates": [[413562.32, 5658751.77], [413553.1, 5658733.76], [413551.65, 5658734.57], [413535.52, 5658703.53], [413647.04, 5658641.16], [413666.58, 5658675.87]]}}, {"type": "Feature", "properties": {"kind": "wall", "h": 1.5}, "geometry": {"type": "LineString", "coordinates": [[412952.25, 5658075.38], [412954.98, 5658074.16]]}}, {"type": "Feature", "properties": {"kind": "wall", "h": 1.5}, "geometry": {"type": "LineString", "coordinates": [[412967.61, 5658068.5], [412980.64, 5658062.51]]}}, {"type": "Feature", "properties": {"kind": "wall", "h": 1.5}, "geometry": {"type": "LineString", "coordinates": [[412957.88, 5658047.58], [412971.13, 5658041.94]]}}, {"type": "Feature", "properties": {"kind": "wall", "h": 1.5}, "geometry": {"type": "LineString", "coordinates": [[413901.03, 5658000.0], [413890.78, 5658022.82], [413886.31, 5658032.78], [413881.92, 5658042.56], [413875.66, 5658056.47], [413875.42, 5658057.01], [413870.78, 5658067.35], [413861.44, 5658088.14]]}}, {"type": "Feature", "properties": {"kind": "wall", "h": 1.5}, "geometry": {"type": "LineString", "coordinates": [[413930.41, 5658042.13], [413933.76, 5658035.27], [413918.58, 5658028.13]]}}, {"type": "Feature", "properties": {"kind": "wall", "h": 1.5}, "geometry": {"type": "LineString", "coordinates": [[413921.24, 5658061.16], [413905.83, 5658053.88], [413881.92, 5658042.56]]}}, {"type": "Feature", "properties": {"kind": "wall", "h": 1.5}, "geometry": {"type": "LineString", "coordinates": [[413890.78, 5658022.82], [413903.51, 5658028.57], [413908.39, 5658030.88], [413909.38, 5658029.09]]}}, {"type": "Feature", "properties": {"kind": "wall", "h": 1.5}, "geometry": {"type": "LineString", "coordinates": [[413921.24, 5658061.16], [413920.25, 5658063.29]]}}, {"type": "Feature", "properties": {"kind": "wall", "h": 1.5}, "geometry": {"type": "LineString", "coordinates": [[413910.29, 5658083.72], [413909.41, 5658085.71], [413905.65, 5658083.97]]}}, {"type": "Feature", "properties": {"kind": "wall", "h": 1.5}, "geometry": {"type": "LineString", "coordinates": [[413898.58, 5658108.15], [413897.46, 5658110.53], [413895.12, 5658111.12], [413893.0, 5658109.66]]}}, {"type": "Feature", "properties": {"kind": "wall", "h": 1.5}, "geometry": {"type": "LineString", "coordinates": [[413868.13, 5658092.68], [413861.44, 5658088.14], [413856.67, 5658084.79], [413840.3, 5658073.24]]}}, {"type": "Feature", "properties": {"kind": "wall", "h": 1.5}, "geometry": {"type": "LineString", "coordinates": [[413840.3, 5658073.24], [413851.72, 5658046.28], [413853.24, 5658042.69], [413861.73, 5658022.63]]}}, {"type": "Feature", "properties": {"kind": "wall", "h": 1.5}, "geometry": {"type": "LineString", "coordinates": [[413861.73, 5658022.63], [413835.62, 5658011.19]]}}, {"type": "Feature", "properties": {"kind": "wall", "h": 1.5}, "geometry": {"type": "LineString", "coordinates": [[413840.3, 5658073.24], [413838.29, 5658071.87]]}}, {"type": "Feature", "properties": {"kind": "wall", "h": 1.5}, "geometry": {"type": "LineString", "coordinates": [[413758.15, 5658016.1], [413766.5, 5658021.92], [413775.02, 5658000.0]]}}, {"type": "Feature", "properties": {"kind": "wall", "h": 1.5}, "geometry": {"type": "LineString", "coordinates": [[412317.46, 5658034.97], [412315.04, 5658027.07], [412314.86, 5658026.5], [412312.65, 5658019.27], [412308.45, 5658005.57], [412306.75, 5658000.0]]}}, {"type": "Feature", "properties": {"kind": "wall", "h": 1.5}, "geometry": {"type": "LineString", "coordinates": [[413998.93, 5658009.05], [414000.0, 5658005.26]]}}, {"type": "Feature", "properties": {"kind": "wall", "h": 1.5}, "geometry": {"type": "LineString", "coordinates": [[413974.6, 5658057.38], [413990.06, 5658025.29], [413993.27, 5658018.61], [413995.89, 5658019.65]]}}, {"type": "Feature", "properties": {"kind": "wall", "h": 1.5}, "geometry": {"type": "LineString", "coordinates": [[413960.28, 5658011.24], [413990.06, 5658025.29]]}}, {"type": "Feature", "properties": {"kind": "wall", "h": 1.5}, "geometry": {"type": "LineString", "coordinates": [[413960.28, 5658011.24], [413963.9, 5658003.64], [413965.64, 5658000.0]]}}, {"type": "Feature", "properties": {"kind": "wall", "h": 1.5}, "geometry": {"type": "LineString", "coordinates": [[413923.49, 5658087.11], [413953.39, 5658102.1]]}}, {"type": "Feature", "properties": {"kind": "wall", "h": 1.5}, "geometry": {"type": "LineString", "coordinates": [[413955.03, 5658102.84], [413962.47, 5658086.28]]}}, {"type": "Feature", "properties": {"kind": "wall", "h": 1.5}, "geometry": {"type": "LineString", "coordinates": [[413938.37, 5658056.63], [413939.4, 5658054.56], [413942.77, 5658056.05]]}}, {"type": "Feature", "properties": {"kind": "wall", "h": 1.5}, "geometry": {"type": "LineString", "coordinates": [[413964.88, 5658081.32], [413970.81, 5658069.3]]}}, {"type": "Feature", "properties": {"kind": "wall", "h": 1.5}, "geometry": {"type": "LineString", "coordinates": [[413982.07, 5658109.14], [413995.22, 5658080.84]]}}, {"type": "Feature", "properties": {"kind": "wall", "h": 1.5}, "geometry": {"type": "LineString", "coordinates": [[413910.62, 5658122.02], [413908.34, 5658120.5], [413908.08, 5658119.62], [413909.13, 5658117.29]]}}, {"type": "Feature", "properties": {"kind": "wall", "h": 1.5}, "geometry": {"type": "LineString", "coordinates": [[412333.86, 5658021.1], [412334.79, 5658023.47]]}}, {"type": "Feature", "properties": {"kind": "wall", "h": 1.5}, "geometry": {"type": "LineString", "coordinates": [[413573.06, 5658766.13], [413585.94, 5658788.48]]}}, {"type": "Feature", "properties": {"kind": "retaining_wall", "h": 3.0}, "geometry": {"type": "LineString", "coordinates": [[413587.25, 5658760.05], [413583.83, 5658757.4], [413572.15, 5658762.37]]}}, {"type": "Feature", "properties": {"kind": "wall", "h": 1.5}, "geometry": {"type": "LineString", "coordinates": [[412243.5, 5658544.73], [412245.71, 5658529.17], [412228.47, 5658526.31]]}}, {"type": "Feature", "properties": {"kind": "wall", "h": 1.5}, "geometry": {"type": "LineString", "coordinates": [[412687.6, 5658124.79], [412684.95, 5658119.17]]}}, {"type": "Feature", "properties": {"kind": "wall", "h": 1.5}, "geometry": {"type": "LineString", "coordinates": [[412628.04, 5658116.19], [412638.6, 5658110.68]]}}, {"type": "Feature", "properties": {"kind": "wall", "h": 1.5}, "geometry": {"type": "LineString", "coordinates": [[412230.95, 5658615.05], [412220.83, 5658620.54]]}}, {"type": "Feature", "properties": {"kind": "wall", "h": 1.5}, "geometry": {"type": "LineString", "coordinates": [[412000.0, 5658545.3], [412054.39, 5658544.74], [412151.6, 5658544.78], [412176.85, 5658544.54], [412177.8, 5658532.72], [412173.97, 5658498.49], [412168.62, 5658450.04], [412166.86, 5658436.27], [412053.58, 5658437.07], [412000.0, 5658437.45], [412000.0, 5658545.3]]}}, {"type": "Feature", "properties": {"kind": "wall", "h": 1.5}, "geometry": {"type": "LineString", "coordinates": [[412933.57, 5658607.02], [412932.91, 5658607.68], [412932.07, 5658608.1], [412931.14, 5658608.19], [412930.23, 5658607.97], [412929.45, 5658607.45], [412928.94, 5658606.78], [412928.66, 5658605.98], [412928.64, 5658605.13], [412928.89, 5658604.32], [412929.38, 5658603.63], [412930.05, 5658603.12], [412930.86, 5658602.85], [412931.71, 5658602.83], [412932.52, 5658603.08], [412933.21, 5658603.57], [412933.76, 5658604.33], [412934.01, 5658605.23], [412933.94, 5658606.16], [412933.57, 5658607.02]]}}, {"type": "Feature", "properties": {"kind": "wall", "h": 1.5}, "geometry": {"type": "LineString", "coordinates": [[413267.27, 5659407.73], [413265.91, 5659405.2], [413264.91, 5659405.7], [413266.32, 5659408.25], [413267.27, 5659407.73]]}}]}