{"type": "FeatureCollection", "attribution": "\u00a9 OpenStreetMap contributors (ODbL)", "crs": {"type": "name", "properties": {"name": "urn:ogc:def:crs:EPSG::25832"}}, "features": [{"type": "Feature", "properties": {"h": 5.0}, "geometry": {"type": "Point", "coordinates": [692604.1, 5334797.5]}}, {"type": "Feature", "properties": {"h": 5.0}, "geometry": {"type": "Point", "coordinates": [692012.5, 5335238.4]}}, {"type": "Feature", "properties": {"h": 5.0}, "geometry": {"type": "Point", "coordinates": [692007.4, 5335261.7]}}, {"type": "Feature", "properties": {"h": 5.0}, "geometry": {"type": "Point", "coordinates": [693492.0, 5334064.6]}}, {"type": "Feature", "properties": {"h": 5.0}, "geometry": {"type": "Point", "coordinates": [693541.4, 5334018.4]}}, {"type": "Feature", "properties": {"h": 5.0}, "geometry": {"type": "Point", "coordinates": [693462.0, 5334093.5]}}, {"type": "Feature", "properties": {"h": 5.0}, "geometry": {"type": "Point", "coordinates": [693452.9, 5334102.7]}}, {"type": "Feature", "properties": {"h": 5.0}, "geometry": {"type": "Point", "coordinates": [693343.8, 5334355.9]}}, {"type": "Feature", "properties": {"h": 5.0}, "geometry": {"type": "Point", "coordinates": [693373.0, 5334418.9]}}, {"type": "Feature", "properties": {"h": 5.0}, "geometry": {"type": "Point", "coordinates": [693400.5, 5334481.4]}}, {"type": "Feature", "properties": {"h": 5.0}, "geometry": {"type": "Point", "coordinates": [693550.9, 5334011.7]}}, {"type": "Feature", "properties": {"h": 5.0}, "geometry": {"type": "Point", "coordinates": [693522.4, 5334037.7]}}, {"type": "Feature", "properties": {"h": 5.0}, "geometry": {"type": "Point", "coordinates": [693442.6, 5334109.1]}}, {"type": "Feature", "properties": {"h": 5.0}, "geometry": {"type": "Point", "coordinates": [693323.9, 5334324.8]}}, {"type": "Feature", "properties": {"h": 5.0}, "geometry": {"type": "Point", "coordinates": [693318.9, 5334402.3]}}, {"type": "Feature", "properties": {"h": 5.0}, "geometry": {"type": "Point", "coordinates": [693386.8, 5334451.8]}}, {"type": "Feature", "properties": {"h": 5.0}, "geometry": {"type": "Point", "coordinates": [693504.9, 5334052.3]}}, {"type": "Feature", "properties": {"h": 5.0}, "geometry": {"type": "Point", "coordinates": [693531.9, 5334027.8]}}, {"type": "Feature", "properties": {"h": 5.0}, "geometry": {"type": "Point", "coordinates": [693479.3, 5334076.9]}}, {"type": "Feature", "properties": {"h": 5.0}, "geometry": {"type": "Point", "coordinates": [693294.9, 5334339.6]}}, {"type": "Feature", "properties": {"h": 5.0}, "geometry": {"type": "Point", "coordinates": [693357.8, 5334385.2]}}, {"type": "Feature", "properties": {"h": 5.0}, "geometry": {"type": "Point", "coordinates": [693376.4, 5334441.1]}}, {"type": "Feature", "properties": {"h": 5.0}, "geometry": {"type": "Point", "coordinates": [693493.0, 5334547.5]}}, {"type": "Feature", "properties": {"h": 5.0}, "geometry": {"type": "Point", "coordinates": [693497.4, 5334566.5]}}, {"type": "Feature", "properties": {"h": 5.0}, "geometry": {"type": "Point", "coordinates": [693512.0, 5334604.2]}}, {"type": "Feature", "properties": {"h": 5.0}, "geometry": {"type": "Point", "coordinates": [693491.8, 5334599.0]}}, {"type": "Feature", "properties": {"h": 5.0}, "geometry": {"type": "Point", "coordinates": [693478.4, 5334611.7]}}, {"type": "Feature", "properties": {"h": 5.0}, "geometry": {"type": "Point", "coordinates": [693492.4, 5334608.1]}}, {"type": "Feature", "properties": {"h": 5.0}, "geometry": {"type": "Point", "coordinates": [693836.9, 5334263.7]}}, {"type": "Feature", "properties": {"h": 5.0}, "geometry": {"type": "Point", "coordinates": [693647.3, 5334427.0]}}, {"type": "Feature", "properties": {"h": 5.0}, "geometry": {"type": "Point", "coordinates": [693671.5, 5334419.5]}}, {"type": "Feature", "properties": {"h": 5.0}, "geometry": {"type": "Point", "coordinates": [693621.8, 5334435.3]}}, {"type": "Feature", "properties": {"h": 5.0}, "geometry": {"type": "Point", "coordinates": [693626.8, 5334444.3]}}, {"type": "Feature", "properties": {"h": 5.0}, "geometry": {"type": "Point", "coordinates": [693442.4, 5334672.9]}}, {"type": "Feature", "properties": {"h": 5.0}, "geometry": {"type": "Point", "coordinates": [693695.2, 5334420.6]}}, {"type": "Feature", "properties": {"h": 5.0}, "geometry": {"type": "Point", "coordinates": [693598.6, 5334441.7]}}, {"type": "Feature", "properties": {"h": 5.0}, "geometry": {"type": "Point", "coordinates": [692068.3, 5335871.2]}}, {"type": "Feature", "properties": {"h": 5.0}, "geometry": {"type": "Point", "coordinates": [693444.3, 5334276.7]}}, {"type": "Feature", "properties": {"h": 5.0}, "geometry": {"type": "Point", "coordinates": [693454.1, 5334272.1]}}, {"type": "Feature", "properties": {"h": 5.0}, "geometry": {"type": "Point", "coordinates": [693431.6, 5334275.0]}}, {"type": "Feature", "properties": {"h": 5.0}, "geometry": {"type": "Point", "coordinates": [692601.1, 5334647.4]}}, {"type": "Feature", "properties": {"h": 5.0}, "geometry": {"type": "Point", "coordinates": [692551.4, 5334561.7]}}, {"type": "Feature", "properties": {"h": 5.0}, "geometry": {"type": "Point", "coordinates": [692521.4, 5334503.7]}}, {"type": "Feature", "properties": {"h": 5.0}, "geometry": {"type": "Point", "coordinates": [692473.8, 5334428.5]}}, {"type": "Feature", "properties": {"h": 5.0}, "geometry": {"type": "Point", "coordinates": [692429.6, 5334363.5]}}, {"type": "Feature", "properties": {"h": 5.0}, "geometry": {"type": "Point", "coordinates": [692386.1, 5334297.2]}}, {"type": "Feature", "properties": {"h": 5.0}, "geometry": {"type": "Point", "coordinates": [692584.6, 5334616.8]}}, {"type": "Feature", "properties": {"h": 5.0}, "geometry": {"type": "Point", "coordinates": [692549.4, 5334556.3]}}, {"type": "Feature", "properties": {"h": 5.0}, "geometry": {"type": "Point", "coordinates": [692510.2, 5334486.1]}}, {"type": "Feature", "properties": {"h": 5.0}, "geometry": {"type": "Point", "coordinates": [692410.3, 5334340.3]}}, {"type": "Feature", "properties": {"h": 5.0}, "geometry": {"type": "Point", "coordinates": [692461.4, 5334408.7]}}, {"type": "Feature", "properties": {"h": 5.0}, "geometry": {"type": "Point", "coordinates": [692359.0, 5334248.4]}}, {"type": "Feature", "properties": {"h": 5.0}, "geometry": {"type": "Point", "coordinates": [692610.2, 5334665.0]}}, {"type": "Feature", "properties": {"h": 5.0}, "geometry": {"type": "Point", "coordinates": [692569.3, 5334588.7]}}, {"type": "Feature", "properties": {"h": 5.0}, "geometry": {"type": "Point", "coordinates": [692535.1, 5334528.4]}}, {"type": "Feature", "properties": {"h": 5.0}, "geometry": {"type": "Point", "coordinates": [692491.1, 5334455.1]}}, {"type": "Feature", "properties": {"h": 5.0}, "geometry": {"type": "Point", "coordinates": [692444.6, 5334383.6]}}, {"type": "Feature", "properties": {"h": 5.0}, "geometry": {"type": "Point", "coordinates": [692392.9, 5334315.1]}}, {"type": "Feature", "properties": {"h": 5.0}, "geometry": {"type": "Point", "coordinates": [693948.8, 5335063.7]}}, {"type": "Feature", "properties": {"h": 5.0}, "geometry": {"type": "Point", "coordinates": [693912.6, 5335042.5]}}, {"type": "Feature", "properties": {"h": 5.0}, "geometry": {"type": "Point", "coordinates": [692316.8, 5334125.3]}}, {"type": "Feature", "properties": {"h": 5.0}, "geometry": {"type": "Point", "coordinates": [692242.1, 5334064.2]}}, {"type": "Feature", "properties": {"h": 5.0}, "geometry": {"type": "Point", "coordinates": [692194.3, 5334026.4]}}, {"type": "Feature", "properties": {"h": 5.0}, "geometry": {"type": "Point", "coordinates": [692348.5, 5334154.9]}}, {"type": "Feature", "properties": {"h": 5.0}, "geometry": {"type": "Point", "coordinates": [692295.7, 5334106.8]}}, {"type": "Feature", "properties": {"h": 5.0}, "geometry": {"type": "Point", "coordinates": [692279.2, 5334093.3]}}, {"type": "Feature", "properties": {"h": 5.0}, "geometry": {"type": "Point", "coordinates": [692332.8, 5334140.2]}}, {"type": "Feature", "properties": {"h": 5.0}, "geometry": {"type": "Point", "coordinates": [692255.6, 5334074.3]}}, {"type": "Feature", "properties": {"h": 5.0}, "geometry": {"type": "Point", "coordinates": [692232.2, 5334055.5]}}, {"type": "Feature", "properties": {"h": 5.0}, "geometry": {"type": "Point", "coordinates": [692215.4, 5334042.0]}}, {"type": "Feature", "properties": {"h": 5.0}, "geometry": {"type": "Point", "coordinates": [692229.1, 5335612.6]}}, {"type": "Feature", "properties": {"h": 5.0}, "geometry": {"type": "Point", "coordinates": [692221.7, 5335629.9]}}, {"type": "Feature", "properties": {"h": 5.0}, "geometry": {"type": "Point", "coordinates": [693165.3, 5335285.5]}}, {"type": "Feature", "properties": {"h": 5.0}, "geometry": {"type": "Point", "coordinates": [693161.3, 5335271.2]}}, {"type": "Feature", "properties": {"h": 5.0}, "geometry": {"type": "Point", "coordinates": [693118.9, 5335297.7]}}, {"type": "Feature", "properties": {"h": 5.0}, "geometry": {"type": "Point", "coordinates": [693115.3, 5335283.8]}}, {"type": "Feature", "properties": {"h": 5.0}, "geometry": {"type": "Point", "coordinates": [693097.2, 5335309.4]}}, {"type": "Feature", "properties": {"h": 5.0}, "geometry": {"type": "Point", "coordinates": [693091.1, 5335284.4]}}, {"type": "Feature", "properties": {"h": 5.0}, "geometry": {"type": "Point", "coordinates": [693017.8, 5335330.8]}}, {"type": "Feature", "properties": {"h": 5.0}, "geometry": {"type": "Point", "coordinates": [692623.4, 5334688.7]}}, {"type": "Feature", "properties": {"h": 5.0}, "geometry": {"type": "Point", "coordinates": [692960.8, 5334958.4]}}, {"type": "Feature", "properties": {"h": 5.0}, "geometry": {"type": "Point", "coordinates": [692636.6, 5334392.9]}}, {"type": "Feature", "properties": {"h": 5.0}, "geometry": {"type": "Point", "coordinates": [692726.9, 5335910.3]}}, {"type": "Feature", "properties": {"h": 5.0}, "geometry": {"type": "Point", "coordinates": [692704.9, 5335940.1]}}, {"type": "Feature", "properties": {"h": 5.0}, "geometry": {"type": "Point", "coordinates": [692411.8, 5335727.5]}}, {"type": "Feature", "properties": {"h": 5.0}, "geometry": {"type": "Point", "coordinates": [692446.6, 5335731.7]}}, {"type": "Feature", "properties": {"h": 5.0}, "geometry": {"type": "Point", "coordinates": [692242.2, 5335654.2]}}, {"type": "Feature", "properties": {"h": 5.0}, "geometry": {"type": "Point", "coordinates": [692559.3, 5335770.9]}}, {"type": "Feature", "properties": {"h": 5.0}, "geometry": {"type": "Point", "coordinates": [692268.2, 5335684.5]}}, {"type": "Feature", "properties": {"h": 5.0}, "geometry": {"type": "Point", "coordinates": [692534.3, 5335751.2]}}, {"type": "Feature", "properties": {"h": 5.0}, "geometry": {"type": "Point", "coordinates": [692490.2, 5335738.0]}}, {"type": "Feature", "properties": {"h": 5.0}, "geometry": {"type": "Point", "coordinates": [692200.4, 5335594.7]}}, {"type": "Feature", "properties": {"h": 5.0}, "geometry": {"type": "Point", "coordinates": [692123.5, 5335519.7]}}, {"type": "Feature", "properties": {"h": 5.0}, "geometry": {"type": "Point", "coordinates": [692079.0, 5335491.2]}}, {"type": "Feature", "properties": {"h": 5.0}, "geometry": {"type": "Point", "coordinates": [692152.6, 5335503.7]}}, {"type": "Feature", "properties": {"h": 5.0}, "geometry": {"type": "Point", "coordinates": [692102.4, 5335508.1]}}, {"type": "Feature", "properties": {"h": 5.0}, "geometry": {"type": "Point", "coordinates": [692602.9, 5334306.9]}}, {"type": "Feature", "properties": {"h": 5.0}, "geometry": {"type": "Point", "coordinates": [692284.1, 5334917.9]}}, {"type": "Feature", "properties": {"h": 5.0}, "geometry": {"type": "Point", "coordinates": [692118.0, 5335215.9]}}, {"type": "Feature", "properties": {"h": 5.0}, "geometry": {"type": "Point", "coordinates": [692148.8, 5335176.6]}}, {"type": "Feature", "properties": {"h": 5.0}, "geometry": {"type": "Point", "coordinates": [692228.4, 5335073.0]}}, {"type": "Feature", "properties": {"h": 5.0}, "geometry": {"type": "Point", "coordinates": [692259.1, 5334925.4]}}, {"type": "Feature", "properties": {"h": 5.0}, "geometry": {"type": "Point", "coordinates": [692250.4, 5335043.5]}}, {"type": "Feature", "properties": {"h": 5.0}, "geometry": {"type": "Point", "coordinates": [692273.1, 5335012.2]}}, {"type": "Feature", "properties": {"h": 5.0}, "geometry": {"type": "Point", "coordinates": [692175.2, 5335141.1]}}, {"type": "Feature", "properties": {"h": 5.0}, "geometry": {"type": "Point", "coordinates": [692207.2, 5335101.6]}}, {"type": "Feature", "properties": {"h": 5.0}, "geometry": {"type": "Point", "coordinates": [692273.7, 5334975.2]}}, {"type": "Feature", "properties": {"h": 5.0}, "geometry": {"type": "Point", "coordinates": [692259.3, 5335681.9]}}, {"type": "Feature", "properties": {"h": 5.0}, "geometry": {"type": "Point", "coordinates": [692271.1, 5335669.2]}}, {"type": "Feature", "properties": {"h": 5.0}, "geometry": {"type": "Point", "coordinates": [692167.5, 5335505.6]}}, {"type": "Feature", "properties": {"h": 5.0}, "geometry": {"type": "Point", "coordinates": [692288.6, 5335653.0]}}, {"type": "Feature", "properties": {"h": 5.0}, "geometry": {"type": "Point", "coordinates": [692148.3, 5335219.2]}}, {"type": "Feature", "properties": {"h": 5.0}, "geometry": {"type": "Point", "coordinates": [692792.8, 5335512.4]}}, {"type": "Feature", "properties": {"h": 5.0}, "geometry": {"type": "Point", "coordinates": [692762.8, 5335522.0]}}, {"type": "Feature", "properties": {"h": 5.0}, "geometry": {"type": "Point", "coordinates": [692734.2, 5335530.7]}}, {"type": "Feature", "properties": {"h": 5.0}, "geometry": {"type": "Point", "coordinates": [692706.1, 5335552.7]}}, {"type": "Feature", "properties": {"h": 5.0}, "geometry": {"type": "Point", "coordinates": [692848.3, 5335496.0]}}, {"type": "Feature", "properties": {"h": 5.0}, "geometry": {"type": "Point", "coordinates": [692820.2, 5335504.6]}}, {"type": "Feature", "properties": {"h": 5.0}, "geometry": {"type": "Point", "coordinates": [692733.5, 5335577.2]}}, {"type": "Feature", "properties": {"h": 5.0}, "geometry": {"type": "Point", "coordinates": [692705.3, 5335539.4]}}, {"type": "Feature", "properties": {"h": 5.0}, "geometry": {"type": "Point", "coordinates": [692790.1, 5335606.0]}}, {"type": "Feature", "properties": {"h": 5.0}, "geometry": {"type": "Point", "coordinates": [692818.3, 5335597.8]}}, {"type": "Feature", "properties": {"h": 5.0}, "geometry": {"type": "Point", "coordinates": [692847.8, 5335588.0]}}, {"type": "Feature", "properties": {"h": 5.0}, "geometry": {"type": "Point", "coordinates": [692876.5, 5335579.6]}}, {"type": "Feature", "properties": {"h": 5.0}, "geometry": {"type": "Point", "coordinates": [692597.2, 5335439.3]}}, {"type": "Feature", "properties": {"h": 5.0}, "geometry": {"type": "Point", "coordinates": [692648.0, 5335426.1]}}, {"type": "Feature", "properties": {"h": 5.0}, "geometry": {"type": "Point", "coordinates": [692694.1, 5335414.0]}}, {"type": "Feature", "properties": {"h": 5.0}, "geometry": {"type": "Point", "coordinates": [692752.0, 5335398.5]}}, {"type": "Feature", "properties": {"h": 5.0}, "geometry": {"type": "Point", "coordinates": [692806.2, 5335383.4]}}, {"type": "Feature", "properties": {"h": 5.0}, "geometry": {"type": "Point", "coordinates": [692023.5, 5334533.2]}}, {"type": "Feature", "properties": {"h": 5.0}, "geometry": {"type": "Point", "coordinates": [693175.3, 5335280.5]}}, {"type": "Feature", "properties": {"h": 5.0}, "geometry": {"type": "Point", "coordinates": [693171.8, 5335266.5]}}, {"type": "Feature", "properties": {"h": 5.0}, "geometry": {"type": "Point", "coordinates": [693169.6, 5335293.1]}}, {"type": "Feature", "properties": {"h": 5.0}, "geometry": {"type": "Point", "coordinates": [693162.0, 5335261.5]}}, {"type": "Feature", "properties": {"h": 5.0}, "geometry": {"type": "Point", "coordinates": [693170.5, 5335297.3]}}, {"type": "Feature", "properties": {"h": 5.0}, "geometry": {"type": "Point", "coordinates": [693160.8, 5335256.7]}}, {"type": "Feature", "properties": {"h": 5.0}, "geometry": {"type": "Point", "coordinates": [693147.8, 5335298.3]}}, {"type": "Feature", "properties": {"h": 5.0}, "geometry": {"type": "Point", "coordinates": [693139.0, 5335268.3]}}, {"type": "Feature", "properties": {"h": 5.0}, "geometry": {"type": "Point", "coordinates": [692258.7, 5335641.8]}}, {"type": "Feature", "properties": {"h": 5.0}, "geometry": {"type": "Point", "coordinates": [692337.0, 5335717.4]}}, {"type": "Feature", "properties": {"h": 5.0}, "geometry": {"type": "Point", "coordinates": [692247.6, 5335612.1]}}, {"type": "Feature", "properties": {"h": 5.0}, "geometry": {"type": "Point", "coordinates": [692298.5, 5335706.3]}}, {"type": "Feature", "properties": {"h": 5.0}, "geometry": {"type": "Point", "coordinates": [692634.1, 5335860.3]}}, {"type": "Feature", "properties": {"h": 5.0}, "geometry": {"type": "Point", "coordinates": [692364.3, 5335724.8]}}, {"type": "Feature", "properties": {"h": 5.0}, "geometry": {"type": "Point", "coordinates": [692615.2, 5335826.7]}}, {"type": "Feature", "properties": {"h": 5.0}, "geometry": {"type": "Point", "coordinates": [692654.3, 5335898.2]}}, {"type": "Feature", "properties": {"h": 5.0}, "geometry": {"type": "Point", "coordinates": [692589.5, 5335797.4]}}, {"type": "Feature", "properties": {"h": 5.0}, "geometry": {"type": "Point", "coordinates": [692666.3, 5335932.7]}}, {"type": "Feature", "properties": {"h": 5.0}, "geometry": {"type": "Point", "coordinates": [692677.8, 5335968.9]}}, {"type": "Feature", "properties": {"h": 5.0}, "geometry": {"type": "Point", "coordinates": [692693.4, 5335969.4]}}]}