{"type": "FeatureCollection", "attribution": "Bayerische Vermessungsverwaltung \u2013 www.geodaten.bayern.de, CC BY 4.0 (laser scan); \u00a9 OpenStreetMap contributors (ODbL)", "crs": {"type": "name", "properties": {"name": "urn:ogc:def:crs:EPSG::25832"}}, "features": [{"type": "Feature", "properties": {"kind": "hedge", "h": 1.5, "w": 1.0, "src": "osm"}, "geometry": {"type": "LineString", "coordinates": [[693553.7, 5335780.9], [693549.4, 5335773.2], [693531.5, 5335781.4], [693531.6, 5335785.1], [693530.4, 5335788.7], [693528.5, 5335792.0], [693527.0, 5335794.5], [693543.9, 5335823.8], [693552.6, 5335819.3]]}}, {"type": "Feature", "properties": {"kind": "hedge", "h": 1.9, "w": 1.4, "src": "osm+lsc"}, "geometry": {"type": "LineString", "coordinates": [[693415.1, 5335831.0], [693457.8, 5335812.8], [693460.7, 5335811.5], [693464.4, 5335810.0], [693496.7, 5335796.2], [693499.5, 5335799.4], [693503.4, 5335800.8], [693508.7, 5335802.1], [693513.4, 5335801.8], [693533.6, 5335839.6], [693524.8, 5335843.2]]}}, {"type": "Feature", "properties": {"kind": "hedge", "h": 2.5, "w": 2.2, "src": "osm+lsc"}, "geometry": {"type": "LineString", "coordinates": [[693561.4, 5335814.5], [693563.9, 5335818.8], [693546.3, 5335828.8], [693564.4, 5335862.8], [693574.3, 5335857.6]]}}, {"type": "Feature", "properties": {"kind": "hedge", "h": 1.5, "w": 1.0, "src": "osm"}, "geometry": {"type": "LineString", "coordinates": [[693426.1, 5335621.3], [693432.8, 5335638.7], [693424.1, 5335642.4]]}}, {"type": "Feature", "properties": {"kind": "hedge", "h": 2.1, "w": 2.0, "src": "osm+lsc"}, "geometry": {"type": "LineString", "coordinates": [[693487.1, 5335770.7], [693492.6, 5335772.9], [693495.1, 5335768.6], [693482.6, 5335745.8], [693459.3, 5335758.1]]}}, {"type": "Feature", "properties": {"kind": "hedge", "h": 1.7, "w": 2.0, "src": "osm+lsc"}, "geometry": {"type": "LineString", "coordinates": [[693483.9, 5335776.2], [693490.4, 5335777.6], [693489.9, 5335781.5], [693471.1, 5335789.9]]}}, {"type": "Feature", "properties": {"kind": "hedge", "h": 1.5, "w": 1.0, "src": "osm"}, "geometry": {"type": "LineString", "coordinates": [[693346.1, 5335720.7], [693360.8, 5335712.7]]}}, {"type": "Feature", "properties": {"kind": "hedge", "h": 2.5, "w": 1.0, "src": "osm+lsc"}, "geometry": {"type": "LineString", "coordinates": [[693537.9, 5335751.1], [693541.3, 5335760.4]]}}, {"type": "Feature", "properties": {"kind": "hedge", "h": 1.5, "w": 1.0, "src": "osm"}, "geometry": {"type": "LineString", "coordinates": [[693564.1, 5335748.8], [693562.9, 5335751.3], [693552.0, 5335755.9]]}}, {"type": "Feature", "properties": {"kind": "hedge", "h": 2.0, "w": 2.0, "src": "osm+lsc"}, "geometry": {"type": "LineString", "coordinates": [[693449.5, 5335558.5], [693448.8, 5335550.6], [693426.3, 5335552.4]]}}, {"type": "Feature", "properties": {"kind": "hedge", "h": 2.1, "w": 2.0, "src": "osm+lsc"}, "geometry": {"type": "LineString", "coordinates": [[693448.8, 5335550.6], [693452.3, 5335550.7]]}}, {"type": "Feature", "properties": {"kind": "hedge", "h": 1.5, "w": 1.0, "src": "osm"}, "geometry": {"type": "LineString", "coordinates": [[693438.7, 5335581.9], [693430.3, 5335585.0]]}}, {"type": "Feature", "properties": {"kind": "hedge", "h": 2.2, "w": 2.0, "src": "osm+lsc"}, "geometry": {"type": "LineString", "coordinates": [[693421.0, 5335559.4], [693429.3, 5335582.4], [693430.3, 5335585.0], [693435.7, 5335599.9]]}}, {"type": "Feature", "properties": {"kind": "hedge", "h": 2.1, "w": 1.0, "src": "osm+lsc"}, "geometry": {"type": "LineString", "coordinates": [[693562.2, 5335368.2], [693564.1, 5335401.0]]}}, {"type": "Feature", "properties": {"kind": "hedge", "h": 2.3, "w": 1.4, "src": "osm+lsc"}, "geometry": {"type": "LineString", "coordinates": [[693490.4, 5335960.5], [693492.9, 5335969.8], [693492.5, 5335971.8], [693490.8, 5335973.1], [693474.2, 5335980.1]]}}, {"type": "Feature", "properties": {"kind": "hedge", "h": 1.8, "w": 2.0, "src": "osm+lsc"}, "geometry": {"type": "LineString", "coordinates": [[693687.1, 5335437.7], [693704.2, 5335431.3], [693723.4, 5335427.3], [693724.5, 5335430.7]]}}, {"type": "Feature", "properties": {"kind": "hedge", "h": 1.5, "w": 1.0, "src": "osm"}, "geometry": {"type": "LineString", "coordinates": [[693995.4, 5335841.1], [694000.0, 5335840.1]]}}, {"type": "Feature", "properties": {"kind": "hedge", "h": 2.8, "w": 2.0, "src": "osm+lsc"}, "geometry": {"type": "LineString", "coordinates": [[693656.4, 5335851.5], [693648.8, 5335844.8], [693645.8, 5335844.9], [693643.2, 5335846.1], [693629.7, 5335855.0], [693641.4, 5335874.7], [693645.2, 5335872.4]]}}, {"type": "Feature", "properties": {"kind": "hedge", "h": 1.5, "w": 1.0, "src": "osm"}, "geometry": {"type": "LineString", "coordinates": [[693722.1, 5335540.3], [693721.1, 5335537.1], [693710.9, 5335540.1], [693711.9, 5335543.7]]}}, {"type": "Feature", "properties": {"kind": "hedge", "h": 1.5, "w": 1.0, "src": "osm"}, "geometry": {"type": "LineString", "coordinates": [[693708.9, 5335544.7], [693708.0, 5335541.2], [693697.5, 5335544.6], [693698.6, 5335548.1]]}}, {"type": "Feature", "properties": {"kind": "hedge", "h": 1.5, "w": 1.0, "src": "osm"}, "geometry": {"type": "LineString", "coordinates": [[693985.2, 5335472.0], [693979.6, 5335473.3], [693973.0, 5335470.8], [693963.9, 5335467.2], [693966.1, 5335460.0], [693972.0, 5335453.2], [693978.7, 5335449.9], [693982.8, 5335450.2], [693986.3, 5335452.1], [693987.8, 5335463.0], [693985.2, 5335472.0]]}}, {"type": "Feature", "properties": {"kind": "hedge", "h": 1.5, "w": 1.0, "src": "osm"}, "geometry": {"type": "LineString", "coordinates": [[692891.9, 5335503.9], [692888.0, 5335491.7], [692885.0, 5335492.6], [692888.9, 5335504.9], [692891.9, 5335503.9]]}}, {"type": "Feature", "properties": {"kind": "hedge", "h": 1.5, "w": 1.0, "src": "osm"}, "geometry": {"type": "LineString", "coordinates": [[692885.4, 5335480.4], [692888.1, 5335489.1], [692885.3, 5335490.0], [692882.6, 5335481.2], [692885.4, 5335480.4]]}}, {"type": "Feature", "properties": {"kind": "hedge", "h": 1.5, "w": 1.0, "src": "osm"}, "geometry": {"type": "LineString", "coordinates": [[692902.9, 5335490.6], [692906.6, 5335500.3], [692896.4, 5335503.0], [692891.6, 5335490.9], [692897.6, 5335488.7]]}}, {"type": "Feature", "properties": {"kind": "hedge", "h": 1.5, "w": 1.0, "src": "osm"}, "geometry": {"type": "LineString", "coordinates": [[692907.9, 5335485.0], [692921.0, 5335480.3], [692923.1, 5335493.0], [692922.8, 5335494.4], [692922.2, 5335495.7], [692921.1, 5335496.8], [692909.1, 5335500.2], [692905.1, 5335490.2]]}}, {"type": "Feature", "properties": {"kind": "hedge", "h": 1.5, "w": 1.0, "src": "osm"}, "geometry": {"type": "LineString", "coordinates": [[692901.9, 5335480.7], [692898.1, 5335470.4], [692918.3, 5335463.6], [692920.5, 5335477.8], [692906.9, 5335482.8]]}}, {"type": "Feature", "properties": {"kind": "hedge", "h": 3.0, "w": 1.0, "src": "osm+lsc"}, "geometry": {"type": "LineString", "coordinates": [[692897.5, 5335486.4], [692891.0, 5335488.5], [692885.6, 5335475.1], [692895.9, 5335471.4], [692899.7, 5335481.6]]}}, {"type": "Feature", "properties": {"kind": "hedge", "h": 1.9, "w": 1.0, "src": "osm+lsc"}, "geometry": {"type": "LineString", "coordinates": [[692899.4, 5335483.0], [692898.8, 5335483.8], [692898.4, 5335484.5], [692898.2, 5335485.7]]}}, {"type": "Feature", "properties": {"kind": "hedge", "h": 1.8, "w": 1.4, "src": "osm+lsc"}, "geometry": {"type": "LineString", "coordinates": [[692905.3, 5335482.8], [692904.4, 5335482.2], [692903.4, 5335481.7], [692902.5, 5335481.6]]}}, {"type": "Feature", "properties": {"kind": "hedge", "h": 1.8, "w": 1.0, "src": "osm+lsc"}, "geometry": {"type": "LineString", "coordinates": [[692905.1, 5335488.9], [692905.8, 5335488.2], [692906.1, 5335487.3], [692906.4, 5335485.8]]}}, {"type": "Feature", "properties": {"kind": "hedge", "h": 1.9, "w": 1.0, "src": "osm+lsc"}, "geometry": {"type": "LineString", "coordinates": [[692899.3, 5335488.3], [692900.0, 5335489.1], [692901.0, 5335489.5], [692902.1, 5335489.7]]}}, {"type": "Feature", "properties": {"kind": "hedge", "h": 0.5, "w": 1.0, "src": "osm"}, "geometry": {"type": "LineString", "coordinates": [[692881.2, 5335854.2], [692882.8, 5335863.1], [692887.8, 5335862.1], [692883.2, 5335853.9]]}}, {"type": "Feature", "properties": {"kind": "hedge", "h": 1.0, "w": 1.0, "src": "osm"}, "geometry": {"type": "LineString", "coordinates": [[692872.8, 5335866.3], [692872.0, 5335857.6], [692873.2, 5335854.6], [692875.8, 5335852.5], [692879.0, 5335851.9], [692879.4, 5335854.0]]}}, {"type": "Feature", "properties": {"kind": "hedge", "h": 3.0, "w": 1.0, "src": "osm"}, "geometry": {"type": "LineString", "coordinates": [[692881.0, 5335866.3], [692879.4, 5335854.0]]}}, {"type": "Feature", "properties": {"kind": "hedge", "h": 1.5, "w": 1.0, "src": "osm"}, "geometry": {"type": "LineString", "coordinates": [[692908.7, 5335734.5], [692911.2, 5335722.0], [692912.5, 5335720.3], [692914.7, 5335719.7], [692915.9, 5335720.3], [692921.5, 5335732.3]]}}, {"type": "Feature", "properties": {"kind": "hedge", "h": 1.1, "w": 1.0, "src": "osm+lsc"}, "geometry": {"type": "LineString", "coordinates": [[693162.0, 5335309.8], [693176.6, 5335359.6], [693174.7, 5335358.3], [693172.6, 5335357.4], [693168.5, 5335356.2], [693165.0, 5335355.5], [693161.5, 5335355.8], [693158.3, 5335357.3], [693155.7, 5335359.8], [693153.5, 5335362.7], [693151.7, 5335365.9], [693138.8, 5335316.5], [693142.0, 5335318.6], [693145.1, 5335319.7], [693148.9, 5335319.7], [693152.2, 5335319.3], [693155.1, 5335318.0], [693158.0, 5335315.8], [693160.3, 5335313.4]]}}, {"type": "Feature", "properties": {"kind": "hedge", "h": 1.1, "w": 1.2, "src": "osm+lsc"}, "geometry": {"type": "LineString", "coordinates": [[693146.6, 5335249.8], [693144.4, 5335248.9], [693140.3, 5335247.7], [693136.8, 5335247.0], [693133.3, 5335247.4], [693130.1, 5335248.9], [693127.6, 5335251.3], [693125.4, 5335254.2], [693123.5, 5335257.4], [693110.6, 5335208.0], [693113.8, 5335210.2], [693117.0, 5335211.2], [693120.8, 5335211.2], [693124.0, 5335210.8], [693126.9, 5335209.5], [693129.9, 5335207.3], [693132.1, 5335204.9], [693133.8, 5335201.3], [693148.5, 5335251.1]]}}, {"type": "Feature", "properties": {"kind": "hedge", "h": 1.5, "w": 1.0, "src": "osm"}, "geometry": {"type": "LineString", "coordinates": [[692405.9, 5334892.4], [692402.4, 5334890.2]]}}, {"type": "Feature", "properties": {"kind": "hedge", "h": 2.0, "w": 1.0, "src": "osm+lsc"}, "geometry": {"type": "LineString", "coordinates": [[692497.0, 5334867.5], [692482.2, 5334870.9]]}}, {"type": "Feature", "properties": {"kind": "hedge", "h": 1.3, "w": 1.0, "src": "osm+lsc"}, "geometry": {"type": "LineString", "coordinates": [[692213.0, 5335727.0], [692210.0, 5335716.3], [692211.8, 5335715.8]]}}, {"type": "Feature", "properties": {"kind": "hedge", "h": 1.0, "w": 1.0, "src": "osm+lsc"}, "geometry": {"type": "LineString", "coordinates": [[692219.3, 5335751.2], [692221.6, 5335750.5], [692221.1, 5335748.6], [692219.2, 5335749.2], [692215.8, 5335737.4], [692218.0, 5335736.8]]}}, {"type": "Feature", "properties": {"kind": "hedge", "h": 0.9, "w": 1.0, "src": "osm+lsc"}, "geometry": {"type": "LineString", "coordinates": [[692227.3, 5335779.6], [692222.3, 5335759.7]]}}, {"type": "Feature", "properties": {"kind": "hedge", "h": 0.9, "w": 1.0, "src": "osm+lsc"}, "geometry": {"type": "LineString", "coordinates": [[692236.0, 5335812.5], [692229.8, 5335789.1]]}}, {"type": "Feature", "properties": {"kind": "hedge", "h": 1.4, "w": 1.0, "src": "osm+lsc"}, "geometry": {"type": "LineString", "coordinates": [[692240.6, 5335829.1], [692238.0, 5335819.6]]}}, {"type": "Feature", "properties": {"kind": "hedge", "h": 0.9, "w": 1.0, "src": "osm+lsc"}, "geometry": {"type": "LineString", "coordinates": [[692241.3, 5335831.9], [692240.9, 5335830.2]]}}, {"type": "Feature", "properties": {"kind": "hedge", "h": 1.1, "w": 1.0, "src": "osm+lsc"}, "geometry": {"type": "LineString", "coordinates": [[692245.2, 5335846.2], [692241.7, 5335833.3]]}}, {"type": "Feature", "properties": {"kind": "hedge", "h": 1.0, "w": 1.0, "src": "osm+lsc"}, "geometry": {"type": "LineString", "coordinates": [[692248.6, 5335861.3], [692247.9, 5335857.5]]}}, {"type": "Feature", "properties": {"kind": "hedge", "h": 0.9, "w": 1.0, "src": "osm+lsc"}, "geometry": {"type": "LineString", "coordinates": [[692252.6, 5335880.8], [692249.4, 5335864.4]]}}, {"type": "Feature", "properties": {"kind": "hedge", "h": 0.9, "w": 1.0, "src": "osm+lsc"}, "geometry": {"type": "LineString", "coordinates": [[692255.8, 5335907.5], [692254.6, 5335895.7], [692253.6, 5335887.8]]}}, {"type": "Feature", "properties": {"kind": "hedge", "h": 0.9, "w": 1.0, "src": "osm+lsc"}, "geometry": {"type": "LineString", "coordinates": [[692256.6, 5335918.7], [692256.0, 5335909.6]]}}, {"type": "Feature", "properties": {"kind": "hedge", "h": 1.0, "w": 1.0, "src": "osm+lsc"}, "geometry": {"type": "LineString", "coordinates": [[692258.1, 5335945.6], [692257.3, 5335928.4]]}}, {"type": "Feature", "properties": {"kind": "hedge", "h": 0.9, "w": 1.0, "src": "osm+lsc"}, "geometry": {"type": "LineString", "coordinates": [[692257.9, 5335954.8], [692258.0, 5335946.7]]}}, {"type": "Feature", "properties": {"kind": "hedge", "h": 1.0, "w": 1.0, "src": "osm+lsc"}, "geometry": {"type": "LineString", "coordinates": [[692258.2, 5335975.6], [692258.4, 5335964.5]]}}, {"type": "Feature", "properties": {"kind": "hedge", "h": 0.9, "w": 1.0, "src": "osm+lsc"}, "geometry": {"type": "LineString", "coordinates": [[692258.0, 5335981.2], [692258.1, 5335977.0]]}}, {"type": "Feature", "properties": {"kind": "hedge", "h": 1.5, "w": 1.0, "src": "osm"}, "geometry": {"type": "LineString", "coordinates": [[692258.0, 5335995.6], [692258.1, 5335991.6]]}}, {"type": "Feature", "properties": {"kind": "hedge", "h": 1.5, "w": 1.0, "src": "osm"}, "geometry": {"type": "LineString", "coordinates": [[693392.9, 5335406.1], [693397.0, 5335405.3]]}}, {"type": "Feature", "properties": {"kind": "hedge", "h": 1.5, "w": 1.0, "src": "osm"}, "geometry": {"type": "LineString", "coordinates": [[692878.6, 5335560.8], [692879.1, 5335562.5], [692875.8, 5335563.4], [692875.3, 5335561.8], [692878.6, 5335560.8]]}}, {"type": "Feature", "properties": {"kind": "hedge", "h": 1.5, "w": 1.0, "src": "osm"}, "geometry": {"type": "LineString", "coordinates": [[692867.7, 5335564.0], [692868.2, 5335565.6], [692864.9, 5335566.6], [692864.4, 5335564.9], [692867.7, 5335564.0]]}}, {"type": "Feature", "properties": {"kind": "hedge", "h": 1.5, "w": 1.0, "src": "osm"}, "geometry": {"type": "LineString", "coordinates": [[692860.7, 5335568.7], [692861.2, 5335570.4], [692859.1, 5335571.1], [692858.6, 5335569.4], [692860.7, 5335568.7]]}}, {"type": "Feature", "properties": {"kind": "hedge", "h": 1.5, "w": 1.0, "src": "osm"}, "geometry": {"type": "LineString", "coordinates": [[692850.0, 5335571.1], [692849.6, 5335573.0], [692846.0, 5335572.3], [692846.3, 5335570.4], [692850.0, 5335571.1]]}}, {"type": "Feature", "properties": {"kind": "hedge", "h": 1.5, "w": 1.0, "src": "osm"}, "geometry": {"type": "LineString", "coordinates": [[692842.9, 5335569.3], [692842.1, 5335569.6], [692837.9, 5335555.8], [692839.1, 5335555.5], [692842.9, 5335569.3]]}}, {"type": "Feature", "properties": {"kind": "hedge", "h": 0.7, "w": 1.0, "src": "osm+lsc"}, "geometry": {"type": "LineString", "coordinates": [[692709.6, 5335428.8], [692710.3, 5335428.7], [692706.7, 5335415.7], [692705.9, 5335415.9], [692709.6, 5335428.8]]}}, {"type": "Feature", "properties": {"kind": "hedge", "h": 0.7, "w": 1.0, "src": "osm+lsc"}, "geometry": {"type": "LineString", "coordinates": [[692711.3, 5335428.4], [692711.9, 5335428.2], [692708.4, 5335415.2], [692707.6, 5335415.4], [692711.3, 5335428.4]]}}, {"type": "Feature", "properties": {"kind": "hedge", "h": 0.7, "w": 1.0, "src": "osm+lsc"}, "geometry": {"type": "LineString", "coordinates": [[692713.1, 5335428.0], [692713.8, 5335427.8], [692710.3, 5335414.7], [692709.4, 5335415.0], [692713.1, 5335428.0]]}}, {"type": "Feature", "properties": {"kind": "hedge", "h": 0.7, "w": 1.0, "src": "osm+lsc"}, "geometry": {"type": "LineString", "coordinates": [[692714.7, 5335427.6], [692715.5, 5335427.3], [692711.8, 5335414.3], [692711.0, 5335414.5], [692714.7, 5335427.6]]}}, {"type": "Feature", "properties": {"kind": "hedge", "h": 0.7, "w": 1.0, "src": "osm+lsc"}, "geometry": {"type": "LineString", "coordinates": [[692721.8, 5335425.6], [692722.5, 5335425.4], [692718.9, 5335412.4], [692718.2, 5335412.6], [692721.8, 5335425.6]]}}, {"type": "Feature", "properties": {"kind": "hedge", "h": 0.7, "w": 1.0, "src": "osm+lsc"}, "geometry": {"type": "LineString", "coordinates": [[692720.1, 5335426.0], [692720.8, 5335425.9], [692717.2, 5335412.9], [692716.5, 5335413.1], [692720.1, 5335426.0]]}}, {"type": "Feature", "properties": {"kind": "hedge", "h": 0.7, "w": 1.0, "src": "osm+lsc"}, "geometry": {"type": "LineString", "coordinates": [[692718.2, 5335426.4], [692718.9, 5335426.2], [692715.3, 5335413.3], [692714.6, 5335413.5], [692718.2, 5335426.4]]}}, {"type": "Feature", "properties": {"kind": "hedge", "h": 0.7, "w": 1.0, "src": "osm+lsc"}, "geometry": {"type": "LineString", "coordinates": [[692734.1, 5335422.2], [692734.8, 5335422.0], [692731.2, 5335409.0], [692730.5, 5335409.2], [692734.1, 5335422.2]]}}, {"type": "Feature", "properties": {"kind": "hedge", "h": 0.7, "w": 1.0, "src": "osm+lsc"}, "geometry": {"type": "LineString", "coordinates": [[692735.7, 5335421.7], [692736.3, 5335421.6], [692732.8, 5335408.7], [692732.0, 5335408.8], [692735.7, 5335421.7]]}}, {"type": "Feature", "properties": {"kind": "hedge", "h": 0.7, "w": 1.0, "src": "osm+lsc"}, "geometry": {"type": "LineString", "coordinates": [[692737.7, 5335421.2], [692738.4, 5335421.0], [692734.8, 5335408.0], [692734.1, 5335408.2], [692737.7, 5335421.2]]}}, {"type": "Feature", "properties": {"kind": "hedge", "h": 0.7, "w": 1.0, "src": "osm+lsc"}, "geometry": {"type": "LineString", "coordinates": [[692741.1, 5335420.3], [692741.7, 5335420.1], [692738.2, 5335407.1], [692737.4, 5335407.3], [692741.1, 5335420.3]]}}, {"type": "Feature", "properties": {"kind": "hedge", "h": 0.7, "w": 1.0, "src": "osm+lsc"}, "geometry": {"type": "LineString", "coordinates": [[692742.8, 5335419.8], [692743.5, 5335419.6], [692739.9, 5335406.7], [692739.2, 5335406.9], [692742.8, 5335419.8]]}}, {"type": "Feature", "properties": {"kind": "hedge", "h": 0.7, "w": 1.0, "src": "osm+lsc"}, "geometry": {"type": "LineString", "coordinates": [[692744.6, 5335419.4], [692745.3, 5335419.2], [692741.7, 5335406.3], [692740.9, 5335406.5], [692744.6, 5335419.4]]}}, {"type": "Feature", "properties": {"kind": "hedge", "h": 0.7, "w": 1.0, "src": "osm+lsc"}, "geometry": {"type": "LineString", "coordinates": [[692746.2, 5335419.0], [692747.1, 5335418.8], [692743.4, 5335405.7], [692742.7, 5335405.9], [692746.2, 5335419.0]]}}]}