{"type": "FeatureCollection", "attribution": "\u00a9 OpenStreetMap contributors (ODbL)", "crs": {"type": "name", "properties": {"name": "urn:ogc:def:crs:EPSG::25832"}}, "features": [{"type": "Feature", "properties": {"kind": "hedge", "h": 1.5, "w": 1.0, "src": "osm"}, "geometry": {"type": "LineString", "coordinates": [[690396.1, 5332604.5], [690422.1, 5332599.4], [690422.7, 5332599.2], [690424.1, 5332598.7]]}}, {"type": "Feature", "properties": {"kind": "hedge", "h": 1.5, "w": 1.0, "src": "osm"}, "geometry": {"type": "LineString", "coordinates": [[690428.1, 5332625.6], [690424.1, 5332598.7], [690411.3, 5332538.5], [690400.7, 5332539.1], [690368.6, 5332464.6], [690359.5, 5332442.6], [690359.2, 5332442.3], [690330.0, 5332454.5]]}}, {"type": "Feature", "properties": {"kind": "hedge", "h": 1.5, "w": 1.0, "src": "osm"}, "geometry": {"type": "LineString", "coordinates": [[690395.1, 5332546.0], [690393.5, 5332542.2], [690398.1, 5332540.3], [690400.7, 5332539.1]]}}, {"type": "Feature", "properties": {"kind": "hedge", "h": 1.5, "w": 1.0, "src": "osm"}, "geometry": {"type": "LineString", "coordinates": [[690382.3, 5332536.5], [690376.1, 5332522.5]]}}, {"type": "Feature", "properties": {"kind": "hedge", "h": 1.5, "w": 1.0, "src": "osm"}, "geometry": {"type": "LineString", "coordinates": [[690371.9, 5332513.8], [690360.5, 5332488.2]]}}, {"type": "Feature", "properties": {"kind": "hedge", "h": 1.5, "w": 1.0, "src": "osm"}, "geometry": {"type": "LineString", "coordinates": [[690358.4, 5332483.3], [690354.2, 5332473.5]]}}, {"type": "Feature", "properties": {"kind": "hedge", "h": 1.5, "w": 1.0, "src": "osm"}, "geometry": {"type": "LineString", "coordinates": [[690735.9, 5333953.6], [690727.1, 5333957.6], [690724.3, 5333951.6], [690730.3, 5333949.0], [690731.8, 5333949.5], [690733.8, 5333949.5]]}}, {"type": "Feature", "properties": {"kind": "hedge", "h": 1.5, "w": 1.0, "src": "osm"}, "geometry": {"type": "LineString", "coordinates": [[690733.8, 5333949.5], [690735.9, 5333953.6]]}}, {"type": "Feature", "properties": {"kind": "hedge", "h": 1.5, "w": 1.0, "src": "osm"}, "geometry": {"type": "LineString", "coordinates": [[690732.0, 5333942.0], [690730.7, 5333938.9], [690720.8, 5333942.9], [690723.6, 5333948.9], [690729.6, 5333946.4], [690730.0, 5333944.7], [690730.6, 5333943.3], [690732.0, 5333942.0]]}}, {"type": "Feature", "properties": {"kind": "hedge", "h": 1.5, "w": 1.0, "src": "osm"}, "geometry": {"type": "LineString", "coordinates": [[690752.0, 5333947.5], [690749.1, 5333941.2], [690741.9, 5333944.2], [690741.9, 5333946.8], [690740.4, 5333948.3], [690738.2, 5333949.4], [690739.7, 5333952.8], [690752.0, 5333947.5]]}}, {"type": "Feature", "properties": {"kind": "hedge", "h": 1.5, "w": 1.0, "src": "osm"}, "geometry": {"type": "LineString", "coordinates": [[690734.3, 5333936.9], [690735.3, 5333940.3], [690737.9, 5333939.5], [690740.2, 5333941.1], [690748.2, 5333938.3], [690745.7, 5333932.1], [690734.3, 5333936.9]]}}, {"type": "Feature", "properties": {"kind": "hedge", "h": 1.5, "w": 1.0, "src": "osm"}, "geometry": {"type": "LineString", "coordinates": [[690189.3, 5333323.2], [690193.5, 5333319.9]]}}, {"type": "Feature", "properties": {"kind": "hedge", "h": 1.5, "w": 1.0, "src": "osm"}, "geometry": {"type": "LineString", "coordinates": [[690187.5, 5333291.7], [690179.3, 5333280.9], [690174.9, 5333284.2]]}}, {"type": "Feature", "properties": {"kind": "hedge", "h": 1.5, "w": 1.0, "src": "osm"}, "geometry": {"type": "LineString", "coordinates": [[690194.7, 5333301.2], [690203.1, 5333312.4], [690194.6, 5333319.1]]}}, {"type": "Feature", "properties": {"kind": "hedge", "h": 1.0, "w": 1.0, "src": "osm"}, "geometry": {"type": "LineString", "coordinates": [[690029.2, 5333971.0], [690010.4, 5333950.5], [690005.7, 5333953.3], [690000.6, 5333955.7], [690000.0, 5333955.8]]}}, {"type": "Feature", "properties": {"kind": "hedge", "h": 1.5, "w": 1.0, "src": "osm"}, "geometry": {"type": "LineString", "coordinates": [[690413.2, 5333553.2], [690404.8, 5333563.2]]}}, {"type": "Feature", "properties": {"kind": "hedge", "h": 2.0, "w": 1.0, "src": "osm"}, "geometry": {"type": "LineString", "coordinates": [[691763.8, 5333030.2], [691737.0, 5333043.2]]}}, {"type": "Feature", "properties": {"kind": "hedge", "h": 1.5, "w": 1.0, "src": "osm"}, "geometry": {"type": "LineString", "coordinates": [[690701.3, 5332940.0], [690709.3, 5332939.6], [690709.2, 5332937.5], [690701.2, 5332937.9], [690701.3, 5332940.0]]}}, {"type": "Feature", "properties": {"kind": "hedge", "h": 1.5, "w": 1.0, "src": "osm"}, "geometry": {"type": "LineString", "coordinates": [[690245.1, 5333950.2], [690242.8, 5333914.3]]}}, {"type": "Feature", "properties": {"kind": "hedge", "h": 1.5, "w": 1.0, "src": "osm"}, "geometry": {"type": "LineString", "coordinates": [[690162.3, 5333306.7], [690163.7, 5333308.3], [690171.3, 5333302.4], [690165.6, 5333294.8], [690166.2, 5333290.9], [690164.9, 5333290.8], [690164.0, 5333292.0], [690162.3, 5333306.7]]}}]}