{"type": "FeatureCollection", "attribution": "Bayerische Vermessungsverwaltung \u2013 www.geodaten.bayern.de, CC BY 4.0 (laser scan); \u00a9 OpenStreetMap contributors (ODbL)", "crs": {"type": "name", "properties": {"name": "urn:ogc:def:crs:EPSG::25832"}}, "features": [{"type": "Feature", "properties": {"kind": "hedge", "h": 2.2, "w": 2.0, "src": "osm+lsc"}, "geometry": {"type": "LineString", "coordinates": [[693487.1, 5332285.1], [693501.6, 5332287.3]]}}, {"type": "Feature", "properties": {"kind": "hedge", "h": 1.4, "w": 1.0, "src": "osm+lsc"}, "geometry": {"type": "LineString", "coordinates": [[693502.9, 5332306.4], [693505.3, 5332288.0]]}}, {"type": "Feature", "properties": {"kind": "hedge", "h": 1.5, "w": 1.0, "src": "osm"}, "geometry": {"type": "LineString", "coordinates": [[693636.9, 5332434.7], [693631.9, 5332430.6]]}}, {"type": "Feature", "properties": {"kind": "hedge", "h": 1.5, "w": 1.0, "src": "osm"}, "geometry": {"type": "LineString", "coordinates": [[693483.7, 5332316.2], [693501.3, 5332318.5], [693501.9, 5332313.7]]}}, {"type": "Feature", "properties": {"kind": "hedge", "h": 2.0, "w": 1.7, "src": "osm+lsc"}, "geometry": {"type": "LineString", "coordinates": [[693473.6, 5332283.2], [693487.1, 5332285.1], [693485.0, 5332298.0], [693486.0, 5332298.7], [693483.7, 5332316.2], [693465.7, 5332313.8], [693466.8, 5332304.5]]}}, {"type": "Feature", "properties": {"kind": "hedge", "h": 0.9, "w": 1.0, "src": "osm+lsc"}, "geometry": {"type": "LineString", "coordinates": [[693644.5, 5332453.2], [693645.0, 5332450.3], [693645.2, 5332447.3], [693644.5, 5332444.4], [693643.8, 5332442.0], [693642.6, 5332440.4], [693641.0, 5332438.6]]}}, {"type": "Feature", "properties": {"kind": "hedge", "h": 1.5, "w": 1.0, "src": "osm+lsc"}, "geometry": {"type": "LineString", "coordinates": [[693906.1, 5332260.8], [693961.2, 5332271.8], [693961.3, 5332273.8], [693961.9, 5332282.6]]}}, {"type": "Feature", "properties": {"kind": "hedge", "h": 1.2, "w": 1.0, "src": "osm+lsc"}, "geometry": {"type": "LineString", "coordinates": [[692992.9, 5332032.2], [692986.0, 5332028.9]]}}, {"type": "Feature", "properties": {"kind": "hedge", "h": 1.1, "w": 1.0, "src": "osm+lsc"}, "geometry": {"type": "LineString", "coordinates": [[692991.0, 5332036.1], [692982.4, 5332032.2]]}}, {"type": "Feature", "properties": {"kind": "hedge", "h": 1.5, "w": 1.0, "src": "osm"}, "geometry": {"type": "LineString", "coordinates": [[692994.4, 5332027.5], [692987.4, 5332024.3]]}}, {"type": "Feature", "properties": {"kind": "hedge", "h": 1.3, "w": 1.0, "src": "osm+lsc"}, "geometry": {"type": "LineString", "coordinates": [[693595.5, 5333384.1], [693592.8, 5333381.4]]}}, {"type": "Feature", "properties": {"kind": "hedge", "h": 1.2, "w": 1.4, "src": "osm+lsc"}, "geometry": {"type": "LineString", "coordinates": [[693599.9, 5333380.2], [693597.5, 5333377.7], [693603.2, 5333373.1], [693616.1, 5333363.7], [693625.7, 5333356.6], [693627.8, 5333355.9], [693629.8, 5333356.1], [693631.7, 5333357.0], [693634.2, 5333359.4]]}}, {"type": "Feature", "properties": {"kind": "hedge", "h": 1.5, "w": 1.0, "src": "osm"}, "geometry": {"type": "LineString", "coordinates": [[692698.3, 5332302.5], [692668.7, 5332306.5]]}}, {"type": "Feature", "properties": {"kind": "hedge", "h": 1.8, "w": 1.0, "src": "osm+lsc"}, "geometry": {"type": "LineString", "coordinates": [[692712.3, 5332300.7], [692702.7, 5332301.9]]}}, {"type": "Feature", "properties": {"kind": "hedge", "h": 2.0, "w": 1.0, "src": "osm+lsc"}, "geometry": {"type": "LineString", "coordinates": [[693132.7, 5333151.2], [693155.0, 5333159.7]]}}, {"type": "Feature", "properties": {"kind": "hedge", "h": 1.5, "w": 1.0, "src": "osm"}, "geometry": {"type": "LineString", "coordinates": [[693987.4, 5333258.1], [693950.5, 5333226.8]]}}, {"type": "Feature", "properties": {"kind": "hedge", "h": 1.6, "w": 2.0, "src": "osm+lsc"}, "geometry": {"type": "LineString", "coordinates": [[692810.0, 5333178.5], [692810.6, 5333175.0], [692771.0, 5333165.1]]}}, {"type": "Feature", "properties": {"kind": "hedge", "h": 2.6, "w": 2.6, "src": "osm+lsc"}, "geometry": {"type": "LineString", "coordinates": [[692892.8, 5333234.2], [692894.7, 5333256.4], [692896.3, 5333258.0]]}}, {"type": "Feature", "properties": {"kind": "hedge", "h": 1.5, "w": 1.0, "src": "osm"}, "geometry": {"type": "LineString", "coordinates": [[692020.7, 5333852.4], [692031.5, 5333862.1]]}}, {"type": "Feature", "properties": {"kind": "hedge", "h": 1.5, "w": 1.0, "src": "osm"}, "geometry": {"type": "LineString", "coordinates": [[692012.6, 5333849.0], [692018.4, 5333854.1]]}}, {"type": "Feature", "properties": {"kind": "hedge", "h": 1.5, "w": 1.0, "src": "osm"}, "geometry": {"type": "LineString", "coordinates": [[692005.6, 5333843.0], [692010.0, 5333847.0]]}}, {"type": "Feature", "properties": {"kind": "hedge", "h": 1.5, "w": 1.0, "src": "osm"}, "geometry": {"type": "LineString", "coordinates": [[692025.7, 5333849.2], [692029.3, 5333852.5]]}}, {"type": "Feature", "properties": {"kind": "hedge", "h": 1.3, "w": 1.4, "src": "osm+lsc"}, "geometry": {"type": "LineString", "coordinates": [[692032.9, 5333851.5], [692037.3, 5333855.4]]}}, {"type": "Feature", "properties": {"kind": "hedge", "h": 1.5, "w": 1.0, "src": "osm"}, "geometry": {"type": "LineString", "coordinates": [[692015.6, 5333859.2], [692021.3, 5333864.3]]}}, {"type": "Feature", "properties": {"kind": "hedge", "h": 1.5, "w": 1.0, "src": "osm"}, "geometry": {"type": "LineString", "coordinates": [[692690.3, 5332357.9], [692707.3, 5332356.2], [692719.8, 5332354.8], [692736.3, 5332352.6], [692753.1, 5332350.3], [692774.9, 5332347.4], [692798.6, 5332344.3], [692822.6, 5332340.9]]}}, {"type": "Feature", "properties": {"kind": "hedge", "h": 1.2, "w": 1.0, "src": "osm+lsc"}, "geometry": {"type": "LineString", "coordinates": [[692827.9, 5332340.4], [692835.0, 5332339.5]]}}, {"type": "Feature", "properties": {"kind": "hedge", "h": 1.5, "w": 1.0, "src": "osm"}, "geometry": {"type": "LineString", "coordinates": [[692844.9, 5332338.1], [692871.5, 5332334.5]]}}, {"type": "Feature", "properties": {"kind": "hedge", "h": 1.5, "w": 1.0, "src": "osm"}, "geometry": {"type": "LineString", "coordinates": [[692874.2, 5332334.2], [692899.8, 5332331.2]]}}, {"type": "Feature", "properties": {"kind": "hedge", "h": 1.5, "w": 1.0, "src": "osm"}, "geometry": {"type": "LineString", "coordinates": [[692425.5, 5332339.2], [692463.0, 5332346.2], [692505.5, 5332352.5]]}}, {"type": "Feature", "properties": {"kind": "hedge", "h": 1.5, "w": 1.0, "src": "osm"}, "geometry": {"type": "LineString", "coordinates": [[692509.6, 5332353.1], [692530.4, 5332356.0], [692545.3, 5332357.6]]}}, {"type": "Feature", "properties": {"kind": "hedge", "h": 1.5, "w": 1.0, "src": "osm"}, "geometry": {"type": "LineString", "coordinates": [[692583.6, 5332360.9], [692612.3, 5332362.0]]}}]}