{"type": "FeatureCollection", "attribution": "Bayerische Vermessungsverwaltung \u2013 www.geodaten.bayern.de, CC BY 4.0; \u00a9 OpenStreetMap contributors (ODbL)", "crs": {"type": "name", "properties": {"name": "urn:ogc:def:crs:EPSG::25832"}}, "features": [{"type": "Feature", "properties": {"kind": "fountain", "source": "osm", "style": "basin", "figure": false}, "geometry": {"type": "Point", "coordinates": [690570.64, 5333094.2]}}, {"type": "Feature", "properties": {"kind": "fountain", "source": "osm", "name": "Roecklbrunnen", "style": "basin", "figure": false}, "geometry": {"type": "Point", "coordinates": [690652.47, 5332928.48]}}, {"type": "Feature", "properties": {"kind": "fountain", "source": "osm", "style": "basin", "figure": false}, "geometry": {"type": "Polygon", "coordinates": [[[690654.73, 5333153.96], [690654.53, 5333155.21], [690655.15, 5333156.32], [690656.34, 5333156.79], [690657.34, 5333156.57], [690658.08, 5333155.86], [690658.35, 5333154.87], [690658.07, 5333153.88], [690657.04, 5333153.05], [690655.72, 5333153.09], [690654.73, 5333153.96]], [[690655.06, 5333154.14], [690654.89, 5333155.14], [690655.4, 5333156.04], [690656.37, 5333156.43], [690657.17, 5333156.25], [690657.77, 5333155.67], [690657.99, 5333154.87], [690657.77, 5333154.08], [690656.92, 5333153.41], [690655.86, 5333153.43], [690655.06, 5333154.14]]]}}, {"type": "Feature", "properties": {"kind": "fountain", "source": "osm", "style": "basin", "figure": false}, "geometry": {"type": "Point", "coordinates": [690717.62, 5333408.17]}}, {"type": "Feature", "properties": {"kind": "fountain", "source": "osm", "style": "basin", "figure": false}, "geometry": {"type": "Point", "coordinates": [690724.97, 5333648.83]}}, {"type": "Feature", "properties": {"kind": "fountain", "source": "osm", "style": "basin", "figure": false}, "geometry": {"type": "Polygon", "coordinates": [[[690737.03, 5333945.9], [690736.09, 5333946.1], [690735.28, 5333945.58], [690735.08, 5333944.64], [690735.6, 5333943.84], [690736.54, 5333943.63], [690737.35, 5333944.15], [690737.55, 5333945.09], [690737.03, 5333945.9]], [[690736.81, 5333945.59], [690737.18, 5333945.02], [690737.04, 5333944.37], [690736.47, 5333944.01], [690735.82, 5333944.15], [690735.45, 5333944.71], [690735.59, 5333945.37], [690736.16, 5333945.73], [690736.81, 5333945.59]]]}}, {"type": "Feature", "properties": {"kind": "fountain", "source": "osm", "style": "basin", "figure": false}, "geometry": {"type": "Point", "coordinates": [690747.01, 5333286.04]}}, {"type": "Feature", "properties": {"kind": "fountain", "source": "dlm", "style": "basin", "figure": true}, "geometry": {"type": "Point", "coordinates": [690767.17, 5332202.96]}}, {"type": "Feature", "properties": {"kind": "fountain", "source": "osm", "style": "basin", "figure": false}, "geometry": {"type": "Point", "coordinates": [690863.22, 5333609.25]}}, {"type": "Feature", "properties": {"kind": "fountain", "source": "osm", "style": "basin", "figure": false}, "geometry": {"type": "Point", "coordinates": [691236.29, 5333067.29]}}, {"type": "Feature", "properties": {"kind": "fountain", "source": "osm", "style": "basin", "figure": false}, "geometry": {"type": "Point", "coordinates": [691458.73, 5333846.89]}}, {"type": "Feature", "properties": {"kind": "fountain", "source": "osm", "style": "basin", "figure": false}, "geometry": {"type": "Point", "coordinates": [691795.92, 5332453.44]}}, {"type": "Feature", "properties": {"kind": "fountain", "source": "osm", "style": "basin", "figure": false}, "geometry": {"type": "Point", "coordinates": [691798.77, 5333543.19]}}]}