{"type": "FeatureCollection", "attribution": "\u00a9 OpenStreetMap contributors (ODbL)", "crs": {"type": "name", "properties": {"name": "urn:ogc:def:crs:EPSG::25832"}}, "features": [{"type": "Feature", "properties": {}, "geometry": {"type": "Polygon", "coordinates": [[[692114.94, 5334511.52], [692109.33, 5334505.34], [692122.9, 5334493.11], [692131.44, 5334485.41], [692182.57, 5334439.3], [692237.13, 5334390.1], [692247.63, 5334380.64], [692263.71, 5334366.13], [692269.31, 5334372.31], [692253.31, 5334386.73], [692242.57, 5334396.42], [692191.09, 5334442.84], [692137.02, 5334491.61], [692128.16, 5334499.6], [692114.94, 5334511.52]]]}}, {"type": "Feature", "properties": {}, "geometry": {"type": "Polygon", "coordinates": [[[693281.59, 5334654.46], [693298.15, 5334653.02], [693326.44, 5334651.58], [693352.75, 5334651.65], [693378.83, 5334652.68], [693404.57, 5334654.63], [693404.71, 5334651.38], [693404.8, 5334648.42], [693404.83, 5334645.2], [693379.25, 5334643.33], [693352.92, 5334642.3], [693326.58, 5334641.79], [693297.96, 5334642.73], [693281.72, 5334643.95], [693281.61, 5334652.44], [693281.59, 5334654.46]]]}}, {"type": "Feature", "properties": {}, "geometry": {"type": "Polygon", "coordinates": [[[692447.38, 5335103.31], [692451.44, 5335110.93], [692477.41, 5335097.28], [692553.73, 5335056.49], [692557.72, 5335054.31], [692553.8, 5335046.92], [692552.17, 5335047.79], [692549.78, 5335049.06], [692547.71, 5335050.16], [692475.56, 5335088.36], [692473.33, 5335089.57], [692471.1, 5335090.77], [692447.38, 5335103.31]]]}}, {"type": "Feature", "properties": {}, "geometry": {"type": "Polygon", "coordinates": [[[692182.19, 5334377.64], [692182.99, 5334378.06], [692184.39, 5334378.83], [692204.79, 5334341.46], [692203.21, 5334340.59], [692202.59, 5334340.26], [692182.19, 5334377.64]]]}}, {"type": "Feature", "properties": {}, "geometry": {"type": "Polygon", "coordinates": [[[692177.02, 5334375.96], [692198.51, 5334336.51], [692197.35, 5334335.8], [692196.25, 5334335.28], [692174.76, 5334374.74], [692175.49, 5334375.13], [692176.26, 5334375.54], [692177.02, 5334375.96]]]}}, {"type": "Feature", "properties": {}, "geometry": {"type": "Polygon", "coordinates": [[[692858.93, 5335791.54], [692861.03, 5335790.71], [692866.78, 5335805.58], [692867.42, 5335813.71], [692867.92, 5335821.3], [692866.72, 5335829.55], [692865.99, 5335829.48], [692864.72, 5335829.37], [692865.03, 5335827.34], [692865.88, 5335821.1], [692865.3, 5335813.87], [692864.59, 5335805.98], [692858.93, 5335791.54]]]}}, {"type": "Feature", "properties": {}, "geometry": {"type": "Polygon", "coordinates": [[[692873.19, 5335830.17], [692871.85, 5335830.02], [692872.72, 5335821.6], [692872.4, 5335813.58], [692871.37, 5335805.3], [692872.06, 5335805.19], [692872.92, 5335805.12], [692873.88, 5335813.42], [692874.14, 5335821.58], [692873.19, 5335830.17]]]}}, {"type": "Feature", "properties": {}, "geometry": {"type": "Polygon", "coordinates": [[[693898.55, 5335008.0], [693924.86, 5335049.1], [693943.82, 5335078.71], [693963.3, 5335109.14], [693971.75, 5335103.76], [693952.26, 5335073.33], [693933.31, 5335043.72], [693907.0, 5335002.62], [693900.21, 5335006.94], [693898.55, 5335008.0]]]}}, {"type": "Feature", "properties": {}, "geometry": {"type": "Polygon", "coordinates": [[[692532.68, 5334842.48], [692532.63, 5334841.37], [692532.59, 5334840.21], [692510.35, 5334841.51], [692510.3, 5334842.27], [692510.28, 5334843.13], [692532.68, 5334842.48]]]}}, {"type": "Feature", "properties": {}, "geometry": {"type": "Polygon", "coordinates": [[[692564.69, 5334815.68], [692543.91, 5334816.68], [692543.98, 5334818.11], [692544.01, 5334818.84], [692564.8, 5334817.84], [692564.76, 5334816.96], [692564.69, 5334815.68]]]}}, {"type": "Feature", "properties": {}, "geometry": {"type": "Polygon", "coordinates": [[[693283.3, 5334670.54], [693282.17, 5334670.67], [693286.12, 5334704.35], [693287.26, 5334704.22], [693283.3, 5334670.54]]]}}, {"type": "Feature", "properties": {}, "geometry": {"type": "Polygon", "coordinates": [[[693267.9, 5334664.18], [693266.56, 5334664.32], [693268.62, 5334682.76], [693269.95, 5334694.72], [693271.29, 5334694.58], [693269.95, 5334682.54], [693267.9, 5334664.18]]]}}, {"type": "Feature", "properties": {}, "geometry": {"type": "Polygon", "coordinates": [[[693405.15, 5334634.48], [693405.03, 5334636.42], [693404.9, 5334638.53], [693404.78, 5334640.92], [693379.2, 5334638.86], [693352.93, 5334637.66], [693326.59, 5334637.43], [693297.98, 5334637.78], [693281.77, 5334638.98], [693281.67, 5334633.97], [693281.64, 5334632.55], [693298.06, 5334631.52], [693326.8, 5334631.32], [693352.9, 5334631.78], [693379.41, 5334632.69], [693405.15, 5334634.48]]]}}, {"type": "Feature", "properties": {}, "geometry": {"type": "Polygon", "coordinates": [[[692568.53, 5335049.32], [692565.85, 5335048.53], [692559.26, 5335070.74], [692561.93, 5335071.53], [692568.53, 5335049.32]]]}}, {"type": "Feature", "properties": {}, "geometry": {"type": "Polygon", "coordinates": [[[692578.65, 5335040.12], [692581.67, 5335041.11], [692577.33, 5335054.31], [692573.37, 5335066.37], [692570.34, 5335065.39], [692575.0, 5335051.19], [692578.65, 5335040.12]]]}}, {"type": "Feature", "properties": {}, "geometry": {"type": "Polygon", "coordinates": [[[692499.66, 5334858.45], [692500.86, 5334857.26], [692501.89, 5334856.25], [692505.73, 5334859.73], [692508.5, 5334861.67], [692511.53, 5334863.55], [692515.9, 5334865.59], [692518.03, 5334866.39], [692517.98, 5334867.03], [692517.48, 5334867.55], [692516.52, 5334867.95], [692515.1, 5334868.39], [692512.35, 5334867.4], [692509.67, 5334866.11], [692507.14, 5334864.71], [692505.78, 5334863.74], [692503.49, 5334862.09], [692499.66, 5334858.45]]]}}, {"type": "Feature", "properties": {}, "geometry": {"type": "Polygon", "coordinates": [[[692574.9, 5334801.68], [692576.07, 5334801.34], [692578.04, 5334800.86], [692574.98, 5334797.54], [692570.64, 5334794.07], [692567.47, 5334791.86], [692563.87, 5334789.61], [692559.94, 5334788.07], [692555.45, 5334786.66], [692554.2, 5334789.25], [692558.53, 5334790.43], [692562.15, 5334791.98], [692565.21, 5334793.84], [692568.37, 5334795.79], [692571.98, 5334798.76], [692574.9, 5334801.68]]]}}, {"type": "Feature", "properties": {}, "geometry": {"type": "Polygon", "coordinates": [[[693307.11, 5334647.38], [693307.15, 5334646.27], [693307.2, 5334645.51], [693362.68, 5334645.63], [693362.57, 5334647.57], [693350.59, 5334647.75], [693345.06, 5334647.88], [693337.38, 5334648.2], [693335.14, 5334648.25], [693329.15, 5334648.22], [693322.96, 5334648.0], [693307.11, 5334647.38]]]}}, {"type": "Feature", "properties": {}, "geometry": {"type": "Polygon", "coordinates": [[[693104.02, 5334704.73], [693104.79, 5334705.48], [693105.33, 5334706.0], [693111.91, 5334700.15], [693116.77, 5334696.38], [693120.56, 5334693.78], [693123.98, 5334691.69], [693127.75, 5334689.63], [693131.51, 5334687.74], [693134.67, 5334686.34], [693138.87, 5334684.63], [693146.03, 5334682.0], [693145.83, 5334681.38], [693145.54, 5334680.49], [693138.31, 5334682.72], [693133.85, 5334684.38], [693130.51, 5334685.83], [693126.9, 5334687.59], [693123.11, 5334689.61], [693119.29, 5334692.01], [693115.44, 5334694.72], [693110.68, 5334698.56], [693104.02, 5334704.73]]]}}, {"type": "Feature", "properties": {}, "geometry": {"type": "Polygon", "coordinates": [[[693143.86, 5334672.46], [693144.14, 5334673.43], [693144.39, 5334674.36], [693141.11, 5334675.19], [693138.8, 5334675.75], [693136.4, 5334676.34], [693133.79, 5334676.85], [693130.88, 5334677.26], [693128.56, 5334677.54], [693125.84, 5334677.69], [693123.22, 5334677.83], [693120.63, 5334677.87], [693117.45, 5334677.81], [693114.01, 5334677.53], [693110.8, 5334677.12], [693107.44, 5334676.61], [693104.41, 5334675.98], [693104.65, 5334674.91], [693104.88, 5334673.84], [693107.97, 5334674.46], [693111.25, 5334675.0], [693114.3, 5334675.33], [693117.61, 5334675.6], [693120.53, 5334675.69], [693123.09, 5334675.68], [693125.78, 5334675.56], [693128.39, 5334675.41], [693130.59, 5334675.14], [693133.45, 5334674.72], [693136.17, 5334674.17], [693138.39, 5334673.71], [693140.61, 5334673.23], [693143.86, 5334672.46]]]}}, {"type": "Feature", "properties": {}, "geometry": {"type": "Polygon", "coordinates": [[[693251.69, 5334214.62], [693252.59, 5334213.64], [693263.97, 5334223.99], [693263.08, 5334224.98], [693251.69, 5334214.62]]]}}, {"type": "Feature", "properties": {}, "geometry": {"type": "Polygon", "coordinates": [[[693278.46, 5334496.83], [693280.47, 5334495.33], [693295.85, 5334514.08], [693293.85, 5334515.58], [693289.71, 5334510.84], [693285.77, 5334505.93], [693278.46, 5334496.83]]]}}, {"type": "Feature", "properties": {}, "geometry": {"type": "Polygon", "coordinates": [[[693334.8, 5334639.89], [693334.81, 5334638.49], [693323.01, 5334638.39], [693308.38, 5334638.43], [693296.76, 5334638.45], [693296.75, 5334639.0], [693296.71, 5334639.99], [693334.8, 5334639.89]]]}}, {"type": "Feature", "properties": {}, "geometry": {"type": "Polygon", "coordinates": [[[692400.98, 5334192.0], [692400.81, 5334191.56], [692400.19, 5334189.92], [692404.98, 5334188.07], [692409.76, 5334186.1], [692416.2, 5334183.61], [692424.15, 5334180.98], [692431.94, 5334178.75], [692432.44, 5334180.38], [692424.79, 5334182.82], [692417.0, 5334185.66], [692408.64, 5334188.93], [692400.98, 5334192.0]]]}}, {"type": "Feature", "properties": {}, "geometry": {"type": "Polygon", "coordinates": [[[693123.35, 5334456.53], [693124.14, 5334454.3], [693127.22, 5334455.38], [693132.22, 5334457.15], [693139.26, 5334459.64], [693138.46, 5334461.87], [693132.99, 5334459.94], [693123.35, 5334456.53]]]}}, {"type": "Feature", "properties": {}, "geometry": {"type": "Polygon", "coordinates": [[[692178.53, 5334432.56], [692179.68, 5334429.89], [692194.88, 5334436.36], [692193.73, 5334439.05], [692188.1, 5334436.65], [692187.34, 5334436.32], [692181.71, 5334433.93], [692178.53, 5334432.56]]]}}, {"type": "Feature", "properties": {}, "geometry": {"type": "Polygon", "coordinates": [[[692436.23, 5334561.55], [692438.78, 5334560.03], [692447.43, 5334574.59], [692444.86, 5334576.05], [692440.74, 5334569.14], [692437.81, 5334564.2], [692436.23, 5334561.55]]]}}, {"type": "Feature", "properties": {}, "geometry": {"type": "Polygon", "coordinates": [[[693109.57, 5334465.78], [693112.55, 5334466.91], [693117.91, 5334468.96], [693120.74, 5334470.04], [693124.52, 5334471.48], [693125.38, 5334469.21], [693121.62, 5334467.77], [693110.44, 5334463.5], [693109.57, 5334465.78]]]}}, {"type": "Feature", "properties": {}, "geometry": {"type": "Polygon", "coordinates": [[[692450.58, 5334556.18], [692453.25, 5334554.65], [692457.41, 5334561.94], [692460.19, 5334566.79], [692461.46, 5334569.0], [692458.78, 5334570.53], [692450.58, 5334556.18]]]}}, {"type": "Feature", "properties": {}, "geometry": {"type": "Polygon", "coordinates": [[[692402.73, 5334197.34], [692402.96, 5334197.93], [692403.55, 5334199.28], [692418.84, 5334192.9], [692434.72, 5334186.65], [692434.11, 5334185.02], [692428.1, 5334187.14], [692418.06, 5334190.92], [692402.73, 5334197.34]]]}}, {"type": "Feature", "properties": {}, "geometry": {"type": "Polygon", "coordinates": [[[692552.82, 5335417.77], [692553.08, 5335412.86], [692553.42, 5335404.81], [692551.16, 5335404.67], [692550.12, 5335421.13], [692552.67, 5335420.98], [692552.82, 5335417.77]]]}}, {"type": "Feature", "properties": {}, "geometry": {"type": "Polygon", "coordinates": [[[692555.72, 5335470.27], [692554.91, 5335471.06], [692554.28, 5335471.67], [692556.34, 5335473.76], [692559.28, 5335476.69], [692561.33, 5335478.6], [692567.62, 5335483.13], [692568.87, 5335481.54], [692562.75, 5335477.2], [692555.72, 5335470.27]]]}}, {"type": "Feature", "properties": {}, "geometry": {"type": "Polygon", "coordinates": [[[692467.43, 5335085.14], [692467.9, 5335084.9], [692470.2, 5335083.65], [692472.37, 5335082.49], [692544.23, 5335044.03], [692546.47, 5335042.83], [692548.69, 5335041.64], [692570.57, 5335029.99], [692573.55, 5335028.34], [692572.72, 5335026.79], [692569.79, 5335021.35], [692542.71, 5335035.85], [692466.5, 5335076.64], [692463.67, 5335078.16], [692467.43, 5335085.14]]]}}, {"type": "Feature", "properties": {}, "geometry": {"type": "Polygon", "coordinates": [[[692220.37, 5334430.09], [692220.71, 5334428.59], [692202.74, 5334423.72], [692193.91, 5334419.97], [692193.29, 5334421.42], [692202.29, 5334425.19], [692220.37, 5334430.09]]]}}, {"type": "Feature", "properties": {}, "geometry": {"type": "Polygon", "coordinates": [[[693259.08, 5334209.27], [693260.08, 5334208.16], [693271.14, 5334218.47], [693270.11, 5334219.55], [693259.08, 5334209.27]]]}}, {"type": "Feature", "properties": {}, "geometry": {"type": "Polygon", "coordinates": [[[693320.15, 5334226.15], [693318.66, 5334224.56], [693303.61, 5334238.51], [693305.1, 5334240.11], [693320.15, 5334226.15]]]}}, {"type": "Feature", "properties": {}, "geometry": {"type": "Polygon", "coordinates": [[[693314.26, 5334209.05], [693312.69, 5334207.43], [693297.82, 5334221.72], [693299.4, 5334223.34], [693314.26, 5334209.05]]]}}, {"type": "Feature", "properties": {}, "geometry": {"type": "Polygon", "coordinates": [[[693291.39, 5334492.1], [693293.49, 5334490.37], [693309.8, 5334508.56], [693306.92, 5334510.79], [693303.3, 5334506.44], [693299.28, 5334501.59], [693291.39, 5334492.1]]]}}, {"type": "Feature", "properties": {}, "geometry": {"type": "Polygon", "coordinates": [[[693649.41, 5335844.85], [693655.53, 5335850.37], [693657.48, 5335850.84], [693662.92, 5335859.28], [693664.45, 5335858.32], [693660.69, 5335852.16], [693658.99, 5335849.76], [693654.93, 5335844.99], [693652.01, 5335842.02], [693650.98, 5335843.14], [693649.41, 5335844.85]]]}}, {"type": "Feature", "properties": {}, "geometry": {"type": "Polygon", "coordinates": [[[693627.27, 5335805.55], [693629.22, 5335803.89], [693613.92, 5335785.28], [693609.47, 5335780.89], [693608.13, 5335779.82], [693606.74, 5335778.81], [693605.12, 5335777.83], [693603.6, 5335777.1], [693603.31, 5335777.2], [693627.27, 5335805.55]]]}}, {"type": "Feature", "properties": {}, "geometry": {"type": "Polygon", "coordinates": [[[693508.48, 5335472.83], [693510.47, 5335472.89], [693511.21, 5335446.43], [693509.23, 5335446.37], [693508.48, 5335472.83]]]}}, {"type": "Feature", "properties": {}, "geometry": {"type": "Polygon", "coordinates": [[[693494.63, 5335499.59], [693493.44, 5335499.57], [693491.63, 5335499.55], [693491.39, 5335522.73], [693492.87, 5335522.75], [693494.38, 5335522.77], [693494.63, 5335499.59]]]}}, {"type": "Feature", "properties": {}, "geometry": {"type": "Polygon", "coordinates": [[[693420.49, 5335232.62], [693423.23, 5335231.4], [693435.47, 5335258.84], [693432.74, 5335260.06], [693420.49, 5335232.62]]]}}, {"type": "Feature", "properties": {}, "geometry": {"type": "Polygon", "coordinates": [[[693421.26, 5335193.06], [693422.86, 5335192.43], [693419.4, 5335183.75], [693417.58, 5335178.24], [693413.94, 5335166.05], [693412.08, 5335166.62], [693415.77, 5335178.81], [693417.69, 5335184.27], [693421.26, 5335193.06]]]}}, {"type": "Feature", "properties": {}, "geometry": {"type": "Polygon", "coordinates": [[[692802.42, 5334314.83], [692822.22, 5334324.48], [692823.26, 5334322.36], [692823.68, 5334321.48], [692803.96, 5334311.82], [692803.46, 5334312.7], [692802.42, 5334314.83]]]}}, {"type": "Feature", "properties": {}, "geometry": {"type": "Polygon", "coordinates": [[[692831.42, 5334316.02], [692832.45, 5334314.03], [692814.34, 5334304.48], [692813.22, 5334306.62], [692831.42, 5334316.02]]]}}, {"type": "Feature", "properties": {}, "geometry": {"type": "Polygon", "coordinates": [[[693388.42, 5334641.33], [693415.56, 5334641.99], [693443.51, 5334644.41], [693445.58, 5334644.65], [693448.1, 5334644.92], [693448.34, 5334642.32], [693445.69, 5334642.03], [693443.75, 5334641.81], [693415.59, 5334639.8], [693388.4, 5334639.02], [693388.41, 5334640.19], [693388.42, 5334641.33]]]}}, {"type": "Feature", "properties": {}, "geometry": {"type": "Polygon", "coordinates": [[[693766.93, 5334654.16], [693799.29, 5334652.86], [693812.77, 5334652.83], [693812.78, 5334651.04], [693812.77, 5334649.84], [693799.24, 5334649.88], [693766.64, 5334650.97], [693766.93, 5334654.16]]]}}, {"type": "Feature", "properties": {}, "geometry": {"type": "Polygon", "coordinates": [[[693812.71, 5334657.24], [693799.01, 5334657.63], [693767.17, 5334659.16], [693767.46, 5334662.65], [693799.03, 5334660.89], [693812.67, 5334660.45], [693812.69, 5334658.85], [693812.71, 5334657.24]]]}}, {"type": "Feature", "properties": {}, "geometry": {"type": "LineString", "coordinates": [[692175.96, 5334928.61], [692157.19, 5334933.39]]}}, {"type": "Feature", "properties": {}, "geometry": {"type": "LineString", "coordinates": [[692151.33, 5334918.72], [692157.3, 5334917.21], [692171.78, 5334913.54]]}}]}