{"type": "FeatureCollection", "attribution": "\u00a9 OpenStreetMap contributors (ODbL)", "crs": {"type": "name", "properties": {"name": "urn:ogc:def:crs:EPSG::25832"}}, "features": [{"type": "Feature", "properties": {}, "geometry": {"type": "Polygon", "coordinates": [[[690188.26, 5332880.7], [690159.8, 5332898.34], [690128.17, 5332917.94], [690106.56, 5332931.68], [690026.63, 5332984.69], [689940.99, 5333041.43], [689942.6, 5333043.88], [689987.17, 5333014.1], [689987.52, 5333014.59], [689994.89, 5333009.67], [689994.57, 5333009.2], [690028.24, 5332986.9], [690081.81, 5332951.37], [690082.09, 5332951.81], [690085.89, 5332949.25], [690085.62, 5332948.85], [690107.9, 5332934.07], [690139.21, 5332914.4], [690170.58, 5332894.9], [690171.52, 5332896.29], [690177.06, 5332892.77], [690176.39, 5332891.53], [690189.8, 5332883.33], [690189.28, 5332882.4], [690188.26, 5332880.7]]]}}, {"type": "Feature", "properties": {}, "geometry": {"type": "Polygon", "coordinates": [[[691653.68, 5333768.27], [691654.6, 5333769.21], [691686.46, 5333736.12], [691685.96, 5333735.63], [691684.94, 5333734.65], [691653.06, 5333767.61], [691653.68, 5333768.27]]]}}, {"type": "Feature", "properties": {}, "geometry": {"type": "Polygon", "coordinates": [[[691391.44, 5331997.52], [691425.52, 5332114.08], [691424.22, 5332115.13], [691422.59, 5332114.93], [691423.28, 5332117.28], [691421.43, 5332117.82], [691419.29, 5332118.43], [691418.07, 5332118.79], [691417.36, 5332116.39], [691383.29, 5331999.88], [691384.99, 5331999.4], [691387.38, 5331998.7], [691389.79, 5331998.0], [691391.44, 5331997.52]]]}}, {"type": "Feature", "properties": {}, "geometry": {"type": "Polygon", "coordinates": [[[691766.87, 5332767.9], [691770.22, 5332768.71], [691772.62, 5332769.27], [691775.37, 5332769.93], [691770.76, 5332789.66], [691746.44, 5332890.81], [691743.16, 5332890.02], [691740.66, 5332889.42], [691737.94, 5332888.76], [691762.2, 5332787.88], [691766.87, 5332767.9]]]}}, {"type": "Feature", "properties": {}, "geometry": {"type": "Polygon", "coordinates": [[[691760.05, 5332766.44], [691759.72, 5332766.36], [691757.76, 5332765.88], [691757.08, 5332765.72], [691752.61, 5332785.77], [691727.83, 5332886.2], [691728.33, 5332886.32], [691730.42, 5332886.82], [691730.81, 5332886.92], [691755.62, 5332786.35], [691760.05, 5332766.44]]]}}, {"type": "Feature", "properties": {}, "geometry": {"type": "Polygon", "coordinates": [[[691578.46, 5333834.74], [691576.86, 5333833.31], [691552.96, 5333858.42], [691545.76, 5333866.0], [691538.46, 5333873.66], [691528.28, 5333884.36], [691520.1, 5333892.95], [691492.95, 5333921.46], [691495.35, 5333923.63], [691496.55, 5333924.75], [691497.89, 5333925.99], [691499.61, 5333927.6], [691525.82, 5333900.07], [691533.32, 5333892.2], [691545.15, 5333879.77], [691552.4, 5333872.16], [691559.79, 5333864.4], [691573.99, 5333849.48], [691577.49, 5333845.81], [691583.42, 5333839.59], [691580.85, 5333837.16], [691578.46, 5333834.74]]]}}, {"type": "Feature", "properties": {}, "geometry": {"type": "Polygon", "coordinates": [[[690239.12, 5333777.76], [690241.83, 5333774.21], [690242.91, 5333772.8], [690245.63, 5333769.23], [690264.41, 5333783.49], [690271.08, 5333788.55], [690278.08, 5333793.85], [690298.72, 5333809.53], [690304.67, 5333814.04], [690310.97, 5333818.82], [690326.39, 5333830.53], [690330.72, 5333833.81], [690345.37, 5333844.94], [690358.93, 5333855.22], [690357.28, 5333857.39], [690356.08, 5333858.95], [690353.39, 5333862.49], [690352.66, 5333863.45], [690352.41, 5333863.76], [690321.53, 5333840.32], [690291.37, 5333817.43], [690282.81, 5333810.93], [690275.11, 5333805.08], [690263.79, 5333796.49], [690253.7, 5333788.83], [690239.12, 5333777.76]]]}}, {"type": "Feature", "properties": {}, "geometry": {"type": "Polygon", "coordinates": [[[691621.24, 5333784.97], [691621.54, 5333785.25], [691622.6, 5333786.28], [691607.13, 5333802.15], [691606.39, 5333801.43], [691605.78, 5333800.85], [691621.24, 5333784.97]]]}}, {"type": "Feature", "properties": {}, "geometry": {"type": "LineString", "coordinates": [[691861.35, 5333537.26], [691850.78, 5333547.98]]}}, {"type": "Feature", "properties": {}, "geometry": {"type": "LineString", "coordinates": [[691860.02, 5333556.98], [691870.49, 5333546.25]]}}]}