{"type": "FeatureCollection", "attribution": "\u00a9 OpenStreetMap contributors (ODbL)", "crs": {"type": "name", "properties": {"name": "urn:ogc:def:crs:EPSG::25832"}}, "features": [{"type": "Feature", "properties": {}, "geometry": {"type": "Polygon", "coordinates": [[[693821.45, 5333645.0], [693797.25, 5333619.43], [693799.57, 5333617.28], [693823.7, 5333641.56], [693922.36, 5333746.6], [693936.78, 5333761.79], [694027.56, 5333859.12], [694054.45, 5333890.26], [694074.04, 5333916.41], [694072.8, 5333917.63], [694071.69, 5333918.7], [694053.92, 5333899.97], [694028.04, 5333872.39], [693930.21, 5333768.01], [693915.57, 5333752.9], [693817.46, 5333648.68], [693821.45, 5333645.0]], [[693917.89, 5333750.72], [693920.08, 5333748.66], [693924.39, 5333753.22], [693922.2, 5333755.27], [693917.89, 5333750.72]], [[693927.0, 5333761.41], [693929.06, 5333759.52], [693933.31, 5333764.12], [693932.29, 5333765.07], [693931.25, 5333766.01], [693927.0, 5333761.41]]]}}, {"type": "Feature", "properties": {}, "geometry": {"type": "Polygon", "coordinates": [[[693775.42, 5333575.99], [693816.95, 5333611.59], [693830.93, 5333625.04], [693934.5, 5333735.53], [693949.1, 5333750.15], [693967.64, 5333769.67], [694011.91, 5333817.78], [694032.27, 5333844.56], [694028.57, 5333847.94], [694004.38, 5333822.02], [693961.18, 5333775.91], [693942.49, 5333756.19], [693928.45, 5333741.1], [693823.87, 5333630.06], [693771.62, 5333580.14], [693775.42, 5333575.99]], [[693930.32, 5333739.36], [693932.51, 5333737.31], [693936.8, 5333741.86], [693934.61, 5333743.91], [693930.32, 5333739.36]], [[693940.04, 5333749.8], [693942.24, 5333747.76], [693946.48, 5333752.32], [693945.38, 5333753.34], [693944.28, 5333754.36], [693940.04, 5333749.8]], [[693941.8, 5333745.17], [693940.35, 5333746.52], [693941.72, 5333748.01], [693943.18, 5333746.68], [693941.8, 5333745.17]]]}}, {"type": "Feature", "properties": {}, "geometry": {"type": "Polygon", "coordinates": [[[693771.53, 5333707.35], [693786.34, 5333722.42], [693799.85, 5333736.86], [693861.37, 5333802.82], [693874.83, 5333817.12], [693916.26, 5333861.06], [693909.63, 5333867.03], [693868.31, 5333822.96], [693854.84, 5333808.67], [693793.39, 5333742.73], [693779.88, 5333728.08], [693766.06, 5333712.04], [693771.53, 5333707.35]], [[693867.85, 5333815.03], [693866.4, 5333816.38], [693870.67, 5333820.94], [693872.07, 5333819.62], [693869.23, 5333816.53], [693867.85, 5333815.03]], [[693861.7, 5333810.93], [693857.45, 5333806.37], [693859.02, 5333804.89], [693863.28, 5333809.47], [693861.7, 5333810.93]], [[693788.59, 5333728.62], [693786.37, 5333730.66], [693782.15, 5333726.07], [693784.38, 5333724.03], [693788.59, 5333728.62]], [[693790.99, 5333736.39], [693793.88, 5333733.74], [693798.14, 5333738.35], [693795.29, 5333740.98], [693790.99, 5333736.39]]]}}, {"type": "Feature", "properties": {}, "geometry": {"type": "Polygon", "coordinates": [[[693922.99, 5333854.78], [693881.92, 5333810.68], [693868.15, 5333796.4], [693806.27, 5333730.76], [693792.67, 5333716.4], [693777.87, 5333701.11], [693785.42, 5333694.02], [693800.49, 5333709.57], [693813.86, 5333723.98], [693875.41, 5333789.97], [693888.47, 5333804.54], [693929.79, 5333848.44], [693922.99, 5333854.78]], [[693795.56, 5333713.81], [693797.76, 5333711.77], [693802.02, 5333716.35], [693799.79, 5333718.39], [693795.56, 5333713.81]], [[693870.01, 5333794.79], [693872.22, 5333792.73], [693876.51, 5333797.29], [693874.31, 5333799.35], [693870.01, 5333794.79]], [[693879.47, 5333804.32], [693883.69, 5333808.94], [693884.47, 5333808.23], [693885.79, 5333807.04], [693881.41, 5333802.5], [693879.47, 5333804.32]], [[693804.25, 5333724.26], [693807.32, 5333721.47], [693811.54, 5333726.03], [693808.48, 5333728.84], [693804.25, 5333724.26]]]}}, {"type": "Feature", "properties": {}, "geometry": {"type": "Polygon", "coordinates": [[[694030.37, 5333934.11], [693939.79, 5333839.32], [693936.33, 5333842.55], [693894.86, 5333798.78], [693881.33, 5333784.24], [693819.6, 5333718.55], [693791.35, 5333688.54], [693796.1, 5333684.39], [693778.42, 5333665.83], [693781.44, 5333663.03], [693827.34, 5333711.6], [693888.8, 5333777.5], [693902.43, 5333791.96], [694033.49, 5333931.07], [694030.37, 5333934.11]], [[693883.95, 5333781.89], [693886.15, 5333779.83], [693890.43, 5333784.37], [693888.24, 5333786.43], [693883.95, 5333781.89]], [[693818.51, 5333711.23], [693820.73, 5333709.2], [693824.96, 5333713.8], [693822.73, 5333715.83], [693818.51, 5333711.23]], [[693893.26, 5333791.81], [693895.4, 5333789.81], [693899.69, 5333794.36], [693898.58, 5333795.41], [693897.56, 5333796.37], [693893.26, 5333791.81]]]}}, {"type": "Feature", "properties": {}, "geometry": {"type": "Polygon", "coordinates": [[[694040.95, 5333926.91], [693974.66, 5333856.95], [693908.94, 5333787.03], [693894.81, 5333772.02], [693833.02, 5333706.32], [693787.42, 5333657.61], [693794.73, 5333650.58], [693840.73, 5333699.24], [693902.48, 5333765.0], [693916.72, 5333779.93], [693981.27, 5333849.16], [694015.63, 5333888.03], [694045.15, 5333923.71], [694040.95, 5333926.91]], [[693836.33, 5333703.38], [693838.55, 5333701.35], [693834.33, 5333696.77], [693832.11, 5333698.8], [693836.33, 5333703.38]], [[693897.61, 5333769.41], [693899.8, 5333767.36], [693904.09, 5333771.9], [693901.91, 5333773.95], [693897.61, 5333769.41]], [[693906.91, 5333779.5], [693909.14, 5333777.45], [693913.37, 5333782.04], [693911.14, 5333784.08], [693906.91, 5333779.5]]]}}, {"type": "Feature", "properties": {}, "geometry": {"type": "Polygon", "coordinates": [[[693179.4, 5332746.73], [693174.77, 5332710.51], [693172.69, 5332694.27], [693164.83, 5332628.77], [693170.13, 5332628.11], [693179.72, 5332693.41], [693181.9, 5332709.5], [693188.71, 5332759.6], [693192.67, 5332794.48], [693195.92, 5332836.67], [693192.79, 5332836.95], [693189.91, 5332837.21], [693185.39, 5332795.98], [693182.77, 5332772.92], [693181.04, 5332760.57], [693179.4, 5332746.73]], [[693174.85, 5332694.07], [693176.47, 5332693.85], [693178.16, 5332693.63], [693179.73, 5332705.7], [693178.12, 5332705.92], [693176.42, 5332706.14], [693174.85, 5332694.07]], [[693183.67, 5332760.19], [693185.28, 5332760.0], [693186.89, 5332759.81], [693185.45, 5332748.02], [693183.79, 5332748.22], [693182.24, 5332748.4], [693183.67, 5332760.19]]]}}, {"type": "Feature", "properties": {}, "geometry": {"type": "Polygon", "coordinates": [[[693737.34, 5333883.46], [693737.15, 5333885.31], [693724.62, 5333885.51], [693723.87, 5333885.43], [693720.67, 5333884.91], [693717.52, 5333884.37], [693711.03, 5333882.1], [693706.24, 5333880.44], [693693.99, 5333875.83], [693694.56, 5333873.96], [693707.86, 5333878.88], [693718.09, 5333882.42], [693721.11, 5333882.89], [693724.67, 5333883.54], [693737.34, 5333883.46]]]}}, {"type": "Feature", "properties": {}, "geometry": {"type": "Polygon", "coordinates": [[[693724.16, 5333890.71], [693715.47, 5333889.35], [693697.69, 5333882.96], [693693.19, 5333881.35], [693692.78, 5333882.95], [693696.84, 5333885.12], [693714.83, 5333891.52], [693723.91, 5333892.72], [693724.09, 5333891.3], [693724.16, 5333890.71]]]}}, {"type": "Feature", "properties": {}, "geometry": {"type": "Polygon", "coordinates": [[[692332.62, 5332731.35], [692331.67, 5332729.06], [692317.63, 5332734.46], [692305.93, 5332739.66], [692303.07, 5332741.16], [692303.39, 5332742.04], [692303.68, 5332742.81], [692332.62, 5332731.35]]]}}, {"type": "Feature", "properties": {}, "geometry": {"type": "Polygon", "coordinates": [[[692316.71, 5332831.28], [692313.5, 5332825.05], [692306.66, 5332811.35], [692289.74, 5332777.34], [692290.55, 5332776.97], [692291.54, 5332776.54], [692297.17, 5332787.87], [692318.26, 5332830.23], [692316.71, 5332831.28]]]}}, {"type": "Feature", "properties": {}, "geometry": {"type": "Polygon", "coordinates": [[[692242.03, 5332714.23], [692233.84, 5332701.61], [692232.66, 5332702.29], [692240.32, 5332715.24], [692256.59, 5332741.35], [692257.37, 5332740.89], [692258.1, 5332740.45], [692242.03, 5332714.23]]]}}, {"type": "Feature", "properties": {}, "geometry": {"type": "Polygon", "coordinates": [[[692951.75, 5332304.7], [692950.01, 5332304.37], [692948.19, 5332304.27], [692955.12, 5332268.66], [692956.69, 5332269.08], [692955.92, 5332276.71], [692954.99, 5332283.36], [692954.14, 5332289.47], [692952.95, 5332296.86], [692951.96, 5332303.36], [692951.75, 5332304.7]]]}}, {"type": "Feature", "properties": {}, "geometry": {"type": "Polygon", "coordinates": [[[692616.57, 5332568.62], [692616.43, 5332567.2], [692617.82, 5332566.76], [692619.57, 5332566.17], [692621.43, 5332565.61], [692623.64, 5332565.05], [692625.56, 5332564.61], [692627.39, 5332564.22], [692629.27, 5332563.83], [692630.97, 5332563.53], [692632.67, 5332563.32], [692652.59, 5332561.2], [692652.72, 5332562.68], [692652.89, 5332564.35], [692616.57, 5332568.62]]]}}, {"type": "Feature", "properties": {}, "geometry": {"type": "Polygon", "coordinates": [[[692653.37, 5332570.01], [692653.43, 5332570.84], [692653.64, 5332573.28], [692652.22, 5332573.62], [692636.42, 5332575.81], [692632.14, 5332576.2], [692628.51, 5332576.53], [692625.36, 5332576.61], [692619.43, 5332576.64], [692618.28, 5332576.63], [692617.62, 5332576.1], [692617.28, 5332575.34], [692617.23, 5332574.51], [692653.37, 5332570.01]]]}}, {"type": "Feature", "properties": {}, "geometry": {"type": "Polygon", "coordinates": [[[692096.38, 5333287.23], [692095.76, 5333287.09], [692095.36, 5333287.05], [692094.94, 5333287.04], [692094.54, 5333287.06], [692094.17, 5333287.19], [692093.68, 5333287.38], [692093.31, 5333287.71], [692072.57, 5333320.17], [692074.18, 5333321.07], [692075.56, 5333321.83], [692096.38, 5333287.23]]]}}, {"type": "Feature", "properties": {}, "geometry": {"type": "Polygon", "coordinates": [[[692078.25, 5333327.89], [692102.61, 5333287.58], [692103.51, 5333288.17], [692080.35, 5333329.14], [692079.28, 5333328.5], [692078.25, 5333327.89]]]}}, {"type": "Feature", "properties": {}, "geometry": {"type": "Polygon", "coordinates": [[[692925.17, 5332380.78], [692926.88, 5332378.4], [692929.15, 5332375.37], [692931.64, 5332371.81], [692933.77, 5332368.6], [692935.65, 5332365.43], [692937.8, 5332361.66], [692939.72, 5332358.08], [692941.62, 5332354.13], [692943.24, 5332350.82], [692944.16, 5332348.89], [692945.8, 5332348.88], [692947.67, 5332348.87], [692945.45, 5332354.11], [692944.53, 5332356.26], [692943.5, 5332358.35], [692941.85, 5332361.22], [692940.17, 5332363.91], [692938.13, 5332367.15], [692936.79, 5332369.18], [692935.16, 5332371.61], [692932.95, 5332374.5], [692930.78, 5332377.3], [692929.03, 5332379.49], [692927.23, 5332381.42], [692926.05, 5332381.42], [692925.17, 5332380.78]]]}}, {"type": "Feature", "properties": {}, "geometry": {"type": "Polygon", "coordinates": [[[692012.88, 5332380.87], [691986.06, 5332343.92], [691987.5, 5332342.87], [691989.94, 5332341.12], [692016.75, 5332378.09], [692015.37, 5332379.08], [692012.88, 5332380.87]]]}}, {"type": "Feature", "properties": {}, "geometry": {"type": "Polygon", "coordinates": [[[692022.43, 5332375.79], [692025.07, 5332373.93], [692026.96, 5332372.59], [692003.93, 5332340.26], [692001.77, 5332341.79], [691999.53, 5332343.45], [692022.43, 5332375.79]]]}}, {"type": "Feature", "properties": {}, "geometry": {"type": "Polygon", "coordinates": [[[693014.53, 5333865.11], [693015.53, 5333864.71], [693017.37, 5333863.91], [693019.38, 5333869.0], [693023.07, 5333878.01], [693028.11, 5333887.91], [693033.45, 5333896.94], [693031.29, 5333898.36], [693025.66, 5333889.33], [693019.99, 5333879.09], [693016.49, 5333870.46], [693014.53, 5333865.11]]]}}, {"type": "Feature", "properties": {}, "geometry": {"type": "Polygon", "coordinates": [[[693006.76, 5333867.91], [693008.08, 5333867.38], [693009.05, 5333867.04], [693011.3, 5333872.97], [693013.61, 5333878.26], [693016.27, 5333883.47], [693020.79, 5333891.9], [693027.23, 5333901.72], [693025.9, 5333902.65], [693018.91, 5333892.9], [693013.66, 5333884.22], [693010.6, 5333878.05], [693006.76, 5333867.91]]]}}, {"type": "Feature", "properties": {}, "geometry": {"type": "Polygon", "coordinates": [[[692574.77, 5333330.47], [692575.42, 5333331.7], [692576.93, 5333333.93], [692578.57, 5333336.18], [692579.44, 5333337.31], [692580.29, 5333338.34], [692582.09, 5333340.37], [692583.85, 5333342.31], [692587.88, 5333346.07], [692591.92, 5333349.68], [692590.07, 5333351.74], [692581.65, 5333343.97], [692579.04, 5333341.19], [692576.57, 5333338.24], [692574.17, 5333335.0], [692573.02, 5333333.16], [692572.24, 5333331.64], [692574.77, 5333330.47]]]}}, {"type": "Feature", "properties": {}, "geometry": {"type": "Polygon", "coordinates": [[[692589.35, 5333368.39], [692588.03, 5333369.85], [692612.06, 5333391.3], [692612.76, 5333390.51], [692613.37, 5333389.83], [692589.35, 5333368.39]]]}}, {"type": "Feature", "properties": {}, "geometry": {"type": "Polygon", "coordinates": [[[692191.57, 5332816.41], [692190.31, 5332813.74], [692220.96, 5332799.26], [692222.22, 5332801.93], [692208.21, 5332808.54], [692203.15, 5332810.93], [692191.57, 5332816.41]]]}}, {"type": "Feature", "properties": {}, "geometry": {"type": "Polygon", "coordinates": [[[692416.43, 5333042.11], [692418.87, 5333041.06], [692417.07, 5333037.76], [692401.19, 5333010.1], [692381.57, 5332976.4], [692379.07, 5332977.88], [692398.81, 5333011.77], [692416.43, 5333042.11]]]}}, {"type": "Feature", "properties": {}, "geometry": {"type": "Polygon", "coordinates": [[[692424.8, 5333037.61], [692427.04, 5333036.17], [692425.77, 5333034.06], [692409.45, 5333005.87], [692389.68, 5332971.81], [692387.24, 5332973.36], [692406.9, 5333007.42], [692423.43, 5333035.59], [692424.8, 5333037.61]]]}}]}