{"type": "FeatureCollection", "crs": {"type": "name", "properties": {"name": "urn:ogc:def:crs:EPSG::25832"}}, "features": [{"type": "Feature", "properties": {}, "geometry": {"type": "Polygon", "coordinates": [[[690361.01, 5335192.34], [690382.05, 5335186.2], [690396.79, 5335180.98], [690459.04, 5335161.15], [690470.37, 5335157.67], [690497.2, 5335149.44], [690499.24, 5335147.57], [690508.62, 5335140.3], [690511.73, 5335137.32], [690513.65, 5335134.54], [690514.97, 5335132.03], [690515.88, 5335129.14], [690516.31, 5335127.07], [690516.15, 5335122.37], [690514.29, 5335091.6], [690510.31, 5335034.84], [690507.13, 5335002.09], [690505.93, 5334988.29], [690505.41, 5334975.3], [690506.21, 5334967.3], [690500.93, 5334966.72], [690496.3, 5334965.67], [690487.17, 5334962.76], [690476.46, 5334960.37], [690462.3, 5334958.65], [690443.91, 5334957.73], [690432.8, 5334957.99], [690424.46, 5334958.92], [690420.23, 5334959.18], [690414.28, 5334959.18], [690397.74, 5334958.52], [690340.4, 5334954.63], [690330.27, 5334954.16], [690322.73, 5334952.97], [690312.94, 5334951.11], [690297.73, 5334947.14], [690281.13, 5334943.23], [690279.49, 5334982.52], [690138.67, 5334990.48], [690138.9, 5334980.58], [690107.88, 5334980.94], [690107.96, 5334961.83], [690072.11, 5334959.39], [690062.37, 5334960.13], [690062.27, 5334964.46], [690051.1, 5334963.89], [690050.36, 5334961.78], [690000.0, 5334958.94], [690000.0, 5335231.42], [690143.0, 5335222.76], [690143.79, 5335237.05], [690144.32, 5335241.93], [690155.17, 5335241.28], [690160.59, 5335241.68], [690166.28, 5335242.47], [690172.89, 5335242.87], [690187.84, 5335241.55], [690194.85, 5335240.09], [690207.68, 5335235.99], [690227.53, 5335230.04], [690234.01, 5335227.66], [690243.01, 5335223.82], [690248.96, 5335222.37], [690284.02, 5335212.84], [690313.52, 5335204.38], [690323.13, 5335202.15], [690333.82, 5335199.38], [690361.01, 5335192.34]]]}}]}