{"type": "FeatureCollection", "attribution": "Bayerische Vermessungsverwaltung \u2013 www.geodaten.bayern.de, CC BY 4.0 (LoD2, DOM1)", "crs": {"type": "name", "properties": {"name": "urn:ogc:def:crs:EPSG::25832"}}, "features": [{"type": "Feature", "properties": {"id": "DEBY_LOD2_107802893", "z": 550.69}, "geometry": {"type": "Polygon", "coordinates": [[[692576.54, 5333007.68], [692574.4, 5333016.47], [692574.13, 5333017.58], [692586.68, 5333020.65], [692586.95, 5333019.54], [692589.11, 5333010.75], [692590.38, 5333005.55], [692577.81, 5333002.48], [692576.54, 5333007.68]]]}}, {"type": "Feature", "properties": {"id": "DEBY_LOD2_107802897", "z": 555.82}, "geometry": {"type": "Polygon", "coordinates": [[[692594.0, 5333010.0], [692594.0, 5333013.0], [692593.0, 5333013.0], [692593.0, 5333018.0], [692592.0, 5333018.0], [692592.0, 5333021.95], [692593.15, 5333022.23], [692601.96, 5333024.39], [692602.23, 5333023.28], [692605.66, 5333009.29], [692595.53, 5333006.81], [692595.0, 5333006.68], [692595.0, 5333010.0], [692594.0, 5333010.0]]]}}, {"type": "Feature", "properties": {"id": "DEBY_LOD2_107802897", "z": 550.72}, "geometry": {"type": "Polygon", "coordinates": [[[692593.0, 5333018.0], [692593.0, 5333013.0], [692594.0, 5333013.0], [692594.0, 5333010.0], [692595.0, 5333010.0], [692595.0, 5333006.68], [692590.38, 5333005.55], [692586.95, 5333019.54], [692586.68, 5333020.65], [692592.0, 5333021.95], [692592.0, 5333018.0], [692593.0, 5333018.0]]]}}, {"type": "Feature", "properties": {"id": "DEBY_LOD2_107805290", "z": 561.94}, "geometry": {"type": "Polygon", "coordinates": [[[693878.0, 5333254.64], [693878.09, 5333254.72], [693878.26, 5333254.87], [693888.46, 5333263.77], [693904.47, 5333245.42], [693894.42, 5333236.6], [693894.29, 5333236.48], [693894.11, 5333236.32], [693894.0, 5333236.44], [693894.0, 5333236.82], [693894.0, 5333238.0], [693892.18, 5333238.91], [693892.0, 5333239.0], [693886.0, 5333244.0], [693886.0, 5333246.0], [693884.24, 5333247.54], [693878.0, 5333253.0], [693878.0, 5333254.64]]]}}, {"type": "Feature", "properties": {"id": "DEBY_LOD2_107805290", "z": 551.31}, "geometry": {"type": "Polygon", "coordinates": [[[693884.24, 5333247.54], [693886.0, 5333246.0], [693886.0, 5333244.0], [693892.0, 5333239.0], [693892.18, 5333238.91], [693894.0, 5333238.0], [693894.0, 5333236.82], [693894.0, 5333236.44], [693893.64, 5333236.85], [693882.54, 5333227.09], [693879.37, 5333224.3], [693844.88, 5333193.96], [693837.42, 5333202.61], [693829.73, 5333211.53], [693878.0, 5333254.64], [693878.0, 5333253.0], [693884.24, 5333247.54]]]}}, {"type": "Feature", "properties": {"id": "DEBY_LOD2_107805870", "z": 551.23}, "geometry": {"type": "Polygon", "coordinates": [[[692936.0, 5333885.0], [692934.0, 5333885.0], [692930.0, 5333890.0], [692926.0, 5333890.0], [692926.0, 5333889.0], [692919.0, 5333883.0], [692919.0, 5333884.89], [692927.18, 5333894.34], [692927.41, 5333894.61], [692927.61, 5333894.84], [692930.0, 5333897.62], [692930.0, 5333895.0], [692932.0, 5333893.0], [692936.0, 5333893.0], [692936.0, 5333895.0], [692938.0, 5333895.0], [692938.0, 5333895.05], [692940.38, 5333893.0], [692939.0, 5333893.0], [692939.0, 5333889.0], [692941.0, 5333887.0], [692943.39, 5333887.0], [692942.59, 5333886.03], [692940.41, 5333883.68], [692940.3, 5333883.55], [692939.82, 5333883.0], [692937.0, 5333883.0], [692936.0, 5333885.0]]]}}, {"type": "Feature", "properties": {"id": "DEBY_LOD2_107805870", "z": 548.57}, "geometry": {"type": "Polygon", "coordinates": [[[692936.0, 5333895.0], [692936.0, 5333893.0], [692932.0, 5333893.0], [692930.0, 5333895.0], [692930.0, 5333897.62], [692932.14, 5333900.1], [692938.0, 5333895.05], [692938.0, 5333895.0], [692936.0, 5333895.0]]]}}, {"type": "Feature", "properties": {"id": "DEBY_LOD2_107805870", "z": 548.51}, "geometry": {"type": "Polygon", "coordinates": [[[692939.0, 5333889.0], [692939.0, 5333893.0], [692940.38, 5333893.0], [692942.8, 5333890.91], [692945.06, 5333889.01], [692943.39, 5333887.0], [692941.0, 5333887.0], [692939.0, 5333889.0]]]}}, {"type": "Feature", "properties": {"id": "DEBY_LOD2_107805870", "z": 547.56}, "geometry": {"type": "Polygon", "coordinates": [[[692926.0, 5333889.0], [692926.0, 5333890.0], [692930.0, 5333890.0], [692934.0, 5333885.0], [692936.0, 5333885.0], [692937.0, 5333883.0], [692939.82, 5333883.0], [692935.63, 5333878.15], [692933.45, 5333879.99], [692930.52, 5333882.45], [692931.09, 5333883.14], [692927.99, 5333885.75], [692927.79, 5333885.92], [692926.65, 5333884.72], [692927.16, 5333884.23], [692927.17, 5333883.48], [692924.38, 5333880.2], [692924.18, 5333879.96], [692924.14, 5333879.92], [692926.48, 5333878.07], [692925.04, 5333876.4], [692922.81, 5333878.34], [692920.77, 5333875.93], [692918.94, 5333877.32], [692912.71, 5333869.82], [692912.03, 5333870.39], [692911.71, 5333870.02], [692909.96, 5333868.0], [692910.31, 5333867.7], [692912.23, 5333866.07], [692912.34, 5333865.97], [692912.61, 5333866.17], [692913.94, 5333866.16], [692915.58, 5333864.7], [692916.05, 5333865.2], [692916.8, 5333865.29], [692918.51, 5333863.75], [692918.63, 5333863.89], [692922.04, 5333867.77], [692924.71, 5333865.41], [692924.3, 5333864.95], [692921.34, 5333861.49], [692921.22, 5333861.35], [692919.99, 5333860.0], [692916.03, 5333855.69], [692908.85, 5333862.05], [692903.49, 5333866.79], [692903.68, 5333867.01], [692908.58, 5333872.79], [692908.81, 5333873.06], [692918.8, 5333884.65], [692918.93, 5333884.81], [692919.0, 5333884.89], [692919.0, 5333883.0], [692926.0, 5333889.0]]]}}, {"type": "Feature", "properties": {"id": "DEBY_LOD2_108448925", "z": 554.31}, "geometry": {"type": "Polygon", "coordinates": [[[692237.0, 5333120.0], [692238.0, 5333116.0], [692240.0, 5333116.0], [692241.0, 5333114.0], [692239.0, 5333111.0], [692234.0, 5333111.0], [692233.0, 5333114.0], [692229.0, 5333117.0], [692229.0, 5333120.26], [692233.6, 5333122.19], [692234.0, 5333121.0], [692237.0, 5333120.0]]]}}, {"type": "Feature", "properties": {"id": "DEBY_LOD2_108448925", "z": 551.76}, "geometry": {"type": "Polygon", "coordinates": [[[692233.0, 5333114.0], [692234.0, 5333111.0], [692239.0, 5333111.0], [692241.0, 5333114.0], [692240.0, 5333116.0], [692238.0, 5333116.0], [692237.0, 5333120.0], [692234.0, 5333121.0], [692233.6, 5333122.19], [692234.89, 5333122.73], [692237.65, 5333123.89], [692239.11, 5333124.5], [692239.74, 5333122.96], [692243.03, 5333123.44], [692243.71, 5333121.96], [692244.31, 5333122.03], [692244.79, 5333118.84], [692246.26, 5333108.86], [692246.73, 5333105.69], [692242.29, 5333105.03], [692231.57, 5333103.43], [692227.41, 5333113.37], [692225.2, 5333118.66], [692229.0, 5333120.26], [692229.0, 5333117.0], [692233.0, 5333114.0]]]}}, {"type": "Feature", "properties": {"id": "DEBY_LOD2_108448940", "z": 551.24}, "geometry": {"type": "Polygon", "coordinates": [[[692356.0, 5333181.0], [692359.0, 5333181.0], [692359.0, 5333179.0], [692355.0, 5333176.0], [692353.0, 5333171.0], [692349.0, 5333171.0], [692348.0, 5333172.0], [692348.0, 5333180.0], [692351.0, 5333181.0], [692351.0, 5333183.0], [692356.0, 5333183.0], [692356.0, 5333181.0]]]}}, {"type": "Feature", "properties": {"id": "DEBY_LOD2_108448940", "z": 549.17}, "geometry": {"type": "Polygon", "coordinates": [[[692342.86, 5333179.92], [692356.33, 5333189.35], [692358.21, 5333186.64], [692359.94, 5333184.16], [692364.21, 5333178.04], [692355.62, 5333163.09], [692353.81, 5333164.08], [692342.64, 5333170.6], [692341.34, 5333171.36], [692344.72, 5333177.2], [692342.86, 5333179.92]], [[692348.0, 5333180.0], [692348.0, 5333172.0], [692349.0, 5333171.0], [692353.0, 5333171.0], [692355.0, 5333176.0], [692359.0, 5333179.0], [692359.0, 5333181.0], [692356.0, 5333181.0], [692356.0, 5333183.0], [692351.0, 5333183.0], [692351.0, 5333181.0], [692348.0, 5333180.0]]]}}, {"type": "Feature", "properties": {"id": "DEBY_LOD2_108448941", "z": 555.01}, "geometry": {"type": "Polygon", "coordinates": [[[692335.0, 5333158.0], [692337.0, 5333159.0], [692337.0, 5333163.0], [692339.0, 5333166.0], [692341.0, 5333166.0], [692342.0, 5333168.0], [692342.0, 5333170.97], [692342.64, 5333170.6], [692353.81, 5333164.08], [692355.62, 5333163.09], [692350.9, 5333154.92], [692346.19, 5333146.76], [692344.37, 5333147.82], [692343.51, 5333148.3], [692334.57, 5333153.48], [692334.0, 5333153.81], [692334.0, 5333156.0], [692335.0, 5333158.0]]]}}, {"type": "Feature", "properties": {"id": "DEBY_LOD2_108448941", "z": 553.31}, "geometry": {"type": "Polygon", "coordinates": [[[692341.0, 5333166.0], [692339.0, 5333166.0], [692337.0, 5333163.0], [692337.0, 5333159.0], [692335.0, 5333158.0], [692334.0, 5333156.0], [692334.0, 5333153.81], [692333.19, 5333154.28], [692331.89, 5333155.03], [692334.39, 5333159.35], [692333.07, 5333160.12], [692337.5, 5333167.76], [692338.83, 5333167.0], [692341.34, 5333171.36], [692342.0, 5333170.97], [692342.0, 5333168.0], [692341.0, 5333166.0]]]}}, {"type": "Feature", "properties": {"id": "DEBY_LOD2_108448945", "z": 555.43}, "geometry": {"type": "Polygon", "coordinates": [[[692319.17, 5333133.02], [692323.09, 5333139.82], [692325.77, 5333138.27], [692334.73, 5333133.11], [692337.4, 5333131.56], [692333.43, 5333124.71], [692329.46, 5333117.85], [692314.29, 5333115.64], [692313.95, 5333117.82], [692312.08, 5333130.68], [692311.9, 5333131.95], [692319.17, 5333133.02]]]}}, {"type": "Feature", "properties": {"id": "DEBY_LOD2_108449364", "z": 599.91}, "geometry": {"type": "Polygon", "coordinates": [[[693790.0, 5333485.0], [693792.0, 5333484.0], [693792.0, 5333482.0], [693797.0, 5333474.0], [693797.0, 5333471.0], [693798.0, 5333469.0], [693796.0, 5333467.0], [693796.0, 5333464.0], [693795.0, 5333462.0], [693798.0, 5333464.0], [693798.0, 5333466.0], [693801.0, 5333466.0], [693802.0, 5333464.0], [693802.0, 5333459.0], [693800.0, 5333458.0], [693800.0, 5333456.0], [693798.0, 5333456.0], [693798.0, 5333454.0], [693796.0, 5333454.0], [693796.0, 5333452.0], [693794.0, 5333452.0], [693794.0, 5333450.0], [693792.0, 5333451.0], [693789.0, 5333451.0], [693786.0, 5333455.0], [693780.0, 5333459.0], [693780.0, 5333464.0], [693779.0, 5333464.0], [693779.0, 5333468.0], [693781.0, 5333470.0], [693780.0, 5333474.0], [693777.0, 5333476.0], [693777.0, 5333480.0], [693778.0, 5333482.0], [693780.0, 5333482.0], [693782.0, 5333484.0], [693782.0, 5333486.0], [693784.0, 5333487.0], [693790.0, 5333487.0], [693790.0, 5333485.0]]]}}, {"type": "Feature", "properties": {"id": "DEBY_LOD2_108449364", "z": 597.53}, "geometry": {"type": "Polygon", "coordinates": [[[693766.0, 5333471.66], [693766.81, 5333472.53], [693769.68, 5333475.59], [693772.15, 5333478.22], [693785.32, 5333492.29], [693785.82, 5333492.73], [693786.4, 5333493.07], [693787.03, 5333493.29], [693787.7, 5333493.38], [693788.37, 5333493.35], [693789.02, 5333493.18], [693789.63, 5333492.9], [693790.17, 5333492.5], [693790.61, 5333491.98], [693790.99, 5333491.43], [693793.3, 5333486.66], [693805.7, 5333461.07], [693807.71, 5333456.93], [693804.0, 5333456.0], [693804.0, 5333454.0], [693796.0, 5333447.0], [693796.0, 5333446.0], [693793.0, 5333445.0], [693793.0, 5333443.28], [693790.6, 5333445.53], [693780.04, 5333455.42], [693779.56, 5333455.83], [693779.03, 5333456.14], [693778.44, 5333456.36], [693778.0, 5333456.45], [693778.0, 5333457.34], [693778.0, 5333458.0], [693777.3, 5333458.0], [693777.0, 5333458.0], [693775.93, 5333459.29], [693772.0, 5333464.0], [693768.27, 5333466.48], [693768.27, 5333466.49], [693766.0, 5333468.0], [693766.0, 5333471.66]], [[693782.0, 5333484.0], [693780.0, 5333482.0], [693778.0, 5333482.0], [693777.0, 5333480.0], [693777.0, 5333476.0], [693780.0, 5333474.0], [693781.0, 5333470.0], [693779.0, 5333468.0], [693779.0, 5333464.0], [693780.0, 5333464.0], [693780.0, 5333459.0], [693786.0, 5333455.0], [693789.0, 5333451.0], [693792.0, 5333451.0], [693794.0, 5333450.0], [693794.0, 5333452.0], [693796.0, 5333452.0], [693796.0, 5333454.0], [693798.0, 5333454.0], [693798.0, 5333456.0], [693800.0, 5333456.0], [693800.0, 5333458.0], [693802.0, 5333459.0], [693802.0, 5333464.0], [693801.0, 5333466.0], [693798.0, 5333466.0], [693798.0, 5333464.0], [693795.0, 5333462.0], [693796.0, 5333464.0], [693796.0, 5333467.0], [693798.0, 5333469.0], [693797.0, 5333471.0], [693797.0, 5333474.0], [693792.0, 5333482.0], [693792.0, 5333484.0], [693790.0, 5333485.0], [693790.0, 5333487.0], [693784.0, 5333487.0], [693782.0, 5333486.0], [693782.0, 5333484.0]], [[693771.0, 5333469.0], [693775.0, 5333469.0], [693775.0, 5333472.0], [693776.0, 5333474.0], [693775.0, 5333475.0], [693772.0, 5333474.0], [693771.0, 5333472.0], [693771.0, 5333469.0]]]}}, {"type": "Feature", "properties": {"id": "DEBY_LOD2_108449364", "z": 593.67}, "geometry": {"type": "Polygon", "coordinates": [[[693776.0, 5333474.0], [693775.0, 5333472.0], [693775.0, 5333469.0], [693771.0, 5333469.0], [693771.0, 5333472.0], [693772.0, 5333474.0], [693775.0, 5333475.0], [693776.0, 5333474.0]]]}}, {"type": "Feature", "properties": {"id": "DEBY_LOD2_108449364", "z": 555.3}, "geometry": {"type": "Polygon", "coordinates": [[[693781.0, 5333412.0], [693772.0, 5333420.0], [693772.0, 5333422.0], [693765.0, 5333428.0], [693765.0, 5333430.0], [693757.0, 5333437.0], [693757.0, 5333439.0], [693750.0, 5333445.0], [693749.0, 5333447.0], [693749.0, 5333450.0], [693750.0, 5333452.0], [693752.0, 5333452.0], [693752.0, 5333454.0], [693757.0, 5333458.0], [693757.0, 5333460.0], [693759.0, 5333460.0], [693759.0, 5333462.0], [693770.0, 5333462.0], [693772.0, 5333459.0], [693771.0, 5333455.0], [693769.0, 5333454.0], [693769.0, 5333452.0], [693766.0, 5333451.0], [693766.0, 5333446.0], [693771.0, 5333442.0], [693771.0, 5333440.0], [693782.0, 5333430.0], [693782.0, 5333428.0], [693789.0, 5333422.0], [693789.0, 5333420.0], [693791.0, 5333419.0], [693791.0, 5333417.06], [693783.8, 5333411.0], [693781.0, 5333411.0], [693781.0, 5333412.0]]]}}, {"type": "Feature", "properties": {"id": "DEBY_LOD2_108449364", "z": 553.41}, "geometry": {"type": "Polygon", "coordinates": [[[693789.0, 5333420.0], [693789.0, 5333422.0], [693782.0, 5333428.0], [693782.0, 5333430.0], [693771.0, 5333440.0], [693771.0, 5333442.0], [693766.0, 5333446.0], [693766.0, 5333451.0], [693769.0, 5333452.0], [693769.0, 5333454.0], [693771.0, 5333455.0], [693772.0, 5333459.0], [693770.0, 5333462.0], [693759.0, 5333462.0], [693759.0, 5333460.0], [693757.0, 5333460.0], [693757.0, 5333458.0], [693752.0, 5333454.0], [693752.0, 5333452.0], [693750.0, 5333452.0], [693749.0, 5333450.0], [693749.0, 5333447.0], [693750.0, 5333445.0], [693757.0, 5333439.0], [693757.0, 5333437.0], [693765.0, 5333430.0], [693765.0, 5333428.0], [693772.0, 5333422.0], [693772.0, 5333420.0], [693781.0, 5333412.0], [693781.0, 5333411.0], [693783.8, 5333411.0], [693782.76, 5333410.12], [693780.42, 5333408.14], [693767.68, 5333422.35], [693764.58, 5333425.8], [693746.47, 5333446.0], [693746.08, 5333446.53], [693745.78, 5333447.13], [693745.61, 5333447.77], [693745.55, 5333448.44], [693745.62, 5333449.1], [693745.81, 5333449.74], [693746.12, 5333450.33], [693746.52, 5333450.86], [693766.0, 5333471.66], [693766.0, 5333468.0], [693768.27, 5333466.49], [693768.27, 5333466.48], [693772.0, 5333464.0], [693775.93, 5333459.29], [693777.0, 5333458.0], [693777.3, 5333458.0], [693778.0, 5333458.0], [693778.0, 5333457.34], [693778.0, 5333456.45], [693777.83, 5333456.48], [693777.2, 5333456.49], [693776.58, 5333456.38], [693775.99, 5333456.18], [693775.44, 5333455.87], [693774.96, 5333455.47], [693770.45, 5333450.66], [693770.05, 5333450.12], [693769.75, 5333449.52], [693769.56, 5333448.87], [693769.49, 5333448.2], [693769.54, 5333447.52], [693769.71, 5333446.86], [693770.0, 5333446.25], [693770.39, 5333445.69], [693775.88, 5333439.55], [693780.77, 5333434.1], [693793.87, 5333419.48], [693791.58, 5333417.55], [693791.0, 5333417.06], [693791.0, 5333419.0], [693789.0, 5333420.0]]]}}, {"type": "Feature", "properties": {"id": "DEBY_LOD2_108449364", "z": 550.88}, "geometry": {"type": "Polygon", "coordinates": [[[693796.0, 5333446.0], [693796.0, 5333443.0], [693802.0, 5333438.0], [693802.0, 5333437.0], [693806.0, 5333437.0], [693806.0, 5333438.0], [693811.0, 5333438.0], [693812.0, 5333439.0], [693812.0, 5333444.0], [693814.0, 5333444.0], [693814.46, 5333443.06], [693814.7, 5333442.54], [693814.86, 5333442.0], [693814.93, 5333441.44], [693814.89, 5333440.7], [693814.7, 5333439.99], [693814.37, 5333439.33], [693813.92, 5333438.74], [693808.78, 5333433.24], [693808.27, 5333432.8], [693807.68, 5333432.46], [693807.04, 5333432.24], [693806.37, 5333432.16], [693805.69, 5333432.2], [693805.04, 5333432.38], [693804.43, 5333432.68], [693803.89, 5333433.09], [693802.12, 5333434.75], [693793.0, 5333443.28], [693793.0, 5333445.0], [693796.0, 5333446.0]]]}}, {"type": "Feature", "properties": {"id": "DEBY_LOD2_108449364", "z": 549.38}, "geometry": {"type": "Polygon", "coordinates": [[[693812.0, 5333439.0], [693811.0, 5333438.0], [693806.0, 5333438.0], [693806.0, 5333437.0], [693802.0, 5333437.0], [693802.0, 5333438.0], [693796.0, 5333443.0], [693796.0, 5333447.0], [693804.0, 5333454.0], [693804.0, 5333456.0], [693807.71, 5333456.93], [693812.9, 5333446.27], [693814.0, 5333444.0], [693812.0, 5333444.0], [693812.0, 5333439.0]]]}}, {"type": "Feature", "properties": {"id": "DEBY_LOD2_108806785", "z": 549.86}, "geometry": {"type": "Polygon", "coordinates": [[[692582.0, 5332258.0], [692582.0, 5332261.0], [692583.0, 5332261.0], [692583.0, 5332264.0], [692585.0, 5332266.0], [692585.0, 5332270.0], [692586.0, 5332270.0], [692586.0, 5332272.2], [692586.89, 5332271.86], [692586.98, 5332272.01], [692587.53, 5332271.8], [692593.87, 5332269.4], [692599.25, 5332267.32], [692599.79, 5332267.12], [692599.73, 5332266.96], [692600.0, 5332266.86], [692600.0, 5332266.0], [692597.0, 5332262.0], [692597.0, 5332259.0], [692595.0, 5332257.0], [692595.0, 5332252.0], [692600.0, 5332252.0], [692602.0, 5332251.0], [692602.0, 5332248.8], [692599.75, 5332249.66], [692599.59, 5332249.68], [692599.43, 5332249.66], [692599.36, 5332249.64], [692599.29, 5332249.61], [692599.23, 5332249.57], [692599.17, 5332249.52], [692599.07, 5332249.41], [692599.0, 5332249.27], [692598.67, 5332248.41], [692597.8, 5332248.77], [692597.69, 5332248.48], [692595.61, 5332249.28], [692595.72, 5332249.55], [692591.08, 5332251.32], [692590.39, 5332251.58], [692587.39, 5332252.73], [692587.01, 5332252.87], [692582.9, 5332254.44], [692579.57, 5332255.71], [692580.0, 5332257.0], [692582.0, 5332258.0]]]}}, {"type": "Feature", "properties": {"id": "DEBY_LOD2_108806785", "z": 548.09}, "geometry": {"type": "Polygon", "coordinates": [[[692570.0, 5332263.0], [692573.0, 5332263.0], [692574.0, 5332261.0], [692579.0, 5332261.0], [692580.0, 5332265.0], [692577.0, 5332266.0], [692576.0, 5332268.0], [692580.0, 5332268.0], [692582.0, 5332267.0], [692583.0, 5332270.0], [692584.0, 5332270.0], [692584.0, 5332272.97], [692586.0, 5332272.2], [692586.0, 5332270.0], [692585.0, 5332270.0], [692585.0, 5332266.0], [692583.0, 5332264.0], [692583.0, 5332261.0], [692582.0, 5332261.0], [692582.0, 5332258.0], [692580.0, 5332257.0], [692579.57, 5332255.71], [692578.2, 5332256.24], [692578.08, 5332255.94], [692576.01, 5332256.73], [692576.12, 5332257.02], [692575.45, 5332257.31], [692575.72, 5332257.99], [692575.75, 5332258.17], [692575.75, 5332258.36], [692575.73, 5332258.46], [692575.7, 5332258.57], [692575.65, 5332258.67], [692575.59, 5332258.76], [692575.47, 5332258.9], [692575.32, 5332259.01], [692568.81, 5332261.49], [692568.65, 5332261.57], [692568.52, 5332261.69], [692568.44, 5332261.79], [692568.39, 5332261.9], [692568.34, 5332262.02], [692568.32, 5332262.14], [692568.32, 5332262.31], [692568.36, 5332262.49], [692568.94, 5332264.0], [692570.0, 5332264.0], [692570.0, 5332263.0]]]}}, {"type": "Feature", "properties": {"id": "DEBY_LOD2_108806785", "z": 547.61}, "geometry": {"type": "Polygon", "coordinates": [[[692601.0, 5332265.0], [692601.0, 5332262.0], [692599.0, 5332260.0], [692599.0, 5332257.0], [692598.0, 5332257.0], [692598.0, 5332253.0], [692599.0, 5332252.0], [692595.0, 5332252.0], [692595.0, 5332257.0], [692597.0, 5332259.0], [692597.0, 5332262.0], [692600.0, 5332266.0], [692600.0, 5332266.86], [692602.0, 5332266.09], [692602.0, 5332265.0], [692601.0, 5332265.0]]]}}, {"type": "Feature", "properties": {"id": "DEBY_LOD2_108806785", "z": 535.98}, "geometry": {"type": "Polygon", "coordinates": [[[692583.0, 5332270.0], [692582.0, 5332267.0], [692580.0, 5332268.0], [692576.0, 5332268.0], [692577.0, 5332266.0], [692580.0, 5332265.0], [692579.0, 5332261.0], [692574.0, 5332261.0], [692573.0, 5332263.0], [692570.0, 5332263.0], [692570.0, 5332264.0], [692568.94, 5332264.0], [692572.6, 5332273.5], [692573.89, 5332276.86], [692584.0, 5332272.97], [692584.0, 5332270.0], [692583.0, 5332270.0]]]}}, {"type": "Feature", "properties": {"id": "DEBY_LOD2_108806785", "z": 535.85}, "geometry": {"type": "Polygon", "coordinates": [[[692600.0, 5332252.0], [692599.0, 5332252.0], [692598.0, 5332253.0], [692598.0, 5332257.0], [692599.0, 5332257.0], [692599.0, 5332260.0], [692601.0, 5332262.0], [692601.0, 5332265.0], [692602.0, 5332265.0], [692602.0, 5332266.09], [692610.13, 5332262.99], [692610.81, 5332262.73], [692608.92, 5332257.79], [692605.32, 5332248.36], [692605.24, 5332248.2], [692605.12, 5332248.07], [692605.03, 5332247.99], [692604.92, 5332247.93], [692604.81, 5332247.89], [692604.69, 5332247.86], [692604.51, 5332247.86], [692604.34, 5332247.9], [692602.0, 5332248.8], [692602.0, 5332251.0], [692600.0, 5332252.0]]]}}, {"type": "Feature", "properties": {"id": "DEBY_LOD2_18272737", "z": 581.2}, "geometry": {"type": "Polygon", "coordinates": [[[693960.0, 5333171.0], [693958.0, 5333171.0], [693957.0, 5333174.0], [693951.0, 5333179.0], [693951.0, 5333184.0], [693954.0, 5333186.0], [693956.36, 5333186.0], [693956.48, 5333185.86], [693964.53, 5333176.64], [693964.78, 5333176.36], [693965.09, 5333176.0], [693964.0, 5333176.0], [693960.0, 5333171.0]]]}}, {"type": "Feature", "properties": {"id": "DEBY_LOD2_18272737", "z": 577.84}, "geometry": {"type": "Polygon", "coordinates": [[[693939.0, 5333174.79], [693939.05, 5333174.83], [693944.35, 5333179.39], [693943.88, 5333179.92], [693944.19, 5333180.19], [693943.13, 5333181.37], [693942.21, 5333180.55], [693942.03, 5333180.74], [693952.78, 5333190.12], [693956.11, 5333186.29], [693956.36, 5333186.0], [693954.0, 5333186.0], [693951.0, 5333184.0], [693951.0, 5333179.0], [693957.0, 5333174.0], [693958.0, 5333171.0], [693960.0, 5333171.0], [693964.0, 5333176.0], [693965.09, 5333176.0], [693968.21, 5333172.42], [693968.48, 5333172.11], [693968.18, 5333171.84], [693962.76, 5333167.15], [693958.0, 5333163.03], [693957.75, 5333163.31], [693953.96, 5333160.0], [693951.99, 5333160.0], [693951.0, 5333160.0], [693951.0, 5333161.0], [693947.0, 5333164.0], [693947.0, 5333165.71], [693947.0, 5333165.72], [693947.0, 5333166.0], [693945.95, 5333166.92], [693939.0, 5333173.0], [693939.0, 5333174.79]]]}}, {"type": "Feature", "properties": {"id": "DEBY_LOD2_18272737", "z": 551.28}, "geometry": {"type": "Polygon", "coordinates": [[[693945.95, 5333166.92], [693947.0, 5333166.0], [693947.0, 5333165.72], [693947.0, 5333165.71], [693947.0, 5333164.0], [693951.0, 5333161.0], [693951.0, 5333160.0], [693951.99, 5333160.0], [693953.96, 5333160.0], [693952.84, 5333159.02], [693952.59, 5333158.8], [693952.32, 5333159.1], [693908.28, 5333121.23], [693900.96, 5333129.59], [693893.12, 5333138.55], [693937.16, 5333176.5], [693938.8, 5333174.62], [693939.0, 5333174.79], [693939.0, 5333173.0], [693945.95, 5333166.92]], [[693922.0, 5333154.0], [693922.0, 5333151.0], [693923.0, 5333149.0], [693926.0, 5333149.0], [693928.0, 5333152.0], [693931.0, 5333152.0], [693932.0, 5333153.0], [693932.0, 5333156.0], [693930.0, 5333157.0], [693930.0, 5333159.0], [693927.0, 5333159.0], [693923.0, 5333154.0], [693922.0, 5333154.0]]]}}, {"type": "Feature", "properties": {"id": "DEBY_LOD2_18272737", "z": 547.82}, "geometry": {"type": "Polygon", "coordinates": [[[693930.0, 5333157.0], [693932.0, 5333156.0], [693932.0, 5333153.0], [693931.0, 5333152.0], [693928.0, 5333152.0], [693926.0, 5333149.0], [693923.0, 5333149.0], [693922.0, 5333151.0], [693922.0, 5333154.0], [693923.0, 5333154.0], [693927.0, 5333159.0], [693930.0, 5333159.0], [693930.0, 5333157.0]]]}}, {"type": "Feature", "properties": {"id": "DEBY_LOD2_4954072", "z": 532.04}, "geometry": {"type": "Polygon", "coordinates": [[[692011.0, 5333240.0], [692010.0, 5333237.0], [692007.0, 5333237.0], [692005.0, 5333239.0], [692005.0, 5333240.58], [692008.0, 5333243.82], [692008.0, 5333242.0], [692011.0, 5333240.0]]]}}, {"type": "Feature", "properties": {"id": "DEBY_LOD2_4954072", "z": 529.03}, "geometry": {"type": "Polygon", "coordinates": [[[692007.0, 5333237.0], [692010.0, 5333237.0], [692011.0, 5333240.0], [692008.0, 5333242.0], [692008.0, 5333243.82], [692013.56, 5333249.82], [692014.69, 5333248.77], [692017.21, 5333246.5], [692017.22, 5333246.49], [692018.36, 5333245.45], [692020.77, 5333243.23], [692009.2, 5333230.53], [692005.54, 5333226.52], [692005.51, 5333226.55], [692001.84, 5333229.91], [692001.69, 5333230.04], [692000.7, 5333230.94], [691998.19, 5333233.24], [692005.0, 5333240.58], [692005.0, 5333239.0], [692007.0, 5333237.0]]]}}, {"type": "Feature", "properties": {"id": "DEBY_LOD2_4956105", "z": 531.19}, "geometry": {"type": "Polygon", "coordinates": [[[692011.0, 5333624.0], [692009.0, 5333624.0], [692009.0, 5333626.0], [692006.0, 5333626.0], [692005.0, 5333628.0], [692002.0, 5333628.0], [692002.0, 5333629.79], [692003.62, 5333631.84], [692005.0, 5333633.58], [692005.0, 5333632.0], [692008.0, 5333632.0], [692010.0, 5333631.0], [692011.0, 5333629.0], [692013.0, 5333629.0], [692014.0, 5333627.0], [692016.0, 5333627.0], [692017.0, 5333625.0], [692019.52, 5333625.0], [692016.73, 5333621.97], [692015.84, 5333621.0], [692012.0, 5333621.0], [692011.0, 5333624.0]]]}}, {"type": "Feature", "properties": {"id": "DEBY_LOD2_4956105", "z": 529.66}, "geometry": {"type": "Polygon", "coordinates": [[[692016.0, 5333627.0], [692014.0, 5333627.0], [692013.0, 5333629.0], [692011.0, 5333629.0], [692010.0, 5333631.0], [692008.0, 5333632.0], [692005.0, 5333632.0], [692005.0, 5333633.58], [692007.65, 5333636.92], [692018.76, 5333628.51], [692021.14, 5333626.76], [692019.52, 5333625.0], [692017.0, 5333625.0], [692016.0, 5333627.0]]]}}, {"type": "Feature", "properties": {"id": "DEBY_LOD2_4956105", "z": 528.35}, "geometry": {"type": "Polygon", "coordinates": [[[692005.0, 5333628.0], [692006.0, 5333626.0], [692009.0, 5333626.0], [692009.0, 5333624.0], [692011.0, 5333624.0], [692012.0, 5333621.0], [692015.84, 5333621.0], [692012.33, 5333617.18], [691999.58, 5333626.74], [692002.0, 5333629.79], [692002.0, 5333628.0], [692005.0, 5333628.0]]]}}, {"type": "Feature", "properties": {"id": "DEBY_LOD2_5002923", "z": 550.18}, "geometry": {"type": "Polygon", "coordinates": [[[692583.18, 5332241.85], [692582.86, 5332241.97], [692585.03, 5332247.67], [692587.01, 5332252.87], [692587.39, 5332252.73], [692590.39, 5332251.58], [692591.08, 5332251.32], [692595.72, 5332249.55], [692595.61, 5332249.28], [692597.69, 5332248.48], [692597.8, 5332248.77], [692598.67, 5332248.41], [692602.73, 5332246.86], [692602.91, 5332247.34], [692606.79, 5332245.87], [692604.63, 5332240.18], [692602.47, 5332234.48], [692586.5, 5332240.58], [692583.18, 5332241.85]]]}}, {"type": "Feature", "properties": {"id": "DEBY_LOD2_5003951", "z": 552.41}, "geometry": {"type": "Polygon", "coordinates": [[[692195.19, 5332780.35], [692195.27, 5332780.53], [692194.4, 5332780.94], [692191.97, 5332782.09], [692194.58, 5332787.44], [692197.16, 5332792.75], [692199.91, 5332791.47], [692209.3, 5332787.08], [692207.28, 5332782.74], [692206.81, 5332781.75], [692206.74, 5332781.6], [692205.23, 5332778.42], [692204.2, 5332776.22], [692201.87, 5332777.35], [692198.33, 5332779.07], [692198.23, 5332778.89], [692197.69, 5332777.97], [692194.74, 5332779.39], [692195.19, 5332780.35]]]}}, {"type": "Feature", "properties": {"id": "DEBY_LOD2_5003954", "z": 553.95}, "geometry": {"type": "Polygon", "coordinates": [[[692188.0, 5332786.0], [692186.0, 5332787.0], [692184.0, 5332790.0], [692182.0, 5332791.0], [692180.99, 5332791.0], [692182.09, 5332793.28], [692182.92, 5332795.0], [692186.0, 5332795.0], [692188.0, 5332793.0], [692191.0, 5332793.0], [692192.0, 5332791.0], [692194.0, 5332790.0], [692195.83, 5332790.0], [692194.58, 5332787.44], [692193.42, 5332785.06], [692192.0, 5332786.0], [692188.0, 5332786.0]]]}}, {"type": "Feature", "properties": {"id": "DEBY_LOD2_5003954", "z": 551.85}, "geometry": {"type": "Polygon", "coordinates": [[[692192.0, 5332791.0], [692191.0, 5332793.0], [692188.0, 5332793.0], [692186.0, 5332795.0], [692182.92, 5332795.0], [692184.65, 5332798.6], [692197.17, 5332792.75], [692195.83, 5332790.0], [692194.0, 5332790.0], [692192.0, 5332791.0]]]}}, {"type": "Feature", "properties": {"id": "DEBY_LOD2_5003954", "z": 551.59}, "geometry": {"type": "Polygon", "coordinates": [[[692184.0, 5332790.0], [692186.0, 5332787.0], [692188.0, 5332786.0], [692192.0, 5332786.0], [692193.42, 5332785.06], [692191.97, 5332782.09], [692188.66, 5332783.64], [692188.04, 5332782.46], [692184.91, 5332783.95], [692185.48, 5332785.13], [692185.49, 5332785.14], [692179.54, 5332787.98], [692180.99, 5332791.0], [692182.0, 5332791.0], [692184.0, 5332790.0]]]}}, {"type": "Feature", "properties": {"id": "DEBY_LOD2_5004228", "z": 554.05}, "geometry": {"type": "Polygon", "coordinates": [[[692702.0, 5333157.0], [692706.0, 5333157.0], [692707.0, 5333159.0], [692710.0, 5333160.0], [692710.0, 5333162.13], [692711.5, 5333162.49], [692712.0, 5333161.0], [692719.0, 5333161.0], [692719.0, 5333162.0], [692722.9, 5333162.0], [692723.41, 5333159.81], [692723.58, 5333159.1], [692724.55, 5333155.0], [692716.0, 5333155.0], [692716.0, 5333154.0], [692709.0, 5333154.0], [692709.0, 5333153.0], [692706.0, 5333153.0], [692706.0, 5333152.0], [692700.75, 5333152.0], [692700.35, 5333153.67], [692700.21, 5333154.24], [692699.79, 5333156.0], [692702.0, 5333156.0], [692702.0, 5333157.0]]]}}, {"type": "Feature", "properties": {"id": "DEBY_LOD2_5004228", "z": 551.86}, "geometry": {"type": "Polygon", "coordinates": [[[692706.0, 5333153.0], [692709.0, 5333153.0], [692709.0, 5333154.0], [692716.0, 5333154.0], [692716.0, 5333155.0], [692724.55, 5333155.0], [692724.96, 5333153.3], [692704.3, 5333148.33], [692701.77, 5333147.72], [692701.76, 5333147.73], [692700.75, 5333152.0], [692706.0, 5333152.0], [692706.0, 5333153.0]]]}}, {"type": "Feature", "properties": {"id": "DEBY_LOD2_5004228", "z": 550.99}, "geometry": {"type": "Polygon", "coordinates": [[[692707.0, 5333159.0], [692706.0, 5333157.0], [692702.0, 5333157.0], [692702.0, 5333156.0], [692699.79, 5333156.0], [692698.95, 5333159.55], [692710.0, 5333162.13], [692710.0, 5333160.0], [692707.0, 5333159.0]]]}}, {"type": "Feature", "properties": {"id": "DEBY_LOD2_5004228", "z": 550.92}, "geometry": {"type": "Polygon", "coordinates": [[[692719.0, 5333161.0], [692712.0, 5333161.0], [692711.5, 5333162.49], [692722.2, 5333164.99], [692722.9, 5333162.0], [692719.0, 5333162.0], [692719.0, 5333161.0]]]}}, {"type": "Feature", "properties": {"id": "DEBY_LOD2_5004395", "z": 553.33}, "geometry": {"type": "Polygon", "coordinates": [[[692333.0, 5332669.0], [692331.0, 5332669.0], [692330.0, 5332671.0], [692328.0, 5332671.0], [692326.0, 5332673.0], [692323.0, 5332673.0], [692322.0, 5332677.0], [692321.95, 5332677.0], [692323.35, 5332679.18], [692325.15, 5332682.0], [692328.0, 5332682.0], [692330.0, 5332681.0], [692330.0, 5332679.0], [692333.0, 5332679.0], [692335.0, 5332678.0], [692336.0, 5332676.0], [692338.0, 5332676.0], [692338.0, 5332674.0], [692340.61, 5332674.0], [692337.81, 5332669.6], [692337.1, 5332668.48], [692336.13, 5332667.0], [692333.0, 5332667.0], [692333.0, 5332669.0]]]}}, {"type": "Feature", "properties": {"id": "DEBY_LOD2_5004395", "z": 550.85}, "geometry": {"type": "Polygon", "coordinates": [[[692323.0, 5332673.0], [692326.0, 5332673.0], [692328.0, 5332671.0], [692330.0, 5332671.0], [692331.0, 5332669.0], [692333.0, 5332669.0], [692333.0, 5332667.0], [692336.13, 5332667.0], [692334.1, 5332663.88], [692322.08, 5332671.42], [692319.44, 5332673.08], [692321.95, 5332677.0], [692322.0, 5332677.0], [692323.0, 5332673.0]]]}}, {"type": "Feature", "properties": {"id": "DEBY_LOD2_5004395", "z": 549.64}, "geometry": {"type": "Polygon", "coordinates": [[[692338.0, 5332676.0], [692336.0, 5332676.0], [692335.0, 5332678.0], [692333.0, 5332679.0], [692330.0, 5332679.0], [692330.0, 5332681.0], [692328.0, 5332682.0], [692325.15, 5332682.0], [692327.09, 5332685.04], [692329.64, 5332683.43], [692332.73, 5332681.49], [692336.45, 5332679.15], [692341.75, 5332675.81], [692341.61, 5332675.58], [692340.61, 5332674.0], [692338.0, 5332674.0], [692338.0, 5332676.0]]]}}, {"type": "Feature", "properties": {"id": "DEBY_LOD2_5005052", "z": 525.82}, "geometry": {"type": "Polygon", "coordinates": [[[692535.74, 5333971.74], [692540.36, 5333986.91], [692545.26, 5333985.42], [692550.03, 5333983.97], [692545.98, 5333970.69], [692546.32, 5333970.59], [692546.22, 5333970.25], [692545.68, 5333970.4], [692544.83, 5333967.6], [692545.17, 5333967.49], [692544.99, 5333966.92], [692540.08, 5333968.41], [692535.18, 5333969.9], [692535.74, 5333971.74]]]}}, {"type": "Feature", "properties": {"id": "DEBY_LOD2_5005053", "z": 525.85}, "geometry": {"type": "Polygon", "coordinates": [[[692545.47, 5334003.69], [692550.36, 5334002.19], [692555.3, 5334000.68], [692555.19, 5334000.35], [692555.1, 5334000.39], [692554.24, 5333997.55], [692554.59, 5333997.44], [692554.49, 5333997.12], [692554.07, 5333997.25], [692550.03, 5333983.97], [692545.26, 5333985.42], [692540.36, 5333986.91], [692545.47, 5334003.69]]]}}, {"type": "Feature", "properties": {"id": "DEBY_LOD2_5051037", "z": 545.16}, "geometry": {"type": "Polygon", "coordinates": [[[693813.0, 5332566.0], [693817.0, 5332560.0], [693817.0, 5332558.77], [693810.72, 5332556.4], [693806.27, 5332567.63], [693805.78, 5332568.84], [693804.85, 5332571.19], [693801.75, 5332579.0], [693804.0, 5332579.0], [693804.0, 5332580.0], [693807.0, 5332580.0], [693808.0, 5332582.0], [693810.0, 5332583.0], [693817.0, 5332583.0], [693817.0, 5332584.0], [693820.0, 5332584.0], [693821.0, 5332586.0], [693825.0, 5332586.0], [693826.0, 5332588.0], [693830.0, 5332588.0], [693832.0, 5332591.0], [693835.49, 5332591.0], [693838.1, 5332584.35], [693839.5, 5332580.78], [693844.03, 5332569.23], [693835.11, 5332565.77], [693832.95, 5332571.0], [693835.0, 5332571.0], [693836.0, 5332572.0], [693836.0, 5332576.0], [693835.0, 5332577.0], [693832.0, 5332577.0], [693830.73, 5332576.36], [693830.39, 5332577.18], [693830.38, 5332577.22], [693830.33, 5332577.2], [693819.66, 5332572.99], [693814.73, 5332571.04], [693814.75, 5332570.99], [693815.52, 5332569.0], [693813.0, 5332569.0], [693813.0, 5332566.0]]]}}, {"type": "Feature", "properties": {"id": "DEBY_LOD2_5051037", "z": 542.38}, "geometry": {"type": "Polygon", "coordinates": [[[693813.0, 5332566.0], [693813.0, 5332569.0], [693815.52, 5332569.0], [693819.13, 5332559.57], [693817.64, 5332559.01], [693817.0, 5332558.77], [693817.0, 5332560.0], [693813.0, 5332566.0]]]}}, {"type": "Feature", "properties": {"id": "DEBY_LOD2_5051037", "z": 541.9}, "geometry": {"type": "Polygon", "coordinates": [[[693835.0, 5332577.0], [693836.0, 5332576.0], [693836.0, 5332572.0], [693835.0, 5332571.0], [693832.95, 5332571.0], [693830.73, 5332576.36], [693832.0, 5332577.0], [693835.0, 5332577.0]]]}}, {"type": "Feature", "properties": {"id": "DEBY_LOD2_5051037", "z": 541.83}, "geometry": {"type": "Polygon", "coordinates": [[[693830.0, 5332588.0], [693826.0, 5332588.0], [693825.0, 5332586.0], [693821.0, 5332586.0], [693820.0, 5332584.0], [693817.0, 5332584.0], [693817.0, 5332583.0], [693810.0, 5332583.0], [693808.0, 5332582.0], [693807.0, 5332580.0], [693804.0, 5332580.0], [693804.0, 5332579.0], [693801.75, 5332579.0], [693799.59, 5332584.43], [693806.46, 5332587.15], [693808.19, 5332587.84], [693811.01, 5332588.95], [693811.09, 5332588.8], [693813.06, 5332589.58], [693823.8, 5332593.84], [693825.1, 5332594.36], [693825.06, 5332594.47], [693832.14, 5332597.25], [693832.92, 5332597.56], [693835.49, 5332591.0], [693832.0, 5332591.0], [693830.0, 5332588.0]]]}}, {"type": "Feature", "properties": {"id": "DEBY_LOD2_5051240", "z": 551.3}, "geometry": {"type": "Polygon", "coordinates": [[[693829.09, 5333212.28], [693829.17, 5333212.18], [693829.22, 5333212.13], [693829.73, 5333211.53], [693837.42, 5333202.61], [693844.8, 5333194.05], [693844.88, 5333193.96], [693855.3, 5333181.98], [693849.15, 5333176.61], [693842.72, 5333171.0], [693816.81, 5333201.16], [693816.61, 5333201.39], [693829.09, 5333212.28]]]}}, {"type": "Feature", "properties": {"id": "DEBY_LOD2_5051242", "z": 551.32}, "geometry": {"type": "Polygon", "coordinates": [[[693850.0, 5333172.0], [693853.0, 5333172.0], [693853.0, 5333169.0], [693856.0, 5333168.0], [693858.0, 5333170.0], [693858.0, 5333174.0], [693856.0, 5333175.0], [693856.0, 5333177.0], [693854.0, 5333178.0], [693854.0, 5333180.85], [693855.3, 5333181.98], [693859.17, 5333177.53], [693859.39, 5333177.71], [693862.86, 5333180.66], [693869.12, 5333173.43], [693869.47, 5333173.03], [693872.6, 5333169.38], [693875.73, 5333165.74], [693876.37, 5333165.0], [693882.12, 5333158.32], [693878.87, 5333155.36], [693878.65, 5333155.16], [693881.93, 5333151.39], [693879.22, 5333149.0], [693878.0, 5333149.0], [693878.0, 5333151.0], [693875.0, 5333153.0], [693875.0, 5333155.0], [693874.0, 5333156.0], [693871.0, 5333156.0], [693868.0, 5333151.0], [693870.0, 5333149.0], [693871.0, 5333149.0], [693873.0, 5333146.0], [693875.83, 5333146.0], [693875.73, 5333145.91], [693869.43, 5333140.35], [693860.39, 5333150.68], [693854.59, 5333157.38], [693852.98, 5333159.22], [693842.72, 5333171.0], [693849.0, 5333176.48], [693849.0, 5333173.0], [693850.0, 5333172.0]]]}}, {"type": "Feature", "properties": {"id": "DEBY_LOD2_5051242", "z": 549.19}, "geometry": {"type": "Polygon", "coordinates": [[[693871.0, 5333149.0], [693872.0, 5333149.0], [693874.0, 5333152.0], [693875.0, 5333152.0], [693875.0, 5333153.0], [693878.0, 5333151.0], [693878.0, 5333149.0], [693879.22, 5333149.0], [693875.83, 5333146.0], [693873.0, 5333146.0], [693871.0, 5333149.0]]]}}, {"type": "Feature", "properties": {"id": "DEBY_LOD2_5051242", "z": 547.46}, "geometry": {"type": "Polygon", "coordinates": [[[693856.0, 5333177.0], [693856.0, 5333175.0], [693858.0, 5333174.0], [693858.0, 5333170.0], [693856.0, 5333168.0], [693853.0, 5333169.0], [693853.0, 5333172.0], [693850.0, 5333172.0], [693849.0, 5333173.0], [693849.0, 5333176.48], [693849.05, 5333176.52], [693854.0, 5333180.85], [693854.0, 5333178.0], [693856.0, 5333177.0]]]}}, {"type": "Feature", "properties": {"id": "DEBY_LOD2_5051242", "z": 547.13}, "geometry": {"type": "Polygon", "coordinates": [[[693871.0, 5333156.0], [693874.0, 5333156.0], [693875.0, 5333155.0], [693875.0, 5333152.0], [693874.0, 5333152.0], [693872.0, 5333149.0], [693870.0, 5333149.0], [693868.0, 5333151.0], [693871.0, 5333156.0]]]}}, {"type": "Feature", "properties": {"id": "DEBY_LOD2_5051244", "z": 551.29}, "geometry": {"type": "Polygon", "coordinates": [[[693869.43, 5333140.35], [693875.91, 5333146.07], [693881.93, 5333151.39], [693893.12, 5333138.55], [693894.32, 5333137.18], [693901.14, 5333129.38], [693907.97, 5333121.59], [693908.28, 5333121.23], [693902.25, 5333115.93], [693895.82, 5333110.28], [693869.43, 5333140.35]]]}}, {"type": "Feature", "properties": {"id": "DEBY_LOD2_5051327", "z": 556.66}, "geometry": {"type": "Polygon", "coordinates": [[[693787.0, 5332544.0], [693789.0, 5332545.0], [693792.0, 5332545.0], [693792.0, 5332546.0], [693796.0, 5332546.0], [693798.0, 5332547.0], [693799.0, 5332545.0], [693801.0, 5332545.0], [693801.0, 5332542.0], [693803.0, 5332540.0], [693803.0, 5332537.0], [693802.0, 5332536.0], [693799.0, 5332536.0], [693799.0, 5332535.0], [693796.0, 5332535.0], [693796.0, 5332534.0], [693793.0, 5332534.0], [693791.0, 5332532.0], [693787.0, 5332532.0], [693786.0, 5332530.0], [693783.0, 5332530.0], [693781.0, 5332528.0], [693778.0, 5332528.0], [693776.0, 5332526.0], [693773.0, 5332526.0], [693773.0, 5332525.0], [693770.0, 5332525.0], [693768.0, 5332524.0], [693767.0, 5332522.0], [693763.0, 5332522.0], [693763.0, 5332521.0], [693760.0, 5332521.0], [693759.0, 5332519.0], [693756.0, 5332519.0], [693756.0, 5332518.0], [693752.0, 5332518.0], [693751.0, 5332516.0], [693749.0, 5332515.0], [693746.0, 5332515.0], [693745.0, 5332516.0], [693745.0, 5332519.0], [693743.0, 5332520.0], [693743.0, 5332528.3], [693748.43, 5332530.37], [693764.11, 5332536.53], [693764.06, 5332536.64], [693761.79, 5332542.42], [693765.47, 5332543.87], [693767.74, 5332538.09], [693767.79, 5332537.97], [693783.68, 5332544.19], [693783.75, 5332544.22], [693783.04, 5332546.0], [693786.0, 5332546.0], [693787.0, 5332544.0]]]}}, {"type": "Feature", "properties": {"id": "DEBY_LOD2_5051327", "z": 555.13}, "geometry": {"type": "Polygon", "coordinates": [[[693790.0, 5332547.0], [693789.0, 5332550.0], [693787.0, 5332549.0], [693781.85, 5332549.0], [693780.49, 5332552.42], [693780.58, 5332552.46], [693779.23, 5332555.95], [693789.09, 5332559.82], [693790.49, 5332556.35], [693790.58, 5332556.37], [693793.81, 5332548.21], [693793.9, 5332548.24], [693795.0, 5332548.68], [693795.0, 5332547.0], [693790.0, 5332547.0]]]}}, {"type": "Feature", "properties": {"id": "DEBY_LOD2_5051327", "z": 553.26}, "geometry": {"type": "Polygon", "coordinates": [[[693789.0, 5332550.0], [693790.0, 5332547.0], [693795.0, 5332547.0], [693795.0, 5332548.68], [693800.43, 5332550.85], [693801.03, 5332549.34], [693806.21, 5332536.21], [693744.89, 5332512.13], [693739.71, 5332525.26], [693739.11, 5332526.78], [693740.42, 5332527.31], [693743.0, 5332528.3], [693743.0, 5332520.0], [693745.0, 5332519.0], [693745.0, 5332516.0], [693746.0, 5332515.0], [693749.0, 5332515.0], [693751.0, 5332516.0], [693752.0, 5332518.0], [693756.0, 5332518.0], [693756.0, 5332519.0], [693759.0, 5332519.0], [693760.0, 5332521.0], [693763.0, 5332521.0], [693763.0, 5332522.0], [693767.0, 5332522.0], [693768.0, 5332524.0], [693770.0, 5332525.0], [693773.0, 5332525.0], [693773.0, 5332526.0], [693776.0, 5332526.0], [693778.0, 5332528.0], [693781.0, 5332528.0], [693783.0, 5332530.0], [693786.0, 5332530.0], [693787.0, 5332532.0], [693791.0, 5332532.0], [693793.0, 5332534.0], [693796.0, 5332534.0], [693796.0, 5332535.0], [693799.0, 5332535.0], [693799.0, 5332536.0], [693802.0, 5332536.0], [693803.0, 5332537.0], [693803.0, 5332540.0], [693801.0, 5332542.0], [693801.0, 5332545.0], [693799.0, 5332545.0], [693798.0, 5332547.0], [693796.0, 5332546.0], [693792.0, 5332546.0], [693792.0, 5332545.0], [693789.0, 5332545.0], [693787.0, 5332544.0], [693786.0, 5332546.0], [693783.04, 5332546.0], [693781.85, 5332549.0], [693787.0, 5332549.0], [693789.0, 5332550.0]]]}}, {"type": "Feature", "properties": {"id": "DEBY_LOD2_5051718", "z": 537.14}, "geometry": {"type": "Polygon", "coordinates": [[[693511.25, 5333722.6], [693519.31, 5333731.12], [693519.41, 5333731.02], [693525.4, 5333725.37], [693523.6, 5333723.52], [693513.92, 5333713.54], [693506.29, 5333705.68], [693503.12, 5333702.41], [693502.92, 5333702.21], [693502.22, 5333702.7], [693502.49, 5333703.0], [693502.54, 5333703.07], [693497.31, 5333707.9], [693511.25, 5333722.6]]]}}, {"type": "Feature", "properties": {"id": "DEBY_LOD2_5051731", "z": 552.74}, "geometry": {"type": "Polygon", "coordinates": [[[693538.76, 5333629.5], [693538.59, 5333629.31], [693538.51, 5333629.24], [693536.58, 5333631.08], [693533.8, 5333633.73], [693533.59, 5333633.93], [693531.01, 5333636.37], [693528.7, 5333638.56], [693528.65, 5333638.62], [693531.31, 5333641.46], [693531.39, 5333641.54], [693525.34, 5333647.05], [693528.32, 5333650.22], [693531.31, 5333653.39], [693537.26, 5333647.91], [693537.43, 5333647.75], [693541.0, 5333651.54], [693542.67, 5333653.32], [693543.04, 5333653.72], [693543.68, 5333653.13], [693545.34, 5333651.57], [693548.14, 5333648.94], [693550.94, 5333646.32], [693552.89, 5333644.49], [693552.36, 5333643.93], [693550.68, 5333642.15], [693538.76, 5333629.5]]]}}, {"type": "Feature", "properties": {"id": "DEBY_LOD2_5051732", "z": 545.18}, "geometry": {"type": "Polygon", "coordinates": [[[693513.92, 5333713.54], [693524.87, 5333703.5], [693526.49, 5333702.02], [693526.47, 5333702.01], [693526.34, 5333701.87], [693522.66, 5333698.03], [693518.82, 5333694.01], [693506.29, 5333705.68], [693513.92, 5333713.54]]]}}, {"type": "Feature", "properties": {"id": "DEBY_LOD2_5051847", "z": 548.29}, "geometry": {"type": "Polygon", "coordinates": [[[693205.53, 5333900.39], [693203.41, 5333902.39], [693202.04, 5333903.68], [693199.84, 5333905.76], [693198.85, 5333906.69], [693197.2, 5333908.25], [693199.01, 5333910.22], [693198.92, 5333910.33], [693197.91, 5333911.44], [693201.03, 5333914.79], [693202.12, 5333913.77], [693202.26, 5333913.63], [693207.06, 5333918.77], [693207.16, 5333918.87], [693207.17, 5333918.89], [693208.92, 5333917.2], [693216.69, 5333909.71], [693216.82, 5333909.59], [693206.95, 5333899.07], [693205.53, 5333900.39]]]}}]}