{"type": "FeatureCollection", "attribution": "Bayerische Vermessungsverwaltung \u2013 www.geodaten.bayern.de, CC BY 4.0 (LoD2, DOM1)", "crs": {"type": "name", "properties": {"name": "urn:ogc:def:crs:EPSG::25832"}}, "features": [{"type": "Feature", "properties": {"id": "DEBY_LOD2_5004811", "z": 537.3}, "geometry": {"type": "Polygon", "coordinates": [[[692226.02, 5334324.95], [692223.87, 5334326.41], [692223.56, 5334326.61], [692217.73, 5334337.3], [692221.85, 5334339.54], [692223.13, 5334340.24], [692223.56, 5334340.47], [692227.18, 5334342.39], [692228.2, 5334342.95], [692229.86, 5334339.92], [692231.0, 5334337.85], [692231.98, 5334338.39], [692233.47, 5334335.67], [692234.76, 5334333.91], [692234.92, 5334333.69], [692235.09, 5334333.46], [692235.04, 5334333.4], [692234.73, 5334333.08], [692230.74, 5334328.93], [692230.18, 5334328.35], [692228.05, 5334326.13], [692226.55, 5334324.57], [692226.02, 5334324.95]]]}}, {"type": "Feature", "properties": {"id": "DEBY_LOD2_5004856", "z": 554.91}, "geometry": {"type": "Polygon", "coordinates": [[[692193.0, 5334198.0], [692193.0, 5334193.0], [692192.64, 5334192.88], [692188.08, 5334195.98], [692184.75, 5334198.25], [692181.6, 5334200.39], [692126.46, 5334119.11], [692123.54, 5334121.29], [692146.05, 5334154.9], [692183.14, 5334209.12], [692185.6, 5334207.46], [692189.3, 5334204.95], [692190.99, 5334203.8], [692192.63, 5334202.68], [692195.0, 5334201.06], [692195.0, 5334198.0], [692193.0, 5334198.0]]]}}, {"type": "Feature", "properties": {"id": "DEBY_LOD2_5004856", "z": 552.02}, "geometry": {"type": "Polygon", "coordinates": [[[692193.0, 5334198.0], [692195.0, 5334198.0], [692195.0, 5334201.06], [692196.91, 5334199.75], [692199.36, 5334197.96], [692195.08, 5334191.78], [692195.47, 5334191.52], [692195.63, 5334191.41], [692194.0, 5334191.0], [692192.0, 5334189.0], [692192.0, 5334185.0], [692190.0, 5334185.0], [692190.0, 5334181.0], [692188.0, 5334181.0], [692188.0, 5334179.48], [692187.52, 5334179.8], [692187.2, 5334180.01], [692178.68, 5334167.92], [692139.63, 5334109.95], [692137.5, 5334111.58], [692192.65, 5334192.87], [692192.64, 5334192.88], [692193.0, 5334193.0], [692193.0, 5334198.0]]]}}, {"type": "Feature", "properties": {"id": "DEBY_LOD2_5004856", "z": 522.09}, "geometry": {"type": "Polygon", "coordinates": [[[692190.0, 5334181.0], [692190.0, 5334185.0], [692192.0, 5334185.0], [692192.0, 5334189.0], [692194.0, 5334191.0], [692195.63, 5334191.41], [692199.59, 5334188.74], [692191.67, 5334177.07], [692188.0, 5334179.48], [692188.0, 5334181.0], [692190.0, 5334181.0]]]}}, {"type": "Feature", "properties": {"id": "DEBY_LOD2_5005897", "z": 529.27}, "geometry": {"type": "Polygon", "coordinates": [[[692259.14, 5335121.29], [692257.63, 5335119.07], [692256.16, 5335116.89], [692255.13, 5335118.24], [692255.12, 5335118.25], [692253.88, 5335119.86], [692253.83, 5335119.92], [692247.86, 5335127.73], [692247.3, 5335128.42], [692257.5, 5335136.28], [692257.6, 5335136.36], [692256.2, 5335138.22], [692258.06, 5335139.64], [692259.47, 5335137.79], [692259.62, 5335137.9], [692261.84, 5335139.63], [692261.84, 5335142.02], [692261.86, 5335142.44], [692261.92, 5335142.47], [692269.01, 5335142.41], [692269.11, 5335142.41], [692271.42, 5335142.38], [692271.44, 5335142.38], [692273.37, 5335142.37], [692271.55, 5335139.7], [692269.1, 5335136.08], [692259.14, 5335121.29]]]}}, {"type": "Feature", "properties": {"id": "DEBY_LOD2_5005900", "z": 532.7}, "geometry": {"type": "Polygon", "coordinates": [[[692165.78, 5335112.81], [692165.73, 5335112.82], [692165.06, 5335110.6], [692161.9, 5335099.99], [692161.72, 5335099.95], [692155.04, 5335101.89], [692147.97, 5335103.94], [692147.99, 5335104.06], [692147.9, 5335104.09], [692147.92, 5335104.65], [692150.9, 5335114.71], [692155.54, 5335130.38], [692155.72, 5335130.97], [692157.19, 5335129.05], [692163.4, 5335120.96], [692166.86, 5335116.45], [692170.59, 5335111.59], [692170.43, 5335111.43], [692165.78, 5335112.81]]]}}, {"type": "Feature", "properties": {"id": "DEBY_LOD2_5006020", "z": 537.15}, "geometry": {"type": "Polygon", "coordinates": [[[692218.9, 5334585.02], [692224.23, 5334592.96], [692232.73, 5334583.1], [692228.03, 5334578.59], [692225.8, 5334576.69], [692227.54, 5334574.56], [692225.12, 5334572.52], [692224.69, 5334572.16], [692220.47, 5334577.08], [692217.33, 5334580.72], [692216.59, 5334581.58], [692218.9, 5334585.02]]]}}, {"type": "Feature", "properties": {"id": "DEBY_LOD2_5006416", "z": 525.56}, "geometry": {"type": "Polygon", "coordinates": [[[692838.0, 5335167.0], [692838.0, 5335164.0], [692837.0, 5335164.0], [692835.6, 5335160.51], [692830.5, 5335161.39], [692831.63, 5335167.89], [692832.76, 5335174.41], [692839.0, 5335173.29], [692839.0, 5335167.0], [692838.0, 5335167.0]]]}}, {"type": "Feature", "properties": {"id": "DEBY_LOD2_5006416", "z": 521.52}, "geometry": {"type": "Polygon", "coordinates": [[[692838.0, 5335164.0], [692838.0, 5335167.0], [692839.0, 5335167.0], [692839.0, 5335173.29], [692842.88, 5335172.59], [692845.41, 5335172.13], [692845.91, 5335172.05], [692844.75, 5335165.59], [692843.59, 5335159.1], [692843.09, 5335159.19], [692840.61, 5335159.64], [692835.6, 5335160.51], [692837.0, 5335164.0], [692838.0, 5335164.0]]]}}, {"type": "Feature", "properties": {"id": "DEBY_LOD2_5006587", "z": 524.64}, "geometry": {"type": "Polygon", "coordinates": [[[692749.92, 5335244.5], [692750.43, 5335244.34], [692751.39, 5335243.99], [692742.61, 5335220.7], [692741.59, 5335220.83], [692737.64, 5335221.33], [692737.69, 5335221.54], [692738.2, 5335224.37], [692734.6, 5335225.02], [692742.82, 5335246.84], [692750.09, 5335244.95], [692749.92, 5335244.5]]]}}, {"type": "Feature", "properties": {"id": "DEBY_LOD2_5006627", "z": 526.46}, "geometry": {"type": "Polygon", "coordinates": [[[692924.0, 5335233.0], [692924.0, 5335234.0], [692921.0, 5335234.0], [692921.0, 5335236.0], [692911.69, 5335236.0], [692912.08, 5335238.15], [692912.64, 5335241.37], [692912.75, 5335242.0], [692914.0, 5335242.0], [692914.0, 5335241.0], [692918.0, 5335241.0], [692918.0, 5335240.0], [692923.0, 5335240.0], [692925.0, 5335239.0], [692927.0, 5335242.0], [692929.37, 5335242.0], [692928.99, 5335239.57], [692928.65, 5335237.38], [692927.77, 5335231.77], [692927.72, 5335231.42], [692927.0, 5335231.54], [692927.0, 5335233.0], [692924.0, 5335233.0]]]}}, {"type": "Feature", "properties": {"id": "DEBY_LOD2_5006627", "z": 524.53}, "geometry": {"type": "Polygon", "coordinates": [[[692925.0, 5335239.0], [692923.0, 5335240.0], [692918.0, 5335240.0], [692918.0, 5335241.0], [692914.0, 5335241.0], [692914.0, 5335242.0], [692912.75, 5335242.0], [692913.28, 5335244.99], [692923.69, 5335243.26], [692926.3, 5335242.82], [692926.48, 5335242.79], [692927.19, 5335246.56], [692930.01, 5335246.14], [692929.4, 5335242.22], [692929.37, 5335242.0], [692927.0, 5335242.0], [692925.0, 5335239.0]]]}}, {"type": "Feature", "properties": {"id": "DEBY_LOD2_5006627", "z": 523.79}, "geometry": {"type": "Polygon", "coordinates": [[[692921.0, 5335234.0], [692924.0, 5335234.0], [692924.0, 5335233.0], [692927.0, 5335233.0], [692927.0, 5335231.54], [692926.14, 5335231.67], [692925.84, 5335230.32], [692924.4, 5335230.59], [692911.16, 5335233.03], [692911.69, 5335236.0], [692921.0, 5335236.0], [692921.0, 5335234.0]]]}}, {"type": "Feature", "properties": {"id": "DEBY_LOD2_5006654", "z": 521.49}, "geometry": {"type": "Polygon", "coordinates": [[[692999.0, 5335444.0], [692995.0, 5335444.0], [692995.0, 5335448.0], [692994.0, 5335448.0], [692994.0, 5335452.8], [693000.45, 5335451.43], [693002.87, 5335450.92], [693003.6, 5335450.77], [693003.54, 5335450.47], [693002.94, 5335447.74], [693002.33, 5335447.81], [693001.72, 5335447.74], [693001.15, 5335447.52], [693000.69, 5335447.19], [693000.64, 5335447.16], [693000.25, 5335446.68], [692999.98, 5335446.13], [692999.86, 5335445.52], [692999.9, 5335444.91], [693000.08, 5335444.32], [693000.4, 5335443.79], [693000.85, 5335443.37], [693000.9, 5335443.34], [693001.38, 5335443.06], [693001.37, 5335443.0], [692999.0, 5335443.0], [692999.0, 5335444.0]]]}}, {"type": "Feature", "properties": {"id": "DEBY_LOD2_5006654", "z": 515.43}, "geometry": {"type": "Polygon", "coordinates": [[[692985.0, 5335448.0], [692993.0, 5335448.0], [692993.0, 5335453.01], [692994.0, 5335452.8], [692994.0, 5335448.0], [692995.0, 5335448.0], [692995.0, 5335444.0], [692999.0, 5335444.0], [692999.0, 5335443.0], [693001.37, 5335443.0], [693001.01, 5335441.38], [693000.85, 5335440.68], [693001.05, 5335440.64], [693001.37, 5335440.58], [693001.12, 5335439.35], [693000.44, 5335435.94], [692999.07, 5335430.3], [692999.03, 5335430.17], [692994.61, 5335431.25], [692984.27, 5335433.76], [692983.85, 5335434.31], [692983.33, 5335434.76], [692982.74, 5335435.09], [692982.08, 5335435.31], [692981.4, 5335435.38], [692984.7, 5335450.0], [692985.0, 5335450.0], [692985.0, 5335448.0]]]}}, {"type": "Feature", "properties": {"id": "DEBY_LOD2_5006654", "z": 513.16}, "geometry": {"type": "Polygon", "coordinates": [[[692985.0, 5335448.0], [692985.0, 5335450.0], [692984.7, 5335450.0], [692985.73, 5335454.56], [692993.0, 5335453.01], [692993.0, 5335448.0], [692985.0, 5335448.0]]]}}, {"type": "Feature", "properties": {"id": "DEBY_LOD2_5007082", "z": 533.54}, "geometry": {"type": "Polygon", "coordinates": [[[693038.11, 5335580.0], [693037.52, 5335574.93], [693036.53, 5335566.42], [693036.21, 5335566.41], [693036.07, 5335565.79], [693035.84, 5335565.21], [693035.5, 5335564.69], [693035.06, 5335564.23], [693034.57, 5335563.85], [693034.01, 5335563.57], [693033.42, 5335563.39], [693032.8, 5335563.32], [693023.39, 5335564.33], [693020.99, 5335564.58], [693021.67, 5335570.5], [693022.34, 5335576.27], [693022.35, 5335576.5], [693022.37, 5335576.86], [693022.54, 5335577.42], [693022.82, 5335577.94], [693023.2, 5335578.38], [693023.68, 5335578.73], [693024.22, 5335578.96], [693024.8, 5335579.06], [693025.18, 5335579.04], [693025.39, 5335579.03], [693025.99, 5335583.74], [693027.01, 5335592.09], [693029.91, 5335591.82], [693031.86, 5335591.62], [693033.15, 5335591.48], [693036.0, 5335591.18], [693036.0, 5335580.0], [693038.11, 5335580.0]]]}}, {"type": "Feature", "properties": {"id": "DEBY_LOD2_5007082", "z": 529.91}, "geometry": {"type": "Polygon", "coordinates": [[[693036.0, 5335591.18], [693038.93, 5335590.87], [693037.66, 5335580.44], [693038.16, 5335580.42], [693038.11, 5335580.0], [693036.0, 5335580.0], [693036.0, 5335591.18]]]}}, {"type": "Feature", "properties": {"id": "DEBY_LOD2_5051889", "z": 538.95}, "geometry": {"type": "Polygon", "coordinates": [[[693225.54, 5334039.57], [693213.34, 5334051.07], [693213.18, 5334051.22], [693217.18, 5334055.44], [693217.25, 5334055.51], [693219.29, 5334057.67], [693219.06, 5334057.85], [693221.14, 5334060.02], [693231.06, 5334050.62], [693231.1, 5334050.66], [693233.32, 5334052.97], [693236.07, 5334050.39], [693235.55, 5334049.81], [693235.39, 5334049.96], [693233.72, 5334048.2], [693233.65, 5334048.13], [693231.29, 5334045.64], [693229.61, 5334043.87], [693229.5, 5334043.75], [693228.98, 5334043.19], [693225.54, 5334039.57]]]}}, {"type": "Feature", "properties": {"id": "DEBY_LOD2_5051940", "z": 553.24}, "geometry": {"type": "Polygon", "coordinates": [[[693442.18, 5334037.17], [693439.29, 5334039.91], [693435.92, 5334043.1], [693438.19, 5334045.43], [693436.98, 5334046.9], [693436.63, 5334047.33], [693440.5, 5334051.54], [693440.77, 5334051.83], [693445.18, 5334056.6], [693445.31, 5334056.76], [693447.86, 5334054.33], [693448.72, 5334053.53], [693448.55, 5334053.33], [693456.92, 5334045.41], [693452.76, 5334040.55], [693452.72, 5334040.5], [693452.41, 5334040.16], [693448.18, 5334035.65], [693446.33, 5334037.37], [693446.13, 5334037.56], [693444.01, 5334035.43], [693443.79, 5334035.64], [693442.18, 5334037.17]]]}}, {"type": "Feature", "properties": {"id": "DEBY_LOD2_5052039", "z": 551.02}, "geometry": {"type": "Polygon", "coordinates": [[[693184.0, 5334282.0], [693184.0, 5334289.0], [693183.0, 5334289.0], [693183.0, 5334295.0], [693182.0, 5334295.0], [693182.0, 5334299.26], [693182.33, 5334299.32], [693182.88, 5334299.42], [693187.0, 5334299.42], [693187.0, 5334290.0], [693188.0, 5334289.0], [693190.66, 5334289.0], [693190.86, 5334287.92], [693190.87, 5334287.87], [693190.88, 5334287.84], [693190.93, 5334287.84], [693197.11, 5334288.09], [693197.4, 5334283.11], [693198.09, 5334283.08], [693198.14, 5334282.51], [693198.27, 5334281.0], [693185.0, 5334281.0], [693184.0, 5334282.0]]]}}, {"type": "Feature", "properties": {"id": "DEBY_LOD2_5052039", "z": 548.95}, "geometry": {"type": "Polygon", "coordinates": [[[693187.0, 5334290.0], [693187.0, 5334299.42], [693188.29, 5334299.42], [693188.46, 5334299.42], [693188.67, 5334299.42], [693190.42, 5334290.26], [693190.66, 5334289.0], [693188.0, 5334289.0], [693187.0, 5334290.0]]]}}, {"type": "Feature", "properties": {"id": "DEBY_LOD2_5052039", "z": 548.07}, "geometry": {"type": "Polygon", "coordinates": [[[693183.0, 5334295.0], [693183.0, 5334289.0], [693184.0, 5334289.0], [693184.0, 5334282.0], [693185.0, 5334281.0], [693198.27, 5334281.0], [693198.64, 5334276.82], [693193.34, 5334276.55], [693185.25, 5334276.15], [693180.4, 5334279.8], [693180.39, 5334279.81], [693178.79, 5334287.31], [693176.46, 5334298.24], [693182.0, 5334299.26], [693182.0, 5334295.0], [693183.0, 5334295.0]]]}}, {"type": "Feature", "properties": {"id": "DEBY_LOD2_5052159", "z": 545.1}, "geometry": {"type": "Polygon", "coordinates": [[[693375.0, 5334325.0], [693378.0, 5334325.0], [693380.0, 5334324.0], [693383.0, 5334328.0], [693383.0, 5334332.29], [693384.24, 5334331.78], [693385.83, 5334331.13], [693385.97, 5334331.07], [693386.81, 5334330.73], [693388.0, 5334330.23], [693388.0, 5334328.0], [693386.0, 5334326.0], [693386.0, 5334323.0], [693385.0, 5334323.0], [693385.0, 5334318.0], [693384.0, 5334317.0], [693379.0, 5334317.0], [693379.0, 5334319.0], [693376.0, 5334319.0], [693375.0, 5334321.0], [693370.0, 5334321.0], [693369.55, 5334319.64], [693365.47, 5334321.35], [693367.34, 5334326.25], [693367.38, 5334326.34], [693368.01, 5334328.0], [693371.0, 5334328.0], [693375.0, 5334325.0]]]}}, {"type": "Feature", "properties": {"id": "DEBY_LOD2_5052159", "z": 543.58}, "geometry": {"type": "Polygon", "coordinates": [[[693380.0, 5334324.0], [693378.0, 5334325.0], [693375.0, 5334325.0], [693371.0, 5334328.0], [693368.01, 5334328.0], [693369.18, 5334331.06], [693369.45, 5334330.95], [693378.56, 5334327.25], [693378.59, 5334327.23], [693378.61, 5334327.27], [693380.02, 5334330.75], [693380.79, 5334332.66], [693380.99, 5334333.12], [693383.0, 5334332.29], [693383.0, 5334328.0], [693380.0, 5334324.0]]]}}, {"type": "Feature", "properties": {"id": "DEBY_LOD2_5052159", "z": 543.25}, "geometry": {"type": "Polygon", "coordinates": [[[693375.0, 5334321.0], [693376.0, 5334319.0], [693379.0, 5334319.0], [693379.0, 5334317.0], [693384.0, 5334317.0], [693385.0, 5334318.0], [693385.0, 5334323.0], [693386.0, 5334323.0], [693386.0, 5334326.0], [693388.0, 5334328.0], [693388.0, 5334330.23], [693390.94, 5334329.03], [693390.76, 5334328.62], [693389.99, 5334326.71], [693388.53, 5334323.13], [693384.56, 5334313.37], [693374.6, 5334317.53], [693369.55, 5334319.64], [693370.0, 5334321.0], [693375.0, 5334321.0]]]}}, {"type": "Feature", "properties": {"id": "DEBY_LOD2_5052248", "z": 549.84}, "geometry": {"type": "Polygon", "coordinates": [[[693331.0, 5334238.0], [693333.0, 5334235.0], [693335.0, 5334235.0], [693336.0, 5334233.0], [693337.07, 5334233.0], [693334.0, 5334229.81], [693329.69, 5334225.34], [693327.26, 5334227.6], [693313.74, 5334240.19], [693318.07, 5334244.64], [693320.97, 5334247.63], [693321.49, 5334248.15], [693323.39, 5334246.37], [693324.0, 5334246.97], [693324.0, 5334244.0], [693326.0, 5334244.0], [693331.0, 5334238.0]]]}}, {"type": "Feature", "properties": {"id": "DEBY_LOD2_5052248", "z": 547.64}, "geometry": {"type": "Polygon", "coordinates": [[[693335.0, 5334235.0], [693333.0, 5334235.0], [693331.0, 5334238.0], [693326.0, 5334244.0], [693324.0, 5334244.0], [693324.0, 5334246.97], [693324.37, 5334247.33], [693324.39, 5334247.35], [693326.7, 5334245.17], [693335.87, 5334236.51], [693335.93, 5334236.58], [693338.21, 5334239.0], [693338.24, 5334238.97], [693340.64, 5334236.7], [693338.35, 5334234.32], [693338.28, 5334234.25], [693337.44, 5334233.38], [693337.07, 5334233.0], [693336.0, 5334233.0], [693335.0, 5334235.0]]]}}, {"type": "Feature", "properties": {"id": "DEBY_LOD2_5053358", "z": 545.96}, "geometry": {"type": "Polygon", "coordinates": [[[693204.0, 5334811.0], [693212.0, 5334811.0], [693212.0, 5334810.0], [693224.0, 5334810.0], [693224.0, 5334808.0], [693227.0, 5334808.0], [693227.0, 5334802.0], [693226.0, 5334802.0], [693226.0, 5334799.0], [693225.0, 5334798.0], [693210.0, 5334798.0], [693210.0, 5334799.0], [693202.0, 5334799.0], [693202.0, 5334800.0], [693199.0, 5334800.0], [693198.0, 5334801.0], [693198.0, 5334811.0], [693200.0, 5334812.0], [693204.0, 5334812.0], [693204.0, 5334811.0]]]}}, {"type": "Feature", "properties": {"id": "DEBY_LOD2_5053358", "z": 542.86}, "geometry": {"type": "Polygon", "coordinates": [[[693193.83, 5334809.71], [693194.46, 5334814.97], [693194.51, 5334814.96], [693230.26, 5334810.69], [693228.41, 5334796.32], [693228.06, 5334793.52], [693228.05, 5334793.51], [693222.67, 5334794.17], [693215.7, 5334795.02], [693196.41, 5334797.43], [693192.42, 5334797.91], [693193.83, 5334809.71]], [[693198.0, 5334801.0], [693199.0, 5334800.0], [693202.0, 5334800.0], [693202.0, 5334799.0], [693210.0, 5334799.0], [693210.0, 5334798.0], [693225.0, 5334798.0], [693226.0, 5334799.0], [693226.0, 5334802.0], [693227.0, 5334802.0], [693227.0, 5334808.0], [693224.0, 5334808.0], [693224.0, 5334810.0], [693212.0, 5334810.0], [693212.0, 5334811.0], [693204.0, 5334811.0], [693204.0, 5334812.0], [693200.0, 5334812.0], [693198.0, 5334811.0], [693198.0, 5334801.0]]]}}, {"type": "Feature", "properties": {"id": "DEBY_LOD2_5053656", "z": 531.73}, "geometry": {"type": "Polygon", "coordinates": [[[693639.0, 5334879.0], [693641.0, 5334876.0], [693641.0, 5334873.0], [693637.0, 5334873.0], [693637.0, 5334872.0], [693633.0, 5334872.0], [693632.0, 5334873.0], [693632.0, 5334878.0], [693633.0, 5334878.0], [693633.0, 5334880.02], [693634.55, 5334880.34], [693635.0, 5334879.0], [693639.0, 5334879.0]]]}}, {"type": "Feature", "properties": {"id": "DEBY_LOD2_5053656", "z": 530.19}, "geometry": {"type": "Polygon", "coordinates": [[[693632.0, 5334878.0], [693632.0, 5334873.0], [693633.0, 5334872.0], [693637.0, 5334872.0], [693637.0, 5334873.0], [693641.0, 5334873.0], [693641.0, 5334876.0], [693639.0, 5334879.0], [693635.0, 5334879.0], [693634.55, 5334880.34], [693635.85, 5334880.6], [693638.69, 5334881.17], [693641.25, 5334881.69], [693645.49, 5334860.73], [693642.92, 5334860.18], [693639.42, 5334859.5], [693624.04, 5334856.34], [693621.59, 5334855.86], [693617.33, 5334876.82], [693633.0, 5334880.02], [693633.0, 5334878.0], [693632.0, 5334878.0]]]}}, {"type": "Feature", "properties": {"id": "DEBY_LOD2_5054258", "z": 539.32}, "geometry": {"type": "Polygon", "coordinates": [[[693897.0, 5335800.0], [693897.0, 5335797.0], [693896.0, 5335797.0], [693896.0, 5335789.0], [693895.0, 5335788.0], [693890.0, 5335788.0], [693889.0, 5335790.0], [693885.0, 5335790.0], [693885.0, 5335791.0], [693882.94, 5335791.0], [693885.58, 5335806.49], [693885.62, 5335806.73], [693900.63, 5335804.22], [693900.26, 5335802.0], [693898.0, 5335802.0], [693897.0, 5335800.0]]]}}, {"type": "Feature", "properties": {"id": "DEBY_LOD2_5054258", "z": 539.29}, "geometry": {"type": "Polygon", "coordinates": [[[693917.0, 5335785.0], [693911.0, 5335785.0], [693910.0, 5335786.0], [693910.0, 5335788.86], [693911.41, 5335788.61], [693913.7, 5335802.03], [693921.72, 5335800.68], [693920.89, 5335795.69], [693920.38, 5335792.72], [693919.46, 5335787.25], [693919.25, 5335786.0], [693917.0, 5335786.0], [693917.0, 5335785.0]]]}}, {"type": "Feature", "properties": {"id": "DEBY_LOD2_5054258", "z": 535.9}, "geometry": {"type": "Polygon", "coordinates": [[[693911.0, 5335785.0], [693917.0, 5335785.0], [693917.0, 5335786.0], [693919.25, 5335786.0], [693918.22, 5335779.94], [693917.73, 5335780.05], [693917.61, 5335779.42], [693882.45, 5335785.38], [693882.56, 5335786.1], [693882.12, 5335786.17], [693882.94, 5335791.0], [693885.0, 5335791.0], [693885.0, 5335790.0], [693889.0, 5335790.0], [693890.0, 5335788.0], [693895.0, 5335788.0], [693896.0, 5335789.0], [693896.0, 5335797.0], [693897.0, 5335797.0], [693897.0, 5335800.0], [693898.0, 5335802.0], [693900.26, 5335802.0], [693898.41, 5335790.92], [693910.0, 5335788.86], [693910.0, 5335786.0], [693911.0, 5335785.0]]]}}, {"type": "Feature", "properties": {"id": "DEBY_LOD2_5054259", "z": 539.14}, "geometry": {"type": "Polygon", "coordinates": [[[693886.83, 5335813.84], [693888.05, 5335821.04], [693888.69, 5335820.91], [693888.72, 5335821.49], [693888.73, 5335821.54], [693896.09, 5335820.25], [693902.56, 5335819.11], [693916.67, 5335816.63], [693923.7, 5335815.4], [693923.65, 5335814.83], [693924.1, 5335814.73], [693922.93, 5335807.79], [693921.92, 5335801.84], [693921.73, 5335800.68], [693914.18, 5335801.95], [693913.7, 5335802.03], [693900.63, 5335804.22], [693900.04, 5335804.32], [693885.62, 5335806.74], [693885.82, 5335807.9], [693886.83, 5335813.84]]]}}]}