{"type": "FeatureCollection", "attribution": "\u00a9 OpenStreetMap contributors (ODbL); tower heights: Bayerische Vermessungsverwaltung \u2013 www.geodaten.bayern.de, CC BY 4.0", "crs": {"type": "name", "properties": {"name": "urn:ogc:def:crs:EPSG::25832"}}, "features": [{"type": "Feature", "properties": {"k": "bell", "h": 90.5, "size": "large", "name": "Heilig Kreuz"}, "geometry": {"type": "Point", "coordinates": [691821.86, 5332454.56]}}, {"type": "Feature", "properties": {"k": "bell", "h": 57.3, "size": "medium", "name": "St. Maximilian"}, "geometry": {"type": "Point", "coordinates": [691509.54, 5333594.75]}}, {"type": "Feature", "properties": {"k": "bell", "h": 45.2, "size": "medium", "name": "St. Franziskus"}, "geometry": {"type": "Point", "coordinates": [691265.52, 5332242.17]}}, {"type": "Feature", "properties": {"k": "bell", "h": 36.0, "size": "small", "name": "Lutherkirche"}, "geometry": {"type": "Point", "coordinates": [691743.1, 5332318.82]}}, {"type": "Feature", "properties": {"k": "bell", "h": 35.5, "size": "small", "name": "Sankt Anton"}, "geometry": {"type": "Point", "coordinates": [690691.51, 5333286.99]}}, {"type": "Feature", "properties": {"k": "bell", "h": 33.6, "size": "small"}, "geometry": {"type": "Point", "coordinates": [690030.23, 5333456.91]}}]}