{"type": "FeatureCollection", "attribution": "\u00a9 OpenStreetMap contributors (ODbL); tower heights: Bayerische Vermessungsverwaltung \u2013 www.geodaten.bayern.de, CC BY 4.0", "crs": {"type": "name", "properties": {"name": "urn:ogc:def:crs:EPSG::25832"}}, "features": [{"type": "Feature", "properties": {"k": "bell", "h": 98.0, "size": "large", "name": "Frauenkirche"}, "geometry": {"type": "Point", "coordinates": [691411.58, 5334915.63]}}, {"type": "Feature", "properties": {"k": "bell", "h": 78.9, "size": "large", "name": "St. Peter"}, "geometry": {"type": "Point", "coordinates": [691612.68, 5334685.49]}}, {"type": "Feature", "properties": {"k": "bell", "h": 70.7, "size": "large", "name": "Theatinerkirche St. Kajetan"}, "geometry": {"type": "Point", "coordinates": [691658.83, 5335304.91]}}, {"type": "Feature", "properties": {"k": "bell", "h": 68.0, "size": "large", "name": "Heilig Geist"}, "geometry": {"type": "Point", "coordinates": [691774.35, 5334637.8]}}, {"type": "Feature", "properties": {"k": "bell", "h": 65.9, "size": "large", "name": "Salvatorkirche"}, "geometry": {"type": "Point", "coordinates": [691545.93, 5335256.5]}}, {"type": "Feature", "properties": {"k": "bell", "h": 65.3, "size": "large", "name": "Allerheiligenkirche am Kreuz"}, "geometry": {"type": "Point", "coordinates": [691038.51, 5334564.21]}}, {"type": "Feature", "properties": {"k": "bell", "h": 53.0, "size": "medium", "name": "St. Markus"}, "geometry": {"type": "Point", "coordinates": [691480.87, 5335729.93]}}, {"type": "Feature", "properties": {"k": "bell", "h": 52.0, "size": "medium", "name": "Pfarrkirche St. Matth\u00e4us"}, "geometry": {"type": "Point", "coordinates": [690850.47, 5334278.69]}}, {"type": "Feature", "properties": {"k": "bell", "h": 49.0, "size": "medium", "name": "Sankt Michael"}, "geometry": {"type": "Point", "coordinates": [691208.48, 5334899.83]}}, {"type": "Feature", "properties": {"k": "bell", "h": 33.2, "size": "small", "name": "Augustinerkirche"}, "geometry": {"type": "Point", "coordinates": [691307.61, 5334878.02]}}, {"type": "Feature", "properties": {"k": "bell", "h": 32.4, "size": "small", "name": "Sankt Johann Nepomuk"}, "geometry": {"type": "Point", "coordinates": [691174.17, 5334513.54]}}, {"type": "Feature", "properties": {"k": "bell", "h": 31.9, "size": "small", "name": "Herzogspitalkirche"}, "geometry": {"type": "Point", "coordinates": [691004.13, 5334758.13]}}, {"type": "Feature", "properties": {"k": "bell", "h": 30.9, "size": "small", "name": "Archiv des Erzbistums M\u00fcnchen und Freising"}, "geometry": {"type": "Point", "coordinates": [691261.12, 5335090.12]}}, {"type": "Feature", "properties": {"k": "bell", "h": 26.6, "size": "small", "name": "Dreifaltigkeitskirche"}, "geometry": {"type": "Point", "coordinates": [691239.6, 5335145.63]}}, {"type": "Feature", "properties": {"k": "bell", "h": 25.9, "size": "small", "name": "Basilika St. Bonifaz"}, "geometry": {"type": "Point", "coordinates": [690745.12, 5335507.27]}}, {"type": "Feature", "properties": {"k": "bell", "h": 25.3, "size": "small", "name": "Damenstiftskirche St. Anna"}, "geometry": {"type": "Point", "coordinates": [691132.2, 5334761.29]}}, {"type": "Feature", "properties": {"k": "bell", "h": 25.0, "size": "small", "name": "St. Elisabeth"}, "geometry": {"type": "Point", "coordinates": [690683.38, 5334464.82]}}, {"type": "Feature", "properties": {"k": "bell", "h": 23.8, "size": "small", "name": "St. Jakob am Anger"}, "geometry": {"type": "Point", "coordinates": [691336.61, 5334400.36]}}, {"type": "Feature", "properties": {"k": "bell", "h": 22.2, "size": "small", "name": "B\u00fcrgersaalkirche"}, "geometry": {"type": "Point", "coordinates": [691064.73, 5334961.32]}}]}