{"type": "FeatureCollection", "attribution": "\u00a9 OpenStreetMap contributors (ODbL)", "crs": {"type": "name", "properties": {"name": "urn:ogc:def:crs:EPSG::25832"}}, "features": [{"type": "Feature", "properties": {"w": 2.5, "n": 20, "z": [508.73, 511.96]}, "geometry": {"type": "LineString", "coordinates": [[692155.13, 5335502.47], [692150.25, 5335502.09], [692145.97, 5335502.21], [692141.57, 5335502.91], [692137.43, 5335504.01], [692132.71, 5335505.9], [692129.21, 5335508.01], [692125.71, 5335511.05], [692122.43, 5335515.9]]}}, {"type": "Feature", "properties": {"w": 2.5, "n": 9, "z": [512.78, 514.26]}, "geometry": {"type": "LineString", "coordinates": [[692149.24, 5334503.61], [692157.05, 5334502.79]]}}, {"type": "Feature", "properties": {"w": 2.5, "n": 22, "z": [513.37, 517.29]}, "geometry": {"type": "LineString", "coordinates": [[692658.1, 5334243.56], [692669.73, 5334240.41]]}}, {"type": "Feature", "properties": {"w": 2.5, "n": 30, "z": [511.58, 516.32]}, "geometry": {"type": "LineString", "coordinates": [[692756.02, 5334461.9], [692755.07, 5334431.64]]}}, {"type": "Feature", "properties": {"w": 2.5, "n": 13, "z": [511.2, 513.04]}, "geometry": {"type": "LineString", "coordinates": [[692525.06, 5334190.57], [692534.11, 5334187.02]]}}, {"type": "Feature", "properties": {"w": 2.5, "n": 7, "z": [525.76, 526.95]}, "geometry": {"type": "LineString", "coordinates": [[692757.79, 5334293.56], [692756.04, 5334298.18]]}}, {"type": "Feature", "properties": {"w": 2.5, "n": 63, "z": [516.62, 526.65]}, "geometry": {"type": "LineString", "coordinates": [[692742.21, 5334405.81], [692742.67, 5334401.73], [692738.57, 5334382.66], [692755.89, 5334400.12], [692761.34, 5334399.71]]}}, {"type": "Feature", "properties": {"w": 2.5, "n": 62, "z": [515.95, 523.89]}, "geometry": {"type": "LineString", "coordinates": [[692793.2, 5334519.53], [692818.52, 5334541.5]]}}, {"type": "Feature", "properties": {"w": 2.5, "n": 34, "z": [513.44, 518.64]}, "geometry": {"type": "LineString", "coordinates": [[692599.05, 5334088.08], [692605.13, 5334090.38], [692611.82, 5334096.12]]}}, {"type": "Feature", "properties": {"w": 2.5, "n": 23, "z": [513.13, 516.06]}, "geometry": {"type": "LineString", "coordinates": [[692405.47, 5334224.81], [692398.21, 5334214.4]]}}, {"type": "Feature", "properties": {"w": 2.5, "n": 7, "z": [511.7, 512.93]}, "geometry": {"type": "LineString", "coordinates": [[692462.17, 5335104.1], [692460.45, 5335103.73]]}}, {"type": "Feature", "properties": {"w": 2.5, "n": 20, "z": [513.04, 515.31]}, "geometry": {"type": "LineString", "coordinates": [[692532.32, 5334183.02], [692529.73, 5334177.25]]}}, {"type": "Feature", "properties": {"w": 2.5, "n": 20, "z": [512.62, 515.07]}, "geometry": {"type": "LineString", "coordinates": [[692067.73, 5335444.19], [692054.23, 5335448.25]]}}, {"type": "Feature", "properties": {"w": 2.5, "n": 20, "z": [512.63, 515.19]}, "geometry": {"type": "LineString", "coordinates": [[692040.16, 5335350.01], [692028.27, 5335353.08]]}}, {"type": "Feature", "properties": {"w": 2.5, "n": 20, "z": [512.63, 515.15]}, "geometry": {"type": "LineString", "coordinates": [[692053.37, 5335391.02], [692040.6, 5335395.18]]}}, {"type": "Feature", "properties": {"w": 2.5, "n": 20, "z": [512.63, 515.08]}, "geometry": {"type": "LineString", "coordinates": [[692025.1, 5335297.47], [692012.82, 5335301.67]]}}, {"type": "Feature", "properties": {"w": 2.5, "n": 9, "z": [511.66, 513.1]}, "geometry": {"type": "LineString", "coordinates": [[692471.5, 5335111.4], [692470.34, 5335115.97]]}}, {"type": "Feature", "properties": {"w": 2.5, "n": 10, "z": [503.88, 505.5]}, "geometry": {"type": "LineString", "coordinates": [[693117.16, 5335982.38], [693130.9, 5335977.72]]}}, {"type": "Feature", "properties": {"w": 2.5, "n": 36, "z": [502.32, 508.03]}, "geometry": {"type": "LineString", "coordinates": [[692993.66, 5335039.94], [693001.14, 5335035.6]]}}, {"type": "Feature", "properties": {"w": 2.5, "n": 66, "z": [501.94, 512.51]}, "geometry": {"type": "LineString", "coordinates": [[693080.32, 5335285.52], [693079.32, 5335279.51], [693080.58, 5335276.82], [693093.32, 5335274.72]]}}, {"type": "Feature", "properties": {"w": 2.5, "n": 6, "z": [512.76, 513.7]}, "geometry": {"type": "LineString", "coordinates": [[693118.24, 5335290.54], [693120.19, 5335289.97]]}}, {"type": "Feature", "properties": {"w": 2.5, "n": 9, "z": [511.54, 512.97]}, "geometry": {"type": "LineString", "coordinates": [[692497.39, 5335121.71], [692494.3, 5335121.05]]}}, {"type": "Feature", "properties": {"w": 2.5, "n": 9, "z": [511.77, 513.03]}, "geometry": {"type": "LineString", "coordinates": [[692429.75, 5335126.07], [692432.66, 5335126.67]]}}, {"type": "Feature", "properties": {"w": 2.5, "n": 26, "z": [511.47, 515.2]}, "geometry": {"type": "LineString", "coordinates": [[692515.61, 5334138.89], [692513.28, 5334131.31], [692514.68, 5334130.62], [692518.0, 5334137.89]]}}, {"type": "Feature", "properties": {"w": 2.5, "n": 7, "z": [530.1, 531.17]}, "geometry": {"type": "LineString", "coordinates": [[693691.44, 5334085.33], [693690.71, 5334092.8]]}}, {"type": "Feature", "properties": {"w": 2.5, "n": 24, "z": [526.91, 530.26]}, "geometry": {"type": "LineString", "coordinates": [[693691.28, 5334424.14], [693699.56, 5334422.1]]}}, {"type": "Feature", "properties": {"w": 2.5, "n": 24, "z": [525.9, 529.32]}, "geometry": {"type": "LineString", "coordinates": [[693721.53, 5334637.37], [693730.43, 5334637.23]]}}, {"type": "Feature", "properties": {"w": 2.5, "n": 4, "z": [526.08, 526.72]}, "geometry": {"type": "LineString", "coordinates": [[693694.86, 5334527.7], [693695.26, 5334530.54]]}}, {"type": "Feature", "properties": {"w": 2.5, "n": 24, "z": [520.84, 524.72]}, "geometry": {"type": "LineString", "coordinates": [[693220.64, 5334577.72], [693238.59, 5334575.82]]}}, {"type": "Feature", "properties": {"w": 2.5, "n": 15, "z": [525.57, 527.98]}, "geometry": {"type": "LineString", "coordinates": [[692761.57, 5334115.51], [692768.68, 5334126.95]]}}, {"type": "Feature", "properties": {"w": 2.5, "n": 8, "z": [525.07, 525.94]}, "geometry": {"type": "LineString", "coordinates": [[693203.99, 5334769.2], [693204.72, 5334776.59]]}}, {"type": "Feature", "properties": {"w": 2.5, "n": 6, "z": [523.83, 524.8]}, "geometry": {"type": "LineString", "coordinates": [[693745.78, 5335517.35], [693744.84, 5335513.92], [693744.43, 5335512.37]]}}, {"type": "Feature", "properties": {"w": 2.5, "n": 26, "z": [508.86, 513.56]}, "geometry": {"type": "LineString", "coordinates": [[693115.61, 5335277.21], [693115.31, 5335275.35], [693115.39, 5335273.49], [693115.79, 5335271.83], [693116.48, 5335270.29], [693117.41, 5335268.92], [693118.58, 5335267.73], [693120.7, 5335266.38], [693123.06, 5335265.62]]}}, {"type": "Feature", "properties": {"w": 2.5, "n": 26, "z": [508.85, 513.42]}, "geometry": {"type": "LineString", "coordinates": [[693122.0, 5335301.52], [693122.73, 5335304.13], [693124.16, 5335306.31], [693125.88, 5335307.71], [693127.93, 5335308.57], [693129.36, 5335308.82], [693130.81, 5335308.79], [693132.33, 5335308.47], [693134.17, 5335307.78]]}}, {"type": "Feature", "properties": {"w": 2.5, "n": 12, "z": [524.8, 526.78]}, "geometry": {"type": "LineString", "coordinates": [[693947.95, 5335790.21], [693938.13, 5335791.55]]}}, {"type": "Feature", "properties": {"w": 2.5, "n": 4, "z": [525.14, 525.97]}, "geometry": {"type": "LineString", "coordinates": [[693905.94, 5335441.68], [693915.6, 5335441.99]]}}, {"type": "Feature", "properties": {"w": 2.5, "n": 4, "z": [525.2, 526.03]}, "geometry": {"type": "LineString", "coordinates": [[693906.94, 5335413.04], [693916.72, 5335413.18]]}}, {"type": "Feature", "properties": {"w": 5.79, "n": 3, "z": [513.15, 513.57]}, "geometry": {"type": "LineString", "coordinates": [[692046.28, 5334518.23], [692057.09, 5334516.08]]}}, {"type": "Feature", "properties": {"w": 2.5, "n": 3, "z": [513.15, 513.6]}, "geometry": {"type": "LineString", "coordinates": [[692430.68, 5334265.24], [692432.06, 5334264.48]]}}, {"type": "Feature", "properties": {"w": 2.5, "n": 4, "z": [513.73, 514.44]}, "geometry": {"type": "LineString", "coordinates": [[692436.27, 5334262.16], [692438.53, 5334260.92]]}}, {"type": "Feature", "properties": {"w": 2.5, "n": 4, "z": [513.88, 514.54]}, "geometry": {"type": "LineString", "coordinates": [[692461.47, 5334276.41], [692460.54, 5334274.8]]}}, {"type": "Feature", "properties": {"w": 2.5, "n": 6, "z": [514.57, 516.06]}, "geometry": {"type": "LineString", "coordinates": [[692433.21, 5334206.65], [692430.76, 5334202.09]]}}, {"type": "Feature", "properties": {"w": 2.5, "n": 2, "z": [513.53, 513.84]}, "geometry": {"type": "LineString", "coordinates": [[692463.65, 5334280.19], [692462.93, 5334278.95]]}}, {"type": "Feature", "properties": {"w": 2.5, "n": 9, "z": [511.81, 513.45]}, "geometry": {"type": "LineString", "coordinates": [[692078.81, 5334646.29], [692083.59, 5334652.21]]}}, {"type": "Feature", "properties": {"w": 2.5, "n": 11, "z": [512.54, 514.6]}, "geometry": {"type": "LineString", "coordinates": [[692187.31, 5334626.05], [692184.09, 5334628.62]]}}, {"type": "Feature", "properties": {"w": 3.79, "n": 3, "z": [525.53, 525.98]}, "geometry": {"type": "LineString", "coordinates": [[692730.0, 5334147.72], [692730.94, 5334146.75]]}}, {"type": "Feature", "properties": {"w": 4.29, "n": 3, "z": [522.98, 523.32]}, "geometry": {"type": "LineString", "coordinates": [[692713.39, 5334164.84], [692714.33, 5334163.87]]}}, {"type": "Feature", "properties": {"w": 4.05, "n": 3, "z": [524.06, 524.65]}, "geometry": {"type": "LineString", "coordinates": [[692721.24, 5334156.75], [692722.18, 5334155.78]]}}, {"type": "Feature", "properties": {"w": 4.7, "n": 3, "z": [521.3, 521.82]}, "geometry": {"type": "LineString", "coordinates": [[692703.99, 5334174.6], [692704.93, 5334173.64]]}}, {"type": "Feature", "properties": {"w": 3.91, "n": 3, "z": [524.75, 525.35]}, "geometry": {"type": "LineString", "coordinates": [[692725.81, 5334152.04], [692727.1, 5334150.72]]}}, {"type": "Feature", "properties": {"w": 4.44, "n": 3, "z": [522.15, 522.58]}, "geometry": {"type": "LineString", "coordinates": [[692708.65, 5334169.73], [692709.58, 5334168.76]]}}, {"type": "Feature", "properties": {"w": 2.5, "n": 6, "z": [525.47, 525.98]}, "geometry": {"type": "LineString", "coordinates": [[692750.12, 5334121.38], [692747.42, 5334124.05]]}}, {"type": "Feature", "properties": {"w": 2.5, "n": 10, "z": [521.48, 523.2]}, "geometry": {"type": "LineString", "coordinates": [[692703.58, 5334199.24], [692708.83, 5334204.32]]}}, {"type": "Feature", "properties": {"w": 2.5, "n": 5, "z": [524.81, 525.45]}, "geometry": {"type": "LineString", "coordinates": [[692757.61, 5334109.16], [692758.6, 5334110.75]]}}, {"type": "Feature", "properties": {"w": 2.5, "n": 9, "z": [526.59, 528.03]}, "geometry": {"type": "LineString", "coordinates": [[692745.37, 5334136.46], [692749.56, 5334140.63]]}}, {"type": "Feature", "properties": {"w": 2.5, "n": 4, "z": [522.65, 523.21]}, "geometry": {"type": "LineString", "coordinates": [[692716.61, 5334216.58], [692712.66, 5334210.68]]}}, {"type": "Feature", "properties": {"w": 2.5, "n": 30, "z": [523.2, 527.98]}, "geometry": {"type": "LineString", "coordinates": [[692708.83, 5334204.32], [692709.18, 5334199.69], [692706.51, 5334195.56], [692705.15, 5334184.71]]}}, {"type": "Feature", "properties": {"w": 2.5, "n": 2, "z": [527.06, 527.38]}, "geometry": {"type": "LineString", "coordinates": [[693032.84, 5334518.58], [693030.4, 5334519.57]]}}, {"type": "Feature", "properties": {"w": 2.5, "n": 2, "z": [513.17, 513.59]}, "geometry": {"type": "LineString", "coordinates": [[692007.36, 5335233.28], [692004.11, 5335234.37]]}}, {"type": "Feature", "properties": {"w": 2.5, "n": 2, "z": [524.27, 524.65]}, "geometry": {"type": "LineString", "coordinates": [[693235.07, 5334661.42], [693245.67, 5334658.91]]}}, {"type": "Feature", "properties": {"w": 2.5, "n": 8, "z": [510.86, 512.41]}, "geometry": {"type": "LineString", "coordinates": [[692230.49, 5335577.86], [692224.69, 5335578.44]]}}, {"type": "Feature", "properties": {"w": 4.54, "n": 27, "z": [508.79, 512.5]}, "geometry": {"type": "LineString", "coordinates": [[692320.96, 5335604.08], [692333.52, 5335600.78]]}}, {"type": "Feature", "properties": {"w": 4.41, "n": 27, "z": [508.79, 512.53]}, "geometry": {"type": "LineString", "coordinates": [[692408.21, 5335580.75], [692396.3, 5335583.83]]}}, {"type": "Feature", "properties": {"w": 2.0, "n": 2, "z": [522.04, 522.36]}, "geometry": {"type": "LineString", "coordinates": [[693189.68, 5335281.89], [693188.37, 5335276.66]]}}, {"type": "Feature", "properties": {"w": 2.5, "n": 26, "z": [507.47, 511.59]}, "geometry": {"type": "LineString", "coordinates": [[692835.47, 5334815.62], [692828.88, 5334818.25]]}}, {"type": "Feature", "properties": {"w": 1.35, "n": 2, "z": [513.18, 513.51]}, "geometry": {"type": "LineString", "coordinates": [[692046.7, 5334520.29], [692057.5, 5334518.14]]}}, {"type": "Feature", "properties": {"w": 2.5, "n": 3, "z": [523.71, 524.3]}, "geometry": {"type": "LineString", "coordinates": [[693625.27, 5334938.78], [693625.84, 5334934.03]]}}, {"type": "Feature", "properties": {"w": 2.5, "n": 15, "z": [509.1, 511.68]}, "geometry": {"type": "LineString", "coordinates": [[692264.66, 5335563.37], [692261.1, 5335550.43]]}}, {"type": "Feature", "properties": {"w": 2.5, "n": 6, "z": [527.03, 528.06]}, "geometry": {"type": "LineString", "coordinates": [[692746.23, 5334031.91], [692756.1, 5334026.99]]}}, {"type": "Feature", "properties": {"w": 2.5, "n": 12, "z": [511.48, 513.4]}, "geometry": {"type": "LineString", "coordinates": [[692354.32, 5334252.88], [692351.03, 5334254.97]]}}, {"type": "Feature", "properties": {"w": 2.5, "n": 6, "z": [526.98, 527.94]}, "geometry": {"type": "LineString", "coordinates": [[692747.29, 5334033.9], [692757.12, 5334028.92]]}}, {"type": "Feature", "properties": {"w": 2.5, "n": 9, "z": [512.09, 513.15]}, "geometry": {"type": "LineString", "coordinates": [[692016.78, 5334697.75], [692020.06, 5334701.35]]}}, {"type": "Feature", "properties": {"w": 2.5, "n": 11, "z": [512.83, 514.57]}, "geometry": {"type": "LineString", "coordinates": [[692178.92, 5334618.85], [692176.01, 5334621.67]]}}, {"type": "Feature", "properties": {"w": 2.5, "n": 18, "z": [515.81, 518.72]}, "geometry": {"type": "LineString", "coordinates": [[692268.03, 5334006.36], [692261.9, 5334013.48]]}}, {"type": "Feature", "properties": {"w": 2.5, "n": 21, "z": [516.64, 518.7]}, "geometry": {"type": "LineString", "coordinates": [[692251.28, 5334026.01], [692254.58, 5334022.07]]}}, {"type": "Feature", "properties": {"w": 2.5, "n": 6, "z": [513.75, 515.08]}, "geometry": {"type": "LineString", "coordinates": [[692008.52, 5335258.18], [692005.61, 5335258.89]]}}, {"type": "Feature", "properties": {"w": 2.5, "n": 28, "z": [508.69, 512.15]}, "geometry": {"type": "LineString", "coordinates": [[692215.92, 5335634.84], [692201.33, 5335625.02]]}}, {"type": "Feature", "properties": {"w": 2.5, "n": 9, "z": [509.79, 511.18]}, "geometry": {"type": "LineString", "coordinates": [[692176.37, 5335493.06], [692184.99, 5335496.36]]}}, {"type": "Feature", "properties": {"w": 2.5, "n": 5, "z": [513.1, 513.7]}, "geometry": {"type": "LineString", "coordinates": [[692519.01, 5334550.84], [692516.91, 5334552.13]]}}, {"type": "Feature", "properties": {"w": 2.5, "n": 31, "z": [506.93, 511.81]}, "geometry": {"type": "LineString", "coordinates": [[692630.18, 5334518.74], [692624.86, 5334535.25]]}}, {"type": "Feature", "properties": {"w": 2.5, "n": 2, "z": [526.83, 527.2]}, "geometry": {"type": "LineString", "coordinates": [[693924.5, 5335790.45], [693918.73, 5335788.89]]}}, {"type": "Feature", "properties": {"w": 2.5, "n": 41, "z": [503.86, 510.46]}, "geometry": {"type": "LineString", "coordinates": [[692857.34, 5334912.01], [692851.23, 5334899.55]]}}, {"type": "Feature", "properties": {"w": 2.5, "n": 12, "z": [525.97, 527.56]}, "geometry": {"type": "LineString", "coordinates": [[693904.79, 5335065.72], [693901.0, 5335065.93]]}}, {"type": "Feature", "properties": {"w": 2.5, "n": 9, "z": [523.27, 524.46]}, "geometry": {"type": "LineString", "coordinates": [[693370.31, 5334679.01], [693369.35, 5334676.7]]}}, {"type": "Feature", "properties": {"w": 2.5, "n": 3, "z": [524.56, 525.08]}, "geometry": {"type": "LineString", "coordinates": [[693367.97, 5334673.4], [693367.59, 5334672.5]]}}, {"type": "Feature", "properties": {"w": 2.5, "n": 3, "z": [526.34, 526.79]}, "geometry": {"type": "LineString", "coordinates": [[693382.68, 5334698.63], [693382.63, 5334700.19], [693382.58, 5334702.15]]}}, {"type": "Feature", "properties": {"w": 2.5, "n": 5, "z": [524.02, 524.86]}, "geometry": {"type": "LineString", "coordinates": [[693368.99, 5334675.84], [693368.6, 5334674.91]]}}, {"type": "Feature", "properties": {"w": 2.5, "n": 3, "z": [525.08, 525.57]}, "geometry": {"type": "LineString", "coordinates": [[693367.96, 5334671.42], [693368.96, 5334671.09]]}}, {"type": "Feature", "properties": {"w": 2.5, "n": 7, "z": [524.74, 525.81]}, "geometry": {"type": "LineString", "coordinates": [[693320.72, 5334800.5], [693328.84, 5334797.77]]}}, {"type": "Feature", "properties": {"w": 2.5, "n": 10, "z": [523.83, 525.51]}, "geometry": {"type": "LineString", "coordinates": [[693375.49, 5335011.82], [693389.24, 5335008.04]]}}, {"type": "Feature", "properties": {"w": 2.5, "n": 9, "z": [514.53, 516.07]}, "geometry": {"type": "LineString", "coordinates": [[692041.97, 5334134.77], [692038.68, 5334129.75]]}}, {"type": "Feature", "properties": {"w": 4.14, "n": 10, "z": [514.38, 515.93]}, "geometry": {"type": "LineString", "coordinates": [[692077.93, 5334109.65], [692081.07, 5334107.57]]}}, {"type": "Feature", "properties": {"w": 4.0, "n": 2, "z": [511.1, 511.45]}, "geometry": {"type": "LineString", "coordinates": [[692787.52, 5334744.43], [692794.05, 5334743.12], [692794.49, 5334745.29], [692789.46, 5334746.3], [692787.93, 5334746.6]]}}, {"type": "Feature", "properties": {"w": 2.5, "n": 9, "z": [510.32, 511.84]}, "geometry": {"type": "LineString", "coordinates": [[692209.55, 5334690.62], [692213.18, 5334689.56]]}}, {"type": "Feature", "properties": {"w": 2.5, "n": 3, "z": [511.4, 511.87]}, "geometry": {"type": "LineString", "coordinates": [[692208.71, 5334689.0], [692212.55, 5334687.9]]}}, {"type": "Feature", "properties": {"w": 2.5, "n": 22, "z": [510.01, 512.18]}, "geometry": {"type": "LineString", "coordinates": [[692248.28, 5334664.83], [692246.51, 5334657.94]]}}, {"type": "Feature", "properties": {"w": 2.5, "n": 4, "z": [525.36, 525.9]}, "geometry": {"type": "LineString", "coordinates": [[693998.33, 5335450.26], [693990.55, 5335450.79]]}}, {"type": "Feature", "properties": {"w": 2.5, "n": 50, "z": [502.22, 510.18]}, "geometry": {"type": "LineString", "coordinates": [[692984.37, 5335159.64], [692983.86, 5335158.35], [692983.73, 5335158.41], [692978.93, 5335160.6]]}}, {"type": "Feature", "properties": {"w": 2.5, "n": 4, "z": [531.02, 531.39]}, "geometry": {"type": "LineString", "coordinates": [[693734.08, 5334223.16], [693733.85, 5334226.52]]}}, {"type": "Feature", "properties": {"w": 2.5, "n": 3, "z": [524.2, 524.61]}, "geometry": {"type": "LineString", "coordinates": [[693536.03, 5334832.43], [693538.53, 5334831.42]]}}, {"type": "Feature", "properties": {"w": 2.5, "n": 2, "z": [526.48, 526.86]}, "geometry": {"type": "LineString", "coordinates": [[693278.82, 5334448.86], [693280.8, 5334448.32]]}}, {"type": "Feature", "properties": {"w": 2.5, "n": 4, "z": [526.09, 526.69]}, "geometry": {"type": "LineString", "coordinates": [[693696.01, 5334536.21], [693695.78, 5334534.52]]}}, {"type": "Feature", "properties": {"w": 2.5, "n": 4, "z": [526.02, 526.72]}, "geometry": {"type": "LineString", "coordinates": [[693692.54, 5334532.68], [693694.27, 5334532.43]]}}, {"type": "Feature", "properties": {"w": 2.5, "n": 4, "z": [512.95, 513.51]}, "geometry": {"type": "LineString", "coordinates": [[693134.09, 5335307.49], [693133.18, 5335304.06]]}}, {"type": "Feature", "properties": {"w": 2.5, "n": 4, "z": [512.87, 513.57]}, "geometry": {"type": "LineString", "coordinates": [[693123.18, 5335266.05], [693123.98, 5335269.08]]}}, {"type": "Feature", "properties": {"w": 2.5, "n": 5, "z": [513.12, 513.97]}, "geometry": {"type": "LineString", "coordinates": [[693163.52, 5335300.4], [693162.24, 5335295.53]]}}, {"type": "Feature", "properties": {"w": 2.5, "n": 3, "z": [512.85, 513.25]}, "geometry": {"type": "LineString", "coordinates": [[693151.13, 5335253.25], [693152.38, 5335258.02]]}}, {"type": "Feature", "properties": {"w": 2.5, "n": 3, "z": [511.16, 511.72]}, "geometry": {"type": "LineString", "coordinates": [[692598.19, 5335019.41], [692596.12, 5335019.99]]}}, {"type": "Feature", "properties": {"w": 2.5, "n": 2, "z": [511.35, 511.72]}, "geometry": {"type": "LineString", "coordinates": [[692421.72, 5335124.31], [692423.59, 5335124.72]]}}, {"type": "Feature", "properties": {"w": 2.5, "n": 5, "z": [513.07, 513.93]}, "geometry": {"type": "LineString", "coordinates": [[692043.4, 5334865.26], [692051.46, 5334865.22]]}}, {"type": "Feature", "properties": {"w": 2.5, "n": 11, "z": [511.21, 512.95]}, "geometry": {"type": "LineString", "coordinates": [[692035.08, 5334865.11], [692026.84, 5334865.12]]}}, {"type": "Feature", "properties": {"w": 2.5, "n": 17, "z": [510.77, 512.51]}, "geometry": {"type": "LineString", "coordinates": [[692083.14, 5335447.92], [692081.72, 5335443.61]]}}, {"type": "Feature", "properties": {"w": 2.5, "n": 25, "z": [518.56, 522.18]}, "geometry": {"type": "LineString", "coordinates": [[693166.9, 5335256.99], [693170.15, 5335268.44]]}}, {"type": "Feature", "properties": {"w": 2.5, "n": 5, "z": [514.03, 514.99]}, "geometry": {"type": "LineString", "coordinates": [[693158.05, 5335279.9], [693166.91, 5335277.32]]}}, {"type": "Feature", "properties": {"w": 2.5, "n": 23, "z": [514.99, 518.57]}, "geometry": {"type": "LineString", "coordinates": [[693169.13, 5335284.96], [693173.21, 5335293.8]]}}, {"type": "Feature", "properties": {"w": 2.5, "n": 10, "z": [524.15, 525.57]}, "geometry": {"type": "LineString", "coordinates": [[693356.85, 5334938.76], [693375.02, 5334931.73]]}}, {"type": "Feature", "properties": {"w": 2.5, "n": 8, "z": [524.23, 525.56]}, "geometry": {"type": "LineString", "coordinates": [[693423.35, 5335010.29], [693422.61, 5335007.63]]}}, {"type": "Feature", "properties": {"w": 2.5, "n": 11, "z": [511.17, 513.22]}, "geometry": {"type": "LineString", "coordinates": [[692154.9, 5335149.02], [692150.49, 5335134.36]]}}, {"type": "Feature", "properties": {"w": 2.5, "n": 4, "z": [511.59, 512.2]}, "geometry": {"type": "LineString", "coordinates": [[692117.02, 5335180.34], [692111.75, 5335181.59]]}}, {"type": "Feature", "properties": {"w": 2.5, "n": 5, "z": [527.04, 527.87]}, "geometry": {"type": "LineString", "coordinates": [[693072.77, 5334496.71], [693073.5, 5334495.01]]}}, {"type": "Feature", "properties": {"w": 2.5, "n": 10, "z": [511.47, 513.03]}, "geometry": {"type": "LineString", "coordinates": [[692488.35, 5335161.09], [692484.69, 5335160.22]]}}, {"type": "Feature", "properties": {"w": 2.5, "n": 8, "z": [511.77, 513.08]}, "geometry": {"type": "LineString", "coordinates": [[692448.81, 5335159.64], [692444.95, 5335158.45]]}}, {"type": "Feature", "properties": {"w": 2.5, "n": 5, "z": [510.38, 511.13]}, "geometry": {"type": "LineString", "coordinates": [[692691.91, 5335475.79], [692684.06, 5335478.01]]}}, {"type": "Feature", "properties": {"w": 2.5, "n": 25, "z": [518.6, 522.15]}, "geometry": {"type": "LineString", "coordinates": [[693177.03, 5335292.64], [693174.52, 5335283.82]]}}, {"type": "Feature", "properties": {"w": 2.5, "n": 10, "z": [514.99, 516.64]}, "geometry": {"type": "LineString", "coordinates": [[693165.1, 5335269.94], [693162.94, 5335258.39]]}}, {"type": "Feature", "properties": {"w": 2.5, "n": 64, "z": [501.9, 512.12]}, "geometry": {"type": "LineString", "coordinates": [[693016.39, 5335291.41], [693008.68, 5335293.56]]}}, {"type": "Feature", "properties": {"w": 2.5, "n": 4, "z": [510.39, 511.18]}, "geometry": {"type": "LineString", "coordinates": [[692233.13, 5335577.59], [692230.49, 5335577.86]]}}, {"type": "Feature", "properties": {"w": 2.5, "n": 4, "z": [521.6, 522.35]}, "geometry": {"type": "LineString", "coordinates": [[693399.25, 5335399.52], [693392.84, 5335400.61]]}}, {"type": "Feature", "properties": {"w": 2.5, "n": 59, "z": [506.59, 516.07]}, "geometry": {"type": "LineString", "coordinates": [[692811.24, 5334774.07], [692794.32, 5334777.96]]}}, {"type": "Feature", "properties": {"w": 2.5, "n": 25, "z": [506.42, 510.42]}, "geometry": {"type": "LineString", "coordinates": [[692804.48, 5334750.28], [692800.7, 5334751.27]]}}, {"type": "Feature", "properties": {"w": 2.5, "n": 49, "z": [508.41, 516.23]}, "geometry": {"type": "LineString", "coordinates": [[692799.12, 5334746.26], [692788.43, 5334748.87]]}}, {"type": "Feature", "properties": {"w": 2.5, "n": 24, "z": [506.5, 510.37]}, "geometry": {"type": "LineString", "coordinates": [[692695.57, 5334576.2], [692690.25, 5334582.05]]}}]}