{"type": "FeatureCollection", "attribution": "\u00a9 OpenStreetMap contributors (ODbL)", "crs": {"type": "name", "properties": {"name": "urn:ogc:def:crs:EPSG::25832"}}, "features": [{"type": "Feature", "properties": {"w": 2.5, "n": 4, "z": [514.91, 515.52]}, "geometry": {"type": "LineString", "coordinates": [[691892.46, 5335317.58], [691893.08, 5335319.06], [691896.18, 5335331.55]]}}, {"type": "Feature", "properties": {"w": 2.0, "n": 2, "z": [520.46, 520.8]}, "geometry": {"type": "LineString", "coordinates": [[690811.47, 5334942.24], [690798.57, 5334943.36]]}}, {"type": "Feature", "properties": {"w": 2.5, "n": 14, "z": [514.85, 516.29]}, "geometry": {"type": "LineString", "coordinates": [[691697.28, 5334685.61], [691695.26, 5334683.14]]}}, {"type": "Feature", "properties": {"w": 2.5, "n": 2, "z": [519.11, 519.48]}, "geometry": {"type": "LineString", "coordinates": [[690508.27, 5335183.83], [690506.62, 5335172.96]]}}, {"type": "Feature", "properties": {"w": 2.5, "n": 6, "z": [520.15, 520.7]}, "geometry": {"type": "LineString", "coordinates": [[690375.36, 5335145.98], [690375.12, 5335142.41]]}}, {"type": "Feature", "properties": {"w": 2.5, "n": 10, "z": [514.2, 515.8]}, "geometry": {"type": "LineString", "coordinates": [[691903.43, 5335900.51], [691905.07, 5335906.48]]}}, {"type": "Feature", "properties": {"w": 2.5, "n": 10, "z": [514.1, 515.76]}, "geometry": {"type": "LineString", "coordinates": [[691911.14, 5335929.38], [691909.59, 5335923.35]]}}, {"type": "Feature", "properties": {"w": 2.5, "n": 3, "z": [518.39, 518.83]}, "geometry": {"type": "LineString", "coordinates": [[690074.68, 5335902.12], [690063.84, 5335904.12]]}}, {"type": "Feature", "properties": {"w": 2.5, "n": 10, "z": [515.43, 516.33]}, "geometry": {"type": "LineString", "coordinates": [[691160.71, 5335999.51], [691157.64, 5335991.81]]}}, {"type": "Feature", "properties": {"w": 2.5, "n": 14, "z": [517.09, 518.89]}, "geometry": {"type": "LineString", "coordinates": [[690124.14, 5334989.19], [690123.82, 5334993.53]]}}, {"type": "Feature", "properties": {"w": 2.5, "n": 3, "z": [515.18, 515.55]}, "geometry": {"type": "LineString", "coordinates": [[691026.56, 5335908.46], [691028.58, 5335907.71]]}}, {"type": "Feature", "properties": {"w": 2.5, "n": 3, "z": [515.49, 515.83]}, "geometry": {"type": "LineString", "coordinates": [[691112.18, 5335869.41], [691114.25, 5335874.79]]}}, {"type": "Feature", "properties": {"w": 30.0, "n": 22, "z": [516.29, 519.61]}, "geometry": {"type": "LineString", "coordinates": [[690795.98, 5335638.06], [690793.71, 5335632.31]]}}, {"type": "Feature", "properties": {"w": 2.5, "n": 3, "z": [515.26, 515.6]}, "geometry": {"type": "LineString", "coordinates": [[691034.59, 5335898.35], [691035.31, 5335900.38]]}}, {"type": "Feature", "properties": {"w": 2.5, "n": 14, "z": [516.03, 517.62]}, "geometry": {"type": "LineString", "coordinates": [[691224.82, 5335948.49], [691221.71, 5335949.58]]}}, {"type": "Feature", "properties": {"w": 2.5, "n": 36, "z": [516.12, 521.7]}, "geometry": {"type": "LineString", "coordinates": [[690296.2, 5335966.28], [690285.9, 5335964.08]]}}, {"type": "Feature", "properties": {"w": 2.5, "n": 3, "z": [519.44, 520.0]}, "geometry": {"type": "LineString", "coordinates": [[690277.66, 5334521.0], [690277.86, 5334516.62]]}}, {"type": "Feature", "properties": {"w": 2.5, "n": 10, "z": [517.68, 519.06]}, "geometry": {"type": "LineString", "coordinates": [[691243.14, 5335262.25], [691239.88, 5335260.64]]}}, {"type": "Feature", "properties": {"w": 2.5, "n": 10, "z": [517.68, 519.13]}, "geometry": {"type": "LineString", "coordinates": [[691280.35, 5335280.83], [691284.09, 5335282.76]]}}, {"type": "Feature", "properties": {"w": 2.5, "n": 3, "z": [518.31, 518.83]}, "geometry": {"type": "LineString", "coordinates": [[690075.14, 5335904.57], [690064.3, 5335906.57]]}}, {"type": "Feature", "properties": {"w": 2.5, "n": 3, "z": [516.27, 516.58]}, "geometry": {"type": "LineString", "coordinates": [[691492.08, 5334628.96], [691493.4, 5334628.83]]}}, {"type": "Feature", "properties": {"w": 2.5, "n": 8, "z": [516.7, 517.37]}, "geometry": {"type": "LineString", "coordinates": [[691477.5, 5334640.99], [691478.69, 5334643.97]]}}, {"type": "Feature", "properties": {"w": 2.5, "n": 6, "z": [516.75, 517.64]}, "geometry": {"type": "LineString", "coordinates": [[690064.58, 5335949.78], [690068.76, 5335948.73]]}}, {"type": "Feature", "properties": {"w": 2.5, "n": 5, "z": [517.65, 518.45]}, "geometry": {"type": "LineString", "coordinates": [[690082.09, 5335945.84], [690085.51, 5335945.06]]}}, {"type": "Feature", "properties": {"w": 2.5, "n": 3, "z": [519.41, 519.89]}, "geometry": {"type": "LineString", "coordinates": [[690894.01, 5334988.65], [690904.2, 5334980.51]]}}, {"type": "Feature", "properties": {"w": 2.5, "n": 3, "z": [519.41, 519.88]}, "geometry": {"type": "LineString", "coordinates": [[690895.09, 5334989.98], [690905.21, 5334981.78]]}}, {"type": "Feature", "properties": {"w": 5.74, "n": 3, "z": [520.43, 520.83]}, "geometry": {"type": "LineString", "coordinates": [[690811.51, 5334942.25], [690798.51, 5334943.36]]}}, {"type": "Feature", "properties": {"w": 5.74, "n": 2, "z": [520.46, 520.77]}, "geometry": {"type": "LineString", "coordinates": [[690811.49, 5334942.28], [690798.71, 5334943.32]]}}, {"type": "Feature", "properties": {"w": 2.5, "n": 3, "z": [520.14, 520.62]}, "geometry": {"type": "LineString", "coordinates": [[690809.92, 5335005.12], [690820.0, 5335000.05]]}}, {"type": "Feature", "properties": {"w": 2.5, "n": 3, "z": [520.09, 520.65]}, "geometry": {"type": "LineString", "coordinates": [[690809.05, 5335003.11], [690819.14, 5334998.18]]}}, {"type": "Feature", "properties": {"w": 5.52, "n": 2, "z": [519.86, 520.24]}, "geometry": {"type": "LineString", "coordinates": [[690852.79, 5335053.55], [690844.35, 5335043.51]]}}, {"type": "Feature", "properties": {"w": 2.5, "n": 2, "z": [519.1, 519.42]}, "geometry": {"type": "LineString", "coordinates": [[690510.76, 5335183.44], [690509.06, 5335172.56]]}}, {"type": "Feature", "properties": {"w": 2.5, "n": 2, "z": [519.11, 519.49]}, "geometry": {"type": "LineString", "coordinates": [[690506.05, 5335184.21], [690504.35, 5335173.32]]}}, {"type": "Feature", "properties": {"w": 4.75, "n": 2, "z": [519.26, 519.62]}, "geometry": {"type": "LineString", "coordinates": [[690553.73, 5335039.89], [690543.51, 5335043.58]]}}, {"type": "Feature", "properties": {"w": 4.75, "n": 3, "z": [519.25, 519.67]}, "geometry": {"type": "LineString", "coordinates": [[690553.72, 5335039.89], [690543.5, 5335043.58]]}}, {"type": "Feature", "properties": {"w": 2.5, "n": 3, "z": [517.47, 517.96]}, "geometry": {"type": "LineString", "coordinates": [[690098.97, 5335432.57], [690097.54, 5335433.83]]}}, {"type": "Feature", "properties": {"w": 2.5, "n": 3, "z": [519.04, 519.47]}, "geometry": {"type": "LineString", "coordinates": [[690077.06, 5334943.88], [690077.56, 5334937.16]]}}, {"type": "Feature", "properties": {"w": 2.5, "n": 9, "z": [514.35, 515.63]}, "geometry": {"type": "LineString", "coordinates": [[691444.67, 5334421.52], [691443.0, 5334417.84]]}}, {"type": "Feature", "properties": {"w": 2.5, "n": 3, "z": [517.73, 518.22]}, "geometry": {"type": "LineString", "coordinates": [[691058.3, 5335106.36], [691050.62, 5335114.31]]}}, {"type": "Feature", "properties": {"w": 2.5, "n": 2, "z": [517.87, 518.23]}, "geometry": {"type": "LineString", "coordinates": [[691060.28, 5335108.26], [691052.65, 5335116.14]]}}, {"type": "Feature", "properties": {"w": 2.5, "n": 2, "z": [515.15, 515.5]}, "geometry": {"type": "LineString", "coordinates": [[690953.9, 5335985.03], [690955.3, 5335984.47]]}}, {"type": "Feature", "properties": {"w": 2.5, "n": 6, "z": [517.55, 518.14]}, "geometry": {"type": "LineString", "coordinates": [[690815.0, 5335163.35], [690814.02, 5335160.93]]}}, {"type": "Feature", "properties": {"w": 5.99, "n": 3, "z": [519.16, 519.66]}, "geometry": {"type": "LineString", "coordinates": [[691003.51, 5334373.2], [690991.67, 5334368.11]]}}, {"type": "Feature", "properties": {"w": 5.99, "n": 3, "z": [519.17, 519.64]}, "geometry": {"type": "LineString", "coordinates": [[691003.61, 5334373.3], [690991.73, 5334368.04]]}}, {"type": "Feature", "properties": {"w": 2.5, "n": 2, "z": [518.36, 518.68]}, "geometry": {"type": "LineString", "coordinates": [[690164.04, 5335985.38], [690161.9, 5335985.68]]}}, {"type": "Feature", "properties": {"w": 2.5, "n": 6, "z": [517.55, 518.43]}, "geometry": {"type": "LineString", "coordinates": [[690163.48, 5335956.79], [690161.23, 5335957.02]]}}, {"type": "Feature", "properties": {"w": 2.5, "n": 2, "z": [519.85, 520.23]}, "geometry": {"type": "LineString", "coordinates": [[690852.7, 5335053.51], [690844.39, 5335043.57]]}}, {"type": "Feature", "properties": {"w": 2.5, "n": 5, "z": [520.1, 520.95]}, "geometry": {"type": "LineString", "coordinates": [[690566.18, 5334280.39], [690565.65, 5334282.64]]}}, {"type": "Feature", "properties": {"w": 2.5, "n": 4, "z": [517.07, 517.68]}, "geometry": {"type": "LineString", "coordinates": [[690855.67, 5335791.22], [690856.25, 5335792.72]]}}, {"type": "Feature", "properties": {"w": 2.5, "n": 9, "z": [516.07, 516.86]}, "geometry": {"type": "LineString", "coordinates": [[690835.07, 5335737.83], [690835.62, 5335739.22]]}}, {"type": "Feature", "properties": {"w": 2.5, "n": 8, "z": [520.46, 521.79]}, "geometry": {"type": "LineString", "coordinates": [[690249.61, 5335963.41], [690251.79, 5335963.05]]}}, {"type": "Feature", "properties": {"w": 2.5, "n": 2, "z": [518.84, 519.24]}, "geometry": {"type": "LineString", "coordinates": [[690046.99, 5335868.19], [690046.4, 5335866.78]]}}, {"type": "Feature", "properties": {"w": 2.5, "n": 10, "z": [515.9, 517.21]}, "geometry": {"type": "LineString", "coordinates": [[690967.79, 5335678.48], [690968.38, 5335680.38]]}}, {"type": "Feature", "properties": {"w": 2.5, "n": 8, "z": [516.04, 516.74]}, "geometry": {"type": "LineString", "coordinates": [[690955.87, 5335706.92], [690953.24, 5335708.01], [690950.33, 5335709.22]]}}, {"type": "Feature", "properties": {"w": 2.5, "n": 8, "z": [516.59, 517.85]}, "geometry": {"type": "LineString", "coordinates": [[690898.36, 5335501.86], [690899.89, 5335505.78]]}}, {"type": "Feature", "properties": {"w": 2.5, "n": 5, "z": [516.07, 516.78]}, "geometry": {"type": "LineString", "coordinates": [[690648.32, 5335776.09], [690650.28, 5335775.38]]}}, {"type": "Feature", "properties": {"w": 2.5, "n": 13, "z": [515.79, 517.69]}, "geometry": {"type": "LineString", "coordinates": [[691829.0, 5335046.42], [691834.67, 5335045.15]]}}, {"type": "Feature", "properties": {"w": 7.98, "n": 6, "z": [521.27, 522.17]}, "geometry": {"type": "LineString", "coordinates": [[690519.81, 5334002.37], [690515.85, 5334007.54]]}}, {"type": "Feature", "properties": {"w": 2.5, "n": 4, "z": [518.76, 519.38]}, "geometry": {"type": "LineString", "coordinates": [[690299.64, 5334047.66], [690299.68, 5334046.52]]}}, {"type": "Feature", "properties": {"w": 2.5, "n": 9, "z": [519.93, 521.3]}, "geometry": {"type": "LineString", "coordinates": [[690299.84, 5334041.47], [690299.96, 5334037.9]]}}, {"type": "Feature", "properties": {"w": 2.5, "n": 4, "z": [518.76, 519.4]}, "geometry": {"type": "LineString", "coordinates": [[690325.99, 5334049.14], [690327.64, 5334049.2]]}}, {"type": "Feature", "properties": {"w": 2.5, "n": 6, "z": [520.18, 521.18]}, "geometry": {"type": "LineString", "coordinates": [[690285.15, 5334055.77], [690285.39, 5334048.68]]}}, {"type": "Feature", "properties": {"w": 2.5, "n": 3, "z": [519.38, 519.93]}, "geometry": {"type": "LineString", "coordinates": [[690299.74, 5334044.71], [690299.78, 5334043.52]]}}, {"type": "Feature", "properties": {"w": 2.5, "n": 3, "z": [518.85, 519.29]}, "geometry": {"type": "LineString", "coordinates": [[690288.51, 5334053.06], [690288.48, 5334053.9]]}}, {"type": "Feature", "properties": {"w": 2.5, "n": 11, "z": [521.04, 522.28]}, "geometry": {"type": "LineString", "coordinates": [[690344.86, 5334065.52], [690341.39, 5334065.42]]}}, {"type": "Feature", "properties": {"w": 2.5, "n": 16, "z": [517.87, 520.48]}, "geometry": {"type": "LineString", "coordinates": [[690263.11, 5334079.8], [690263.21, 5334076.82], [690264.5, 5334076.86], [690264.41, 5334079.79]]}}, {"type": "Feature", "properties": {"w": 2.5, "n": 10, "z": [519.36, 521.03]}, "geometry": {"type": "LineString", "coordinates": [[690272.63, 5334070.03], [690269.22, 5334068.06]]}}, {"type": "Feature", "properties": {"w": 2.5, "n": 9, "z": [518.82, 519.55]}, "geometry": {"type": "LineString", "coordinates": [[690115.79, 5335877.11], [690113.18, 5335877.47]]}}, {"type": "Feature", "properties": {"w": 2.5, "n": 32, "z": [511.89, 515.31]}, "geometry": {"type": "LineString", "coordinates": [[691033.41, 5335852.11], [691042.43, 5335875.56]]}}, {"type": "Feature", "properties": {"w": 2.5, "n": 32, "z": [511.89, 515.23]}, "geometry": {"type": "LineString", "coordinates": [[691049.78, 5335845.76], [691058.83, 5335869.29]]}}, {"type": "Feature", "properties": {"w": 2.5, "n": 2, "z": [519.58, 519.91]}, "geometry": {"type": "LineString", "coordinates": [[690569.61, 5334366.99], [690569.38, 5334372.74]]}}, {"type": "Feature", "properties": {"w": 2.5, "n": 6, "z": [519.72, 520.5]}, "geometry": {"type": "LineString", "coordinates": [[690584.49, 5334370.82], [690584.44, 5334373.16]]}}, {"type": "Feature", "properties": {"w": 2.5, "n": 8, "z": [517.63, 518.93]}, "geometry": {"type": "LineString", "coordinates": [[690102.02, 5334952.85], [690102.69, 5334939.98]]}}, {"type": "Feature", "properties": {"w": 2.5, "n": 10, "z": [518.42, 519.47]}, "geometry": {"type": "LineString", "coordinates": [[690079.33, 5334946.97], [690079.88, 5334939.05]]}}, {"type": "Feature", "properties": {"w": 2.5, "n": 3, "z": [516.96, 517.48]}, "geometry": {"type": "LineString", "coordinates": [[690166.36, 5335921.61], [690165.29, 5335921.8]]}}, {"type": "Feature", "properties": {"w": 2.5, "n": 5, "z": [516.5, 517.37]}, "geometry": {"type": "LineString", "coordinates": [[691972.66, 5335514.01], [691976.57, 5335515.45]]}}, {"type": "Feature", "properties": {"w": 2.5, "n": 11, "z": [512.68, 514.38]}, "geometry": {"type": "LineString", "coordinates": [[691966.28, 5335825.26], [691965.23, 5335821.55]]}}, {"type": "Feature", "properties": {"w": 2.5, "n": 3, "z": [516.91, 517.39]}, "geometry": {"type": "LineString", "coordinates": [[690458.33, 5335470.35], [690457.35, 5335470.16]]}}, {"type": "Feature", "properties": {"w": 2.5, "n": 3, "z": [517.11, 517.46]}, "geometry": {"type": "LineString", "coordinates": [[690271.52, 5335447.3], [690272.82, 5335446.68]]}}, {"type": "Feature", "properties": {"w": 2.5, "n": 3, "z": [517.08, 517.42]}, "geometry": {"type": "LineString", "coordinates": [[690260.08, 5335452.69], [690258.71, 5335453.35]]}}, {"type": "Feature", "properties": {"w": 2.5, "n": 10, "z": [514.01, 515.67]}, "geometry": {"type": "LineString", "coordinates": [[691573.63, 5335658.36], [691572.65, 5335654.39]]}}, {"type": "Feature", "properties": {"w": 2.5, "n": 3, "z": [518.39, 518.78]}, "geometry": {"type": "LineString", "coordinates": [[690953.55, 5334565.71], [690954.65, 5334566.11]]}}, {"type": "Feature", "properties": {"w": 2.5, "n": 3, "z": [519.4, 519.94]}, "geometry": {"type": "LineString", "coordinates": [[690702.46, 5334510.57], [690701.31, 5334510.41]]}}, {"type": "Feature", "properties": {"w": 2.5, "n": 3, "z": [520.11, 520.51]}, "geometry": {"type": "LineString", "coordinates": [[690699.09, 5334511.48], [690698.71, 5334513.73]]}}, {"type": "Feature", "properties": {"w": 2.5, "n": 4, "z": [519.78, 520.4]}, "geometry": {"type": "LineString", "coordinates": [[690696.52, 5334528.67], [690696.05, 5334532.14]]}}, {"type": "Feature", "properties": {"w": 2.5, "n": 6, "z": [519.39, 520.4]}, "geometry": {"type": "LineString", "coordinates": [[690698.61, 5334534.34], [690697.18, 5334534.16]]}}, {"type": "Feature", "properties": {"w": 5.99, "n": 3, "z": [519.16, 519.66]}, "geometry": {"type": "LineString", "coordinates": [[691003.43, 5334373.21], [690991.71, 5334368.05]]}}, {"type": "Feature", "properties": {"w": 5.99, "n": 3, "z": [519.17, 519.66]}, "geometry": {"type": "LineString", "coordinates": [[691003.56, 5334373.28], [690991.72, 5334368.04]]}}, {"type": "Feature", "properties": {"w": 2.5, "n": 3, "z": [516.47, 517.0]}, "geometry": {"type": "LineString", "coordinates": [[691143.25, 5334217.85], [691141.73, 5334217.33]]}}, {"type": "Feature", "properties": {"w": 2.5, "n": 2, "z": [518.03, 518.37]}, "geometry": {"type": "LineString", "coordinates": [[691044.79, 5334586.59], [691043.35, 5334581.6]]}}, {"type": "Feature", "properties": {"w": 2.5, "n": 5, "z": [514.39, 515.12]}, "geometry": {"type": "LineString", "coordinates": [[691575.39, 5334497.92], [691576.89, 5334496.75]]}}, {"type": "Feature", "properties": {"w": 2.5, "n": 11, "z": [514.44, 516.21]}, "geometry": {"type": "LineString", "coordinates": [[691901.82, 5335152.86], [691900.37, 5335146.8]]}}, {"type": "Feature", "properties": {"w": 2.5, "n": 2, "z": [515.02, 515.35]}, "geometry": {"type": "LineString", "coordinates": [[690667.75, 5335653.6], [690666.75, 5335650.91]]}}, {"type": "Feature", "properties": {"w": 2.5, "n": 10, "z": [515.24, 516.8]}, "geometry": {"type": "LineString", "coordinates": [[691971.06, 5335510.5], [691972.66, 5335514.01]]}}, {"type": "Feature", "properties": {"w": 2.5, "n": 5, "z": [517.54, 518.17]}, "geometry": {"type": "LineString", "coordinates": [[690850.74, 5335149.05], [690849.58, 5335145.95]]}}, {"type": "Feature", "properties": {"w": 2.5, "n": 5, "z": [517.6, 518.23]}, "geometry": {"type": "LineString", "coordinates": [[690869.81, 5335189.73], [690873.87, 5335188.21]]}}, {"type": "Feature", "properties": {"w": 2.5, "n": 5, "z": [517.54, 518.2]}, "geometry": {"type": "LineString", "coordinates": [[690854.15, 5335152.08], [690856.81, 5335150.96]]}}, {"type": "Feature", "properties": {"w": 2.5, "n": 5, "z": [517.54, 518.1]}, "geometry": {"type": "LineString", "coordinates": [[690777.57, 5335178.85], [690776.67, 5335176.75]]}}, {"type": "Feature", "properties": {"w": 2.5, "n": 5, "z": [517.55, 518.2]}, "geometry": {"type": "LineString", "coordinates": [[690777.08, 5335183.74], [690774.02, 5335185.0]]}}, {"type": "Feature", "properties": {"w": 2.5, "n": 11, "z": [515.77, 516.94]}, "geometry": {"type": "LineString", "coordinates": [[691001.91, 5335766.62], [690999.65, 5335761.29]]}}, {"type": "Feature", "properties": {"w": 2.5, "n": 26, "z": [511.87, 516.19]}, "geometry": {"type": "LineString", "coordinates": [[691025.25, 5335801.36], [691023.19, 5335796.2]]}}, {"type": "Feature", "properties": {"w": 2.5, "n": 15, "z": [518.27, 521.08]}, "geometry": {"type": "LineString", "coordinates": [[690231.63, 5335219.42], [690231.48, 5335214.98]]}}, {"type": "Feature", "properties": {"w": 3.0, "n": 2, "z": [515.17, 515.53]}, "geometry": {"type": "LineString", "coordinates": [[691820.78, 5335344.15], [691821.63, 5335347.07]]}}, {"type": "Feature", "properties": {"w": 2.5, "n": 5, "z": [519.96, 520.72]}, "geometry": {"type": "LineString", "coordinates": [[690536.67, 5335004.74], [690538.56, 5335004.57]]}}, {"type": "Feature", "properties": {"w": 2.5, "n": 22, "z": [517.99, 521.54]}, "geometry": {"type": "LineString", "coordinates": [[690124.53, 5334995.55], [690124.88, 5335000.79]]}}, {"type": "Feature", "properties": {"w": 2.5, "n": 16, "z": [515.51, 517.53]}, "geometry": {"type": "LineString", "coordinates": [[691725.58, 5335271.46], [691724.05, 5335265.87]]}}, {"type": "Feature", "properties": {"w": 2.5, "n": 8, "z": [519.4, 520.66]}, "geometry": {"type": "LineString", "coordinates": [[690315.78, 5335194.13], [690315.68, 5335192.0]]}}, {"type": "Feature", "properties": {"w": 2.5, "n": 6, "z": [517.66, 518.54]}, "geometry": {"type": "LineString", "coordinates": [[690072.15, 5335937.82], [690070.52, 5335932.02]]}}, {"type": "Feature", "properties": {"w": 2.5, "n": 6, "z": [516.46, 517.34]}, "geometry": {"type": "LineString", "coordinates": [[691045.68, 5335632.63], [691043.92, 5335628.37]]}}, {"type": "Feature", "properties": {"w": 2.5, "n": 2, "z": [515.29, 515.64]}, "geometry": {"type": "LineString", "coordinates": [[691744.19, 5335115.75], [691751.55, 5335113.74]]}}, {"type": "Feature", "properties": {"w": 12.0, "n": 9, "z": [516.0, 517.26]}, "geometry": {"type": "LineString", "coordinates": [[691635.29, 5335488.47], [691635.92, 5335490.82]]}}, {"type": "Feature", "properties": {"w": 2.5, "n": 8, "z": [515.96, 517.25]}, "geometry": {"type": "LineString", "coordinates": [[690672.18, 5335858.14], [690674.57, 5335864.74]]}}]}