{"type": "FeatureCollection", "attribution": "\u00a9 OpenStreetMap contributors (ODbL)", "crs": {"type": "name", "properties": {"name": "urn:ogc:def:crs:EPSG::25832"}}, "features": [{"type": "Feature", "properties": {"w": 1.2, "n": 19, "z": [527.23, 530.21]}, "geometry": {"type": "LineString", "coordinates": [[693669.34, 5333781.53], [693665.09, 5333787.76]]}}, {"type": "Feature", "properties": {"w": 2.5, "n": 41, "z": [512.8, 521.13]}, "geometry": {"type": "LineString", "coordinates": [[692572.37, 5333982.5], [692586.77, 5333977.91], [692593.1, 5333975.42]]}}, {"type": "Feature", "properties": {"w": 2.5, "n": 6, "z": [532.11, 532.61]}, "geometry": {"type": "LineString", "coordinates": [[693533.37, 5333354.65], [693534.68, 5333349.27]]}}, {"type": "Feature", "properties": {"w": 2.5, "n": 24, "z": [528.11, 531.45]}, "geometry": {"type": "LineString", "coordinates": [[692298.34, 5333209.27], [692291.44, 5333197.33]]}}, {"type": "Feature", "properties": {"w": 2.5, "n": 17, "z": [517.62, 519.9]}, "geometry": {"type": "LineString", "coordinates": [[692538.11, 5333788.69], [692541.26, 5333788.56]]}}, {"type": "Feature", "properties": {"w": 2.5, "n": 9, "z": [516.18, 517.57]}, "geometry": {"type": "LineString", "coordinates": [[692532.32, 5333788.81], [692535.66, 5333788.76]]}}, {"type": "Feature", "properties": {"w": 2.5, "n": 7, "z": [532.65, 533.42]}, "geometry": {"type": "LineString", "coordinates": [[693213.61, 5332328.57], [693215.4, 5332325.93]]}}, {"type": "Feature", "properties": {"w": 2.5, "n": 3, "z": [534.67, 535.25]}, "geometry": {"type": "LineString", "coordinates": [[693264.92, 5332322.29], [693265.02, 5332319.21]]}}, {"type": "Feature", "properties": {"w": 2.5, "n": 21, "z": [514.89, 517.48]}, "geometry": {"type": "LineString", "coordinates": [[692142.05, 5333166.33], [692144.45, 5333166.72], [692144.07, 5333168.99], [692137.66, 5333168.31], [692137.28, 5333169.84], [692147.41, 5333173.55]]}}, {"type": "Feature", "properties": {"w": 2.5, "n": 20, "z": [529.66, 532.93]}, "geometry": {"type": "LineString", "coordinates": [[692108.86, 5332919.53], [692102.96, 5332910.25]]}}, {"type": "Feature", "properties": {"w": 2.5, "n": 39, "z": [525.95, 532.18]}, "geometry": {"type": "LineString", "coordinates": [[692106.08, 5333017.43], [692108.51, 5333024.25], [692104.8, 5333026.37], [692101.39, 5333019.28], [692096.15, 5333020.92], [692078.29, 5333014.25]]}}, {"type": "Feature", "properties": {"w": 2.5, "n": 9, "z": [526.8, 528.56]}, "geometry": {"type": "LineString", "coordinates": [[692440.26, 5333557.96], [692441.87, 5333566.43], [692446.41, 5333570.6]]}}, {"type": "Feature", "properties": {"w": 2.5, "n": 19, "z": [513.16, 516.11]}, "geometry": {"type": "LineString", "coordinates": [[692060.62, 5333760.26], [692058.93, 5333749.34]]}}, {"type": "Feature", "properties": {"w": 2.5, "n": 8, "z": [523.31, 524.82]}, "geometry": {"type": "LineString", "coordinates": [[692138.54, 5333038.29], [692137.54, 5333034.98]]}}, {"type": "Feature", "properties": {"w": 2.5, "n": 8, "z": [533.59, 534.84]}, "geometry": {"type": "LineString", "coordinates": [[693183.79, 5332748.22], [693185.28, 5332760.0]]}}, {"type": "Feature", "properties": {"w": 2.5, "n": 23, "z": [515.49, 518.05]}, "geometry": {"type": "LineString", "coordinates": [[692177.46, 5333171.19], [692172.61, 5333170.07]]}}, {"type": "Feature", "properties": {"w": 2.5, "n": 17, "z": [527.65, 530.26]}, "geometry": {"type": "LineString", "coordinates": [[693350.12, 5333161.12], [693346.69, 5333159.64]]}}, {"type": "Feature", "properties": {"w": 2.5, "n": 10, "z": [530.37, 532.04]}, "geometry": {"type": "LineString", "coordinates": [[692155.01, 5332962.89], [692159.74, 5332960.52]]}}, {"type": "Feature", "properties": {"w": 2.5, "n": 7, "z": [534.75, 535.64]}, "geometry": {"type": "LineString", "coordinates": [[693286.31, 5332049.54], [693288.75, 5332041.62]]}}, {"type": "Feature", "properties": {"w": 2.5, "n": 17, "z": [528.65, 531.44]}, "geometry": {"type": "LineString", "coordinates": [[693482.85, 5332781.32], [693480.35, 5332787.44]]}}, {"type": "Feature", "properties": {"w": 2.5, "n": 74, "z": [520.34, 531.92]}, "geometry": {"type": "LineString", "coordinates": [[692167.39, 5333112.65], [692172.29, 5333109.73], [692163.18, 5333093.94], [692169.18, 5333090.51]]}}, {"type": "Feature", "properties": {"w": 2.5, "n": 62, "z": [519.92, 529.85]}, "geometry": {"type": "LineString", "coordinates": [[692440.65, 5333522.06], [692444.66, 5333537.99], [692446.81, 5333538.0]]}}, {"type": "Feature", "properties": {"w": 2.5, "n": 23, "z": [530.72, 533.91]}, "geometry": {"type": "LineString", "coordinates": [[693456.24, 5333224.25], [693468.06, 5333225.39]]}}, {"type": "Feature", "properties": {"w": 2.5, "n": 18, "z": [513.05, 516.26]}, "geometry": {"type": "LineString", "coordinates": [[692379.11, 5333548.68], [692386.75, 5333550.03], [692393.06, 5333547.98]]}}, {"type": "Feature", "properties": {"w": 2.5, "n": 23, "z": [518.03, 522.17]}, "geometry": {"type": "LineString", "coordinates": [[692413.63, 5333529.14], [692416.92, 5333534.32], [692417.58, 5333541.27], [692424.16, 5333540.86]]}}, {"type": "Feature", "properties": {"w": 2.5, "n": 20, "z": [518.68, 521.6]}, "geometry": {"type": "LineString", "coordinates": [[692429.72, 5333521.16], [692430.13, 5333522.86], [692434.47, 5333521.91], [692435.75, 5333527.0]]}}, {"type": "Feature", "properties": {"w": 2.5, "n": 14, "z": [532.9, 535.16]}, "geometry": {"type": "LineString", "coordinates": [[693242.84, 5332326.27], [693242.91, 5332324.08]]}}, {"type": "Feature", "properties": {"w": 2.5, "n": 2, "z": [532.37, 532.75]}, "geometry": {"type": "LineString", "coordinates": [[693193.03, 5332324.79], [693193.11, 5332322.81]]}}, {"type": "Feature", "properties": {"w": 2.5, "n": 7, "z": [533.42, 535.16]}, "geometry": {"type": "LineString", "coordinates": [[693216.08, 5332324.92], [693218.05, 5332322.02]]}}, {"type": "Feature", "properties": {"w": 2.5, "n": 2, "z": [533.17, 533.55]}, "geometry": {"type": "LineString", "coordinates": [[693284.69, 5332332.69], [693284.88, 5332331.03]]}}, {"type": "Feature", "properties": {"w": 2.5, "n": 69, "z": [524.71, 530.9]}, "geometry": {"type": "LineString", "coordinates": [[692341.3, 5333249.42], [692347.86, 5333251.95], [692345.86, 5333243.67], [692352.68, 5333248.18]]}}, {"type": "Feature", "properties": {"w": 2.5, "n": 11, "z": [515.51, 516.74]}, "geometry": {"type": "LineString", "coordinates": [[692289.98, 5333240.05], [692293.64, 5333236.08]]}}, {"type": "Feature", "properties": {"w": 30.0, "n": 3, "z": [532.99, 533.47]}, "geometry": {"type": "LineString", "coordinates": [[693317.27, 5332369.98], [693317.23, 5332367.91]]}}, {"type": "Feature", "properties": {"w": 2.5, "n": 13, "z": [528.74, 530.66]}, "geometry": {"type": "LineString", "coordinates": [[693385.45, 5333140.67], [693393.59, 5333140.95]]}}, {"type": "Feature", "properties": {"w": 2.5, "n": 49, "z": [521.41, 529.25]}, "geometry": {"type": "LineString", "coordinates": [[692459.05, 5333518.73], [692459.91, 5333522.94]]}}, {"type": "Feature", "properties": {"w": 2.5, "n": 17, "z": [523.44, 525.93]}, "geometry": {"type": "LineString", "coordinates": [[692462.22, 5333518.21], [692462.53, 5333519.63], [692465.94, 5333518.97]]}}, {"type": "Feature", "properties": {"w": 2.5, "n": 8, "z": [521.89, 522.93]}, "geometry": {"type": "LineString", "coordinates": [[692463.79, 5333516.38], [692465.53, 5333516.06]]}}, {"type": "Feature", "properties": {"w": 2.5, "n": 5, "z": [514.52, 515.09]}, "geometry": {"type": "LineString", "coordinates": [[692152.71, 5333255.3], [692151.29, 5333257.62]]}}, {"type": "Feature", "properties": {"w": 2.5, "n": 4, "z": [514.73, 515.2]}, "geometry": {"type": "LineString", "coordinates": [[692177.45, 5333339.78], [692175.45, 5333338.88]]}}, {"type": "Feature", "properties": {"w": 2.5, "n": 4, "z": [532.1, 532.63]}, "geometry": {"type": "LineString", "coordinates": [[692176.77, 5333045.53], [692178.19, 5333044.73]]}}, {"type": "Feature", "properties": {"w": 2.5, "n": 33, "z": [514.16, 517.44]}, "geometry": {"type": "LineString", "coordinates": [[692172.94, 5333158.08], [692172.88, 5333150.79]]}}, {"type": "Feature", "properties": {"w": 2.5, "n": 4, "z": [531.39, 532.04]}, "geometry": {"type": "LineString", "coordinates": [[692801.63, 5332755.29], [692798.45, 5332754.05]]}}, {"type": "Feature", "properties": {"w": 2.5, "n": 10, "z": [530.77, 532.07]}, "geometry": {"type": "LineString", "coordinates": [[693117.31, 5332924.14], [693121.53, 5332925.8]]}}, {"type": "Feature", "properties": {"w": 2.5, "n": 2, "z": [530.21, 530.58]}, "geometry": {"type": "LineString", "coordinates": [[693140.43, 5332918.27], [693133.64, 5332915.59]]}}, {"type": "Feature", "properties": {"w": 2.5, "n": 3, "z": [529.62, 530.15]}, "geometry": {"type": "LineString", "coordinates": [[692792.21, 5332862.22], [692795.52, 5332863.55]]}}, {"type": "Feature", "properties": {"w": 2.5, "n": 4, "z": [530.88, 531.53]}, "geometry": {"type": "LineString", "coordinates": [[692768.28, 5332843.72], [692764.9, 5332842.53]]}}, {"type": "Feature", "properties": {"w": 2.5, "n": 4, "z": [530.25, 530.91]}, "geometry": {"type": "LineString", "coordinates": [[692777.74, 5332847.06], [692774.34, 5332845.88]]}}, {"type": "Feature", "properties": {"w": 2.5, "n": 3, "z": [529.61, 530.24]}, "geometry": {"type": "LineString", "coordinates": [[692787.77, 5332850.34], [692784.0, 5332849.22]]}}, {"type": "Feature", "properties": {"w": 2.5, "n": 3, "z": [529.6, 530.3]}, "geometry": {"type": "LineString", "coordinates": [[692782.05, 5332866.07], [692777.81, 5332864.44]]}}, {"type": "Feature", "properties": {"w": 2.5, "n": 4, "z": [530.26, 530.91]}, "geometry": {"type": "LineString", "coordinates": [[692771.92, 5332862.33], [692768.66, 5332861.16]]}}, {"type": "Feature", "properties": {"w": 2.5, "n": 4, "z": [530.89, 531.5]}, "geometry": {"type": "LineString", "coordinates": [[692763.12, 5332859.08], [692759.51, 5332857.73]]}}, {"type": "Feature", "properties": {"w": 2.5, "n": 4, "z": [530.11, 530.78]}, "geometry": {"type": "LineString", "coordinates": [[692820.66, 5332762.65], [692816.59, 5332761.1]]}}, {"type": "Feature", "properties": {"w": 2.5, "n": 4, "z": [530.75, 531.4]}, "geometry": {"type": "LineString", "coordinates": [[692810.66, 5332758.8], [692807.33, 5332757.51]]}}, {"type": "Feature", "properties": {"w": 2.5, "n": 4, "z": [531.39, 532.04]}, "geometry": {"type": "LineString", "coordinates": [[692807.72, 5332739.34], [692804.33, 5332738.13]]}}, {"type": "Feature", "properties": {"w": 2.5, "n": 4, "z": [530.75, 531.39]}, "geometry": {"type": "LineString", "coordinates": [[692816.53, 5332742.69], [692813.37, 5332741.37]]}}, {"type": "Feature", "properties": {"w": 2.5, "n": 4, "z": [530.12, 530.76]}, "geometry": {"type": "LineString", "coordinates": [[692826.06, 5332746.53], [692822.2, 5332745.05]]}}, {"type": "Feature", "properties": {"w": 2.5, "n": 3, "z": [530.12, 530.73]}, "geometry": {"type": "LineString", "coordinates": [[692831.9, 5332757.84], [692834.78, 5332758.98]]}}, {"type": "Feature", "properties": {"w": 2.5, "n": 6, "z": [532.62, 533.54]}, "geometry": {"type": "LineString", "coordinates": [[692747.07, 5332334.93], [692746.63, 5332332.21]]}}, {"type": "Feature", "properties": {"w": 17.61, "n": 3, "z": [532.84, 533.25]}, "geometry": {"type": "LineString", "coordinates": [[692661.7, 5332326.66], [692663.49, 5332326.51]]}}, {"type": "Feature", "properties": {"w": 2.5, "n": 4, "z": [532.67, 533.2]}, "geometry": {"type": "LineString", "coordinates": [[692698.76, 5332341.05], [692698.52, 5332339.29]]}}, {"type": "Feature", "properties": {"w": 2.5, "n": 17, "z": [530.61, 533.45]}, "geometry": {"type": "LineString", "coordinates": [[693422.67, 5333175.1], [693430.19, 5333175.34], [693430.39, 5333168.07]]}}, {"type": "Feature", "properties": {"w": 2.5, "n": 8, "z": [511.59, 513.52]}, "geometry": {"type": "LineString", "coordinates": [[692167.04, 5333765.61], [692167.31, 5333763.59], [692164.59, 5333763.26]]}}, {"type": "Feature", "properties": {"w": 2.5, "n": 4, "z": [531.96, 532.92]}, "geometry": {"type": "LineString", "coordinates": [[693947.13, 5333557.03], [693939.11, 5333548.38]]}}, {"type": "Feature", "properties": {"w": 2.5, "n": 5, "z": [530.5, 531.61]}, "geometry": {"type": "LineString", "coordinates": [[693533.33, 5333360.67], [693533.23, 5333357.94]]}}, {"type": "Feature", "properties": {"w": 2.5, "n": 6, "z": [529.5, 530.87]}, "geometry": {"type": "LineString", "coordinates": [[693535.69, 5333364.48], [693535.72, 5333360.78]]}}, {"type": "Feature", "properties": {"w": 2.5, "n": 6, "z": [528.43, 529.5]}, "geometry": {"type": "LineString", "coordinates": [[693535.53, 5333369.57], [693535.54, 5333366.93]]}}, {"type": "Feature", "properties": {"w": 2.5, "n": 2, "z": [530.77, 531.16]}, "geometry": {"type": "LineString", "coordinates": [[693512.47, 5333343.8], [693513.53, 5333343.85]]}}, {"type": "Feature", "properties": {"w": 2.5, "n": 6, "z": [533.14, 534.25]}, "geometry": {"type": "LineString", "coordinates": [[693192.93, 5332838.13], [693192.79, 5332836.95]]}}, {"type": "Feature", "properties": {"w": 2.5, "n": 19, "z": [513.3, 516.01]}, "geometry": {"type": "LineString", "coordinates": [[692017.69, 5333734.65], [692025.38, 5333724.29]]}}, {"type": "Feature", "properties": {"w": 2.5, "n": 10, "z": [527.41, 529.07]}, "geometry": {"type": "LineString", "coordinates": [[692695.06, 5333630.63], [692686.72, 5333635.47], [692682.77, 5333643.74]]}}, {"type": "Feature", "properties": {"w": 2.5, "n": 14, "z": [533.38, 535.16]}, "geometry": {"type": "LineString", "coordinates": [[693852.07, 5333296.03], [693855.95, 5333292.24]]}}, {"type": "Feature", "properties": {"w": 2.5, "n": 3, "z": [534.97, 535.4]}, "geometry": {"type": "LineString", "coordinates": [[693772.35, 5333242.54], [693774.17, 5333244.27]]}}, {"type": "Feature", "properties": {"w": 2.5, "n": 7, "z": [534.33, 535.12]}, "geometry": {"type": "LineString", "coordinates": [[693766.56, 5333253.07], [693771.88, 5333248.05]]}}, {"type": "Feature", "properties": {"w": 2.5, "n": 3, "z": [531.3, 531.76]}, "geometry": {"type": "LineString", "coordinates": [[693589.8, 5333640.02], [693591.2, 5333638.55]]}}, {"type": "Feature", "properties": {"w": 2.5, "n": 22, "z": [526.97, 530.45]}, "geometry": {"type": "LineString", "coordinates": [[693521.91, 5333448.36], [693524.32, 5333451.33], [693531.45, 5333446.18]]}}, {"type": "Feature", "properties": {"w": 2.5, "n": 6, "z": [531.67, 532.98]}, "geometry": {"type": "LineString", "coordinates": [[692183.34, 5332941.53], [692184.55, 5332943.49]]}}, {"type": "Feature", "properties": {"w": 2.5, "n": 29, "z": [514.25, 518.65]}, "geometry": {"type": "LineString", "coordinates": [[692147.31, 5333157.78], [692151.22, 5333140.39]]}}, {"type": "Feature", "properties": {"w": 2.5, "n": 6, "z": [515.05, 515.97]}, "geometry": {"type": "LineString", "coordinates": [[692118.21, 5333170.22], [692121.99, 5333162.95]]}}, {"type": "Feature", "properties": {"w": 2.5, "n": 15, "z": [519.63, 522.06]}, "geometry": {"type": "LineString", "coordinates": [[692119.47, 5333077.22], [692126.52, 5333075.48]]}}]}