{"type": "FeatureCollection", "attribution": "\u00a9 OpenStreetMap contributors (ODbL)", "crs": {"type": "name", "properties": {"name": "urn:ogc:def:crs:EPSG::25832"}}, "features": [{"type": "Feature", "properties": {"kind": "mast", "z": 512.53, "h": 19.4, "r": 2.5, "rt": 0.88}, "geometry": {"type": "Point", "coordinates": [692189.5, 5335709.5]}}, {"type": "Feature", "properties": {"kind": "mast", "z": 513.19, "h": 24.9, "r": 2.5, "rt": 0.88}, "geometry": {"type": "Point", "coordinates": [692086.5, 5335622.5]}}, {"type": "Feature", "properties": {"kind": "mast", "z": 513.02, "h": 24.9, "r": 2.5, "rt": 0.88}, "geometry": {"type": "Point", "coordinates": [692086.5, 5335622.5]}}, {"type": "Feature", "properties": {"kind": "mast", "z": 526.78, "h": 37.0, "r": 2.5, "rt": 0.88}, "geometry": {"type": "Point", "coordinates": [692700.5, 5334026.5]}}, {"type": "Feature", "properties": {"kind": "mast", "z": 525.4, "h": 23.0, "r": 2.5, "rt": 0.88}, "geometry": {"type": "Point", "coordinates": [693297.5, 5334597.5]}}, {"type": "Feature", "properties": {"kind": "mast", "z": 524.21, "h": 22.7, "r": 0.56, "rt": 0.2}, "geometry": {"type": "Point", "coordinates": [693313.5, 5334903.5]}}, {"type": "Feature", "properties": {"kind": "mast", "z": 520.23, "h": 26.5, "r": 2.5, "rt": 0.88}, "geometry": {"type": "Point", "coordinates": [693614.5, 5335549.5]}}, {"type": "Feature", "properties": {"kind": "mast", "z": 522.73, "h": 24.8, "r": 2.5, "rt": 0.88}, "geometry": {"type": "Point", "coordinates": [693444.5, 5335185.5]}}, {"type": "Feature", "properties": {"kind": "mast", "z": 514.07, "h": 24.5, "r": 2.5, "rt": 0.88}, "geometry": {"type": "Point", "coordinates": [692126.5, 5334405.5]}}, {"type": "Feature", "properties": {"kind": "mast", "z": 513.11, "h": 29.9, "r": 2.5, "rt": 0.88}, "geometry": {"type": "Point", "coordinates": [692244.5, 5334607.5]}}, {"type": "Feature", "properties": {"kind": "mast", "z": 513.46, "h": 29.9, "r": 2.5, "rt": 0.88}, "geometry": {"type": "Point", "coordinates": [692244.5, 5334607.5]}}, {"type": "Feature", "properties": {"kind": "chimney", "z": 528.98, "h": 18.5, "r": 4.79, "rt": 2.87}, "geometry": {"type": "Point", "coordinates": [693873.5, 5334524.5]}}, {"type": "Feature", "properties": {"kind": "tower", "z": 510.41, "h": 21.3, "r": 7.11, "rt": 6.4}, "geometry": {"type": "Point", "coordinates": [692701.5, 5335219.5]}}, {"type": "Feature", "properties": {"kind": "tower", "z": 530.1, "h": 33.4, "r": 2.24, "rt": 2.02}, "geometry": {"type": "Point", "coordinates": [693697.69, 5334090.02]}}, {"type": "Feature", "properties": {"kind": "building", "z": 531.12, "h": 18.6}, "geometry": {"type": "Polygon", "coordinates": [[[693998.49, 5334228.85], [694007.04, 5334244.29], [693995.44, 5334250.68], [693986.88, 5334235.24], [693998.49, 5334228.85]]]}}, {"type": "Feature", "properties": {"kind": "building", "z": 525.1, "h": 6.5}, "geometry": {"type": "Polygon", "coordinates": [[[693644.3, 5334596.68], [693645.25, 5334603.89], [693627.65, 5334606.53], [693626.55, 5334599.57], [693644.3, 5334596.68]]]}}, {"type": "Feature", "properties": {"kind": "building", "z": 525.84, "h": 4.8}, "geometry": {"type": "Polygon", "coordinates": [[[693755.16, 5334989.7], [693764.38, 5334988.59], [693764.99, 5334993.58], [693755.76, 5334994.69], [693755.16, 5334989.7]]]}}, {"type": "Feature", "properties": {"kind": "building", "z": 525.63, "h": 7.4}, "geometry": {"type": "Polygon", "coordinates": [[[693768.74, 5335196.24], [693768.93, 5335188.31], [693762.67, 5335188.16], [693763.21, 5335196.16], [693768.74, 5335196.24]]]}}, {"type": "Feature", "properties": {"kind": "building", "z": 510.77, "h": 24.4, "name": "Urzelle der H\u00f6llentalangerh\u00fctte"}, "geometry": {"type": "Polygon", "coordinates": [[[692665.0, 5334592.01], [692672.33, 5334587.98], [692668.56, 5334581.17], [692661.24, 5334585.21], [692665.0, 5334592.01]]]}}, {"type": "Feature", "properties": {"kind": "building", "z": 530.27, "h": 9.9}, "geometry": {"type": "Polygon", "coordinates": [[[693742.89, 5334151.02], [693746.2, 5334151.2], [693747.05, 5334135.74], [693743.74, 5334135.56], [693742.89, 5334151.02]]]}}, {"type": "Feature", "properties": {"kind": "building", "z": 524.39, "h": 8.3}, "geometry": {"type": "Polygon", "coordinates": [[[693090.63, 5334414.84], [693086.58, 5334423.9], [693080.42, 5334421.21], [693084.4, 5334412.07], [693090.63, 5334414.84]]]}}, {"type": "Feature", "properties": {"kind": "building", "z": 525.21, "h": 5.4}, "geometry": {"type": "Polygon", "coordinates": [[[693478.44, 5334441.17], [693474.13, 5334442.3], [693476.44, 5334451.04], [693480.75, 5334449.9], [693478.44, 5334441.17]]]}}, {"type": "Feature", "properties": {"kind": "building", "z": 512.61, "h": 3.9}, "geometry": {"type": "Polygon", "coordinates": [[[692185.54, 5335812.12], [692182.05, 5335797.18], [692150.25, 5335804.52], [692150.74, 5335808.06], [692172.59, 5335804.23], [692174.44, 5335814.7], [692185.54, 5335812.12]]]}}, {"type": "Feature", "properties": {"kind": "building", "z": 526.99, "h": 5.5}, "geometry": {"type": "Polygon", "coordinates": [[[693810.86, 5334971.61], [693822.79, 5334970.33], [693822.13, 5334964.32], [693810.2, 5334965.61], [693810.86, 5334971.61]]]}}, {"type": "Feature", "properties": {"kind": "building", "z": 522.02, "h": 2.9}, "geometry": {"type": "Polygon", "coordinates": [[[693829.75, 5335941.03], [693833.12, 5335938.29], [693824.11, 5335927.28], [693820.74, 5335930.02], [693829.75, 5335941.03]]]}}]}