{"type": "FeatureCollection", "attribution": "\u00a9 OpenStreetMap contributors (ODbL)", "crs": {"type": "name", "properties": {"name": "urn:ogc:def:crs:EPSG::25832"}}, "features": [{"type": "Feature", "properties": {"kind": "retaining_wall", "h": 3.0}, "geometry": {"type": "LineString", "coordinates": [[692000.0, 5333734.64], [691941.39, 5333697.62], [691901.34, 5333676.35], [691891.61, 5333671.18], [691889.15, 5333669.88], [691877.27, 5333663.57], [691867.35, 5333656.62], [691865.72, 5333655.47], [691860.97, 5333652.14], [691856.39, 5333648.36], [691852.39, 5333645.07], [691841.43, 5333636.01]]}}, {"type": "Feature", "properties": {"kind": "retaining_wall", "h": 3.0}, "geometry": {"type": "LineString", "coordinates": [[691194.65, 5333072.91], [691181.1, 5333061.3], [691178.73, 5333064.14], [691175.55, 5333063.81], [691146.1, 5333040.1], [691145.79, 5333036.7], [691148.01, 5333033.7], [691135.06, 5333023.48]]}}, {"type": "Feature", "properties": {"kind": "retaining_wall", "h": 3.0}, "geometry": {"type": "LineString", "coordinates": [[691045.85, 5333147.52], [691047.78, 5333144.73], [691051.06, 5333144.23], [691091.32, 5333176.8], [691092.0, 5333181.09], [691089.44, 5333184.47]]}}, {"type": "Feature", "properties": {"kind": "retaining_wall", "h": 3.0}, "geometry": {"type": "LineString", "coordinates": [[691088.06, 5333110.46], [691090.04, 5333109.63], [691092.41, 5333109.72], [691095.59, 5333112.3], [691111.0, 5333126.31], [691111.52, 5333128.68], [691110.8, 5333130.83], [691108.39, 5333131.78], [691106.3, 5333131.36], [691090.85, 5333117.92], [691087.8, 5333115.16], [691087.37, 5333112.82], [691088.06, 5333110.46]]}}, {"type": "Feature", "properties": {"kind": "wall", "h": 1.5}, "geometry": {"type": "LineString", "coordinates": [[691390.2, 5332233.49], [691374.59, 5332236.51]]}}, {"type": "Feature", "properties": {"kind": "wall", "h": 1.5}, "geometry": {"type": "LineString", "coordinates": [[691369.88, 5332237.42], [691370.69, 5332237.24]]}}, {"type": "Feature", "properties": {"kind": "retaining_wall", "h": 3.0}, "geometry": {"type": "LineString", "coordinates": [[691952.66, 5333828.79], [691941.35, 5333818.73], [691940.33, 5333817.63], [691939.25, 5333816.11], [691938.53, 5333814.38], [691938.03, 5333811.13], [691938.15, 5333807.86], [691938.7, 5333805.32], [691939.33, 5333803.42], [691940.54, 5333802.02], [691942.36, 5333800.74], [691945.14, 5333799.7], [691948.21, 5333799.42], [691951.66, 5333799.57], [691955.2, 5333800.58], [691958.56, 5333802.57], [691967.94, 5333810.05], [691974.94, 5333815.89], [691977.02, 5333817.62], [691981.94, 5333821.71], [691982.68, 5333822.31], [691986.86, 5333825.6], [691996.71, 5333832.84], [692000.0, 5333834.57]]}}, {"type": "Feature", "properties": {"kind": "wall", "h": 1.5}, "geometry": {"type": "LineString", "coordinates": [[691709.01, 5332836.23], [691703.33, 5332834.18], [691691.57, 5332839.79]]}}, {"type": "Feature", "properties": {"kind": "wall", "h": 1.5}, "geometry": {"type": "LineString", "coordinates": [[691962.0, 5332976.42], [691959.33, 5332977.81], [691954.79, 5332980.16], [691952.79, 5332976.51], [691944.84, 5332961.71], [691937.31, 5332965.95]]}}, {"type": "Feature", "properties": {"kind": "wall", "h": 1.5}, "geometry": {"type": "LineString", "coordinates": [[691921.82, 5332921.59], [691908.5, 5332924.94], [691912.39, 5332928.46]]}}, {"type": "Feature", "properties": {"kind": "wall", "h": 1.5}, "geometry": {"type": "LineString", "coordinates": [[691844.13, 5332542.16], [691843.79, 5332538.5], [691838.43, 5332512.19], [691867.04, 5332507.17], [691867.61, 5332508.73], [691869.47, 5332510.1], [691871.05, 5332510.59], [691873.32, 5332524.38], [691869.9, 5332524.87], [691867.97, 5332528.79], [691861.62, 5332529.7], [691862.97, 5332536.92], [691870.38, 5332535.66], [691872.44, 5332544.28]]}}, {"type": "Feature", "properties": {"kind": "wall", "h": 1.5}, "geometry": {"type": "LineString", "coordinates": [[690464.59, 5333576.96], [690488.23, 5333549.6], [690472.06, 5333534.99], [690470.63, 5333536.74]]}}, {"type": "Feature", "properties": {"kind": "wall", "h": 1.5}, "geometry": {"type": "LineString", "coordinates": [[691573.71, 5332874.27], [691566.99, 5332893.24]]}}, {"type": "Feature", "properties": {"kind": "wall", "h": 1.5}, "geometry": {"type": "LineString", "coordinates": [[691608.87, 5332886.41], [691596.46, 5332922.54]]}}, {"type": "Feature", "properties": {"kind": "wall", "h": 1.5}, "geometry": {"type": "LineString", "coordinates": [[691644.03, 5332898.55], [691639.78, 5332911.95], [691637.31, 5332915.62], [691628.47, 5332921.72], [691623.8, 5332923.48]]}}, {"type": "Feature", "properties": {"kind": "wall", "h": 1.5}, "geometry": {"type": "LineString", "coordinates": [[691447.47, 5333854.07], [691455.95, 5333843.79], [691441.86, 5333830.79]]}}, {"type": "Feature", "properties": {"kind": "wall", "h": 1.5}, "geometry": {"type": "LineString", "coordinates": [[691437.87, 5333892.54], [691449.59, 5333879.68]]}}, {"type": "Feature", "properties": {"kind": "wall", "h": 1.5}, "geometry": {"type": "LineString", "coordinates": [[691423.66, 5333878.6], [691435.68, 5333865.85]]}}, {"type": "Feature", "properties": {"kind": "wall", "h": 1.5}, "geometry": {"type": "LineString", "coordinates": [[691797.8, 5332340.49], [691813.64, 5332356.95], [691835.91, 5332358.45], [691835.1, 5332354.0], [691838.93, 5332353.16], [691852.34, 5332347.94]]}}, {"type": "Feature", "properties": {"kind": "wall", "h": 1.5}, "geometry": {"type": "LineString", "coordinates": [[691846.73, 5332353.27], [691891.68, 5332336.05]]}}, {"type": "Feature", "properties": {"kind": "wall", "h": 1.5}, "geometry": {"type": "LineString", "coordinates": [[691739.05, 5332476.57], [691738.27, 5332472.39], [691737.55, 5332468.6], [691735.73, 5332457.52], [691735.02, 5332452.46]]}}, {"type": "Feature", "properties": {"kind": "wall", "h": 1.5}, "geometry": {"type": "LineString", "coordinates": [[691715.07, 5332609.07], [691717.71, 5332604.2], [691719.04, 5332602.07], [691730.78, 5332593.44]]}}, {"type": "Feature", "properties": {"kind": "wall", "h": 1.5}, "geometry": {"type": "LineString", "coordinates": [[690923.16, 5332418.72], [690922.07, 5332413.8], [690925.92, 5332404.82], [690930.46, 5332399.32]]}}, {"type": "Feature", "properties": {"kind": "wall", "h": 1.5}, "geometry": {"type": "LineString", "coordinates": [[690966.89, 5332306.9], [690971.93, 5332307.0], [690972.19, 5332294.21], [690967.15, 5332294.1]]}}, {"type": "Feature", "properties": {"kind": "wall", "h": 1.5}, "geometry": {"type": "LineString", "coordinates": [[690967.25, 5332289.4], [690972.17, 5332289.49], [690972.73, 5332262.2], [690967.81, 5332262.1]]}}, {"type": "Feature", "properties": {"kind": "wall", "h": 1.5}, "geometry": {"type": "LineString", "coordinates": [[690967.9, 5332257.45], [690972.73, 5332257.54], [690973.11, 5332224.64], [690972.35, 5332222.42], [690970.4, 5332221.2], [690937.55, 5332220.53]]}}, {"type": "Feature", "properties": {"kind": "wall", "h": 1.5}, "geometry": {"type": "LineString", "coordinates": [[691963.89, 5333346.52], [691965.76, 5333345.73], [691972.16, 5333355.7], [691975.44, 5333365.64]]}}, {"type": "Feature", "properties": {"kind": "wall", "h": 1.5}, "geometry": {"type": "LineString", "coordinates": [[691311.26, 5333848.97], [691319.29, 5333856.04]]}}, {"type": "Feature", "properties": {"kind": "wall", "h": 1.5}, "geometry": {"type": "LineString", "coordinates": [[691286.12, 5333848.98], [691284.71, 5333850.47]]}}, {"type": "Feature", "properties": {"kind": "wall", "h": 1.5}, "geometry": {"type": "LineString", "coordinates": [[691291.88, 5333854.21], [691308.44, 5333868.79]]}}, {"type": "Feature", "properties": {"kind": "wall", "h": 1.5}, "geometry": {"type": "LineString", "coordinates": [[691243.5, 5333785.49], [691245.96, 5333787.82], [691248.77, 5333790.51], [691249.71, 5333791.4], [691253.84, 5333795.33]]}}, {"type": "Feature", "properties": {"kind": "wall", "h": 1.5}, "geometry": {"type": "LineString", "coordinates": [[690953.36, 5333607.85], [690952.27, 5333595.0], [690951.74, 5333588.74], [690943.93, 5333589.99], [690941.49, 5333580.1], [690936.18, 5333568.6], [690928.47, 5333557.06], [690920.33, 5333547.73], [690906.27, 5333536.72], [690892.44, 5333530.08], [690881.04, 5333526.43], [690866.29, 5333524.38], [690853.08, 5333524.9], [690847.49, 5333525.67]]}}, {"type": "Feature", "properties": {"kind": "wall", "h": 1.5}, "geometry": {"type": "LineString", "coordinates": [[690983.43, 5333640.09], [690974.53, 5333626.4]]}}, {"type": "Feature", "properties": {"kind": "wall", "h": 1.5}, "geometry": {"type": "LineString", "coordinates": [[690835.29, 5333519.81], [690819.13, 5333526.43]]}}, {"type": "Feature", "properties": {"kind": "wall", "h": 1.5}, "geometry": {"type": "LineString", "coordinates": [[690969.33, 5333617.61], [690967.35, 5333614.36], [690955.33, 5333594.56], [690952.27, 5333595.0]]}}, {"type": "Feature", "properties": {"kind": "wall", "h": 1.5}, "geometry": {"type": "LineString", "coordinates": [[690960.87, 5333713.74], [690955.9, 5333642.34], [690955.15, 5333628.19]]}}, {"type": "Feature", "properties": {"kind": "wall", "h": 1.5}, "geometry": {"type": "LineString", "coordinates": [[690814.4, 5333515.87], [690881.65, 5333485.75], [690879.32, 5333480.56], [690843.65, 5333401.66], [690805.79, 5333318.23], [690734.42, 5333352.05], [690658.22, 5333385.65], [690729.64, 5333547.64]]}}, {"type": "Feature", "properties": {"kind": "wall", "h": 1.5}, "geometry": {"type": "LineString", "coordinates": [[690780.97, 5333627.62], [690773.84, 5333629.31], [690802.68, 5333694.29], [690810.91, 5333712.81], [690832.96, 5333762.32], [690861.48, 5333826.98], [690890.31, 5333891.61], [690937.26, 5334000.0]]}}, {"type": "Feature", "properties": {"kind": "wall", "h": 1.5}, "geometry": {"type": "LineString", "coordinates": [[690807.3, 5333533.91], [690811.25, 5333542.43], [690806.62, 5333545.95], [690798.0, 5333554.94], [690791.16, 5333564.86], [690783.57, 5333581.92], [690780.43, 5333593.33], [690779.54, 5333613.3], [690781.59, 5333625.88]]}}, {"type": "Feature", "properties": {"kind": "wall", "h": 1.5}, "geometry": {"type": "LineString", "coordinates": [[690581.54, 5333302.71], [690578.16, 5333296.22]]}}, {"type": "Feature", "properties": {"kind": "wall", "h": 1.5}, "geometry": {"type": "LineString", "coordinates": [[690645.4, 5333692.64], [690668.48, 5333690.59]]}}, {"type": "Feature", "properties": {"kind": "wall", "h": 1.5}, "geometry": {"type": "LineString", "coordinates": [[690321.58, 5333434.97], [690345.77, 5333416.27], [690493.16, 5333304.65]]}}, {"type": "Feature", "properties": {"kind": "wall", "h": 1.5}, "geometry": {"type": "LineString", "coordinates": [[690313.22, 5333384.5], [690316.73, 5333381.98], [690318.88, 5333380.37], [690345.77, 5333416.27]]}}, {"type": "Feature", "properties": {"kind": "wall", "h": 1.5}, "geometry": {"type": "LineString", "coordinates": [[690111.5, 5333057.27], [690117.07, 5333046.88], [690130.88, 5333020.77], [690139.64, 5333006.47], [690144.57, 5332999.44], [690147.31, 5332995.28], [690149.17, 5332992.85], [690152.98, 5332989.78], [690159.51, 5332985.48]]}}, {"type": "Feature", "properties": {"kind": "wall", "h": 1.5}, "geometry": {"type": "LineString", "coordinates": [[690171.88, 5332978.41], [690177.2, 5332975.42], [690179.8, 5332973.64], [690182.26, 5332970.99], [690184.07, 5332968.17]]}}, {"type": "Feature", "properties": {"kind": "wall", "h": 1.5}, "geometry": {"type": "LineString", "coordinates": [[690102.11, 5333057.69], [690106.88, 5333057.93], [690107.09, 5333038.95], [690107.88, 5333036.51], [690109.93, 5333034.01]]}}, {"type": "Feature", "properties": {"kind": "wall", "h": 1.5}, "geometry": {"type": "LineString", "coordinates": [[690341.05, 5333829.4], [690347.43, 5333834.28], [690347.95, 5333833.6], [690349.3, 5333831.85], [690350.52, 5333830.25], [690344.14, 5333825.38]]}}, {"type": "Feature", "properties": {"kind": "wall", "h": 1.5}, "geometry": {"type": "LineString", "coordinates": [[690375.53, 5333834.82], [690375.09, 5333842.93], [690376.38, 5333843.0], [690378.3, 5333843.09], [690380.44, 5333843.21], [690380.87, 5333835.22]]}}, {"type": "Feature", "properties": {"kind": "wall", "h": 1.5}, "geometry": {"type": "LineString", "coordinates": [[690380.76, 5333906.43], [690378.98, 5333898.18], [690380.44, 5333897.87], [690382.23, 5333897.49], [690383.63, 5333897.19], [690385.39, 5333905.4]]}}, {"type": "Feature", "properties": {"kind": "wall", "h": 1.5}, "geometry": {"type": "LineString", "coordinates": [[690396.91, 5333873.44], [690391.22, 5333869.12], [690392.18, 5333867.88], [690393.03, 5333866.76], [690398.7, 5333871.06]]}}, {"type": "Feature", "properties": {"kind": "wall", "h": 1.5}, "geometry": {"type": "LineString", "coordinates": [[690337.84, 5333882.09], [690341.49, 5333875.12], [690343.13, 5333875.97], [690344.73, 5333876.8], [690346.2, 5333877.57], [690343.49, 5333882.75], [690342.55, 5333884.55]]}}, {"type": "Feature", "properties": {"kind": "wall", "h": 1.5}, "geometry": {"type": "LineString", "coordinates": [[690304.66, 5332987.7], [690302.18, 5332985.46]]}}, {"type": "Feature", "properties": {"kind": "wall", "h": 1.5}, "geometry": {"type": "LineString", "coordinates": [[690296.79, 5332980.54], [690299.35, 5332977.95], [690284.59, 5332962.81], [690290.54, 5332956.03]]}}, {"type": "Feature", "properties": {"kind": "wall", "h": 1.5}, "geometry": {"type": "LineString", "coordinates": [[690315.21, 5332972.56], [690317.52, 5332975.01]]}}, {"type": "Feature", "properties": {"kind": "wall", "h": 1.5}, "geometry": {"type": "LineString", "coordinates": [[690307.44, 5332964.54], [690310.08, 5332967.46]]}}, {"type": "Feature", "properties": {"kind": "wall", "h": 1.5}, "geometry": {"type": "LineString", "coordinates": [[690295.5, 5332951.52], [690279.96, 5332933.06]]}}, {"type": "Feature", "properties": {"kind": "wall", "h": 1.5}, "geometry": {"type": "LineString", "coordinates": [[690974.18, 5333876.84], [690972.25, 5333858.41]]}}, {"type": "Feature", "properties": {"kind": "wall", "h": 1.5}, "geometry": {"type": "LineString", "coordinates": [[690981.39, 5333877.67], [691005.51, 5333878.61]]}}, {"type": "Feature", "properties": {"kind": "wall", "h": 1.5}, "geometry": {"type": "LineString", "coordinates": [[690984.49, 5333995.25], [690983.05, 5333980.94]]}}, {"type": "Feature", "properties": {"kind": "wall", "h": 1.5}, "geometry": {"type": "LineString", "coordinates": [[691427.15, 5333568.83], [691460.04, 5333530.09]]}}, {"type": "Feature", "properties": {"kind": "wall", "h": 1.5}, "geometry": {"type": "LineString", "coordinates": [[690989.05, 5333161.82], [691004.24, 5333143.27]]}}, {"type": "Feature", "properties": {"kind": "wall", "h": 1.5}, "geometry": {"type": "LineString", "coordinates": [[690755.96, 5334000.0], [690754.88, 5333995.96]]}}, {"type": "Feature", "properties": {"kind": "wall", "h": 1.5}, "geometry": {"type": "LineString", "coordinates": [[690327.29, 5333948.32], [690329.13, 5333947.24], [690330.82, 5333945.53]]}}, {"type": "Feature", "properties": {"kind": "wall", "h": 1.5}, "geometry": {"type": "LineString", "coordinates": [[691627.94, 5333021.32], [691617.93, 5333010.02]]}}, {"type": "Feature", "properties": {"kind": "wall", "h": 1.5}, "geometry": {"type": "LineString", "coordinates": [[690057.76, 5333096.94], [690069.61, 5333113.08], [690077.23, 5333108.16], [690077.48, 5333104.02], [690080.65, 5333064.13], [690081.08, 5333058.69], [690063.78, 5333054.51], [690058.05, 5333053.11], [690053.36, 5333056.22], [690048.16, 5333059.66]]}}, {"type": "Feature", "properties": {"kind": "wall", "h": 1.5}, "geometry": {"type": "LineString", "coordinates": [[690585.62, 5333800.02], [690581.7, 5333782.59]]}}, {"type": "Feature", "properties": {"kind": "wall", "h": 1.5}, "geometry": {"type": "LineString", "coordinates": [[690219.37, 5333743.95], [690224.91, 5333748.24], [690225.92, 5333746.95], [690220.29, 5333742.59]]}}, {"type": "Feature", "properties": {"kind": "wall", "h": 1.5}, "geometry": {"type": "LineString", "coordinates": [[691411.05, 5332987.96], [691426.6, 5332968.94]]}}, {"type": "Feature", "properties": {"kind": "wall", "h": 1.5}, "geometry": {"type": "LineString", "coordinates": [[691444.0, 5333015.36], [691455.41, 5333001.84]]}}, {"type": "Feature", "properties": {"kind": "wall", "h": 1.5}, "geometry": {"type": "LineString", "coordinates": [[692000.0, 5332304.31], [691999.86, 5332303.81], [691988.53, 5332307.19]]}}, {"type": "Feature", "properties": {"kind": "wall", "h": 1.5}, "geometry": {"type": "LineString", "coordinates": [[691989.74, 5332310.85], [692000.0, 5332307.91]]}}, {"type": "Feature", "properties": {"kind": "wall", "h": 1.5}, "geometry": {"type": "LineString", "coordinates": [[691176.58, 5332000.0], [691172.96, 5332001.92], [691158.63, 5332008.78], [691141.66, 5332015.67], [691124.4, 5332021.64], [691105.96, 5332026.83], [691090.08, 5332030.45], [691068.28, 5332035.11], [691051.05, 5332038.51], [691031.06, 5332042.06]]}}, {"type": "Feature", "properties": {"kind": "wall", "h": 1.5}, "geometry": {"type": "LineString", "coordinates": [[691026.84, 5332023.21], [691048.56, 5332019.34], [691068.0, 5332015.65], [691086.47, 5332011.75], [691101.38, 5332007.97], [691119.41, 5332003.13], [691128.07, 5332000.0]]}}, {"type": "Feature", "properties": {"kind": "wall", "h": 1.5}, "geometry": {"type": "LineString", "coordinates": [[690939.47, 5332706.74], [690938.58, 5332705.92], [690936.6, 5332708.09], [690937.49, 5332708.9], [690939.47, 5332706.74]]}}, {"type": "Feature", "properties": {"kind": "wall", "h": 1.5}, "geometry": {"type": "LineString", "coordinates": [[690933.59, 5332707.45], [690932.69, 5332706.63], [690930.71, 5332708.79], [690931.61, 5332709.61], [690933.59, 5332707.45]]}}, {"type": "Feature", "properties": {"kind": "wall", "h": 1.5}, "geometry": {"type": "LineString", "coordinates": [[690936.7, 5332704.11], [690935.8, 5332703.29], [690933.82, 5332705.45], [690934.72, 5332706.27], [690936.7, 5332704.11]]}}, {"type": "Feature", "properties": {"kind": "wall", "h": 1.5}, "geometry": {"type": "LineString", "coordinates": [[690936.35, 5332710.15], [690935.45, 5332709.33], [690933.47, 5332711.49], [690934.37, 5332712.31], [690936.35, 5332710.15]]}}, {"type": "Feature", "properties": {"kind": "wall", "h": 1.5}, "geometry": {"type": "LineString", "coordinates": [[690372.36, 5334000.0], [690372.47, 5333991.87]]}}, {"type": "Feature", "properties": {"kind": "wall", "h": 1.5}, "geometry": {"type": "LineString", "coordinates": [[690374.92, 5333930.63], [690375.33, 5333918.93], [690398.23, 5333909.89], [690405.89, 5333915.63]]}}, {"type": "Feature", "properties": {"kind": "wall", "h": 1.5}, "geometry": {"type": "LineString", "coordinates": [[690516.23, 5334000.0], [690516.26, 5333999.97], [690515.86, 5333997.98], [690496.45, 5333983.45]]}}, {"type": "Feature", "properties": {"kind": "wall", "h": 1.5}, "geometry": {"type": "LineString", "coordinates": [[690487.97, 5333977.1], [690453.79, 5333951.5]]}}, {"type": "Feature", "properties": {"kind": "wall", "h": 1.5}, "geometry": {"type": "LineString", "coordinates": [[690423.06, 5333928.48], [690432.87, 5333935.87], [690431.89, 5333937.23]]}}, {"type": "Feature", "properties": {"kind": "wall", "h": 1.5}, "geometry": {"type": "LineString", "coordinates": [[691219.3, 5332388.15], [691222.9, 5332380.01]]}}, {"type": "Feature", "properties": {"kind": "wall", "h": 1.5}, "geometry": {"type": "LineString", "coordinates": [[691196.18, 5332355.68], [691186.15, 5332349.18]]}}, {"type": "Feature", "properties": {"kind": "wall", "h": 1.5}, "geometry": {"type": "LineString", "coordinates": [[691184.66, 5332324.9], [691195.46, 5332328.39]]}}, {"type": "Feature", "properties": {"kind": "wall", "h": 1.5}, "geometry": {"type": "LineString", "coordinates": [[691083.76, 5332324.5], [691086.39, 5332320.2]]}}, {"type": "Feature", "properties": {"kind": "wall", "h": 1.5}, "geometry": {"type": "LineString", "coordinates": [[691063.63, 5332286.09], [691061.53, 5332285.88]]}}, {"type": "Feature", "properties": {"kind": "wall", "h": 1.5}, "geometry": {"type": "LineString", "coordinates": [[691099.28, 5332296.32], [691089.2, 5332289.8]]}}, {"type": "Feature", "properties": {"kind": "wall", "h": 1.5}, "geometry": {"type": "LineString", "coordinates": [[691925.88, 5332771.73], [691887.21, 5332754.18], [691856.08, 5332740.05], [691835.73, 5332730.18], [691828.76, 5332727.46], [691823.43, 5332725.24], [691809.01, 5332718.58], [691790.85, 5332710.49], [691771.89, 5332702.06], [691754.47, 5332694.0], [691735.48, 5332685.82], [691728.32, 5332682.81], [691715.54, 5332677.98], [691712.8, 5332676.73], [691708.01, 5332674.5], [691697.27, 5332669.78], [691693.11, 5332667.81], [691688.57, 5332665.21], [691684.34, 5332662.78], [691678.75, 5332659.93], [691661.75, 5332652.29], [691639.86, 5332641.91], [691616.65, 5332631.9], [691605.87, 5332627.06], [691586.98, 5332618.41], [691569.76, 5332610.51], [691551.04, 5332602.3], [691535.92, 5332595.72], [691507.11, 5332584.06], [691487.08, 5332574.14], [691438.68, 5332552.36], [691385.73, 5332528.81], [691334.64, 5332505.55]]}}, {"type": "Feature", "properties": {"kind": "wall", "h": 1.5}, "geometry": {"type": "LineString", "coordinates": [[691332.24, 5332490.88], [691345.33, 5332495.91], [691397.63, 5332519.27], [691412.07, 5332526.52], [691441.34, 5332539.5], [691456.22, 5332545.7], [691465.48, 5332550.65], [691496.43, 5332564.33], [691503.42, 5332567.34], [691504.49, 5332567.3], [691522.41, 5332576.34], [691542.68, 5332585.73], [691562.83, 5332594.54], [691577.62, 5332601.37], [691597.46, 5332610.26], [691618.59, 5332619.88], [691634.52, 5332627.13], [691654.91, 5332636.34], [691668.48, 5332642.41], [691697.69, 5332655.49], [691699.17, 5332655.56], [691710.76, 5332660.75], [691719.14, 5332664.56], [691725.88, 5332667.62], [691734.74, 5332672.28], [691741.61, 5332675.31], [691747.6, 5332678.03], [691766.52, 5332686.77], [691786.73, 5332695.74], [691805.79, 5332704.29], [691827.95, 5332714.46], [691855.88, 5332726.74], [691865.37, 5332730.06], [691881.18, 5332737.92], [691896.48, 5332745.17], [691916.88, 5332754.15]]}}, {"type": "Feature", "properties": {"kind": "wall", "h": 1.5}, "geometry": {"type": "LineString", "coordinates": [[691240.3, 5332471.87], [691233.51, 5332470.1], [691231.03, 5332468.17], [691211.0, 5332463.52]]}}, {"type": "Feature", "properties": {"kind": "wall", "h": 1.5}, "geometry": {"type": "LineString", "coordinates": [[691295.53, 5332488.91], [691283.71, 5332485.48], [691264.77, 5332478.11]]}}, {"type": "Feature", "properties": {"kind": "wall", "h": 1.5}, "geometry": {"type": "LineString", "coordinates": [[691298.61, 5332477.61], [691294.18, 5332475.61], [691292.28, 5332474.01], [691279.71, 5332469.73], [691259.46, 5332463.39], [691238.34, 5332457.17], [691213.65, 5332451.58], [691195.14, 5332447.79], [691188.01, 5332446.44], [691176.97, 5332444.77], [691158.91, 5332442.3], [691140.54, 5332440.62], [691129.47, 5332439.73], [691118.12, 5332438.91], [691092.86, 5332438.36], [691049.99, 5332439.66], [691024.21, 5332441.79], [691021.91, 5332443.11], [690989.71, 5332447.8], [690972.18, 5332450.72], [690963.4, 5332452.12], [690941.9, 5332457.42], [690915.91, 5332464.78], [690914.94, 5332466.78], [690894.78, 5332473.65]]}}, {"type": "Feature", "properties": {"kind": "wall", "h": 1.5}, "geometry": {"type": "LineString", "coordinates": [[690086.03, 5333611.04], [690091.95, 5333604.82], [690097.54, 5333589.6]]}}, {"type": "Feature", "properties": {"kind": "wall", "h": 1.5}, "geometry": {"type": "LineString", "coordinates": [[690109.9, 5333594.84], [690100.63, 5333615.96], [690096.69, 5333619.95]]}}, {"type": "Feature", "properties": {"kind": "wall", "h": 0.6}, "geometry": {"type": "LineString", "coordinates": [[691982.64, 5332340.13], [691976.28, 5332330.9], [691977.21, 5332330.27], [691979.07, 5332328.99], [691980.08, 5332328.29], [691986.44, 5332337.53]]}}, {"type": "Feature", "properties": {"kind": "wall", "h": 1.5}, "geometry": {"type": "LineString", "coordinates": [[690659.36, 5332904.1], [690629.22, 5332870.51]]}}, {"type": "Feature", "properties": {"kind": "wall", "h": 1.5}, "geometry": {"type": "LineString", "coordinates": [[690624.51, 5332865.45], [690588.66, 5332828.08]]}}, {"type": "Feature", "properties": {"kind": "wall", "h": 1.5}, "geometry": {"type": "LineString", "coordinates": [[690704.0, 5332924.82], [690691.64, 5332925.19], [690683.93, 5332925.33], [690677.79, 5332923.74], [690663.05, 5332907.33]]}}, {"type": "Feature", "properties": {"kind": "wall", "h": 1.5}, "geometry": {"type": "LineString", "coordinates": [[690297.95, 5333440.09], [690265.73, 5333463.4], [690265.34, 5333473.69]]}}, {"type": "Feature", "properties": {"kind": "wall", "h": 1.5}, "geometry": {"type": "LineString", "coordinates": [[691239.78, 5333791.75], [691243.31, 5333789.6], [691245.96, 5333787.82]]}}, {"type": "Feature", "properties": {"kind": "wall", "h": 1.5}, "geometry": {"type": "LineString", "coordinates": [[691247.42, 5333801.78], [691249.44, 5333800.09], [691253.84, 5333795.33]]}}, {"type": "Feature", "properties": {"kind": "wall", "h": 1.5}, "geometry": {"type": "LineString", "coordinates": [[691273.44, 5333835.73], [691281.15, 5333831.2]]}}, {"type": "Feature", "properties": {"kind": "wall", "h": 1.5}, "geometry": {"type": "LineString", "coordinates": [[690239.88, 5333693.52], [690248.05, 5333699.95]]}}, {"type": "Feature", "properties": {"kind": "wall", "h": 1.5}, "geometry": {"type": "LineString", "coordinates": [[690220.78, 5333715.7], [690225.83, 5333719.53], [690234.72, 5333707.88]]}}, {"type": "Feature", "properties": {"kind": "wall", "h": 1.5}, "geometry": {"type": "LineString", "coordinates": [[690239.35, 5333711.36], [690234.72, 5333707.88], [690229.65, 5333704.09]]}}, {"type": "Feature", "properties": {"kind": "wall", "h": 1.5}, "geometry": {"type": "LineString", "coordinates": [[690297.26, 5333619.04], [690306.86, 5333626.34]]}}, {"type": "Feature", "properties": {"kind": "wall", "h": 1.5}, "geometry": {"type": "LineString", "coordinates": [[690417.52, 5333608.44], [690417.8, 5333609.31]]}}, {"type": "Feature", "properties": {"kind": "wall", "h": 1.5}, "geometry": {"type": "LineString", "coordinates": [[690444.92, 5333615.73], [690452.52, 5333606.36]]}}, {"type": "Feature", "properties": {"kind": "wall", "h": 1.5}, "geometry": {"type": "LineString", "coordinates": [[690424.4, 5333605.99], [690446.21, 5333581.06]]}}, {"type": "Feature", "properties": {"kind": "wall", "h": 1.5}, "geometry": {"type": "LineString", "coordinates": [[690306.57, 5333583.59], [690322.11, 5333595.45], [690324.5, 5333592.28]]}}, {"type": "Feature", "properties": {"kind": "wall", "h": 1.5}, "geometry": {"type": "LineString", "coordinates": [[690316.84, 5333793.39], [690322.18, 5333786.99]]}}, {"type": "Feature", "properties": {"kind": "wall", "h": 1.5}, "geometry": {"type": "LineString", "coordinates": [[690305.51, 5333779.95], [690309.39, 5333774.31]]}}, {"type": "Feature", "properties": {"kind": "wall", "h": 1.5}, "geometry": {"type": "LineString", "coordinates": [[690535.07, 5333823.75], [690534.31, 5333812.22], [690530.48, 5333795.36]]}}, {"type": "Feature", "properties": {"kind": "wall", "h": 1.5}, "geometry": {"type": "LineString", "coordinates": [[690538.09, 5333776.58], [690525.55, 5333722.84]]}}, {"type": "Feature", "properties": {"kind": "wall", "h": 1.5}, "geometry": {"type": "LineString", "coordinates": [[690498.69, 5333783.89], [690493.4, 5333763.43]]}}, {"type": "Feature", "properties": {"kind": "wall", "h": 1.5}, "geometry": {"type": "LineString", "coordinates": [[690437.14, 5333770.5], [690434.19, 5333759.7]]}}, {"type": "Feature", "properties": {"kind": "wall", "h": 1.5}, "geometry": {"type": "LineString", "coordinates": [[690459.21, 5333781.88], [690448.98, 5333737.67]]}}, {"type": "Feature", "properties": {"kind": "wall", "h": 1.5}, "geometry": {"type": "LineString", "coordinates": [[690200.03, 5333578.12], [690231.34, 5333578.7]]}}, {"type": "Feature", "properties": {"kind": "wall", "h": 1.5}, "geometry": {"type": "LineString", "coordinates": [[690231.06, 5333623.15], [690228.1, 5333621.19]]}}, {"type": "Feature", "properties": {"kind": "wall", "h": 1.5}, "geometry": {"type": "LineString", "coordinates": [[690258.97, 5333621.19], [690240.0, 5333606.14]]}}, {"type": "Feature", "properties": {"kind": "wall", "h": 1.5}, "geometry": {"type": "LineString", "coordinates": [[690328.87, 5333554.5], [690344.08, 5333566.27], [690347.82, 5333566.48]]}}, {"type": "Feature", "properties": {"kind": "wall", "h": 1.5}, "geometry": {"type": "LineString", "coordinates": [[690135.48, 5333373.26], [690123.15, 5333356.93]]}}, {"type": "Feature", "properties": {"kind": "wall", "h": 1.5}, "geometry": {"type": "LineString", "coordinates": [[690106.15, 5333149.8], [690104.03, 5333146.33], [690103.03, 5333144.37], [690101.96, 5333144.87], [690101.01, 5333142.1], [690099.62, 5333135.24], [690099.58, 5333130.4], [690100.15, 5333110.54], [690102.11, 5333057.69]]}}, {"type": "Feature", "properties": {"kind": "wall", "h": 1.5}, "geometry": {"type": "LineString", "coordinates": [[690102.11, 5333057.69], [690103.02, 5333027.67], [690101.02, 5333016.48], [690101.91, 5333013.59], [690103.46, 5333011.15], [690106.59, 5333008.54], [690181.75, 5332959.13], [690203.48, 5332944.26], [690199.52, 5332938.21], [690230.3, 5332918.12], [690235.09, 5332923.38]]}}, {"type": "Feature", "properties": {"kind": "wall", "h": 1.5}, "geometry": {"type": "LineString", "coordinates": [[690023.02, 5333279.14], [690076.34, 5333244.73]]}}, {"type": "Feature", "properties": {"kind": "wall", "h": 1.5}, "geometry": {"type": "LineString", "coordinates": [[690173.96, 5333783.82], [690173.96, 5333782.5], [690173.93, 5333780.99]]}}, {"type": "Feature", "properties": {"kind": "retaining_wall", "h": 3.0}, "geometry": {"type": "LineString", "coordinates": [[690495.19, 5332177.6], [690496.01, 5332175.79], [690496.04, 5332173.08], [690496.28, 5332169.41], [690495.92, 5332168.64]]}}, {"type": "Feature", "properties": {"kind": "retaining_wall", "h": 3.0}, "geometry": {"type": "LineString", "coordinates": [[690462.86, 5332168.79], [690462.06, 5332169.89], [690461.85, 5332171.51], [690461.75, 5332172.91], [690462.15, 5332173.69]]}}, {"type": "Feature", "properties": {"kind": "wall", "h": 1.5}, "geometry": {"type": "LineString", "coordinates": [[690000.0, 5333452.15], [690007.76, 5333458.08]]}}, {"type": "Feature", "properties": {"kind": "retaining_wall", "h": 3.0}, "geometry": {"type": "LineString", "coordinates": [[690082.5, 5333024.67], [690083.57, 5333028.18], [690081.51, 5333054.51], [690072.01, 5333053.75]]}}, {"type": "Feature", "properties": {"kind": "wall", "h": 4.0}, "geometry": {"type": "LineString", "coordinates": [[690000.0, 5333092.43], [690003.09, 5333090.4]]}}, {"type": "Feature", "properties": {"kind": "wall", "h": 4.0}, "geometry": {"type": "LineString", "coordinates": [[690019.28, 5333079.1], [690032.51, 5333070.08]]}}, {"type": "Feature", "properties": {"kind": "wall", "h": 1.5}, "geometry": {"type": "LineString", "coordinates": [[690961.4, 5333723.19], [690962.09, 5333731.0], [690962.26, 5333732.44]]}}, {"type": "Feature", "properties": {"kind": "wall", "h": 1.5}, "geometry": {"type": "LineString", "coordinates": [[691379.16, 5332694.38], [691370.1, 5332700.33]]}}, {"type": "Feature", "properties": {"kind": "wall", "h": 1.5}, "geometry": {"type": "LineString", "coordinates": [[691375.11, 5332711.5], [691378.05, 5332709.68]]}}, {"type": "Feature", "properties": {"kind": "wall", "h": 1.5}, "geometry": {"type": "LineString", "coordinates": [[691298.61, 5332477.61], [691332.24, 5332490.88]]}}, {"type": "Feature", "properties": {"kind": "wall", "h": 1.5}, "geometry": {"type": "LineString", "coordinates": [[691334.64, 5332505.55], [691333.21, 5332503.51], [691302.59, 5332491.64], [691295.53, 5332488.91]]}}, {"type": "Feature", "properties": {"kind": "wall", "h": 1.5}, "geometry": {"type": "LineString", "coordinates": [[691253.08, 5333781.97], [691255.42, 5333787.03]]}}, {"type": "Feature", "properties": {"kind": "wall", "h": 2.0}, "geometry": {"type": "LineString", "coordinates": [[690129.07, 5333310.62], [690136.46, 5333309.78], [690145.47, 5333321.67]]}}, {"type": "Feature", "properties": {"kind": "wall", "h": 1.5}, "geometry": {"type": "LineString", "coordinates": [[690079.04, 5332000.0], [690081.33, 5332004.88], [690106.32, 5332056.88], [690127.56, 5332100.91], [690130.88, 5332102.14]]}}, {"type": "Feature", "properties": {"kind": "retaining_wall", "h": 3.0}, "geometry": {"type": "LineString", "coordinates": [[691674.76, 5333676.25], [691677.63, 5333673.01], [691694.79, 5333687.82], [691702.12, 5333694.71], [691720.55, 5333712.06], [691725.62, 5333716.78], [691741.44, 5333731.64], [691752.43, 5333741.96], [691765.16, 5333751.06], [691789.26, 5333768.29], [691807.86, 5333781.58], [691840.6, 5333802.54], [691878.67, 5333827.54], [691920.59, 5333859.59], [691939.14, 5333874.04], [691958.23, 5333890.87], [691995.73, 5333922.4], [692000.0, 5333926.14]]}}, {"type": "Feature", "properties": {"kind": "retaining_wall", "h": 3.0}, "geometry": {"type": "LineString", "coordinates": [[692000.0, 5333868.33], [691970.72, 5333843.99], [691966.72, 5333840.47]]}}, {"type": "Feature", "properties": {"kind": "wall", "h": 1.5}, "geometry": {"type": "LineString", "coordinates": [[690050.59, 5333321.31], [690064.78, 5333312.57]]}}, {"type": "Feature", "properties": {"kind": "wall", "h": 1.5}, "geometry": {"type": "LineString", "coordinates": [[690000.39, 5332869.94], [690003.79, 5332875.41], [690025.55, 5332910.37]]}}, {"type": "Feature", "properties": {"kind": "wall", "h": 1.5}, "geometry": {"type": "LineString", "coordinates": [[690224.82, 5333514.15], [690200.77, 5333513.48], [690189.98, 5333513.2], [690178.96, 5333512.91]]}}, {"type": "Feature", "properties": {"kind": "wall", "h": 1.5}, "geometry": {"type": "LineString", "coordinates": [[690118.64, 5333537.4], [690167.28, 5333541.17]]}}, {"type": "Feature", "properties": {"kind": "wall", "h": 1.5}, "geometry": {"type": "LineString", "coordinates": [[690131.98, 5333601.69], [690135.19, 5333597.85], [690153.31, 5333599.29], [690173.12, 5333597.83]]}}, {"type": "Feature", "properties": {"kind": "retaining_wall", "h": 3.0}, "geometry": {"type": "LineString", "coordinates": [[691905.11, 5332402.39], [691856.88, 5332399.04], [691851.54, 5332375.59], [691894.69, 5332357.7]]}}, {"type": "Feature", "properties": {"kind": "retaining_wall", "h": 3.0}, "geometry": {"type": "LineString", "coordinates": [[691822.5, 5332422.09], [691822.92, 5332425.94]]}}, {"type": "Feature", "properties": {"kind": "retaining_wall", "h": 3.0}, "geometry": {"type": "LineString", "coordinates": [[691797.75, 5332460.01], [691795.92, 5332438.69]]}}, {"type": "Feature", "properties": {"kind": "retaining_wall", "h": 3.0}, "geometry": {"type": "LineString", "coordinates": [[691800.16, 5332453.53], [691798.53, 5332426.37], [691804.96, 5332419.21], [691822.47, 5332417.26], [691832.44, 5332416.15]]}}, {"type": "Feature", "properties": {"kind": "retaining_wall", "h": 3.0}, "geometry": {"type": "LineString", "coordinates": [[691829.42, 5332425.81], [691829.03, 5332422.81], [691868.66, 5332417.66], [691902.77, 5332419.79], [691902.64, 5332423.48], [691902.08, 5332425.46], [691900.5, 5332427.8], [691899.27, 5332428.74]]}}, {"type": "Feature", "properties": {"kind": "retaining_wall", "h": 3.0}, "geometry": {"type": "LineString", "coordinates": [[691837.39, 5332420.51], [691847.77, 5332419.6], [691847.47, 5332416.26], [691837.36, 5332417.15]]}}, {"type": "Feature", "properties": {"kind": "retaining_wall", "h": 3.0}, "geometry": {"type": "LineString", "coordinates": [[691839.2, 5332378.62], [691834.35, 5332380.3], [691830.75, 5332381.68], [691827.7, 5332383.21], [691826.08, 5332385.6], [691824.96, 5332387.56], [691824.78, 5332389.22], [691824.95, 5332390.26], [691825.17, 5332391.79], [691827.0, 5332393.65], [691828.92, 5332394.61]]}}, {"type": "Feature", "properties": {"kind": "retaining_wall", "h": 3.0}, "geometry": {"type": "LineString", "coordinates": [[691801.9, 5332360.14], [691803.31, 5332362.58], [691805.27, 5332365.42], [691807.2, 5332367.38], [691809.68, 5332369.37], [691814.36, 5332371.21], [691818.2, 5332371.79], [691822.25, 5332371.62], [691826.79, 5332370.13], [691832.78, 5332367.49]]}}, {"type": "Feature", "properties": {"kind": "wall", "h": 1.5}, "geometry": {"type": "LineString", "coordinates": [[690258.57, 5333271.51], [690247.17, 5333279.22]]}}, {"type": "Feature", "properties": {"kind": "wall", "h": 1.5}, "geometry": {"type": "LineString", "coordinates": [[690888.55, 5332784.0], [690887.97, 5332784.74], [690884.63, 5332782.13], [690885.07, 5332781.57]]}}, {"type": "Feature", "properties": {"kind": "wall", "h": 1.5}, "geometry": {"type": "LineString", "coordinates": [[690726.15, 5333244.34], [690729.77, 5333244.91], [690731.81, 5333251.57], [690737.69, 5333252.48], [690740.37, 5333251.04]]}}, {"type": "Feature", "properties": {"kind": "wall", "h": 1.5}, "geometry": {"type": "LineString", "coordinates": [[690700.23, 5333337.2], [690697.68, 5333338.2], [690635.67, 5333367.38], [690607.23, 5333310.12], [690602.5, 5333300.48]]}}, {"type": "Feature", "properties": {"kind": "wall", "h": 1.5}, "geometry": {"type": "LineString", "coordinates": [[690749.87, 5333246.07], [690757.2, 5333242.05], [690764.33, 5333258.44], [690772.23, 5333276.53], [690783.29, 5333301.84], [690780.61, 5333302.99], [690777.77, 5333304.21], [690741.87, 5333320.69]]}}, {"type": "Feature", "properties": {"kind": "wall", "h": 1.5}, "geometry": {"type": "LineString", "coordinates": [[691185.44, 5333651.46], [691189.26, 5333651.76], [691195.41, 5333650.94]]}}, {"type": "Feature", "properties": {"kind": "wall", "h": 1.5}, "geometry": {"type": "LineString", "coordinates": [[690235.57, 5333465.35], [690236.77, 5333455.33], [690236.82, 5333447.27], [690237.04, 5333435.38]]}}, {"type": "Feature", "properties": {"kind": "wall", "h": 1.5}, "geometry": {"type": "LineString", "coordinates": [[690092.23, 5333277.73], [690081.78, 5333261.91]]}}, {"type": "Feature", "properties": {"kind": "wall", "h": 1.5}, "geometry": {"type": "LineString", "coordinates": [[690256.95, 5332740.93], [690265.56, 5332738.09], [690271.92, 5332737.19], [690279.64, 5332749.89]]}}, {"type": "Feature", "properties": {"kind": "wall", "h": 1.5}, "geometry": {"type": "LineString", "coordinates": [[690246.46, 5332712.23], [690241.3, 5332712.86], [690243.02, 5332725.64], [690243.87, 5332742.03], [690242.89, 5332749.75], [690242.53, 5332752.25], [690242.21, 5332753.87], [690239.85, 5332766.12], [690238.85, 5332771.34]]}}, {"type": "Feature", "properties": {"kind": "wall", "h": 1.5}, "geometry": {"type": "LineString", "coordinates": [[690131.55, 5333108.67], [690115.82, 5333102.87], [690113.58, 5333102.75]]}}, {"type": "Feature", "properties": {"kind": "wall", "h": 1.5}, "geometry": {"type": "LineString", "coordinates": [[690565.93, 5333901.93], [690558.45, 5333893.25]]}}, {"type": "Feature", "properties": {"kind": "wall", "h": 1.5}, "geometry": {"type": "LineString", "coordinates": [[690534.93, 5333890.34], [690550.74, 5333904.77]]}}, {"type": "Feature", "properties": {"kind": "wall", "h": 1.5}, "geometry": {"type": "LineString", "coordinates": [[690982.51, 5333169.68], [690971.1, 5333182.92]]}}, {"type": "Feature", "properties": {"kind": "wall", "h": 1.5}, "geometry": {"type": "LineString", "coordinates": [[690967.9, 5333112.07], [690951.39, 5333131.48], [690961.75, 5333145.62]]}}, {"type": "Feature", "properties": {"kind": "wall", "h": 1.5}, "geometry": {"type": "LineString", "coordinates": [[690935.45, 5333290.0], [690942.77, 5333288.86]]}}, {"type": "Feature", "properties": {"kind": "wall", "h": 1.5}, "geometry": {"type": "LineString", "coordinates": [[690935.8, 5333304.15], [690944.21, 5333303.09]]}}, {"type": "Feature", "properties": {"kind": "wall", "h": 1.5}, "geometry": {"type": "LineString", "coordinates": [[691064.28, 5333383.56], [691056.6, 5333378.04]]}}, {"type": "Feature", "properties": {"kind": "wall", "h": 1.5}, "geometry": {"type": "LineString", "coordinates": [[691072.47, 5333343.78], [691075.52, 5333346.14]]}}, {"type": "Feature", "properties": {"kind": "wall", "h": 1.5}, "geometry": {"type": "LineString", "coordinates": [[691059.96, 5333297.21], [691055.1, 5333302.56]]}}, {"type": "Feature", "properties": {"kind": "wall", "h": 1.5}, "geometry": {"type": "LineString", "coordinates": [[691075.48, 5333310.28], [691068.66, 5333316.0]]}}, {"type": "Feature", "properties": {"kind": "wall", "h": 1.5}, "geometry": {"type": "LineString", "coordinates": [[690918.5, 5333274.38], [690938.17, 5333273.15]]}}, {"type": "Feature", "properties": {"kind": "wall", "h": 1.5}, "geometry": {"type": "LineString", "coordinates": [[690983.41, 5333401.08], [690962.7, 5333396.37], [690962.71, 5333390.28]]}}, {"type": "Feature", "properties": {"kind": "wall", "h": 1.5}, "geometry": {"type": "LineString", "coordinates": [[690962.7, 5333396.37], [690957.78, 5333401.29]]}}, {"type": "Feature", "properties": {"kind": "wall", "h": 1.5}, "geometry": {"type": "LineString", "coordinates": [[690999.53, 5333408.0], [690997.08, 5333407.5]]}}, {"type": "Feature", "properties": {"kind": "wall", "h": 1.5}, "geometry": {"type": "LineString", "coordinates": [[691012.95, 5333410.76], [691016.71, 5333411.53]]}}, {"type": "Feature", "properties": {"kind": "wall", "h": 1.5}, "geometry": {"type": "LineString", "coordinates": [[691029.43, 5333428.07], [691024.66, 5333424.12]]}}, {"type": "Feature", "properties": {"kind": "wall", "h": 1.5}, "geometry": {"type": "LineString", "coordinates": [[691029.53, 5333452.81], [691011.53, 5333439.9], [691013.6, 5333433.9]]}}, {"type": "Feature", "properties": {"kind": "wall", "h": 1.5}, "geometry": {"type": "LineString", "coordinates": [[690990.06, 5333441.19], [691004.04, 5333444.28]]}}, {"type": "Feature", "properties": {"kind": "wall", "h": 1.5}, "geometry": {"type": "LineString", "coordinates": [[691008.53, 5333354.47], [691037.84, 5333360.95]]}}, {"type": "Feature", "properties": {"kind": "wall", "h": 1.5}, "geometry": {"type": "LineString", "coordinates": [[691020.79, 5333392.57], [691024.35, 5333393.3]]}}, {"type": "Feature", "properties": {"kind": "wall", "h": 1.5}, "geometry": {"type": "LineString", "coordinates": [[691019.14, 5333375.99], [691025.22, 5333377.51]]}}, {"type": "Feature", "properties": {"kind": "wall", "h": 1.5}, "geometry": {"type": "LineString", "coordinates": [[690015.05, 5333341.65], [690034.83, 5333328.15]]}}, {"type": "Feature", "properties": {"kind": "wall", "h": 1.5}, "geometry": {"type": "LineString", "coordinates": [[690033.99, 5333350.98], [690030.21, 5333353.5]]}}, {"type": "Feature", "properties": {"kind": "wall", "h": 1.5}, "geometry": {"type": "LineString", "coordinates": [[690043.96, 5333380.72], [690048.57, 5333384.74]]}}, {"type": "Feature", "properties": {"kind": "wall", "h": 1.5}, "geometry": {"type": "LineString", "coordinates": [[690005.04, 5333393.72], [690010.58, 5333397.78]]}}, {"type": "Feature", "properties": {"kind": "wall", "h": 1.5}, "geometry": {"type": "LineString", "coordinates": [[690026.51, 5333409.82], [690015.76, 5333401.78]]}}, {"type": "Feature", "properties": {"kind": "wall", "h": 1.5}, "geometry": {"type": "LineString", "coordinates": [[690026.02, 5333388.13], [690048.96, 5333405.9]]}}, {"type": "Feature", "properties": {"kind": "wall", "h": 1.5}, "geometry": {"type": "LineString", "coordinates": [[690006.56, 5333436.11], [690002.62, 5333432.82]]}}, {"type": "Feature", "properties": {"kind": "wall", "h": 1.5}, "geometry": {"type": "LineString", "coordinates": [[690119.91, 5333322.7], [690116.66, 5333318.56]]}}, {"type": "Feature", "properties": {"kind": "wall", "h": 1.5}, "geometry": {"type": "LineString", "coordinates": [[690085.35, 5333482.41], [690111.29, 5333484.27]]}}, {"type": "Feature", "properties": {"kind": "wall", "h": 1.5}, "geometry": {"type": "LineString", "coordinates": [[690256.4, 5333944.62], [690272.44, 5333936.62]]}}, {"type": "Feature", "properties": {"kind": "retaining_wall", "h": 3.0}, "geometry": {"type": "LineString", "coordinates": [[690365.81, 5333403.43], [690330.77, 5333429.37]]}}, {"type": "Feature", "properties": {"kind": "retaining_wall", "h": 3.0}, "geometry": {"type": "LineString", "coordinates": [[690333.42, 5333432.79], [690368.47, 5333406.52]]}}, {"type": "Feature", "properties": {"kind": "wall", "h": 1.5}, "geometry": {"type": "LineString", "coordinates": [[691483.44, 5332912.56], [691489.09, 5332920.6]]}}, {"type": "Feature", "properties": {"kind": "wall", "h": 1.5}, "geometry": {"type": "LineString", "coordinates": [[691521.54, 5332543.69], [691528.35, 5332558.07], [691529.39, 5332560.26]]}}, {"type": "Feature", "properties": {"kind": "wall", "h": 1.5}, "geometry": {"type": "LineString", "coordinates": [[691525.83, 5332558.19], [691528.35, 5332558.07]]}}, {"type": "Feature", "properties": {"kind": "wall", "h": 1.5}, "geometry": {"type": "LineString", "coordinates": [[690731.26, 5333745.79], [690735.04, 5333758.58], [690744.54, 5333787.38], [690750.03, 5333803.37], [690752.32, 5333810.22], [690776.8, 5333866.87], [690778.88, 5333872.11], [690791.55, 5333906.23], [690851.98, 5333884.14], [690864.6, 5333879.38], [690847.21, 5333840.01], [690829.16, 5333798.52], [690816.44, 5333797.23], [690811.68, 5333785.84], [690806.69, 5333773.86], [690811.87, 5333759.08], [690797.04, 5333726.95], [690731.26, 5333745.79]]}}, {"type": "Feature", "properties": {"kind": "fence", "type": "railing", "h": 1.2}, "geometry": {"type": "LineString", "coordinates": [[691812.85, 5333576.45], [691829.05, 5333558.53], [691775.44, 5333504.13], [691744.77, 5333516.13]]}}, {"type": "Feature", "properties": {"kind": "fence", "type": "railing", "h": 1.2}, "geometry": {"type": "LineString", "coordinates": [[691468.96, 5333261.57], [691466.92, 5333263.67], [691464.76, 5333265.89], [691458.49, 5333260.05], [691450.25, 5333268.1], [691325.11, 5333156.3], [691435.17, 5333117.34], [691576.35, 5333236.71], [691537.57, 5333252.16], [691486.19, 5333273.96], [691477.19, 5333263.72], [691474.23, 5333263.06]]}}, {"type": "Feature", "properties": {"kind": "fence", "type": "railing", "h": 1.2}, "geometry": {"type": "LineString", "coordinates": [[691970.72, 5333843.99], [691978.29, 5333834.95], [691986.86, 5333825.6]]}}, {"type": "Feature", "properties": {"kind": "fence", "type": "railing", "h": 1.2}, "geometry": {"type": "LineString", "coordinates": [[691691.57, 5332839.79], [691675.66, 5332802.43], [691676.48, 5332799.01], [691678.46, 5332794.9], [691680.36, 5332792.76], [691719.02, 5332771.99]]}}, {"type": "Feature", "properties": {"kind": "fence", "type": "railing", "h": 1.2}, "geometry": {"type": "LineString", "coordinates": [[691950.33, 5333191.74], [691951.0, 5333194.49], [691949.32, 5333197.02], [691916.65, 5333212.02], [691909.54, 5333215.39], [691907.84, 5333214.52]]}}, {"type": "Feature", "properties": {"kind": "fence", "type": "railing", "h": 1.2}, "geometry": {"type": "LineString", "coordinates": [[691867.34, 5333194.13], [691864.25, 5333197.06], [691857.66, 5333189.36], [691835.79, 5333148.32], [691831.56, 5333140.39]]}}, {"type": "Feature", "properties": {"kind": "fence", "type": "railing", "h": 1.2}, "geometry": {"type": "LineString", "coordinates": [[691595.2, 5333750.06], [691610.15, 5333757.78]]}}, {"type": "Feature", "properties": {"kind": "fence", "type": "railing", "h": 1.2}, "geometry": {"type": "LineString", "coordinates": [[691750.3, 5332433.16], [691748.4, 5332425.48], [691758.8, 5332423.29]]}}, {"type": "Feature", "properties": {"kind": "fence", "type": "railing", "h": 1.2}, "geometry": {"type": "LineString", "coordinates": [[691737.55, 5332468.6], [691765.43, 5332464.16], [691763.17, 5332443.9]]}}, {"type": "Feature", "properties": {"kind": "fence", "type": "railing", "h": 1.2}, "geometry": {"type": "LineString", "coordinates": [[690942.25, 5332324.56], [690940.7, 5332326.66], [690938.57, 5332329.54]]}}, {"type": "Feature", "properties": {"kind": "fence", "type": "railing", "h": 1.2}, "geometry": {"type": "LineString", "coordinates": [[690928.43, 5332211.77], [690896.75, 5332210.88], [690896.6, 5332217.49], [690817.95, 5332215.11], [690813.53, 5332313.94], [690924.89, 5332326.14], [690934.42, 5332326.07]]}}, {"type": "Feature", "properties": {"kind": "fence", "type": "railing", "h": 1.2}, "geometry": {"type": "LineString", "coordinates": [[691003.78, 5333307.95], [691003.34, 5333310.1], [691002.85, 5333312.26], [690975.84, 5333306.28]]}}, {"type": "Feature", "properties": {"kind": "fence", "type": "railing", "h": 1.2}, "geometry": {"type": "LineString", "coordinates": [[691001.89, 5333316.57], [691002.45, 5333314.07], [691002.85, 5333312.26]]}}, {"type": "Feature", "properties": {"kind": "fence", "type": "railing", "h": 1.2}, "geometry": {"type": "LineString", "coordinates": [[691012.57, 5333265.86], [691012.94, 5333264.28], [691013.36, 5333262.46], [691013.8, 5333260.59], [691014.27, 5333258.58]]}}, {"type": "Feature", "properties": {"kind": "fence", "type": "railing", "h": 1.2}, "geometry": {"type": "LineString", "coordinates": [[690995.22, 5333257.95], [691013.36, 5333262.46]]}}, {"type": "Feature", "properties": {"kind": "fence", "type": "railing", "h": 1.2}, "geometry": {"type": "LineString", "coordinates": [[690399.71, 5332544.02], [690398.12, 5332540.27], [690393.52, 5332542.21], [690395.13, 5332545.96], [690399.71, 5332544.02]]}}, {"type": "Feature", "properties": {"kind": "fence", "type": "railing", "h": 1.2}, "geometry": {"type": "LineString", "coordinates": [[690383.32, 5332546.24], [690375.15, 5332549.33], [690396.14, 5332604.54]]}}, {"type": "Feature", "properties": {"kind": "fence", "type": "railing", "h": 1.2}, "geometry": {"type": "LineString", "coordinates": [[691617.93, 5333010.02], [691610.31, 5333000.9]]}}, {"type": "Feature", "properties": {"kind": "fence", "type": "railing", "h": 1.2}, "geometry": {"type": "LineString", "coordinates": [[691744.8, 5332766.62], [691747.66, 5332754.82], [691752.15, 5332755.88], [691749.26, 5332767.75]]}}, {"type": "Feature", "properties": {"kind": "fence", "type": "railing", "h": 1.2}, "geometry": {"type": "LineString", "coordinates": [[691810.97, 5332731.5], [691808.68, 5332740.78], [691804.31, 5332739.58], [691806.5, 5332730.4]]}}, {"type": "Feature", "properties": {"kind": "fence", "type": "railing", "h": 1.2}, "geometry": {"type": "LineString", "coordinates": [[691733.64, 5332941.48], [691736.12, 5332929.93], [691740.62, 5332930.91], [691738.12, 5332942.5]]}}, {"type": "Feature", "properties": {"kind": "fence", "type": "railing", "h": 1.2}, "geometry": {"type": "LineString", "coordinates": [[691737.53, 5332729.3], [691748.31, 5332724.41], [691750.2, 5332728.58], [691739.53, 5332733.43]]}}, {"type": "Feature", "properties": {"kind": "fence", "type": "railing", "h": 1.2}, "geometry": {"type": "LineString", "coordinates": [[691779.07, 5332773.57], [691781.5, 5332762.87], [691785.97, 5332763.94], [691783.55, 5332774.63]]}}, {"type": "Feature", "properties": {"kind": "fence", "type": "railing", "h": 1.2}, "geometry": {"type": "LineString", "coordinates": [[691741.47, 5332703.57], [691750.96, 5332707.67], [691749.25, 5332711.93], [691739.55, 5332707.74]]}}, {"type": "Feature", "properties": {"kind": "fence", "type": "railing", "h": 1.2}, "geometry": {"type": "LineString", "coordinates": [[691806.47, 5332783.37], [691803.44, 5332772.0], [691807.76, 5332770.95], [691810.9, 5332782.13]]}}, {"type": "Feature", "properties": {"kind": "fence", "type": "railing", "h": 1.2}, "geometry": {"type": "LineString", "coordinates": [[691397.57, 5332139.26], [691409.85, 5332136.21], [691410.8, 5332140.02], [691398.47, 5332143.08]]}}, {"type": "Feature", "properties": {"kind": "fence", "type": "railing", "h": 1.2}, "geometry": {"type": "LineString", "coordinates": [[691445.67, 5332142.67], [691443.06, 5332133.57], [691446.53, 5332132.58], [691449.14, 5332141.66]]}}, {"type": "Feature", "properties": {"kind": "fence", "type": "railing", "h": 1.2}, "geometry": {"type": "LineString", "coordinates": [[691630.55, 5333760.04], [691637.52, 5333766.82], [691640.15, 5333764.13], [691633.24, 5333757.41]]}}, {"type": "Feature", "properties": {"kind": "fence", "type": "railing", "h": 1.2}, "geometry": {"type": "LineString", "coordinates": [[691669.07, 5333780.13], [691660.27, 5333788.8], [691656.9, 5333785.4], [691665.7, 5333776.73]]}}, {"type": "Feature", "properties": {"kind": "fence", "type": "railing", "h": 1.2}, "geometry": {"type": "LineString", "coordinates": [[690560.65, 5332673.89], [690704.7, 5332578.56], [690726.11, 5332564.4]]}}, {"type": "Feature", "properties": {"kind": "fence", "type": "railing", "h": 1.2}, "geometry": {"type": "LineString", "coordinates": [[690735.19, 5332578.04], [690709.5, 5332595.04], [690569.74, 5332687.53]]}}, {"type": "Feature", "properties": {"kind": "fence", "type": "railing", "h": 1.2}, "geometry": {"type": "LineString", "coordinates": [[690463.57, 5332738.17], [690520.52, 5332700.48]]}}, {"type": "Feature", "properties": {"kind": "fence", "type": "railing", "h": 1.2}, "geometry": {"type": "LineString", "coordinates": [[690617.48, 5332020.2], [690529.46, 5332000.0]]}}, {"type": "Feature", "properties": {"kind": "fence", "type": "railing", "h": 1.2}, "geometry": {"type": "LineString", "coordinates": [[690526.45, 5332709.4], [690469.51, 5332747.08]]}}, {"type": "Feature", "properties": {"kind": "fence", "type": "railing", "h": 1.2}, "geometry": {"type": "LineString", "coordinates": [[692000.0, 5333771.82], [691967.94, 5333810.05]]}}, {"type": "Feature", "properties": {"kind": "fence", "type": "railing", "h": 1.2}, "geometry": {"type": "LineString", "coordinates": [[691966.72, 5333840.47], [691938.28, 5333874.47]]}}, {"type": "Feature", "properties": {"kind": "fence", "type": "railing", "h": 1.2}, "geometry": {"type": "LineString", "coordinates": [[692000.0, 5333800.17], [691981.94, 5333821.71]]}}, {"type": "Feature", "properties": {"kind": "fence", "type": "railing", "h": 1.2}, "geometry": {"type": "LineString", "coordinates": [[691817.0, 5333610.46], [691719.69, 5333711.51]]}}, {"type": "Feature", "properties": {"kind": "fence", "type": "railing", "h": 1.2}, "geometry": {"type": "LineString", "coordinates": [[691702.14, 5333694.94], [691799.46, 5333593.77]]}}, {"type": "Feature", "properties": {"kind": "fence", "type": "railing", "h": 1.2}, "geometry": {"type": "LineString", "coordinates": [[691952.66, 5333828.79], [691924.23, 5333862.78]]}}, {"type": "Feature", "properties": {"kind": "fence", "type": "railing", "h": 1.2}, "geometry": {"type": "LineString", "coordinates": [[691704.14, 5332916.1], [691715.07, 5332918.56], [691714.01, 5332923.25], [691702.55, 5332920.68]]}}, {"type": "Feature", "properties": {"kind": "fence", "type": "railing", "h": 1.2}, "geometry": {"type": "LineString", "coordinates": [[691763.12, 5332913.68], [691751.96, 5332910.51], [691753.31, 5332905.8], [691764.4, 5332908.97]]}}, {"type": "Feature", "properties": {"kind": "fence", "type": "railing", "h": 1.0}, "geometry": {"type": "LineString", "coordinates": [[691982.64, 5332340.13], [691976.28, 5332330.9], [691977.21, 5332330.27], [691979.07, 5332328.99], [691980.08, 5332328.29], [691986.44, 5332337.53]]}}, {"type": "Feature", "properties": {"kind": "fence", "type": "railing", "h": 1.2}, "geometry": {"type": "LineString", "coordinates": [[691996.71, 5332338.49], [691990.33, 5332329.06], [691991.2, 5332328.47], [691992.95, 5332327.3], [691994.03, 5332326.57], [692000.0, 5332335.39]]}}, {"type": "Feature", "properties": {"kind": "fence", "type": "railing", "h": 1.2}, "geometry": {"type": "LineString", "coordinates": [[691945.53, 5332321.5], [691956.18, 5332317.31], [691956.73, 5332318.7], [691957.28, 5332320.11], [691946.62, 5332324.29]]}}, {"type": "Feature", "properties": {"kind": "fence", "type": "railing", "h": 1.2}, "geometry": {"type": "LineString", "coordinates": [[691963.82, 5332302.47], [691957.24, 5332283.52]]}}, {"type": "Feature", "properties": {"kind": "fence", "type": "railing", "h": 1.2}, "geometry": {"type": "LineString", "coordinates": [[691954.59, 5332276.81], [691946.56, 5332254.79], [691938.53, 5332237.82]]}}, {"type": "Feature", "properties": {"kind": "fence", "type": "railing", "h": 1.2}, "geometry": {"type": "LineString", "coordinates": [[690956.94, 5332572.52], [690959.06, 5332574.33], [690959.73, 5332574.88], [691038.19, 5332641.4]]}}, {"type": "Feature", "properties": {"kind": "fence", "type": "railing", "h": 1.2}, "geometry": {"type": "LineString", "coordinates": [[690949.9, 5332566.5], [690950.61, 5332567.1], [690953.58, 5332569.65]]}}, {"type": "Feature", "properties": {"kind": "fence", "type": "railing", "h": 1.2}, "geometry": {"type": "LineString", "coordinates": [[691595.44, 5332262.6], [691595.13, 5332270.32], [691595.3, 5332274.21], [691596.19, 5332277.34], [691615.97, 5332346.23], [691617.01, 5332351.05], [691617.64, 5332355.86], [691617.56, 5332361.13], [691616.7, 5332366.08], [691615.65, 5332370.63], [691612.86, 5332376.31], [691610.23, 5332380.41], [691608.06, 5332382.33], [691605.14, 5332371.23]]}}, {"type": "Feature", "properties": {"kind": "fence", "type": "railing", "h": 1.2}, "geometry": {"type": "LineString", "coordinates": [[691586.58, 5332261.83], [691589.27, 5332204.97], [691584.81, 5332203.2], [691577.62, 5332193.76], [691571.16, 5332183.29], [691568.55, 5332178.78], [691554.47, 5332151.33], [691544.32, 5332128.88], [691532.9, 5332115.58], [691527.95, 5332117.18]]}}, {"type": "Feature", "properties": {"kind": "fence", "type": "railing", "h": 1.2}, "geometry": {"type": "LineString", "coordinates": [[691600.1, 5332209.31], [691610.17, 5332218.66], [691628.17, 5332235.26], [691632.79, 5332237.98], [691638.04, 5332241.0], [691645.37, 5332270.6]]}}, {"type": "Feature", "properties": {"kind": "fence", "type": "railing", "h": 1.2}, "geometry": {"type": "LineString", "coordinates": [[690496.45, 5333983.45], [690487.97, 5333977.1]]}}, {"type": "Feature", "properties": {"kind": "fence", "type": "railing", "h": 1.2}, "geometry": {"type": "LineString", "coordinates": [[690405.89, 5333915.63], [690423.06, 5333928.48]]}}, {"type": "Feature", "properties": {"kind": "fence", "type": "railing", "h": 1.2}, "geometry": {"type": "LineString", "coordinates": [[690245.06, 5333741.52], [690258.54, 5333723.68]]}}, {"type": "Feature", "properties": {"kind": "fence", "type": "railing", "h": 1.2}, "geometry": {"type": "LineString", "coordinates": [[690000.0, 5333193.15], [690028.35, 5333174.89]]}}, {"type": "Feature", "properties": {"kind": "fence", "type": "railing", "h": 1.2}, "geometry": {"type": "LineString", "coordinates": [[690013.67, 5333272.56], [690000.0, 5333249.74]]}}, {"type": "Feature", "properties": {"kind": "fence", "type": "railing", "h": 1.2}, "geometry": {"type": "LineString", "coordinates": [[690013.67, 5333272.56], [690016.0, 5333276.97]]}}, {"type": "Feature", "properties": {"kind": "fence", "type": "mesh", "h": 1.2}, "geometry": {"type": "LineString", "coordinates": [[690082.5, 5333024.67], [690077.6, 5333017.48]]}}, {"type": "Feature", "properties": {"kind": "fence", "type": "railing", "h": 1.2}, "geometry": {"type": "LineString", "coordinates": [[690025.36, 5332592.03], [690026.2, 5332593.43], [690026.97, 5332594.72], [690035.36, 5332608.69], [690041.39, 5332618.74], [690042.68, 5332620.88]]}}, {"type": "Feature", "properties": {"kind": "fence", "type": "railing", "h": 1.2}, "geometry": {"type": "LineString", "coordinates": [[690013.59, 5332543.93], [690023.05, 5332538.02], [690000.0, 5332501.15]]}}, {"type": "Feature", "properties": {"kind": "fence", "type": "railing", "h": 1.2}, "geometry": {"type": "LineString", "coordinates": [[690632.63, 5332788.21], [690640.24, 5332780.75], [690643.39, 5332777.67], [690645.67, 5332775.58], [690644.18, 5332772.04]]}}, {"type": "Feature", "properties": {"kind": "fence", "type": "railing", "h": 1.2}, "geometry": {"type": "LineString", "coordinates": [[690562.21, 5332706.35], [690581.58, 5332693.3], [690595.87, 5332713.47], [690608.61, 5332731.32], [690607.29, 5332735.47]]}}, {"type": "Feature", "properties": {"kind": "fence", "type": "railing", "h": 1.2}, "geometry": {"type": "LineString", "coordinates": [[690245.35, 5332020.21], [690242.73, 5332015.2]]}}, {"type": "Feature", "properties": {"kind": "fence", "type": "railing", "h": 1.2}, "geometry": {"type": "LineString", "coordinates": [[690111.48, 5332002.5], [690110.3, 5332000.0]]}}, {"type": "Feature", "properties": {"kind": "fence", "type": "railing", "h": 1.2}, "geometry": {"type": "LineString", "coordinates": [[690071.81, 5333024.36], [690046.76, 5333041.48], [690001.02, 5333072.33], [690004.58, 5333077.7], [690000.0, 5333080.89]]}}, {"type": "Feature", "properties": {"kind": "fence", "type": "mesh", "h": 1.2}, "geometry": {"type": "LineString", "coordinates": [[690072.01, 5333053.75], [690078.95, 5333036.19], [690071.81, 5333024.36]]}}, {"type": "Feature", "properties": {"kind": "fence", "type": "railing", "h": 1.2}, "geometry": {"type": "LineString", "coordinates": [[690130.88, 5332102.14], [690146.3, 5332135.21], [690169.42, 5332182.93], [690194.46, 5332235.23], [690210.72, 5332268.12]]}}, {"type": "Feature", "properties": {"kind": "fence", "type": "railing", "h": 1.2}, "geometry": {"type": "LineString", "coordinates": [[690275.63, 5332437.56], [690288.19, 5332431.21], [690273.21, 5332399.73], [690256.58, 5332362.98], [690235.93, 5332321.1], [690227.12, 5332302.29], [690218.42, 5332283.71]]}}, {"type": "Feature", "properties": {"kind": "fence", "type": "railing", "h": 1.2}, "geometry": {"type": "LineString", "coordinates": [[690343.88, 5332709.31], [690350.25, 5332704.0], [690361.15, 5332694.92], [690369.25, 5332688.06], [690374.51, 5332683.07], [690377.62, 5332677.53], [690378.88, 5332673.14], [690380.54, 5332665.46], [690381.93, 5332654.39], [690382.05, 5332647.06], [690380.18, 5332640.19], [690375.33, 5332630.0], [690348.11, 5332570.79], [690317.63, 5332500.41], [690309.91, 5332481.71], [690303.22, 5332467.22], [690291.04, 5332472.57]]}}, {"type": "Feature", "properties": {"kind": "fence", "type": "railing", "h": 1.2}, "geometry": {"type": "LineString", "coordinates": [[690732.87, 5333097.96], [690713.61, 5333097.35]]}}, {"type": "Feature", "properties": {"kind": "fence", "type": "picket", "h": 2.0}, "geometry": {"type": "LineString", "coordinates": [[690953.63, 5332761.93], [690959.59, 5332765.08], [690963.51, 5332768.34], [691031.67, 5332824.22], [691123.38, 5332904.77], [691136.6, 5332918.18], [691145.11, 5332928.96], [691149.16, 5332939.31], [691149.62, 5332950.79]]}}, {"type": "Feature", "properties": {"kind": "fence", "type": "railing", "h": 1.2}, "geometry": {"type": "LineString", "coordinates": [[691149.62, 5332950.79], [691179.11, 5332942.14], [691192.61, 5332942.78], [691209.53, 5332946.15], [691217.17, 5332946.86], [691220.16, 5332943.23], [691254.2, 5332901.72]]}}, {"type": "Feature", "properties": {"kind": "fence", "type": "railing", "h": 1.2}, "geometry": {"type": "LineString", "coordinates": [[690722.7, 5333136.86], [690753.4, 5333192.28], [690761.12, 5333188.95], [690749.9, 5333143.94], [690742.09, 5333127.24], [690722.7, 5333136.86]]}}, {"type": "Feature", "properties": {"kind": "fence", "type": "railing", "h": 1.2}, "geometry": {"type": "LineString", "coordinates": [[690056.1, 5333482.61], [690061.49, 5333485.41], [690067.4, 5333487.76]]}}, {"type": "Feature", "properties": {"kind": "fence", "type": "railing", "h": 1.2}, "geometry": {"type": "LineString", "coordinates": [[690115.31, 5333480.43], [690130.51, 5333481.32], [690132.1, 5333446.35], [690104.24, 5333444.99], [690102.9, 5333479.71], [690110.53, 5333480.15]]}}, {"type": "Feature", "properties": {"kind": "fence", "type": "railing", "h": 1.2}, "geometry": {"type": "LineString", "coordinates": [[690724.03, 5332558.63], [690714.55, 5332544.27], [690696.78, 5332517.32], [690678.04, 5332471.6], [690676.71, 5332464.38], [690697.07, 5332451.81], [690715.59, 5332447.16], [690722.79, 5332450.97], [690727.14, 5332452.51], [690731.66, 5332456.7], [690727.72, 5332460.01]]}}, {"type": "Feature", "properties": {"kind": "fence", "type": "railing", "h": 1.2}, "geometry": {"type": "LineString", "coordinates": [[690952.96, 5333472.31], [690914.91, 5333448.65], [690901.79, 5333457.61]]}}, {"type": "Feature", "properties": {"kind": "fence", "type": "railing", "h": 1.2}, "geometry": {"type": "LineString", "coordinates": [[691583.55, 5332265.8], [691595.44, 5332262.6]]}}, {"type": "Feature", "properties": {"kind": "fence", "type": "railing", "h": 1.2}, "geometry": {"type": "LineString", "coordinates": [[691595.09, 5332259.37], [691586.58, 5332261.83]]}}, {"type": "Feature", "properties": {"kind": "fence", "type": "railing", "h": 1.2}, "geometry": {"type": "LineString", "coordinates": [[690332.76, 5332457.45], [690331.65, 5332454.92], [690330.96, 5332453.14], [690334.18, 5332451.74], [690332.28, 5332447.18], [690329.26, 5332439.95], [690326.09, 5332441.28], [690323.64, 5332435.32]]}}, {"type": "Feature", "properties": {"kind": "fence", "type": "railing", "h": 1.2}, "geometry": {"type": "LineString", "coordinates": [[690912.38, 5332819.4], [690914.77, 5332822.16], [690921.61, 5332830.09], [690925.48, 5332833.46], [690962.53, 5332865.78], [691014.73, 5332911.32], [691045.96, 5332938.55], [691083.49, 5332971.28], [691092.95, 5332979.54], [691099.55, 5332982.96], [691112.35, 5332984.93], [691116.58, 5332984.0], [691122.07, 5332982.8], [691132.58, 5332978.57], [691140.19, 5332972.61]]}}, {"type": "Feature", "properties": {"kind": "fence", "type": "railing", "h": 1.2}, "geometry": {"type": "LineString", "coordinates": [[690121.16, 5333138.83], [690126.07, 5333124.7], [690128.44, 5333120.82], [690131.14, 5333117.43], [690136.01, 5333112.65], [690161.06, 5333091.69]]}}, {"type": "Feature", "properties": {"kind": "fence", "type": "railing", "h": 1.2}, "geometry": {"type": "LineString", "coordinates": [[690385.13, 5332341.56], [690387.3, 5332341.69], [690388.08, 5332343.38], [690388.8, 5332345.04], [690388.01, 5332347.04]]}}, {"type": "Feature", "properties": {"kind": "fence", "type": "railing", "h": 1.2}, "geometry": {"type": "LineString", "coordinates": [[691053.54, 5333420.56], [691028.41, 5333401.89]]}}, {"type": "Feature", "properties": {"kind": "fence", "type": "railing", "h": 1.2}, "geometry": {"type": "LineString", "coordinates": [[691741.04, 5332671.61], [691765.49, 5332682.17], [691770.7, 5332671.42], [691770.06, 5332668.73], [691769.67, 5332667.11], [691765.45, 5332664.17], [691705.17, 5332634.79], [691688.01, 5332646.72], [691685.34, 5332648.47]]}}, {"type": "Feature", "properties": {"kind": "fence", "type": "railing", "h": 1.2}, "geometry": {"type": "LineString", "coordinates": [[690394.98, 5332783.53], [690381.51, 5332780.6], [690376.59, 5332779.49], [690308.35, 5332828.19]]}}, {"type": "Feature", "properties": {"kind": "fence", "type": "mesh", "h": 1.2}, "geometry": {"type": "LineString", "coordinates": [[690003.79, 5332875.41], [690000.0, 5332877.81]]}}, {"type": "Feature", "properties": {"kind": "fence", "type": "railing", "h": 1.2}, "geometry": {"type": "LineString", "coordinates": [[690447.1, 5333815.04], [690451.49, 5333833.36]]}}, {"type": "Feature", "properties": {"kind": "fence", "type": "railing", "h": 1.2}, "geometry": {"type": "LineString", "coordinates": [[690000.0, 5333005.61], [690028.24, 5332986.9], [690081.81, 5332951.37], [690082.09, 5332951.81], [690085.89, 5332949.25], [690085.62, 5332948.85], [690107.9, 5332934.07], [690139.21, 5332914.4], [690170.58, 5332894.9]]}}, {"type": "Feature", "properties": {"kind": "fence", "type": "railing", "h": 1.2}, "geometry": {"type": "LineString", "coordinates": [[691099.67, 5333542.23], [691063.2, 5333524.28], [691043.37, 5333515.26], [691015.89, 5333503.08], [691012.3, 5333508.39], [691023.84, 5333553.28], [691050.86, 5333551.52], [691069.36, 5333550.58], [691090.91, 5333548.91], [691099.23, 5333548.32], [691099.67, 5333542.23]]}}, {"type": "Feature", "properties": {"kind": "fence", "type": "railing", "h": 1.2}, "geometry": {"type": "LineString", "coordinates": [[691520.18, 5332621.13], [691527.14, 5332624.83], [691550.87, 5332609.78], [691551.3, 5332608.3], [691551.32, 5332606.25], [691550.85, 5332604.13], [691540.75, 5332583.74], [691536.37, 5332574.09], [691532.31, 5332565.73]]}}, {"type": "Feature", "properties": {"kind": "fence", "type": "railing", "h": 1.2}, "geometry": {"type": "LineString", "coordinates": [[691530.58, 5332562.36], [691529.39, 5332560.26]]}}, {"type": "Feature", "properties": {"kind": "fence", "type": "railing", "h": 1.2}, "geometry": {"type": "LineString", "coordinates": [[690000.0, 5333503.6], [690019.7, 5333518.77], [690035.82, 5333499.97], [690015.24, 5333484.07], [690000.0, 5333502.95]]}}, {"type": "Feature", "properties": {"kind": "gate", "w": 1.2, "on": "wall"}, "geometry": {"type": "Point", "coordinates": [690734.42, 5333352.05]}}, {"type": "Feature", "properties": {"kind": "gate", "w": 1.2, "on": "wall"}, "geometry": {"type": "Point", "coordinates": [690832.96, 5333762.32]}}, {"type": "Feature", "properties": {"kind": "gate", "w": 1.2, "on": "wall"}, "geometry": {"type": "Point", "coordinates": [690962.09, 5333731.0]}}, {"type": "Feature", "properties": {"kind": "gate", "w": 1.2, "on": "fence"}, "geometry": {"type": "Point", "coordinates": [691466.92, 5333263.67]}}, {"type": "Feature", "properties": {"kind": "gate", "w": 1.2, "on": "fence"}, "geometry": {"type": "Point", "coordinates": [691978.29, 5333834.95]}}, {"type": "Feature", "properties": {"kind": "gate", "w": 4.0, "on": "fence", "type": "lift_gate"}, "geometry": {"type": "Point", "coordinates": [691916.65, 5333212.02]}}, {"type": "Feature", "properties": {"kind": "gate", "w": 4.0, "on": "fence", "type": "lift_gate"}, "geometry": {"type": "Point", "coordinates": [691835.79, 5333148.32]}}, {"type": "Feature", "properties": {"kind": "gate", "w": 1.2, "on": "wall"}, "geometry": {"type": "Point", "coordinates": [691959.33, 5332977.81]}}, {"type": "Feature", "properties": {"kind": "gate", "w": 1.2, "on": "wall"}, "geometry": {"type": "Point", "coordinates": [691843.79, 5332538.5]}}, {"type": "Feature", "properties": {"kind": "gate", "w": 1.2, "on": "wall"}, "geometry": {"type": "Point", "coordinates": [691838.93, 5332353.16]}}, {"type": "Feature", "properties": {"kind": "gate", "w": 1.2, "on": "wall"}, "geometry": {"type": "Point", "coordinates": [691738.27, 5332472.39]}}, {"type": "Feature", "properties": {"kind": "gate", "w": 1.2, "on": "wall"}, "geometry": {"type": "Point", "coordinates": [691735.73, 5332457.52]}}, {"type": "Feature", "properties": {"kind": "gate", "w": 1.2, "on": "wall"}, "geometry": {"type": "Point", "coordinates": [691717.71, 5332604.2]}}, {"type": "Feature", "properties": {"kind": "gate", "w": 1.2, "on": "fence"}, "geometry": {"type": "Point", "coordinates": [690940.7, 5332326.66]}}, {"type": "Feature", "properties": {"kind": "gate", "w": 1.2, "on": "fence"}, "geometry": {"type": "Point", "coordinates": [691003.34, 5333310.1]}}, {"type": "Feature", "properties": {"kind": "gate", "w": 1.2, "on": "fence"}, "geometry": {"type": "Point", "coordinates": [691002.45, 5333314.07]}}, {"type": "Feature", "properties": {"kind": "gate", "w": 1.2, "on": "fence"}, "geometry": {"type": "Point", "coordinates": [691013.8, 5333260.59]}}, {"type": "Feature", "properties": {"kind": "gate", "w": 1.2, "on": "fence"}, "geometry": {"type": "Point", "coordinates": [691012.94, 5333264.28]}}, {"type": "Feature", "properties": {"kind": "gate", "w": 1.2, "on": "wall"}, "geometry": {"type": "Point", "coordinates": [690697.68, 5333338.2]}}, {"type": "Feature", "properties": {"kind": "gate", "w": 1.2, "on": "fence"}, "geometry": {"type": "Point", "coordinates": [690950.61, 5332567.1]}}, {"type": "Feature", "properties": {"kind": "gate", "w": 1.2, "on": "fence"}, "geometry": {"type": "Point", "coordinates": [691571.16, 5332183.29]}}, {"type": "Feature", "properties": {"kind": "gate", "w": 1.2, "on": "fence"}, "geometry": {"type": "Point", "coordinates": [691632.79, 5332237.98]}}, {"type": "Feature", "properties": {"kind": "gate", "w": 1.2, "on": "wall"}, "geometry": {"type": "Point", "coordinates": [691295.53, 5332488.91]}}, {"type": "Feature", "properties": {"kind": "gate", "w": 1.2, "on": "wall"}, "geometry": {"type": "Point", "coordinates": [691298.61, 5332477.61]}}, {"type": "Feature", "properties": {"kind": "gate", "w": 1.2, "on": "wall"}, "geometry": {"type": "Point", "coordinates": [690691.64, 5332925.19]}}, {"type": "Feature", "properties": {"kind": "gate", "w": 1.2, "on": "wall"}, "geometry": {"type": "Point", "coordinates": [690340.64, 5333409.42]}}, {"type": "Feature", "properties": {"kind": "gate", "w": 1.2, "on": "wall"}, "geometry": {"type": "Point", "coordinates": [690104.03, 5333146.33]}}, {"type": "Feature", "properties": {"kind": "gate", "w": 1.2, "on": "fence"}, "geometry": {"type": "Point", "coordinates": [690035.36, 5332608.69]}}, {"type": "Feature", "properties": {"kind": "gate", "w": 1.2, "on": "fence"}, "geometry": {"type": "Point", "coordinates": [690041.39, 5332618.74]}}, {"type": "Feature", "properties": {"kind": "gate", "w": 1.2, "on": "fence"}, "geometry": {"type": "Point", "coordinates": [690026.2, 5332593.43]}}, {"type": "Feature", "properties": {"kind": "gate", "w": 1.2, "on": "fence"}, "geometry": {"type": "Point", "coordinates": [690013.67, 5333272.56]}}, {"type": "Feature", "properties": {"kind": "gate", "w": 1.2, "on": "wall"}, "geometry": {"type": "Point", "coordinates": [690173.96, 5333782.5]}}, {"type": "Feature", "properties": {"kind": "gate", "w": 1.2, "on": "fence"}, "geometry": {"type": "Point", "coordinates": [690595.87, 5332713.47]}}, {"type": "Feature", "properties": {"kind": "gate", "w": 1.2, "on": "fence"}, "geometry": {"type": "Point", "coordinates": [690350.25, 5332704.0]}}, {"type": "Feature", "properties": {"kind": "gate", "w": 1.2, "on": "fence"}, "geometry": {"type": "Point", "coordinates": [691220.16, 5332943.23]}}, {"type": "Feature", "properties": {"kind": "gate", "w": 1.2, "on": "fence"}, "geometry": {"type": "Point", "coordinates": [690061.49, 5333485.41]}}, {"type": "Feature", "properties": {"kind": "gate", "w": 1.2, "on": "fence"}, "geometry": {"type": "Point", "coordinates": [690714.55, 5332544.27]}}, {"type": "Feature", "properties": {"kind": "gate", "w": 1.2, "on": "fence"}, "geometry": {"type": "Point", "coordinates": [690722.79, 5332450.97]}}, {"type": "Feature", "properties": {"kind": "gate", "w": 1.2, "on": "wall"}, "geometry": {"type": "Point", "coordinates": [690772.23, 5333276.53]}}, {"type": "Feature", "properties": {"kind": "gate", "w": 1.2, "on": "wall"}, "geometry": {"type": "Point", "coordinates": [690780.61, 5333302.99]}}, {"type": "Feature", "properties": {"kind": "gate", "w": 1.2, "on": "fence"}, "geometry": {"type": "Point", "coordinates": [690332.28, 5332447.18]}}, {"type": "Feature", "properties": {"kind": "gate", "w": 1.2, "on": "fence"}, "geometry": {"type": "Point", "coordinates": [690958.0, 5332764.24]}}, {"type": "Feature", "properties": {"kind": "gate", "w": 1.2, "on": "wall"}, "geometry": {"type": "Point", "coordinates": [690099.58, 5333130.4]}}, {"type": "Feature", "properties": {"kind": "gate", "w": 1.2, "on": "fence", "seam": true}, "geometry": {"type": "Point", "coordinates": [689999.89, 5332877.88]}}, {"type": "Feature", "properties": {"kind": "gate", "w": 1.2, "on": "fence"}, "geometry": {"type": "Point", "coordinates": [690227.12, 5332302.29]}}, {"type": "Feature", "properties": {"kind": "gate", "w": 1.2, "on": "wall"}, "geometry": {"type": "Point", "coordinates": [691741.61, 5332675.31]}}, {"type": "Feature", "properties": {"kind": "gate", "w": 1.2, "on": "fence"}, "geometry": {"type": "Point", "coordinates": [691701.13, 5332637.6]}}, {"type": "Feature", "properties": {"kind": "gate", "w": 1.2, "on": "fence"}, "geometry": {"type": "Point", "coordinates": [691770.06, 5332668.73]}}, {"type": "Feature", "properties": {"kind": "gate", "w": 1.2, "on": "wall"}, "geometry": {"type": "Point", "coordinates": [691712.8, 5332676.73]}}]}