{"type": "FeatureCollection", "attribution": "\u00a9 OpenStreetMap contributors (ODbL)", "crs": {"type": "name", "properties": {"name": "urn:ogc:def:crs:EPSG::25833"}}, "features": [{"type": "Feature", "properties": {"k": "colony"}, "geometry": {"type": "Polygon", "coordinates": [[[317928.2, 5688513.94], [317997.03, 5688540.32], [317992.44, 5688549.19], [317994.38, 5688550.17], [317998.69, 5688552.59], [318000.0, 5688550.32], [318000.0, 5688265.71], [317928.2, 5688513.94]]]}}, {"type": "Feature", "properties": {"k": "colony"}, "geometry": {"type": "Polygon", "coordinates": [[[316107.03, 5688920.56], [316102.66, 5688911.93], [316102.13, 5688910.73], [316090.26, 5688883.95], [316076.02, 5688867.21], [316063.35, 5688859.77], [316032.23, 5688853.95], [316025.27, 5688850.98], [316000.0, 5688840.61], [316000.0, 5688968.0], [316107.03, 5688920.56]]]}}, {"type": "Feature", "properties": {"k": "colony"}, "geometry": {"type": "Polygon", "coordinates": [[[317828.68, 5688031.64], [317829.93, 5688015.82], [317832.81, 5688003.74], [317834.68, 5688000.0], [317555.87, 5688000.0], [317543.25, 5688074.87], [317582.39, 5688073.53], [317582.18, 5688067.64], [317591.09, 5688067.33], [317592.63, 5688068.93], [317592.78, 5688073.17], [317628.79, 5688071.93], [317638.82, 5688071.52], [317638.69, 5688063.02], [317681.8, 5688060.12], [317681.41, 5688054.37], [317692.29, 5688053.63], [317692.68, 5688059.4], [317728.36, 5688057.0], [317733.3, 5688024.9], [317749.2, 5688024.18], [317799.76, 5688022.34], [317799.21, 5688027.85], [317798.76, 5688032.29], [317828.68, 5688031.64]]]}}, {"type": "Feature", "properties": {"k": "colony"}, "geometry": {"type": "Polygon", "coordinates": [[[317348.44, 5688055.99], [317422.49, 5688053.76], [317423.37, 5688043.78], [317425.61, 5688018.31], [317427.83, 5688018.58], [317431.26, 5688019.03], [317433.28, 5688001.43], [317508.64, 5688010.95], [317509.17, 5688002.42], [317550.34, 5688005.93], [317551.33, 5688000.0], [317352.35, 5688000.0], [317348.44, 5688055.99]]]}}]}