{"type": "FeatureCollection", "attribution": "Quelle: GeoSN, dl-de/by-2-0 (laser scan); \u00a9 OpenStreetMap contributors (ODbL)", "crs": {"type": "name", "properties": {"name": "urn:ogc:def:crs:EPSG::25833"}}, "features": [{"type": "Feature", "properties": {"kind": "hedge", "h": 1.5, "w": 1.0, "src": "osm"}, "geometry": {"type": "LineString", "coordinates": [[318803.0, 5690181.2], [318914.4, 5690142.6]]}}, {"type": "Feature", "properties": {"kind": "hedge", "h": 2.0, "w": 1.0, "src": "osm+lsc"}, "geometry": {"type": "LineString", "coordinates": [[318734.7, 5690229.0], [318714.9, 5690234.9]]}}, {"type": "Feature", "properties": {"kind": "hedge", "h": 1.5, "w": 1.0, "src": "osm"}, "geometry": {"type": "LineString", "coordinates": [[318717.9, 5690200.4], [318772.5, 5690191.1]]}}, {"type": "Feature", "properties": {"kind": "hedge", "h": 2.0, "w": 1.0, "src": "osm+lsc"}, "geometry": {"type": "LineString", "coordinates": [[318818.1, 5690199.2], [318775.6, 5690213.6]]}}, {"type": "Feature", "properties": {"kind": "hedge", "h": 1.5, "w": 1.0, "src": "osm"}, "geometry": {"type": "LineString", "coordinates": [[318777.0, 5690190.0], [318794.6, 5690184.0]]}}, {"type": "Feature", "properties": {"kind": "hedge", "h": 1.5, "w": 1.0, "src": "osm"}, "geometry": {"type": "LineString", "coordinates": [[318906.2, 5690168.7], [318922.6, 5690162.8]]}}, {"type": "Feature", "properties": {"kind": "hedge", "h": 1.5, "w": 1.0, "src": "osm"}, "geometry": {"type": "LineString", "coordinates": [[318926.3, 5690161.4], [318957.8, 5690150.4]]}}, {"type": "Feature", "properties": {"kind": "hedge", "h": 1.5, "w": 1.0, "src": "osm"}, "geometry": {"type": "LineString", "coordinates": [[318823.9, 5690196.8], [318866.6, 5690182.2]]}}, {"type": "Feature", "properties": {"kind": "hedge", "h": 1.5, "w": 1.0, "src": "osm"}, "geometry": {"type": "LineString", "coordinates": [[319075.3, 5690086.1], [319093.0, 5690079.9]]}}, {"type": "Feature", "properties": {"kind": "hedge", "h": 1.5, "w": 1.0, "src": "osm"}, "geometry": {"type": "LineString", "coordinates": [[318919.5, 5690140.9], [318950.8, 5690129.9]]}}, {"type": "Feature", "properties": {"kind": "hedge", "h": 1.5, "w": 1.0, "src": "osm"}, "geometry": {"type": "LineString", "coordinates": [[319024.3, 5690104.1], [319071.9, 5690087.3]]}}, {"type": "Feature", "properties": {"kind": "hedge", "h": 1.5, "w": 1.0, "src": "osm"}, "geometry": {"type": "LineString", "coordinates": [[319188.0, 5690069.8], [319160.8, 5690079.3]]}}, {"type": "Feature", "properties": {"kind": "hedge", "h": 1.5, "w": 1.0, "src": "osm"}, "geometry": {"type": "LineString", "coordinates": [[318026.8, 5691564.2], [318059.3, 5691609.3]]}}, {"type": "Feature", "properties": {"kind": "hedge", "h": 1.5, "w": 1.0, "src": "osm"}, "geometry": {"type": "LineString", "coordinates": [[318010.7, 5691574.3], [318038.5, 5691612.9]]}}, {"type": "Feature", "properties": {"kind": "hedge", "h": 1.2, "w": 2.0, "src": "osm+lsc"}, "geometry": {"type": "LineString", "coordinates": [[318400.0, 5690915.5], [318399.9, 5690905.2], [318389.6, 5690905.3], [318389.7, 5690908.8]]}}, {"type": "Feature", "properties": {"kind": "hedge", "h": 1.5, "w": 1.0, "src": "osm"}, "geometry": {"type": "LineString", "coordinates": [[319162.7, 5691433.7], [319188.8, 5691430.6]]}}, {"type": "Feature", "properties": {"kind": "hedge", "h": 1.2, "w": 1.4, "src": "osm+lsc"}, "geometry": {"type": "LineString", "coordinates": [[319064.8, 5691445.3], [319157.1, 5691434.4]]}}, {"type": "Feature", "properties": {"kind": "hedge", "h": 1.5, "w": 1.0, "src": "osm"}, "geometry": {"type": "LineString", "coordinates": [[319058.9, 5691445.8], [319054.5, 5691446.3], [319023.9, 5691449.5], [319026.7, 5691472.6]]}}, {"type": "Feature", "properties": {"kind": "hedge", "h": 1.5, "w": 1.0, "src": "osm"}, "geometry": {"type": "LineString", "coordinates": [[318468.7, 5691287.2], [318468.7, 5691337.8], [318464.0, 5691346.3], [318461.4, 5691345.0]]}}, {"type": "Feature", "properties": {"kind": "hedge", "h": 1.5, "w": 1.0, "src": "osm"}, "geometry": {"type": "LineString", "coordinates": [[319138.5, 5690087.2], [319122.2, 5690093.0]]}}, {"type": "Feature", "properties": {"kind": "hedge", "h": 2.2, "w": 1.0, "src": "osm+lsc"}, "geometry": {"type": "LineString", "coordinates": [[319100.1, 5690100.9], [319082.0, 5690107.4]]}}, {"type": "Feature", "properties": {"kind": "hedge", "h": 1.5, "w": 1.0, "src": "osm"}, "geometry": {"type": "LineString", "coordinates": [[319094.9, 5690079.3], [319113.5, 5690072.7]]}}, {"type": "Feature", "properties": {"kind": "hedge", "h": 1.5, "w": 1.0, "src": "osm"}, "geometry": {"type": "LineString", "coordinates": [[319120.6, 5690093.6], [319102.0, 5690100.2]]}}, {"type": "Feature", "properties": {"kind": "hedge", "h": 1.5, "w": 1.0, "src": "osm"}, "geometry": {"type": "LineString", "coordinates": [[319159.0, 5690080.0], [319140.6, 5690086.4]]}}, {"type": "Feature", "properties": {"kind": "hedge", "h": 1.5, "w": 1.0, "src": "osm"}, "geometry": {"type": "LineString", "coordinates": [[319115.5, 5690072.0], [319131.5, 5690066.4]]}}, {"type": "Feature", "properties": {"kind": "hedge", "h": 1.5, "w": 1.0, "src": "osm"}, "geometry": {"type": "LineString", "coordinates": [[318959.3, 5690149.9], [318985.0, 5690140.9]]}}, {"type": "Feature", "properties": {"kind": "hedge", "h": 1.5, "w": 1.0, "src": "osm"}, "geometry": {"type": "LineString", "coordinates": [[318986.6, 5690140.3], [318998.7, 5690136.1]]}}, {"type": "Feature", "properties": {"kind": "hedge", "h": 1.5, "w": 1.0, "src": "osm"}, "geometry": {"type": "LineString", "coordinates": [[318952.3, 5690129.4], [319005.3, 5690110.8]]}}, {"type": "Feature", "properties": {"kind": "hedge", "h": 1.5, "w": 1.0, "src": "osm"}, "geometry": {"type": "LineString", "coordinates": [[319007.0, 5690110.2], [319020.2, 5690105.6]]}}, {"type": "Feature", "properties": {"kind": "hedge", "h": 1.5, "w": 1.0, "src": "osm"}, "geometry": {"type": "LineString", "coordinates": [[319000.3, 5690135.5], [319019.4, 5690128.8]]}}, {"type": "Feature", "properties": {"kind": "hedge", "h": 1.5, "w": 1.0, "src": "osm"}, "geometry": {"type": "LineString", "coordinates": [[319133.5, 5690065.7], [319151.8, 5690059.3]]}}, {"type": "Feature", "properties": {"kind": "hedge", "h": 1.5, "w": 1.0, "src": "osm"}, "geometry": {"type": "LineString", "coordinates": [[319153.6, 5690058.6], [319180.4, 5690049.2]]}}, {"type": "Feature", "properties": {"kind": "hedge", "h": 2.9, "w": 1.0, "src": "osm+lsc"}, "geometry": {"type": "LineString", "coordinates": [[319033.9, 5690055.0], [319034.1, 5690066.0]]}}, {"type": "Feature", "properties": {"kind": "hedge", "h": 1.5, "w": 1.0, "src": "osm"}, "geometry": {"type": "LineString", "coordinates": [[318404.0, 5691317.3], [318383.8, 5691308.3]]}}, {"type": "Feature", "properties": {"kind": "hedge", "h": 1.5, "w": 1.0, "src": "osm"}, "geometry": {"type": "LineString", "coordinates": [[318458.8, 5691343.8], [318412.3, 5691321.1]]}}, {"type": "Feature", "properties": {"kind": "hedge", "h": 1.5, "w": 1.0, "src": "osm"}, "geometry": {"type": "LineString", "coordinates": [[318000.0, 5690304.1], [318052.4, 5690286.1]]}}, {"type": "Feature", "properties": {"kind": "hedge", "h": 1.5, "w": 1.0, "src": "osm"}, "geometry": {"type": "LineString", "coordinates": [[318514.4, 5690768.2], [318530.7, 5690768.7]]}}, {"type": "Feature", "properties": {"kind": "hedge", "h": 1.5, "w": 1.0, "src": "osm"}, "geometry": {"type": "LineString", "coordinates": [[319306.5, 5690144.0], [319300.7, 5690146.6]]}}, {"type": "Feature", "properties": {"kind": "hedge", "h": 1.5, "w": 1.0, "src": "osm"}, "geometry": {"type": "LineString", "coordinates": [[319297.8, 5690147.9], [319294.9, 5690149.1], [319297.3, 5690154.7], [319295.6, 5690155.3], [319291.4, 5690157.1]]}}, {"type": "Feature", "properties": {"kind": "hedge", "h": 2.3, "w": 2.0, "src": "osm+lsc"}, "geometry": {"type": "LineString", "coordinates": [[318655.3, 5691187.6], [318661.5, 5691190.9], [318674.7, 5691183.3], [318672.4, 5691175.9]]}}, {"type": "Feature", "properties": {"kind": "hedge", "h": 2.2, "w": 1.4, "src": "osm+lsc"}, "geometry": {"type": "LineString", "coordinates": [[318632.6, 5691177.1], [318650.6, 5691185.6]]}}, {"type": "Feature", "properties": {"kind": "hedge", "h": 1.5, "w": 1.0, "src": "osm"}, "geometry": {"type": "LineString", "coordinates": [[318548.5, 5691267.0], [318543.5, 5691270.0], [318539.4, 5691274.0], [318535.1, 5691279.1], [318498.4, 5691343.2], [318483.5, 5691369.3]]}}, {"type": "Feature", "properties": {"kind": "hedge", "h": 1.5, "w": 1.0, "src": "osm"}, "geometry": {"type": "LineString", "coordinates": [[318460.9, 5691569.9], [318471.5, 5691567.1], [318478.6, 5691564.5], [318487.6, 5691562.6], [318508.2, 5691558.9]]}}, {"type": "Feature", "properties": {"kind": "hedge", "h": 3.0, "w": 1.0, "src": "osm+lsc"}, "geometry": {"type": "LineString", "coordinates": [[319456.6, 5691671.2], [319454.8, 5691656.8]]}}, {"type": "Feature", "properties": {"kind": "hedge", "h": 1.5, "w": 1.0, "src": "osm"}, "geometry": {"type": "LineString", "coordinates": [[319997.7, 5690350.6], [319998.4, 5690346.4], [320000.0, 5690346.6]]}}, {"type": "Feature", "properties": {"kind": "hedge", "h": 1.5, "w": 1.0, "src": "osm"}, "geometry": {"type": "LineString", "coordinates": [[319215.4, 5690413.9], [319214.8, 5690411.3], [319220.9, 5690410.0]]}}, {"type": "Feature", "properties": {"kind": "hedge", "h": 1.5, "w": 1.0, "src": "osm"}, "geometry": {"type": "LineString", "coordinates": [[319217.5, 5690422.1], [319220.3, 5690433.3], [319219.1, 5690435.1], [319217.8, 5690437.8], [319217.0, 5690442.1], [319216.7, 5690442.2], [319214.7, 5690434.1], [319211.4, 5690420.3], [319211.7, 5690413.6], [319209.6, 5690404.2]]}}, {"type": "Feature", "properties": {"kind": "hedge", "h": 1.5, "w": 1.0, "src": "osm"}, "geometry": {"type": "LineString", "coordinates": [[319910.5, 5690576.1], [319913.1, 5690573.2], [319903.0, 5690563.8], [319898.4, 5690565.7]]}}, {"type": "Feature", "properties": {"kind": "hedge", "h": 1.5, "w": 1.0, "src": "osm"}, "geometry": {"type": "LineString", "coordinates": [[319912.1, 5690577.5], [319914.7, 5690574.6], [319920.3, 5690579.6], [319918.7, 5690583.1], [319917.5, 5690585.8]]}}, {"type": "Feature", "properties": {"kind": "hedge", "h": 1.5, "w": 1.0, "src": "osm"}, "geometry": {"type": "LineString", "coordinates": [[319876.6, 5690620.4], [319881.7, 5690625.4], [319882.1, 5690625.8], [319888.8, 5690618.0]]}}, {"type": "Feature", "properties": {"kind": "hedge", "h": 1.5, "w": 1.0, "src": "osm"}, "geometry": {"type": "LineString", "coordinates": [[319875.4, 5690622.0], [319880.8, 5690627.3], [319873.3, 5690636.0], [319867.7, 5690630.8]]}}, {"type": "Feature", "properties": {"kind": "hedge", "h": 1.5, "w": 1.0, "src": "osm"}, "geometry": {"type": "LineString", "coordinates": [[319859.7, 5690640.0], [319865.1, 5690645.5], [319872.2, 5690637.4], [319866.7, 5690632.0]]}}, {"type": "Feature", "properties": {"kind": "hedge", "h": 1.5, "w": 1.0, "src": "osm"}, "geometry": {"type": "LineString", "coordinates": [[319858.8, 5690641.5], [319864.1, 5690646.6], [319860.5, 5690650.8], [319855.9, 5690656.0]]}}, {"type": "Feature", "properties": {"kind": "hedge", "h": 1.5, "w": 1.0, "src": "osm"}, "geometry": {"type": "LineString", "coordinates": [[319899.9, 5690441.9], [319900.2, 5690436.4], [319894.5, 5690436.2]]}}, {"type": "Feature", "properties": {"kind": "hedge", "h": 1.5, "w": 1.0, "src": "osm"}, "geometry": {"type": "LineString", "coordinates": [[319894.5, 5690436.2], [319891.8, 5690436.1], [319880.9, 5690435.7], [319878.6, 5690435.6], [319868.2, 5690435.2], [319868.1, 5690440.0]]}}, {"type": "Feature", "properties": {"kind": "hedge", "h": 1.5, "w": 1.0, "src": "osm"}, "geometry": {"type": "LineString", "coordinates": [[319846.8, 5690450.0], [319851.3, 5690450.2], [319851.5, 5690441.5], [319850.7, 5690437.8], [319848.5, 5690435.9], [319830.5, 5690435.1], [319830.5, 5690438.7]]}}, {"type": "Feature", "properties": {"kind": "hedge", "h": 1.5, "w": 1.0, "src": "osm"}, "geometry": {"type": "LineString", "coordinates": [[319815.6, 5690439.2], [319815.8, 5690434.3], [319812.5, 5690434.2], [319812.4, 5690439.2]]}}, {"type": "Feature", "properties": {"kind": "hedge", "h": 1.5, "w": 1.0, "src": "osm"}, "geometry": {"type": "LineString", "coordinates": [[319822.0, 5690438.3], [319822.1, 5690434.9], [319819.0, 5690434.7], [319818.9, 5690438.3]]}}, {"type": "Feature", "properties": {"kind": "hedge", "h": 1.5, "w": 1.0, "src": "osm"}, "geometry": {"type": "LineString", "coordinates": [[319804.8, 5690437.8], [319805.0, 5690433.8], [319790.6, 5690433.4], [319787.5, 5690434.7], [319785.9, 5690436.8], [319785.8, 5690443.0], [319788.3, 5690442.9]]}}, {"type": "Feature", "properties": {"kind": "hedge", "h": 1.5, "w": 1.0, "src": "osm"}, "geometry": {"type": "LineString", "coordinates": [[319771.3, 5690479.1], [319774.7, 5690479.1], [319775.0, 5690466.8], [319771.6, 5690466.6]]}}, {"type": "Feature", "properties": {"kind": "hedge", "h": 1.5, "w": 1.0, "src": "osm"}, "geometry": {"type": "LineString", "coordinates": [[319771.6, 5690463.9], [319774.9, 5690464.1], [319775.1, 5690451.3], [319771.9, 5690451.2]]}}, {"type": "Feature", "properties": {"kind": "hedge", "h": 1.5, "w": 1.0, "src": "osm"}, "geometry": {"type": "LineString", "coordinates": [[319771.9, 5690449.1], [319775.4, 5690449.2], [319775.7, 5690435.9], [319775.7, 5690434.6], [319772.4, 5690432.1], [319763.6, 5690431.8], [319749.3, 5690431.4], [319749.3, 5690437.3]]}}, {"type": "Feature", "properties": {"kind": "hedge", "h": 1.5, "w": 1.0, "src": "osm"}, "geometry": {"type": "LineString", "coordinates": [[319771.0, 5690494.3], [319774.5, 5690494.5], [319774.8, 5690481.6], [319771.3, 5690481.6]]}}, {"type": "Feature", "properties": {"kind": "hedge", "h": 1.5, "w": 1.0, "src": "osm"}, "geometry": {"type": "LineString", "coordinates": [[319770.7, 5690510.0], [319774.2, 5690510.0], [319774.4, 5690496.6], [319771.0, 5690496.5]]}}, {"type": "Feature", "properties": {"kind": "hedge", "h": 1.5, "w": 1.0, "src": "osm"}, "geometry": {"type": "LineString", "coordinates": [[319770.5, 5690517.8], [319774.0, 5690517.9], [319774.1, 5690511.8], [319770.6, 5690511.8]]}}, {"type": "Feature", "properties": {"kind": "hedge", "h": 1.3, "w": 2.0, "src": "osm+lsc"}, "geometry": {"type": "LineString", "coordinates": [[319978.9, 5690711.8], [320000.0, 5690688.6]]}}, {"type": "Feature", "properties": {"kind": "hedge", "h": 1.6, "w": 1.0, "src": "osm+lsc"}, "geometry": {"type": "LineString", "coordinates": [[319956.6, 5690625.4], [319951.1, 5690631.6], [319950.7, 5690632.0], [319943.1, 5690625.5]]}}, {"type": "Feature", "properties": {"kind": "hedge", "h": 2.0, "w": 2.0, "src": "osm+lsc"}, "geometry": {"type": "LineString", "coordinates": [[319456.3, 5690698.7], [319445.3, 5690675.6]]}}, {"type": "Feature", "properties": {"kind": "hedge", "h": 2.8, "w": 2.0, "src": "osm+lsc"}, "geometry": {"type": "LineString", "coordinates": [[319971.8, 5690209.2], [319955.6, 5690207.4], [319952.9, 5690206.1], [319950.6, 5690203.4], [319949.7, 5690202.0], [319948.7, 5690198.0], [319948.5, 5690196.8], [319948.2, 5690194.5], [319948.1, 5690190.2], [319948.2, 5690189.0], [319948.3, 5690187.1], [319949.7, 5690183.9], [319953.2, 5690178.8], [319956.5, 5690174.6], [319957.2, 5690173.7], [319960.6, 5690170.5], [319964.1, 5690168.7], [319965.9, 5690168.6], [319967.7, 5690169.1], [319969.9, 5690171.4], [319971.9, 5690174.8], [319973.8, 5690178.5], [319974.9, 5690181.3], [319974.7, 5690183.4], [319974.3, 5690184.1], [319973.7, 5690185.1]]}}, {"type": "Feature", "properties": {"kind": "hedge", "h": 1.5, "w": 1.0, "src": "osm"}, "geometry": {"type": "LineString", "coordinates": [[319983.3, 5690208.1], [319984.4, 5690208.0], [319996.1, 5690207.0], [319998.2, 5690187.9]]}}, {"type": "Feature", "properties": {"kind": "hedge", "h": 2.6, "w": 2.0, "src": "osm+lsc"}, "geometry": {"type": "LineString", "coordinates": [[319998.2, 5690187.9], [319992.2, 5690166.3], [319990.9, 5690166.7], [319978.0, 5690171.4], [319981.1, 5690179.6], [319981.9, 5690188.4], [319990.5, 5690187.6], [319998.2, 5690187.9]]}}, {"type": "Feature", "properties": {"kind": "hedge", "h": 2.9, "w": 2.0, "src": "osm+lsc"}, "geometry": {"type": "LineString", "coordinates": [[319984.0, 5690205.1], [319981.9, 5690188.4]]}}, {"type": "Feature", "properties": {"kind": "hedge", "h": 1.6, "w": 2.0, "src": "osm+lsc"}, "geometry": {"type": "LineString", "coordinates": [[318237.5, 5691136.6], [318243.8, 5691136.0]]}}, {"type": "Feature", "properties": {"kind": "hedge", "h": 1.7, "w": 1.0, "src": "osm+lsc"}, "geometry": {"type": "LineString", "coordinates": [[318254.3, 5691122.0], [318254.2, 5691121.2], [318254.2, 5691118.7]]}}, {"type": "Feature", "properties": {"kind": "hedge", "h": 1.5, "w": 1.0, "src": "osm"}, "geometry": {"type": "LineString", "coordinates": [[318249.4, 5691122.5], [318249.2, 5691119.2]]}}, {"type": "Feature", "properties": {"kind": "hedge", "h": 1.5, "w": 1.0, "src": "osm"}, "geometry": {"type": "LineString", "coordinates": [[318267.2, 5691160.1], [318274.0, 5691160.2]]}}, {"type": "Feature", "properties": {"kind": "hedge", "h": 1.5, "w": 1.0, "src": "osm"}, "geometry": {"type": "LineString", "coordinates": [[318121.6, 5691200.1], [318126.0, 5691200.2], [318127.8, 5691202.0], [318129.5, 5691203.8], [318132.4, 5691226.6], [318129.8, 5691229.7]]}}, {"type": "Feature", "properties": {"kind": "hedge", "h": 2.2, "w": 1.0, "src": "osm+lsc"}, "geometry": {"type": "LineString", "coordinates": [[318122.7, 5691154.8], [318123.9, 5691165.2]]}}, {"type": "Feature", "properties": {"kind": "hedge", "h": 1.5, "w": 1.0, "src": "osm"}, "geometry": {"type": "LineString", "coordinates": [[318121.6, 5691143.3], [318121.1, 5691140.0]]}}, {"type": "Feature", "properties": {"kind": "hedge", "h": 1.5, "w": 1.0, "src": "osm"}, "geometry": {"type": "LineString", "coordinates": [[318122.6, 5691150.9], [318122.1, 5691146.9]]}}, {"type": "Feature", "properties": {"kind": "hedge", "h": 1.7, "w": 1.0, "src": "osm+lsc"}, "geometry": {"type": "LineString", "coordinates": [[318084.4, 5691116.2], [318084.6, 5691117.5], [318090.1, 5691116.9], [318089.7, 5691113.4], [318084.5, 5691114.0]]}}, {"type": "Feature", "properties": {"kind": "hedge", "h": 1.5, "w": 1.0, "src": "osm"}, "geometry": {"type": "LineString", "coordinates": [[318314.7, 5691128.7], [318291.9, 5691131.2], [318289.6, 5691133.9], [318289.3, 5691156.3]]}}, {"type": "Feature", "properties": {"kind": "hedge", "h": 1.7, "w": 1.6, "src": "osm+lsc"}, "geometry": {"type": "LineString", "coordinates": [[318318.2, 5691128.4], [318321.8, 5691127.9], [318324.7, 5691154.8], [318325.1, 5691166.3]]}}, {"type": "Feature", "properties": {"kind": "hedge", "h": 1.5, "w": 1.0, "src": "osm"}, "geometry": {"type": "LineString", "coordinates": [[318325.3, 5691172.5], [318325.4, 5691178.2], [318325.4, 5691178.7], [318316.6, 5691178.7]]}}, {"type": "Feature", "properties": {"kind": "hedge", "h": 1.5, "w": 1.0, "src": "osm"}, "geometry": {"type": "LineString", "coordinates": [[318289.2, 5691161.9], [318288.8, 5691187.3]]}}, {"type": "Feature", "properties": {"kind": "hedge", "h": 1.6, "w": 1.0, "src": "osm+lsc"}, "geometry": {"type": "LineString", "coordinates": [[318267.0, 5691119.8], [318263.3, 5691120.2], [318254.2, 5691121.2]]}}, {"type": "Feature", "properties": {"kind": "hedge", "h": 2.3, "w": 1.4, "src": "osm+lsc"}, "geometry": {"type": "LineString", "coordinates": [[318152.1, 5691113.8], [318165.5, 5691112.2], [318163.9, 5691099.2]]}}, {"type": "Feature", "properties": {"kind": "hedge", "h": 1.5, "w": 1.0, "src": "osm"}, "geometry": {"type": "LineString", "coordinates": [[318385.3, 5691221.6], [318385.3, 5691216.0], [318385.4, 5691209.2]]}}, {"type": "Feature", "properties": {"kind": "hedge", "h": 1.7, "w": 2.0, "src": "osm+lsc"}, "geometry": {"type": "LineString", "coordinates": [[318344.9, 5691100.2], [318344.0, 5691081.1], [318343.2, 5691065.8], [318388.0, 5691064.3]]}}, {"type": "Feature", "properties": {"kind": "hedge", "h": 2.1, "w": 1.0, "src": "osm+lsc"}, "geometry": {"type": "LineString", "coordinates": [[318357.0, 5691099.6], [318356.3, 5691080.6]]}}, {"type": "Feature", "properties": {"kind": "hedge", "h": 1.6, "w": 1.0, "src": "osm+lsc"}, "geometry": {"type": "LineString", "coordinates": [[318382.8, 5691098.4], [318382.4, 5691079.6]]}}, {"type": "Feature", "properties": {"kind": "hedge", "h": 1.2, "w": 2.0, "src": "osm+lsc"}, "geometry": {"type": "LineString", "coordinates": [[318721.5, 5691374.4], [318721.3, 5691369.3], [318757.4, 5691365.6], [318757.7, 5691369.7], [318758.5, 5691381.0], [318753.7, 5691381.3]]}}, {"type": "Feature", "properties": {"kind": "hedge", "h": 1.5, "w": 1.0, "src": "osm"}, "geometry": {"type": "LineString", "coordinates": [[318009.3, 5690560.1], [318048.4, 5690529.7]]}}, {"type": "Feature", "properties": {"kind": "hedge", "h": 1.5, "w": 1.0, "src": "osm"}, "geometry": {"type": "LineString", "coordinates": [[318005.6, 5690563.2], [318000.0, 5690567.4]]}}, {"type": "Feature", "properties": {"kind": "hedge", "h": 1.0, "w": 1.0, "src": "osm"}, "geometry": {"type": "LineString", "coordinates": [[318532.6, 5691558.9], [318589.3, 5691589.9]]}}, {"type": "Feature", "properties": {"kind": "hedge", "h": 1.5, "w": 1.0, "src": "osm+lsc"}, "geometry": {"type": "LineString", "coordinates": [[318413.8, 5690957.1], [318417.9, 5690957.0], [318417.6, 5690952.3], [318416.9, 5690939.8], [318405.2, 5690940.1]]}}, {"type": "Feature", "properties": {"kind": "hedge", "h": 1.5, "w": 1.0, "src": "osm"}, "geometry": {"type": "LineString", "coordinates": [[318431.4, 5690938.3], [318424.7, 5690938.6], [318422.2, 5690946.6], [318421.1, 5690951.5], [318421.3, 5690955.3]]}}, {"type": "Feature", "properties": {"kind": "hedge", "h": 1.6, "w": 2.0, "src": "osm+lsc"}, "geometry": {"type": "LineString", "coordinates": [[318456.0, 5690912.1], [318446.8, 5690912.0], [318447.2, 5690905.1], [318442.1, 5690905.1], [318432.6, 5690905.3]]}}, {"type": "Feature", "properties": {"kind": "hedge", "h": 1.5, "w": 1.0, "src": "osm"}, "geometry": {"type": "LineString", "coordinates": [[318442.0, 5690888.8], [318441.9, 5690893.0], [318449.4, 5690893.1], [318450.3, 5690894.2], [318456.1, 5690894.3]]}}, {"type": "Feature", "properties": {"kind": "hedge", "h": 1.6, "w": 1.2, "src": "osm+lsc"}, "geometry": {"type": "LineString", "coordinates": [[318038.3, 5690101.5], [318049.3, 5690095.0], [318056.7, 5690091.7], [318066.8, 5690087.2], [318074.0, 5690084.0], [318085.9, 5690078.8], [318136.6, 5690066.9], [318170.0, 5690057.4], [318160.5, 5690029.9]]}}, {"type": "Feature", "properties": {"kind": "hedge", "h": 1.6, "w": 1.4, "src": "osm+lsc"}, "geometry": {"type": "LineString", "coordinates": [[318040.9, 5690108.5], [318052.2, 5690100.9], [318059.3, 5690098.1], [318091.4, 5690086.2], [318131.6, 5690073.7], [318142.2, 5690074.5], [318170.0, 5690066.4], [318186.9, 5690109.0], [318208.7, 5690166.2], [318173.0, 5690181.1]]}}, {"type": "Feature", "properties": {"kind": "hedge", "h": 1.6, "w": 1.3, "src": "osm+lsc"}, "geometry": {"type": "LineString", "coordinates": [[318214.5, 5690164.0], [318206.2, 5690142.5], [318227.8, 5690134.8]]}}, {"type": "Feature", "properties": {"kind": "hedge", "h": 1.6, "w": 2.0, "src": "osm+lsc"}, "geometry": {"type": "LineString", "coordinates": [[318188.7, 5690096.7], [318176.2, 5690063.9], [318241.6, 5690045.0]]}}, {"type": "Feature", "properties": {"kind": "hedge", "h": 1.7, "w": 1.4, "src": "osm+lsc"}, "geometry": {"type": "LineString", "coordinates": [[318257.6, 5690077.5], [318252.2, 5690064.0], [318244.1, 5690044.0], [318344.1, 5690000.5], [318360.8, 5690042.8], [318257.6, 5690077.5]]}}, {"type": "Feature", "properties": {"kind": "hedge", "h": 1.5, "w": 1.0, "src": "osm"}, "geometry": {"type": "LineString", "coordinates": [[319266.4, 5690433.9], [319266.7, 5690435.5], [319268.7, 5690445.0]]}}, {"type": "Feature", "properties": {"kind": "hedge", "h": 1.5, "w": 1.0, "src": "osm"}, "geometry": {"type": "LineString", "coordinates": [[319263.5, 5690421.3], [319260.2, 5690409.4]]}}, {"type": "Feature", "properties": {"kind": "hedge", "h": 1.5, "w": 1.0, "src": "osm"}, "geometry": {"type": "LineString", "coordinates": [[319293.7, 5690426.1], [319266.7, 5690435.5]]}}, {"type": "Feature", "properties": {"kind": "hedge", "h": 1.5, "w": 1.0, "src": "osm"}, "geometry": {"type": "LineString", "coordinates": [[319294.2, 5690487.8], [319300.5, 5690487.5]]}}, {"type": "Feature", "properties": {"kind": "hedge", "h": 1.5, "w": 1.0, "src": "osm"}, "geometry": {"type": "LineString", "coordinates": [[319291.3, 5690412.7], [319288.8, 5690413.2], [319282.5, 5690421.5], [319280.2, 5690422.0], [319271.7, 5690424.0], [319264.5, 5690425.7]]}}, {"type": "Feature", "properties": {"kind": "hedge", "h": 1.5, "w": 1.0, "src": "osm"}, "geometry": {"type": "LineString", "coordinates": [[319291.4, 5690405.0], [319290.0, 5690405.1], [319279.4, 5690417.5], [319280.2, 5690422.0]]}}, {"type": "Feature", "properties": {"kind": "hedge", "h": 1.5, "w": 1.0, "src": "osm"}, "geometry": {"type": "LineString", "coordinates": [[319281.0, 5690406.7], [319273.6, 5690417.7], [319271.2, 5690421.1], [319271.7, 5690424.0]]}}, {"type": "Feature", "properties": {"kind": "hedge", "h": 1.5, "w": 1.0, "src": "osm"}, "geometry": {"type": "LineString", "coordinates": [[318633.2, 5691389.9], [318648.5, 5691399.6]]}}, {"type": "Feature", "properties": {"kind": "hedge", "h": 1.5, "w": 1.0, "src": "osm"}, "geometry": {"type": "LineString", "coordinates": [[318632.4, 5691417.9], [318635.6, 5691414.2]]}}, {"type": "Feature", "properties": {"kind": "hedge", "h": 1.5, "w": 1.0, "src": "osm"}, "geometry": {"type": "LineString", "coordinates": [[319967.7, 5690076.0], [319969.4, 5690075.6], [319971.2, 5690084.7], [319966.6, 5690085.8], [319964.8, 5690075.6], [319960.5, 5690053.4], [319963.1, 5690052.9], [319965.1, 5690063.2], [319967.0, 5690062.8], [319967.4, 5690065.2], [319965.7, 5690065.6], [319967.7, 5690076.0]]}}, {"type": "Feature", "properties": {"kind": "hedge", "h": 1.5, "w": 1.0, "src": "osm"}, "geometry": {"type": "LineString", "coordinates": [[318420.2, 5690932.8], [318422.0, 5690932.2], [318423.2, 5690930.6], [318423.5, 5690929.0], [318423.4, 5690927.8], [318420.3, 5690927.1], [318413.1, 5690926.6], [318412.3, 5690930.7], [318413.0, 5690931.5], [318416.8, 5690932.6], [318420.2, 5690932.8]]}}]}