{"type": "FeatureCollection", "attribution": "\u00a9 OpenStreetMap contributors (ODbL)", "crs": {"type": "name", "properties": {"name": "urn:ogc:def:crs:EPSG::25833"}}, "features": [{"type": "Feature", "properties": {"kind": "hedge", "h": 1.5, "w": 1.0, "src": "osm"}, "geometry": {"type": "LineString", "coordinates": [[317142.8, 5689989.8], [317125.1, 5689991.9], [317125.6, 5689996.6]]}}, {"type": "Feature", "properties": {"kind": "hedge", "h": 1.5, "w": 1.0, "src": "osm"}, "geometry": {"type": "LineString", "coordinates": [[316000.0, 5689024.7], [316005.8, 5689019.2], [316024.2, 5689005.7]]}}, {"type": "Feature", "properties": {"kind": "hedge", "h": 1.5, "w": 1.0, "src": "osm"}, "geometry": {"type": "LineString", "coordinates": [[317758.2, 5688187.7], [317765.0, 5688187.4], [317765.0, 5688189.5], [317766.2, 5688210.7]]}}, {"type": "Feature", "properties": {"kind": "hedge", "h": 1.5, "w": 1.0, "src": "osm"}, "geometry": {"type": "LineString", "coordinates": [[317749.2, 5688211.9], [317748.0, 5688190.8], [317747.9, 5688188.2], [317754.5, 5688187.9]]}}, {"type": "Feature", "properties": {"kind": "hedge", "h": 1.5, "w": 1.0, "src": "osm"}, "geometry": {"type": "LineString", "coordinates": [[317766.4, 5688215.0], [317767.1, 5688227.5], [317750.1, 5688228.6], [317749.4, 5688216.1]]}}, {"type": "Feature", "properties": {"kind": "hedge", "h": 1.5, "w": 1.0, "src": "osm"}, "geometry": {"type": "LineString", "coordinates": [[317549.3, 5689683.6], [317561.3, 5689663.5]]}}, {"type": "Feature", "properties": {"kind": "hedge", "h": 1.5, "w": 1.0, "src": "osm"}, "geometry": {"type": "LineString", "coordinates": [[317540.7, 5689707.3], [317546.8, 5689687.9]]}}, {"type": "Feature", "properties": {"kind": "hedge", "h": 1.5, "w": 1.0, "src": "osm"}, "geometry": {"type": "LineString", "coordinates": [[316063.4, 5688859.8], [316032.2, 5688854.0], [316025.3, 5688851.0], [316000.0, 5688840.6]]}}, {"type": "Feature", "properties": {"kind": "hedge", "h": 1.5, "w": 1.0, "src": "osm"}, "geometry": {"type": "LineString", "coordinates": [[317134.9, 5689508.5], [317134.7, 5689496.9], [317126.6, 5689497.0]]}}, {"type": "Feature", "properties": {"kind": "hedge", "h": 1.5, "w": 1.0, "src": "osm"}, "geometry": {"type": "LineString", "coordinates": [[316107.0, 5688920.6], [316102.7, 5688911.9]]}}, {"type": "Feature", "properties": {"kind": "hedge", "h": 1.5, "w": 1.0, "src": "osm"}, "geometry": {"type": "LineString", "coordinates": [[316000.0, 5688968.0], [316107.0, 5688920.6]]}}, {"type": "Feature", "properties": {"kind": "hedge", "h": 1.5, "w": 1.0, "src": "osm"}, "geometry": {"type": "LineString", "coordinates": [[316102.7, 5688911.9], [316102.1, 5688910.7], [316090.3, 5688884.0], [316076.0, 5688867.2], [316063.4, 5688859.8]]}}, {"type": "Feature", "properties": {"kind": "hedge", "h": 1.5, "w": 1.0, "src": "osm"}, "geometry": {"type": "LineString", "coordinates": [[316000.0, 5689404.2], [316021.9, 5689404.6], [316021.9, 5689403.9]]}}, {"type": "Feature", "properties": {"kind": "hedge", "h": 1.5, "w": 1.0, "src": "osm"}, "geometry": {"type": "LineString", "coordinates": [[316061.2, 5689458.4], [316073.1, 5689457.3], [316074.4, 5689456.6], [316075.0, 5689427.6]]}}, {"type": "Feature", "properties": {"kind": "hedge", "h": 1.5, "w": 1.0, "src": "osm"}, "geometry": {"type": "LineString", "coordinates": [[316056.5, 5689458.8], [316051.6, 5689459.2], [316051.3, 5689455.6]]}}, {"type": "Feature", "properties": {"kind": "hedge", "h": 1.5, "w": 1.0, "src": "osm"}, "geometry": {"type": "LineString", "coordinates": [[316075.0, 5689425.0], [316075.1, 5689413.6]]}}, {"type": "Feature", "properties": {"kind": "hedge", "h": 1.5, "w": 1.0, "src": "osm"}, "geometry": {"type": "LineString", "coordinates": [[316058.9, 5689425.0], [316059.1, 5689413.4], [316075.1, 5689413.6]]}}, {"type": "Feature", "properties": {"kind": "hedge", "h": 1.5, "w": 1.0, "src": "osm"}, "geometry": {"type": "LineString", "coordinates": [[316022.0, 5689401.2], [316023.2, 5689363.7], [316000.0, 5689362.7]]}}, {"type": "Feature", "properties": {"kind": "hedge", "h": 1.5, "w": 1.0, "src": "osm"}, "geometry": {"type": "LineString", "coordinates": [[316340.1, 5688021.1], [316341.9, 5688000.0]]}}, {"type": "Feature", "properties": {"kind": "hedge", "h": 1.5, "w": 1.0, "src": "osm"}, "geometry": {"type": "LineString", "coordinates": [[316376.8, 5688021.7], [316397.4, 5688023.4]]}}, {"type": "Feature", "properties": {"kind": "hedge", "h": 1.5, "w": 1.0, "src": "osm"}, "geometry": {"type": "LineString", "coordinates": [[317919.6, 5689653.6], [317918.2, 5689636.1], [317922.8, 5689635.7], [317922.8, 5689627.2]]}}, {"type": "Feature", "properties": {"kind": "hedge", "h": 1.5, "w": 1.0, "src": "osm"}, "geometry": {"type": "LineString", "coordinates": [[317928.7, 5689646.6], [317927.0, 5689648.0], [317924.3, 5689643.9], [317929.4, 5689639.9], [317932.6, 5689643.6], [317931.4, 5689644.8]]}}, {"type": "Feature", "properties": {"kind": "hedge", "h": 1.5, "w": 1.0, "src": "osm"}, "geometry": {"type": "LineString", "coordinates": [[317826.6, 5689689.3], [317825.7, 5689687.8], [317829.4, 5689685.3]]}}, {"type": "Feature", "properties": {"kind": "hedge", "h": 1.5, "w": 1.0, "src": "osm"}, "geometry": {"type": "LineString", "coordinates": [[317824.5, 5689690.7], [317823.7, 5689689.3], [317819.0, 5689692.5], [317820.1, 5689693.8]]}}, {"type": "Feature", "properties": {"kind": "hedge", "h": 1.5, "w": 1.0, "src": "osm"}, "geometry": {"type": "LineString", "coordinates": [[317802.5, 5689706.3], [317801.7, 5689704.6], [317808.2, 5689700.2], [317809.1, 5689701.6]]}}, {"type": "Feature", "properties": {"kind": "hedge", "h": 1.5, "w": 1.0, "src": "osm"}, "geometry": {"type": "LineString", "coordinates": [[317797.8, 5689709.5], [317797.0, 5689708.3], [317799.5, 5689706.3], [317800.6, 5689707.6]]}}, {"type": "Feature", "properties": {"kind": "hedge", "h": 1.5, "w": 1.0, "src": "osm"}, "geometry": {"type": "LineString", "coordinates": [[317249.0, 5688373.2], [317248.7, 5688369.9], [317249.6, 5688368.3]]}}, {"type": "Feature", "properties": {"kind": "hedge", "h": 1.5, "w": 1.0, "src": "osm"}, "geometry": {"type": "LineString", "coordinates": [[317219.5, 5688361.5], [317218.9, 5688348.1]]}}, {"type": "Feature", "properties": {"kind": "hedge", "h": 1.5, "w": 1.0, "src": "osm"}, "geometry": {"type": "LineString", "coordinates": [[317221.8, 5688330.9], [317242.6, 5688329.9]]}}, {"type": "Feature", "properties": {"kind": "hedge", "h": 1.5, "w": 1.0, "src": "osm"}, "geometry": {"type": "LineString", "coordinates": [[317250.0, 5688387.5], [317249.5, 5688376.3]]}}, {"type": "Feature", "properties": {"kind": "hedge", "h": 1.5, "w": 1.0, "src": "osm"}, "geometry": {"type": "LineString", "coordinates": [[317247.4, 5688339.4], [317247.3, 5688328.4]]}}, {"type": "Feature", "properties": {"kind": "hedge", "h": 1.5, "w": 1.0, "src": "osm"}, "geometry": {"type": "LineString", "coordinates": [[317221.2, 5688387.7], [317220.7, 5688374.8]]}}, {"type": "Feature", "properties": {"kind": "hedge", "h": 1.5, "w": 1.0, "src": "osm"}, "geometry": {"type": "LineString", "coordinates": [[317224.7, 5688387.4], [317245.6, 5688386.6]]}}, {"type": "Feature", "properties": {"kind": "hedge", "h": 1.5, "w": 1.0, "src": "osm"}, "geometry": {"type": "LineString", "coordinates": [[317247.3, 5688341.9], [317247.3, 5688345.5], [317250.5, 5688349.9], [317252.5, 5688354.9], [317252.9, 5688358.5], [317252.3, 5688361.4], [317250.9, 5688365.4]]}}, {"type": "Feature", "properties": {"kind": "hedge", "h": 1.5, "w": 1.0, "src": "osm"}, "geometry": {"type": "LineString", "coordinates": [[317218.4, 5688343.4], [317217.7, 5688330.4]]}}, {"type": "Feature", "properties": {"kind": "hedge", "h": 1.5, "w": 1.0, "src": "osm"}, "geometry": {"type": "LineString", "coordinates": [[316462.6, 5689490.5], [316461.2, 5689496.4], [316467.7, 5689497.8], [316469.0, 5689492.0]]}}, {"type": "Feature", "properties": {"kind": "hedge", "h": 1.5, "w": 1.0, "src": "osm"}, "geometry": {"type": "LineString", "coordinates": [[316409.9, 5689478.5], [316408.5, 5689484.9], [316415.7, 5689486.5], [316417.0, 5689480.5], [316417.1, 5689480.1]]}}, {"type": "Feature", "properties": {"kind": "hedge", "h": 1.5, "w": 1.0, "src": "osm"}, "geometry": {"type": "LineString", "coordinates": [[317408.0, 5689732.7], [317417.7, 5689775.4]]}}, {"type": "Feature", "properties": {"kind": "hedge", "h": 1.5, "w": 1.0, "src": "osm"}, "geometry": {"type": "LineString", "coordinates": [[317593.1, 5688807.7], [317601.2, 5688806.3], [317609.6, 5688805.3]]}}, {"type": "Feature", "properties": {"kind": "hedge", "h": 1.5, "w": 1.0, "src": "osm"}, "geometry": {"type": "LineString", "coordinates": [[316666.5, 5688144.8], [316675.5, 5688144.1], [316675.1, 5688138.9], [316674.7, 5688133.9]]}}, {"type": "Feature", "properties": {"kind": "hedge", "h": 1.5, "w": 1.0, "src": "osm"}, "geometry": {"type": "LineString", "coordinates": [[316539.0, 5688786.0], [316562.5, 5688784.0], [316562.2, 5688780.8], [316561.5, 5688773.1], [316561.3, 5688771.2]]}}, {"type": "Feature", "properties": {"kind": "hedge", "h": 1.5, "w": 1.0, "src": "osm"}, "geometry": {"type": "LineString", "coordinates": [[317632.0, 5688381.2], [317624.8, 5688249.1]]}}, {"type": "Feature", "properties": {"kind": "hedge", "h": 1.5, "w": 1.0, "src": "osm"}, "geometry": {"type": "LineString", "coordinates": [[316477.2, 5689712.3], [316484.5, 5689713.5]]}}, {"type": "Feature", "properties": {"kind": "hedge", "h": 1.5, "w": 1.0, "src": "osm"}, "geometry": {"type": "LineString", "coordinates": [[316475.1, 5689717.7], [316483.1, 5689719.1]]}}, {"type": "Feature", "properties": {"kind": "hedge", "h": 1.5, "w": 1.0, "src": "osm"}, "geometry": {"type": "LineString", "coordinates": [[316478.2, 5689704.6], [316486.2, 5689706.4]]}}, {"type": "Feature", "properties": {"kind": "hedge", "h": 1.5, "w": 1.0, "src": "osm"}, "geometry": {"type": "LineString", "coordinates": [[316480.3, 5689698.4], [316487.2, 5689700.1]]}}, {"type": "Feature", "properties": {"kind": "hedge", "h": 1.5, "w": 1.0, "src": "osm"}, "geometry": {"type": "LineString", "coordinates": [[316482.1, 5689690.8], [316489.1, 5689692.9]]}}, {"type": "Feature", "properties": {"kind": "hedge", "h": 1.5, "w": 1.0, "src": "osm"}, "geometry": {"type": "LineString", "coordinates": [[316591.1, 5689798.6], [316643.7, 5689810.2], [316644.2, 5689812.1], [316643.8, 5689813.9]]}}, {"type": "Feature", "properties": {"kind": "hedge", "h": 1.5, "w": 1.0, "src": "osm"}, "geometry": {"type": "LineString", "coordinates": [[317090.5, 5688408.0], [317109.8, 5688407.2], [317109.3, 5688392.4]]}}, {"type": "Feature", "properties": {"kind": "hedge", "h": 1.5, "w": 1.0, "src": "osm"}, "geometry": {"type": "LineString", "coordinates": [[317137.3, 5688405.6], [317118.5, 5688406.4], [317118.4, 5688390.8]]}}, {"type": "Feature", "properties": {"kind": "hedge", "h": 1.5, "w": 1.0, "src": "osm"}, "geometry": {"type": "LineString", "coordinates": [[317105.9, 5688378.2], [317106.0, 5688381.7], [317118.7, 5688381.7]]}}, {"type": "Feature", "properties": {"kind": "hedge", "h": 1.5, "w": 1.0, "src": "osm"}, "geometry": {"type": "LineString", "coordinates": [[317186.1, 5688396.8], [317186.5, 5688400.9], [317184.6, 5688403.5], [317175.9, 5688404.1], [317175.5, 5688397.4]]}}, {"type": "Feature", "properties": {"kind": "hedge", "h": 1.5, "w": 1.0, "src": "osm"}, "geometry": {"type": "LineString", "coordinates": [[317647.7, 5688333.2], [317657.8, 5688332.8], [317657.3, 5688320.3], [317656.5, 5688301.9], [317646.7, 5688302.2], [317650.7, 5688312.7], [317647.7, 5688333.2]]}}, {"type": "Feature", "properties": {"kind": "hedge", "h": 1.5, "w": 1.0, "src": "osm"}, "geometry": {"type": "LineString", "coordinates": [[317675.9, 5688246.0], [317675.6, 5688248.9], [317649.1, 5688250.0], [317649.1, 5688247.6], [317675.9, 5688246.0]]}}, {"type": "Feature", "properties": {"kind": "hedge", "h": 1.5, "w": 1.0, "src": "osm"}, "geometry": {"type": "LineString", "coordinates": [[317646.4, 5688297.2], [317655.6, 5688297.0], [317654.8, 5688273.4], [317645.5, 5688273.8], [317646.2, 5688281.5], [317648.6, 5688289.1], [317646.4, 5688297.2]]}}, {"type": "Feature", "properties": {"kind": "hedge", "h": 1.5, "w": 1.0, "src": "osm"}, "geometry": {"type": "LineString", "coordinates": [[316539.7, 5689482.9], [316545.4, 5689484.2], [316544.0, 5689490.2], [316538.3, 5689488.8], [316539.7, 5689482.9]]}}]}