{"type": "FeatureCollection", "attribution": "Quelle: GeoSN, dl-de/by-2-0; \u00a9 OpenStreetMap contributors (ODbL)", "crs": {"type": "name", "properties": {"name": "urn:ogc:def:crs:EPSG::25833"}}, "features": [{"type": "Feature", "properties": {"kind": "fountain", "source": "osm", "style": "basin", "figure": false}, "geometry": {"type": "Point", "coordinates": [316413.64, 5689598.29]}}, {"type": "Feature", "properties": {"kind": "fountain", "source": "osm", "style": "basin", "figure": false}, "geometry": {"type": "Point", "coordinates": [316929.45, 5688139.48]}}, {"type": "Feature", "properties": {"kind": "statue", "source": "dlm", "name": "Kriegsdenkmal", "relief": {"west": 316014.0, "north": 5689460.0, "cols": 5, "rows": 6, "dm": [0, 0, 0, 0, 0, 0, 0, 0, 13, 0, 0, 0, 0, 19, 0, 0, 0, 8, 9, 0, 0, 26, 0, 0, 0, 0, 0, 0, 0, 0]}}, "geometry": {"type": "Point", "coordinates": [316017.44, 5689458.28]}}, {"type": "Feature", "properties": {"kind": "statue", "source": "dlm", "name": "Heinrich-Heine-Denkmal"}, "geometry": {"type": "Point", "coordinates": [316926.91, 5689544.86]}}, {"type": "Feature", "properties": {"kind": "statue", "source": "dlm", "name": "Kriegsdenkmal"}, "geometry": {"type": "Point", "coordinates": [317151.66, 5689873.88]}}, {"type": "Feature", "properties": {"kind": "statue", "source": "dlm"}, "geometry": {"type": "Point", "coordinates": [317636.86, 5688404.97]}}, {"type": "Feature", "properties": {"kind": "stone", "source": "dlm", "name": "Richard-Strauss-Gedenkstein"}, "geometry": {"type": "Point", "coordinates": [316020.08, 5689919.38]}}, {"type": "Feature", "properties": {"kind": "stone", "source": "dlm", "name": "DGG-Gedenkstein"}, "geometry": {"type": "Point", "coordinates": [317800.16, 5689966.93]}}]}