{"type": "FeatureCollection", "attribution": "Quelle: GeoSN, dl-de/by-2-0; \u00a9 OpenStreetMap contributors (ODbL)", "crs": {"type": "name", "properties": {"name": "urn:ogc:def:crs:EPSG::25833"}}, "features": [{"type": "Feature", "properties": {"kind": "column", "source": "dlm", "name": "Nikolais\u00e4ule"}, "geometry": {"type": "Point", "coordinates": [317453.7, 5690952.64]}}, {"type": "Feature", "properties": {"kind": "fountain", "source": "osm", "style": "basin", "figure": false}, "geometry": {"type": "Point", "coordinates": [316055.07, 5690021.8]}}, {"type": "Feature", "properties": {"kind": "fountain", "source": "osm", "style": "basin", "figure": false}, "geometry": {"type": "Point", "coordinates": [316067.18, 5691197.27]}}, {"type": "Feature", "properties": {"kind": "fountain", "source": "osm", "style": "basin", "figure": false}, "geometry": {"type": "Point", "coordinates": [316802.39, 5690297.47]}}, {"type": "Feature", "properties": {"kind": "fountain", "source": "osm", "style": "basin", "figure": false}, "geometry": {"type": "Polygon", "coordinates": [[[316831.03, 5691951.09], [316829.45, 5691949.23], [316827.39, 5691947.99], [316825.15, 5691947.17], [316823.08, 5691946.98], [316821.24, 5691948.02], [316820.67, 5691949.05], [316820.58, 5691950.19], [316820.91, 5691951.92], [316822.18, 5691953.78], [316824.25, 5691955.02], [316827.14, 5691955.99], [316829.67, 5691955.33], [316831.04, 5691953.91], [316831.26, 5691952.72], [316831.03, 5691951.09]], [[316830.7, 5691951.24], [316829.22, 5691949.51], [316827.24, 5691948.31], [316825.07, 5691947.52], [316823.16, 5691947.34], [316821.5, 5691948.27], [316821.01, 5691949.15], [316820.93, 5691950.17], [316821.24, 5691951.79], [316822.43, 5691953.52], [316824.4, 5691954.7], [316827.16, 5691955.62], [316829.49, 5691955.01], [316830.71, 5691953.74], [316830.9, 5691952.71], [316830.7, 5691951.24]]]}}, {"type": "Feature", "properties": {"kind": "fountain", "source": "osm", "style": "basin", "figure": false}, "geometry": {"type": "Point", "coordinates": [316886.18, 5690911.13]}}, {"type": "Feature", "properties": {"kind": "fountain", "source": "osm", "name": "M\u00e4rchenbrunnen", "style": "basin", "figure": false}, "geometry": {"type": "Point", "coordinates": [316938.23, 5690945.28]}}, {"type": "Feature", "properties": {"kind": "fountain", "source": "osm", "style": "basin", "figure": false}, "geometry": {"type": "Point", "coordinates": [316953.98, 5691339.02]}}, {"type": "Feature", "properties": {"kind": "fountain", "source": "osm", "name": "Drei Brunnenplastiken", "style": "basin", "figure": false}, "geometry": {"type": "Point", "coordinates": [316971.26, 5691315.09]}}, {"type": "Feature", "properties": {"kind": "fountain", "source": "osm", "name": "Drei Brunnenplastiken", "style": "basin", "figure": false}, "geometry": {"type": "Point", "coordinates": [316976.56, 5691332.63]}}, {"type": "Feature", "properties": {"kind": "fountain", "source": "osm", "name": "Villersbrunnen", "style": "basin", "figure": false}, "geometry": {"type": "Polygon", "coordinates": [[[316992.38, 5691443.02], [316991.85, 5691444.05], [316991.95, 5691445.21], [316992.51, 5691446.04], [316993.36, 5691446.51], [316993.42, 5691446.83], [316995.57, 5691446.71], [316997.52, 5691445.81], [316997.46, 5691445.55], [316997.97, 5691444.6], [316997.97, 5691443.54], [316997.46, 5691442.58], [316996.57, 5691441.98], [316996.48, 5691441.73], [316994.3, 5691441.83], [316992.33, 5691442.72], [316992.38, 5691443.02]], [[316992.74, 5691443.08], [316992.21, 5691444.12], [316992.29, 5691445.09], [316992.75, 5691445.78], [316993.68, 5691446.29], [316993.71, 5691446.47], [316995.48, 5691446.37], [316997.11, 5691445.61], [316997.08, 5691445.51], [316997.62, 5691444.51], [316997.62, 5691443.63], [316997.19, 5691442.82], [316996.27, 5691442.2], [316996.23, 5691442.09], [316994.38, 5691442.17], [316992.72, 5691442.93], [316992.74, 5691443.08]]]}}, {"type": "Feature", "properties": {"kind": "fountain", "source": "osm", "name": "Drei Brunnenplastiken", "style": "basin", "figure": false}, "geometry": {"type": "Point", "coordinates": [316994.85, 5691342.03]}}, {"type": "Feature", "properties": {"kind": "fountain", "source": "osm", "name": "Lipsiabrunnen", "style": "basin", "figure": false}, "geometry": {"type": "Polygon", "coordinates": [[[317005.94, 5691029.93], [317006.78, 5691030.51], [317007.55, 5691030.76], [317008.58, 5691030.76], [317009.54, 5691030.4], [317010.04, 5691030.03], [317010.67, 5691029.22], [317010.98, 5691028.25], [317010.83, 5691026.87], [317010.16, 5691025.81], [317009.33, 5691025.2], [317008.75, 5691025.0], [317007.52, 5691024.96], [317006.29, 5691025.49], [317005.58, 5691026.24], [317005.18, 5691027.13], [317005.11, 5691028.16], [317005.26, 5691028.82], [317005.94, 5691029.93]], [[317006.2, 5691029.69], [317006.93, 5691030.2], [317007.61, 5691030.41], [317008.51, 5691030.41], [317009.37, 5691030.09], [317009.8, 5691029.78], [317010.35, 5691029.05], [317010.62, 5691028.21], [317010.49, 5691026.99], [317009.9, 5691026.05], [317009.16, 5691025.51], [317008.69, 5691025.35], [317007.59, 5691025.32], [317006.49, 5691025.78], [317005.88, 5691026.43], [317005.53, 5691027.22], [317005.46, 5691028.13], [317005.59, 5691028.69], [317006.2, 5691029.69]]]}}, {"type": "Feature", "properties": {"kind": "fountain", "source": "osm", "name": "Rathausbrunnen", "style": "basin", "figure": false}, "geometry": {"type": "Polygon", "coordinates": [[[317021.73, 5690548.64], [317020.55, 5690546.38], [317018.12, 5690545.6], [317015.84, 5690546.76], [317015.08, 5690549.19], [317016.26, 5690551.47], [317018.72, 5690552.26], [317020.98, 5690551.07], [317021.73, 5690548.64]], [[317021.35, 5690548.68], [317020.31, 5690546.67], [317018.15, 5690545.98], [317016.13, 5690547.01], [317015.46, 5690549.16], [317016.5, 5690551.18], [317018.69, 5690551.88], [317020.69, 5690550.83], [317021.35, 5690548.68]]]}}, {"type": "Feature", "properties": {"kind": "fountain", "source": "osm", "style": "basin", "figure": false}, "geometry": {"type": "Point", "coordinates": [317034.48, 5690385.48]}}, {"type": "Feature", "properties": {"kind": "fountain", "source": "osm", "style": "basin", "figure": false}, "geometry": {"type": "Polygon", "coordinates": [[[317081.05, 5690849.15], [317088.11, 5690849.71], [317088.37, 5690846.45], [317081.36, 5690845.89], [317081.05, 5690849.15]], [[317081.43, 5690848.83], [317087.79, 5690849.33], [317088.0, 5690846.77], [317081.68, 5690846.26], [317081.43, 5690848.83]]]}}, {"type": "Feature", "properties": {"kind": "fountain", "source": "osm", "style": "basin", "figure": false}, "geometry": {"type": "Polygon", "coordinates": [[[317090.17, 5690849.88], [317097.26, 5690850.47], [317097.52, 5690847.22], [317090.45, 5690846.63], [317090.17, 5690849.88]], [[317090.55, 5690849.56], [317096.94, 5690850.09], [317097.14, 5690847.54], [317090.77, 5690847.01], [317090.55, 5690849.56]]]}}, {"type": "Feature", "properties": {"kind": "fountain", "source": "osm", "style": "basin", "figure": false}, "geometry": {"type": "Polygon", "coordinates": [[[317099.31, 5690850.64], [317106.35, 5690851.23], [317106.64, 5690847.98], [317099.59, 5690847.37], [317099.31, 5690850.64]], [[317099.69, 5690850.32], [317106.04, 5690850.85], [317106.26, 5690848.3], [317099.9, 5690847.75], [317099.69, 5690850.32]]]}}, {"type": "Feature", "properties": {"kind": "fountain", "source": "osm", "style": "basin", "figure": false}, "geometry": {"type": "Point", "coordinates": [317152.78, 5691629.0]}}, {"type": "Feature", "properties": {"kind": "fountain", "source": "osm", "style": "basin", "figure": false}, "geometry": {"type": "Point", "coordinates": [317192.67, 5690671.84]}}, {"type": "Feature", "properties": {"kind": "fountain", "source": "osm", "style": "basin", "figure": false}, "geometry": {"type": "Polygon", "coordinates": [[[317202.13, 5691607.97], [317200.86, 5691607.01], [317199.99, 5691605.82], [317199.43, 5691604.3], [317199.33, 5691603.11], [317199.55, 5691601.71], [317200.21, 5691600.28], [317201.19, 5691599.16], [317202.69, 5691598.23], [317204.12, 5691597.87], [317205.6, 5691597.9], [317206.91, 5691598.27], [317208.06, 5691598.96], [317209.14, 5691600.06], [317209.8, 5691601.25], [317210.16, 5691602.84], [317210.02, 5691604.52], [317209.32, 5691606.15], [317208.33, 5691607.31], [317207.04, 5691608.14], [317205.64, 5691608.57], [317204.01, 5691608.6], [317202.13, 5691607.97]], [[317202.3, 5691607.66], [317204.07, 5691608.25], [317205.59, 5691608.22], [317206.89, 5691607.82], [317208.09, 5691607.04], [317209.01, 5691605.96], [317209.67, 5691604.43], [317209.81, 5691602.87], [317209.47, 5691601.38], [317208.86, 5691600.27], [317207.84, 5691599.23], [317206.77, 5691598.6], [317205.54, 5691598.25], [317204.17, 5691598.22], [317202.83, 5691598.56], [317201.42, 5691599.43], [317200.51, 5691600.48], [317199.89, 5691601.81], [317199.68, 5691603.12], [317199.78, 5691604.22], [317200.3, 5691605.66], [317201.11, 5691606.76], [317202.3, 5691607.66]]]}}, {"type": "Feature", "properties": {"kind": "fountain", "source": "osm", "style": "basin", "figure": false}, "geometry": {"type": "Point", "coordinates": [317204.52, 5691603.16]}}, {"type": "Feature", "properties": {"kind": "fountain", "source": "dlm+osm", "name": "L\u00f6wenbrunnen", "style": "basin", "figure": true, "relief": {"west": 317210.0, "north": 5690907.0, "cols": 5, "rows": 5, "dm": [0, 0, 0, 0, 0, 0, 10, 28, 14, 0, 0, 20, 41, 0, 0, 0, 0, 9, 7, 0, 0, 0, 0, 0, 0]}}, "geometry": {"type": "Point", "coordinates": [317212.35, 5690904.73]}}, {"type": "Feature", "properties": {"kind": "fountain", "source": "osm", "name": "Spielende Kinder", "style": "basin", "figure": false}, "geometry": {"type": "Polygon", "coordinates": [[[317229.31, 5691057.88], [317228.87, 5691058.61], [317228.19, 5691059.14], [317227.37, 5691059.42], [317226.5, 5691059.39], [317225.7, 5691059.08], [317225.05, 5691058.51], [317224.64, 5691057.75], [317224.52, 5691056.89], [317224.69, 5691056.05], [317225.14, 5691055.32], [317225.82, 5691054.79], [317226.64, 5691054.51], [317227.51, 5691054.54], [317228.31, 5691054.85], [317228.95, 5691055.42], [317229.36, 5691056.18], [317229.49, 5691057.04], [317229.31, 5691057.88]], [[317228.98, 5691057.75], [317229.13, 5691057.03], [317229.03, 5691056.3], [317228.68, 5691055.64], [317228.12, 5691055.16], [317227.43, 5691054.89], [317226.69, 5691054.86], [317225.99, 5691055.1], [317225.41, 5691055.56], [317225.02, 5691056.18], [317224.87, 5691056.9], [317224.98, 5691057.63], [317225.33, 5691058.29], [317225.89, 5691058.77], [317226.57, 5691059.05], [317227.32, 5691059.07], [317228.02, 5691058.83], [317228.6, 5691058.37], [317228.98, 5691057.75]]]}}, {"type": "Feature", "properties": {"kind": "fountain", "source": "osm", "style": "basin", "figure": false}, "geometry": {"type": "Polygon", "coordinates": [[[317246.5, 5691487.94], [317244.36, 5691488.91], [317242.8, 5691490.64], [317242.07, 5691492.86], [317242.29, 5691495.19], [317243.42, 5691497.23], [317245.28, 5691498.64], [317247.56, 5691499.18], [317249.62, 5691498.88], [317251.43, 5691497.84], [317252.74, 5691496.23], [317253.4, 5691494.25], [317253.29, 5691492.18], [317252.37, 5691490.17], [317250.76, 5691488.67], [317248.71, 5691487.89], [317246.5, 5691487.94]], [[317246.58, 5691488.29], [317244.57, 5691489.2], [317243.11, 5691490.82], [317242.42, 5691492.9], [317242.63, 5691495.08], [317243.69, 5691496.99], [317245.44, 5691498.32], [317247.57, 5691498.83], [317249.5, 5691498.54], [317251.2, 5691497.57], [317252.43, 5691496.06], [317253.04, 5691494.21], [317252.94, 5691492.26], [317252.08, 5691490.38], [317250.57, 5691488.97], [317248.65, 5691488.24], [317246.58, 5691488.29]]]}}, {"type": "Feature", "properties": {"kind": "fountain", "source": "osm", "style": "basin", "figure": false}, "geometry": {"type": "Polygon", "coordinates": [[[317405.69, 5690965.42], [317405.02, 5690965.04], [317403.89, 5690964.93], [317403.17, 5690965.18], [317402.5, 5690965.75], [317402.15, 5690966.43], [317402.05, 5690967.31], [317402.25, 5690968.05], [317402.73, 5690968.7], [317403.7, 5690969.24], [317404.46, 5690969.3], [317405.44, 5690968.96], [317406.0, 5690968.45], [317406.42, 5690967.52], [317406.44, 5690966.76], [317406.19, 5690966.03], [317405.69, 5690965.42]], [[317405.46, 5690965.7], [317404.91, 5690965.38], [317403.93, 5690965.29], [317403.34, 5690965.49], [317402.78, 5690965.97], [317402.49, 5690966.53], [317402.41, 5690967.29], [317402.57, 5690967.9], [317402.97, 5690968.43], [317403.8, 5690968.89], [317404.41, 5690968.94], [317405.26, 5690968.65], [317405.71, 5690968.24], [317406.07, 5690967.45], [317406.09, 5690966.81], [317405.88, 5690966.2], [317405.46, 5690965.7]]]}}, {"type": "Feature", "properties": {"kind": "fountain", "source": "osm", "style": "basin", "figure": false}, "geometry": {"type": "Polygon", "coordinates": [[[317506.03, 5690451.09], [317526.66, 5690464.51], [317531.36, 5690457.32], [317510.73, 5690443.91], [317506.03, 5690451.09]], [[317506.52, 5690450.99], [317526.56, 5690464.02], [317530.88, 5690457.43], [317510.83, 5690444.4], [317506.52, 5690450.99]]]}}, {"type": "Feature", "properties": {"kind": "fountain", "source": "dlm+osm", "name": "Mendebrunnen", "style": "basin", "figure": true}, "geometry": {"type": "Polygon", "coordinates": [[[317568.77, 5690727.42], [317567.92, 5690728.89], [317566.16, 5690730.01], [317563.9, 5690729.98], [317562.27, 5690729.01], [317560.17, 5690729.54], [317559.91, 5690728.61], [317557.79, 5690728.36], [317556.03, 5690727.21], [317554.96, 5690725.25], [317554.91, 5690723.12], [317555.98, 5690721.0], [317557.74, 5690719.79], [317557.51, 5690718.84], [317559.61, 5690718.32], [317560.34, 5690716.98], [317562.3, 5690715.75], [317564.73, 5690715.83], [317566.14, 5690716.71], [317568.25, 5690716.2], [317568.47, 5690717.14], [317570.6, 5690717.44], [317572.34, 5690718.64], [317573.48, 5690720.62], [317573.49, 5690722.59], [317572.53, 5690724.64], [317570.69, 5690725.94], [317570.89, 5690726.9], [317568.77, 5690727.42]], [[317568.54, 5690727.12], [317570.48, 5690726.64], [317570.3, 5690725.79], [317572.25, 5690724.41], [317573.14, 5690722.51], [317573.13, 5690720.72], [317572.08, 5690718.88], [317570.47, 5690717.78], [317568.19, 5690717.45], [317567.99, 5690716.62], [317566.08, 5690717.08], [317564.63, 5690716.18], [317562.4, 5690716.11], [317560.61, 5690717.23], [317559.84, 5690718.63], [317557.93, 5690719.1], [317558.13, 5690719.94], [317556.25, 5690721.24], [317555.27, 5690723.2], [317555.3, 5690725.15], [317556.29, 5690726.97], [317557.91, 5690728.02], [317560.19, 5690728.29], [317560.42, 5690729.11], [317562.33, 5690728.64], [317564.0, 5690729.63], [317566.06, 5690729.66], [317567.66, 5690728.64], [317568.54, 5690727.12]]]}}, {"type": "Feature", "properties": {"kind": "fountain", "source": "osm", "name": "Opernbrunnen", "style": "basin", "figure": false}, "geometry": {"type": "Polygon", "coordinates": [[[317579.02, 5690845.37], [317575.79, 5690841.63], [317573.67, 5690837.16], [317572.85, 5690832.29], [317573.37, 5690827.38], [317575.21, 5690822.79], [317578.21, 5690818.86], [317582.17, 5690815.9], [317586.78, 5690814.11], [317591.71, 5690813.62], [317596.59, 5690814.47], [317601.05, 5690816.6], [317604.78, 5690819.86], [317607.48, 5690824.01], [317608.95, 5690828.72], [317609.1, 5690833.66], [317607.91, 5690838.44], [317605.47, 5690842.75], [317601.96, 5690846.23], [317597.63, 5690848.63], [317592.82, 5690849.78], [317587.87, 5690849.6], [317583.16, 5690848.09], [317579.02, 5690845.37]], [[317579.25, 5690845.1], [317583.31, 5690847.77], [317587.93, 5690849.25], [317592.78, 5690849.43], [317597.5, 5690848.3], [317601.75, 5690845.94], [317605.19, 5690842.54], [317607.59, 5690838.31], [317608.75, 5690833.62], [317608.61, 5690828.78], [317607.16, 5690824.16], [317604.51, 5690820.1], [317600.86, 5690816.9], [317596.48, 5690814.8], [317591.7, 5690813.97], [317586.86, 5690814.45], [317582.35, 5690816.2], [317578.46, 5690819.12], [317575.52, 5690822.97], [317573.72, 5690827.46], [317573.2, 5690832.28], [317574.01, 5690837.06], [317576.08, 5690841.44], [317579.25, 5690845.1]]]}}, {"type": "Feature", "properties": {"kind": "fountain", "source": "osm", "name": "M\u00e4gdebrunnen", "style": "basin", "figure": false}, "geometry": {"type": "Polygon", "coordinates": [[[317625.83, 5690570.28], [317630.34, 5690570.84], [317633.09, 5690567.21], [317631.33, 5690563.03], [317626.81, 5690562.47], [317624.07, 5690566.1], [317625.83, 5690570.28]], [[317626.08, 5690569.95], [317630.19, 5690570.47], [317632.69, 5690567.16], [317631.08, 5690563.35], [317626.97, 5690562.84], [317624.47, 5690566.15], [317626.08, 5690569.95]]]}}, {"type": "Feature", "properties": {"kind": "fountain", "source": "osm", "style": "basin", "figure": false}, "geometry": {"type": "Point", "coordinates": [317650.89, 5691072.98]}}, {"type": "Feature", "properties": {"kind": "fountain", "source": "osm", "style": "basin", "figure": false}, "geometry": {"type": "Polygon", "coordinates": [[[317745.27, 5691144.34], [317748.71, 5691143.09], [317748.14, 5691119.51], [317746.17, 5691119.65], [317741.98, 5691127.49], [317739.23, 5691128.53], [317745.27, 5691144.34]], [[317745.48, 5691143.9], [317748.36, 5691142.85], [317747.8, 5691119.89], [317746.39, 5691119.99], [317742.23, 5691127.77], [317739.69, 5691128.73], [317745.48, 5691143.9]]]}}, {"type": "Feature", "properties": {"kind": "statue", "source": "dlm", "name": "Franz-Schubert-Denkmal"}, "geometry": {"type": "Point", "coordinates": [316016.35, 5690127.68]}}, {"type": "Feature", "properties": {"kind": "statue", "source": "dlm", "name": "Clara-Zetkin-Denkmal"}, "geometry": {"type": "Point", "coordinates": [316224.13, 5690171.4]}}, {"type": "Feature", "properties": {"kind": "statue", "source": "dlm", "name": "Louise-Otto-Peters-Denkmal"}, "geometry": {"type": "Point", "coordinates": [316262.75, 5691816.79]}}, {"type": "Feature", "properties": {"kind": "statue", "source": "dlm", "name": "Poniatowski-Denkmal"}, "geometry": {"type": "Point", "coordinates": [316315.78, 5691075.49]}}, {"type": "Feature", "properties": {"kind": "statue", "source": "dlm", "name": "Walter-Cramer-Denkmal"}, "geometry": {"type": "Point", "coordinates": [316393.82, 5690467.25]}}, {"type": "Feature", "properties": {"kind": "statue", "source": "dlm", "name": "Seyfferth-Denkmal"}, "geometry": {"type": "Point", "coordinates": [316430.61, 5690435.68]}}, {"type": "Feature", "properties": {"kind": "statue", "source": "dlm", "name": "Br\u00fcckendenkmal"}, "geometry": {"type": "Point", "coordinates": [316484.58, 5691264.27]}}, {"type": "Feature", "properties": {"kind": "statue", "source": "dlm", "name": "Carl-Friedrich-Z\u00f6llner-Denkmal"}, "geometry": {"type": "Point", "coordinates": [316537.81, 5691781.38]}}, {"type": "Feature", "properties": {"kind": "statue", "source": "dlm", "name": "Gustav-Theodor-Fechner-Denkmal"}, "geometry": {"type": "Point", "coordinates": [316639.91, 5691962.42]}}, {"type": "Feature", "properties": {"kind": "statue", "source": "dlm", "relief": {"west": 316664.0, "north": 5690918.0, "cols": 5, "rows": 4, "dm": [0, 0, 0, 0, 0, 0, 0, 35, 0, 0, 0, 40, 40, 17, 0, 0, 0, 0, 0, 0]}}, "geometry": {"type": "Point", "coordinates": [316665.83, 5690915.52]}}, {"type": "Feature", "properties": {"kind": "statue", "source": "dlm", "relief": {"west": 316681.0, "north": 5690905.0, "cols": 5, "rows": 5, "dm": [0, 0, 0, 0, 0, 0, 0, 14, 0, 0, 0, 40, 40, 17, 0, 0, 9, 14, 0, 0, 0, 0, 0, 0, 0]}}, "geometry": {"type": "Point", "coordinates": [316683.03, 5690902.34]}}, {"type": "Feature", "properties": {"kind": "statue", "source": "dlm", "name": "Kriegsdenkmal"}, "geometry": {"type": "Point", "coordinates": [316691.14, 5690881.62]}}, {"type": "Feature", "properties": {"kind": "statue", "source": "dlm", "name": "Juno", "relief": {"west": 316689.0, "north": 5690720.0, "cols": 5, "rows": 4, "dm": [0, 0, 0, 0, 0, 0, 37, 41, 9, 0, 0, 36, 40, 10, 0, 0, 0, 0, 0, 0]}}, "geometry": {"type": "Point", "coordinates": [316691.38, 5690717.54]}}, {"type": "Feature", "properties": {"kind": "statue", "source": "dlm", "name": "Jupiter", "relief": {"west": 316689.0, "north": 5690708.0, "cols": 5, "rows": 5, "dm": [0, 0, 0, 0, 0, 0, 0, 14, 0, 0, 0, 17, 42, 27, 0, 0, 8, 36, 9, 0, 0, 0, 0, 0, 0]}}, "geometry": {"type": "Point", "coordinates": [316691.76, 5690704.81]}}, {"type": "Feature", "properties": {"kind": "statue", "source": "dlm"}, "geometry": {"type": "Point", "coordinates": [316727.09, 5691853.67]}}, {"type": "Feature", "properties": {"kind": "statue", "source": "dlm", "name": "Felix-Mendelssohn-Bartholdy-Denkmal"}, "geometry": {"type": "Point", "coordinates": [316782.48, 5690016.22]}}, {"type": "Feature", "properties": {"kind": "statue", "source": "dlm", "name": "Holocaust Denkmal"}, "geometry": {"type": "Point", "coordinates": [316793.07, 5690909.15]}}, {"type": "Feature", "properties": {"kind": "statue", "source": "dlm", "name": "Siegfried-Seifert-Denkmal"}, "geometry": {"type": "Point", "coordinates": [316803.68, 5691969.62]}}, {"type": "Feature", "properties": {"kind": "statue", "source": "dlm", "name": "Athlet"}, "geometry": {"type": "Point", "coordinates": [316851.95, 5691911.13]}}, {"type": "Feature", "properties": {"kind": "statue", "source": "dlm", "name": "Theodor-K\u00f6rner-Denkmal"}, "geometry": {"type": "Point", "coordinates": [316858.06, 5690543.02]}}, {"type": "Feature", "properties": {"kind": "statue", "source": "dlm", "name": "Richard-Wagner-Denkmal", "relief": {"west": 316857.0, "north": 5691201.0, "cols": 5, "rows": 6, "dm": [0, 0, 0, 0, 0, 0, 0, 8, 0, 0, 0, 14, 28, 22, 0, 0, 22, 32, 34, 0, 0, 0, 13, 7, 0, 0, 0, 0, 0, 0]}}, "geometry": {"type": "Point", "coordinates": [316859.46, 5691199.1]}}, {"type": "Feature", "properties": {"kind": "statue", "source": "dlm", "name": "Plato-Dolz-Denkmal"}, "geometry": {"type": "Point", "coordinates": [316907.24, 5690735.13]}}, {"type": "Feature", "properties": {"kind": "statue", "source": "dlm", "name": "Johann-Sebastian-Bach-Denkmal"}, "geometry": {"type": "Point", "coordinates": [316915.4, 5690777.42]}}, {"type": "Feature", "properties": {"kind": "statue", "source": "dlm", "name": "Friedrich-Goerdeler-Denkmal"}, "geometry": {"type": "Point", "coordinates": [316915.5, 5690439.98]}}, {"type": "Feature", "properties": {"kind": "statue", "source": "dlm", "name": "Felix-Mendelssohn-Bartholdy-Denkmal"}, "geometry": {"type": "Point", "coordinates": [316926.17, 5690859.32]}}, {"type": "Feature", "properties": {"kind": "statue", "source": "dlm", "name": "Samuel-Hahnemann-Denkmal"}, "geometry": {"type": "Point", "coordinates": [316927.36, 5691299.26]}}, {"type": "Feature", "properties": {"kind": "statue", "source": "dlm", "name": "Matth\u00e4ikirchdenkmal"}, "geometry": {"type": "Point", "coordinates": [316929.05, 5691095.97]}}, {"type": "Feature", "properties": {"kind": "statue", "source": "dlm", "name": "Mahnmal"}, "geometry": {"type": "Point", "coordinates": [316963.92, 5691810.05]}}, {"type": "Feature", "properties": {"kind": "statue", "source": "dlm", "name": "Johann-Adam-Hiller-Denkmal"}, "geometry": {"type": "Point", "coordinates": [316966.2, 5690854.12]}}, {"type": "Feature", "properties": {"kind": "statue", "source": "dlm", "name": "Johann-Sebastian-Bach-Denkmal"}, "geometry": {"type": "Point", "coordinates": [316999.67, 5690812.32]}}, {"type": "Feature", "properties": {"kind": "statue", "source": "dlm", "name": "Johann-Wolfgang-von-Goethe-Denkmal"}, "geometry": {"type": "Point", "coordinates": [317218.44, 5690948.03]}}, {"type": "Feature", "properties": {"kind": "statue", "source": "dlm", "name": "Jahrhundertschritt"}, "geometry": {"type": "Point", "coordinates": [317219.87, 5690888.21]}}, {"type": "Feature", "properties": {"kind": "statue", "source": "dlm", "name": "Friedrich-Schiller-Denkmal"}, "geometry": {"type": "Point", "coordinates": [317271.85, 5690534.2]}}, {"type": "Feature", "properties": {"kind": "statue", "source": "dlm", "name": "Junges Paar"}, "geometry": {"type": "Point", "coordinates": [317285.58, 5691015.8]}}, {"type": "Feature", "properties": {"kind": "statue", "source": "dlm", "name": "Gellert-Denkmal"}, "geometry": {"type": "Point", "coordinates": [317345.46, 5690520.63]}}, {"type": "Feature", "properties": {"kind": "statue", "source": "dlm", "name": "Albrecht-Thaer-Denkmal", "relief": {"west": 317386.0, "north": 5690586.0, "cols": 4, "rows": 5, "dm": [0, 0, 0, 0, 0, 8, 11, 0, 0, 32, 36, 0, 0, 15, 0, 0, 0, 0, 0, 0]}}, "geometry": {"type": "Point", "coordinates": [317387.01, 5690582.21]}}, {"type": "Feature", "properties": {"kind": "statue", "source": "dlm", "name": "Gottfried-Wilhelm-Leibniz-Denkmal", "relief": {"west": 317406.0, "north": 5690798.0, "cols": 4, "rows": 4, "dm": [0, 0, 0, 0, 0, 0, 21, 0, 0, 17, 48, 0, 0, 0, 0, 0]}}, "geometry": {"type": "Point", "coordinates": [317407.96, 5690795.75]}}, {"type": "Feature", "properties": {"kind": "statue", "source": "dlm", "name": "Kriegsdenkmal"}, "geometry": {"type": "Point", "coordinates": [317415.68, 5690730.85]}}, {"type": "Feature", "properties": {"kind": "statue", "source": "dlm", "name": "Robert-Schumann-Denkmal"}, "geometry": {"type": "Point", "coordinates": [317434.56, 5690556.84]}}, {"type": "Feature", "properties": {"kind": "statue", "source": "dlm", "name": "Kugelpyramide"}, "geometry": {"type": "Point", "coordinates": [317448.91, 5690628.54]}}, {"type": "Feature", "properties": {"kind": "statue", "source": "dlm", "name": "Otto-Koch-Denkmal"}, "geometry": {"type": "Point", "coordinates": [317450.57, 5690516.87]}}, {"type": "Feature", "properties": {"kind": "statue", "source": "dlm", "name": "Karl-Wilhelm-M\u00fcller-Denkmal", "relief": {"west": 317553.0, "north": 5691275.0, "cols": 8, "rows": 7, "dm": [0, 0, 0, 0, 0, 0, 0, 0, 0, 0, 0, 36, 13, 0, 0, 0, 0, 0, 20, 48, 49, 22, 0, 0, 0, 9, 26, 49, 49, 46, 14, 0, 0, 0, 43, 50, 47, 22, 0, 0, 0, 0, 0, 14, 42, 0, 0, 0, 0, 0, 0, 0, 0, 0, 0, 0]}}, "geometry": {"type": "Point", "coordinates": [317557.24, 5691271.71]}}, {"type": "Feature", "properties": {"kind": "statue", "source": "dlm", "name": "Geschlagener"}, "geometry": {"type": "Point", "coordinates": [317590.24, 5691038.95]}}, {"type": "Feature", "properties": {"kind": "statue", "source": "dlm", "name": "Eisenbahndenkmal"}, "geometry": {"type": "Point", "coordinates": [317625.09, 5691175.2]}}, {"type": "Feature", "properties": {"kind": "statue", "source": "dlm", "name": "Georg-Schumann-Denkmal"}, "geometry": {"type": "Point", "coordinates": [317674.6, 5690073.18]}}, {"type": "Feature", "properties": {"kind": "statue", "source": "dlm", "name": "Richard-Wagner-Denkmal"}, "geometry": {"type": "Point", "coordinates": [317678.54, 5691012.98]}}, {"type": "Feature", "properties": {"kind": "statue", "source": "dlm", "name": "Gedenkkreuz", "relief": {"west": 317933.0, "north": 5690641.0, "cols": 3, "rows": 5, "dm": [0, 0, 0, 0, 30, 0, 0, 24, 0, 0, 14, 0, 0, 0, 0]}}, "geometry": {"type": "Point", "coordinates": [317933.71, 5690638.26]}}, {"type": "Feature", "properties": {"kind": "statue", "source": "dlm", "name": "Friedrich-Arnold-Brockhaus-Denkmal"}, "geometry": {"type": "Point", "coordinates": [317934.04, 5690970.45]}}, {"type": "Feature", "properties": {"kind": "statue", "source": "dlm", "name": "Kriegsdenkmal"}, "geometry": {"type": "Point", "coordinates": [317952.51, 5690967.71]}}, {"type": "Feature", "properties": {"kind": "stone", "source": "dlm", "name": "Grenzstein"}, "geometry": {"type": "Point", "coordinates": [316363.23, 5691964.91]}}, {"type": "Feature", "properties": {"kind": "stone", "source": "dlm", "name": "Gedenkstein"}, "geometry": {"type": "Point", "coordinates": [316808.58, 5690921.16]}}]}