{"type": "FeatureCollection", "attribution": "\u00a9 OpenStreetMap contributors (ODbL)", "crs": {"type": "name", "properties": {"name": "urn:ogc:def:crs:EPSG::25833"}}, "features": [{"type": "Feature", "properties": {}, "geometry": {"type": "Polygon", "coordinates": [[[318481.15, 5690750.02], [318536.28, 5690750.84], [318536.28, 5690752.83], [318536.3, 5690754.4], [318481.14, 5690753.44], [318481.16, 5690751.94], [318481.15, 5690750.02]]]}}, {"type": "Feature", "properties": {}, "geometry": {"type": "Polygon", "coordinates": [[[318653.38, 5690761.3], [318597.55, 5690760.58], [318597.53, 5690762.17], [318597.5, 5690764.08], [318614.96, 5690764.32], [318622.62, 5690764.42], [318635.08, 5690764.59], [318639.34, 5690764.64], [318653.33, 5690764.79], [318653.35, 5690763.29], [318653.38, 5690761.3]]]}}, {"type": "Feature", "properties": {}, "geometry": {"type": "Polygon", "coordinates": [[[319454.08, 5690361.21], [319453.27, 5690361.56], [319463.37, 5690391.97], [319465.92, 5690399.48], [319469.28, 5690408.62], [319474.52, 5690427.72], [319475.84, 5690427.36], [319476.96, 5690427.05], [319475.31, 5690420.15], [319471.93, 5690407.92], [319467.09, 5690394.14], [319458.31, 5690368.44], [319454.89, 5690360.84], [319454.08, 5690361.21]]]}}, {"type": "Feature", "properties": {}, "geometry": {"type": "Polygon", "coordinates": [[[318356.15, 5690213.05], [318357.04, 5690214.42], [318357.96, 5690215.83], [318298.2, 5690281.5], [318297.4, 5690280.64], [318296.46, 5690279.63], [318356.15, 5690213.05]]]}}, {"type": "Feature", "properties": {}, "geometry": {"type": "Polygon", "coordinates": [[[318352.39, 5690208.39], [318351.58, 5690207.32], [318350.86, 5690206.38], [318292.54, 5690269.48], [318289.84, 5690273.74], [318291.07, 5690274.83], [318291.82, 5690275.49], [318352.39, 5690208.39]]]}}, {"type": "Feature", "properties": {}, "geometry": {"type": "Polygon", "coordinates": [[[319547.09, 5690890.85], [319520.44, 5690858.48], [319519.72, 5690859.07], [319517.6, 5690860.81], [319544.25, 5690893.17], [319546.24, 5690891.53], [319547.09, 5690890.85]]]}}, {"type": "Feature", "properties": {}, "geometry": {"type": "Polygon", "coordinates": [[[319500.65, 5690862.87], [319522.17, 5690886.76], [319530.48, 5690895.97], [319531.01, 5690895.5], [319533.38, 5690893.38], [319503.54, 5690860.26], [319501.31, 5690862.27], [319500.65, 5690862.87]]]}}, {"type": "Feature", "properties": {}, "geometry": {"type": "Polygon", "coordinates": [[[319309.96, 5691441.46], [319265.27, 5691446.88], [319265.44, 5691448.19], [319265.53, 5691449.01], [319265.8, 5691451.24], [319310.49, 5691445.83], [319310.16, 5691443.08], [319310.15, 5691442.94], [319309.96, 5691441.46]]]}}, {"type": "Feature", "properties": {}, "geometry": {"type": "Polygon", "coordinates": [[[319383.18, 5691447.9], [319427.75, 5691442.69], [319427.65, 5691441.78], [319427.53, 5691440.88], [319427.23, 5691438.25], [319382.66, 5691443.45], [319383.03, 5691446.58], [319383.08, 5691447.06], [319383.18, 5691447.9]]]}}, {"type": "Feature", "properties": {}, "geometry": {"type": "Polygon", "coordinates": [[[318934.01, 5691488.98], [318890.2, 5691494.41], [318890.38, 5691495.9], [318890.57, 5691497.38], [318934.38, 5691491.96], [318934.2, 5691490.53], [318934.01, 5691488.98]]]}}, {"type": "Feature", "properties": {}, "geometry": {"type": "Polygon", "coordinates": [[[318935.16, 5691498.0], [318891.35, 5691503.42], [318891.72, 5691506.39], [318935.54, 5691500.97], [318935.16, 5691498.0]]]}}, {"type": "Feature", "properties": {}, "geometry": {"type": "Polygon", "coordinates": [[[318493.6, 5691521.37], [318419.36, 5691480.41], [318418.61, 5691481.75], [318417.9, 5691483.03], [318421.25, 5691484.89], [318443.66, 5691497.25], [318492.14, 5691523.99], [318492.84, 5691522.72], [318493.6, 5691521.37]]]}}, {"type": "Feature", "properties": {}, "geometry": {"type": "Polygon", "coordinates": [[[318267.99, 5691395.27], [318363.3, 5691440.85], [318364.0, 5691439.4], [318364.6, 5691438.14], [318269.29, 5691392.56], [318268.67, 5691393.86], [318267.99, 5691395.27]]]}}, {"type": "Feature", "properties": {}, "geometry": {"type": "LineString", "coordinates": [[320032.0, 5691463.88], [319978.12, 5691419.57], [319976.5, 5691418.13]]}}, {"type": "Feature", "properties": {}, "geometry": {"type": "LineString", "coordinates": [[319833.36, 5691383.29], [319870.88, 5691379.01]]}}, {"type": "Feature", "properties": {}, "geometry": {"type": "LineString", "coordinates": [[318844.78, 5691108.76], [318849.53, 5691106.43]]}}, {"type": "Feature", "properties": {}, "geometry": {"type": "LineString", "coordinates": [[319161.42, 5690657.21], [319173.5, 5690649.94]]}}, {"type": "Feature", "properties": {}, "geometry": {"type": "LineString", "coordinates": [[319171.9, 5690679.5], [319152.39, 5690690.83], [319139.75, 5690698.18], [319136.37, 5690700.15]]}}, {"type": "Feature", "properties": {}, "geometry": {"type": "LineString", "coordinates": [[319424.53, 5690269.45], [319441.01, 5690312.97]]}}]}