{"type": "FeatureCollection", "crs": {"type": "name", "properties": {"name": "urn:ogc:def:crs:EPSG::25833"}}, "features": [{"type": "Feature", "properties": {}, "geometry": {"type": "Polygon", "coordinates": [[[317994.7, 5691667.08], [317982.43, 5691653.56], [317967.91, 5691633.47], [317961.56, 5691624.89], [317957.27, 5691616.48], [317953.92, 5691605.79], [317950.21, 5691606.19], [317945.44, 5691604.89], [317940.5, 5691602.24], [317936.88, 5691598.67], [317871.23, 5691507.31], [317823.3, 5691440.62], [317811.45, 5691424.12], [317775.78, 5691371.27], [317761.06, 5691349.46], [317759.05, 5691344.07], [317743.28, 5691323.27], [317735.05, 5691326.46], [317715.82, 5691301.06], [317671.02, 5691332.52], [317667.66, 5691328.15], [317661.31, 5691332.12], [317652.97, 5691321.01], [317648.69, 5691316.14], [317644.72, 5691318.84], [317642.34, 5691315.82], [317618.53, 5691332.49], [317620.28, 5691335.67], [317616.94, 5691337.57], [317618.71, 5691341.91], [317626.51, 5691353.55], [317598.92, 5691373.39], [317549.95, 5691409.48], [317540.27, 5691395.2], [317537.25, 5691392.66], [317534.24, 5691393.61], [317505.5, 5691414.56], [317518.99, 5691434.41], [317513.12, 5691438.69], [317516.05, 5691444.04], [317485.74, 5691467.11], [317524.95, 5691519.77], [317539.47, 5691539.26], [317525.25, 5691549.71], [317512.58, 5691561.98], [317519.43, 5691572.47], [317542.25, 5691603.22], [317556.14, 5691617.78], [317569.26, 5691631.41], [317573.84, 5691637.42], [317594.45, 5691664.43], [317606.53, 5691681.23], [317689.48, 5691796.51], [317750.32, 5691879.92], [317837.89, 5692000.0], [318000.0, 5692000.0], [318000.0, 5691671.46], [317994.7, 5691667.08]]]}}]}