{"type": "FeatureCollection", "crs": {"type": "name", "properties": {"name": "urn:ogc:def:crs:EPSG::25833"}}, "features": [{"type": "Feature", "properties": {"tracks": 2, "electrified": 1}, "geometry": {"type": "LineString", "coordinates": [[318659.07, 5687824.76], [318687.14, 5687844.6], [318707.88, 5687860.37], [318731.8, 5687880.9], [318754.87, 5687902.71], [318781.12, 5687929.59], [318825.03, 5687979.05], [318828.78, 5687983.4], [318832.78, 5687988.02], [318837.89, 5687993.93], [318838.4, 5687994.46], [318876.62, 5688037.13], [318937.98, 5688105.64], [318995.35, 5688169.27], [319058.06, 5688237.2], [319110.18, 5688293.73], [319129.95, 5688314.56], [319257.99, 5688456.54], [319278.82, 5688479.65], [319285.92, 5688488.32], [319290.74, 5688494.21], [319295.23, 5688499.68], [319301.91, 5688507.83], [319324.7, 5688534.99], [319347.11, 5688566.24], [319360.47, 5688592.88], [319418.26, 5688692.94], [319635.44, 5689089.67], [319655.47, 5689128.06], [319661.82, 5689140.07], [319668.74, 5689152.5], [319706.47, 5689232.42], [319740.34, 5689298.43], [319783.86, 5689381.78], [319819.58, 5689446.05], [319863.8, 5689525.86], [319891.29, 5689574.01], [319940.61, 5689648.09], [319967.6, 5689689.74], [319977.23, 5689704.34], [319988.87, 5689722.34], [320034.49, 5689789.09], [320050.89, 5689810.23], [320066.18, 5689828.19]]}}, {"type": "Feature", "properties": {"tracks": 2, "electrified": 1}, "geometry": {"type": "LineString", "coordinates": [[318676.93, 5687825.38], [318724.23, 5687860.83], [318756.79, 5687888.73], [318782.86, 5687916.35], [318803.56, 5687939.93], [318825.45, 5687963.26], [318838.86, 5687977.56], [318842.71, 5687981.87], [318846.12, 5687986.54], [318851.98, 5687993.02], [318858.14, 5688000.05], [318887.16, 5688033.16], [318950.98, 5688102.8], [318995.75, 5688152.01], [319050.15, 5688211.6], [319076.3, 5688242.05], [319106.13, 5688272.13], [319111.24, 5688277.61], [319118.99, 5688285.94], [319145.37, 5688314.86], [319177.99, 5688348.12], [319285.94, 5688469.09], [319292.68, 5688478.64], [319297.33, 5688484.19], [319301.69, 5688490.91], [319307.87, 5688499.3], [319357.38, 5688561.69], [319381.4, 5688597.47], [319556.03, 5688912.64], [319656.61, 5689102.7], [319666.13, 5689122.38], [319672.26, 5689135.13], [319678.67, 5689148.1], [319687.4, 5689166.2], [319788.49, 5689377.54], [319819.58, 5689446.05]]}}, {"type": "Feature", "properties": {"tracks": 2, "electrified": 1}, "geometry": {"type": "LineString", "coordinates": [[317964.17, 5688343.63], [317991.54, 5688245.93], [318041.18, 5688073.21], [318051.53, 5688035.05], [318063.64, 5687995.27], [318076.01, 5687948.27], [318083.31, 5687920.56], [318097.58, 5687860.27], [318098.91, 5687854.69], [318106.06, 5687813.36], [318110.51, 5687783.51], [318120.41, 5687691.28], [318125.33, 5687612.94], [318126.7, 5687580.29], [318128.66, 5687483.11], [318128.68, 5687454.05], [318128.04, 5687399.67], [318126.85, 5687370.5], [318125.08, 5687347.03], [318121.79, 5687315.02], [318114.97, 5687270.76], [318107.67, 5687235.92], [318098.38, 5687199.72], [318088.78, 5687166.14]]}}, {"type": "Feature", "properties": {"tracks": 2, "electrified": 1}, "geometry": {"type": "LineString", "coordinates": [[318310.8, 5688902.14], [318306.16, 5688912.4], [318313.97, 5688916.56]]}}, {"type": "Feature", "properties": {"tracks": 1, "electrified": 1}, "geometry": {"type": "LineString", "coordinates": [[318326.29, 5687756.2], [318300.36, 5687764.84], [318276.03, 5687775.73], [318251.38, 5687788.38], [318227.37, 5687802.78], [318213.34, 5687813.33], [318201.08, 5687822.68], [318176.83, 5687843.68], [318163.96, 5687855.48], [318151.38, 5687868.56], [318134.04, 5687888.51], [318119.8, 5687908.52], [318115.16, 5687915.71], [318101.38, 5687933.86], [318084.44, 5687965.08], [318076.93, 5687982.12], [318063.38, 5688015.35], [318052.4, 5688047.18], [318044.99, 5688072.89], [318036.31, 5688099.56], [318005.51, 5688207.09], [317964.17, 5688343.63], [317986.25, 5688242.73], [318019.11, 5688099.86], [318025.95, 5688073.69], [318033.88, 5688044.77], [318054.04, 5687990.32]]}}]}