{"type": "FeatureCollection", "crs": {"type": "name", "properties": {"name": "urn:ogc:def:crs:EPSG::25833"}}, "features": [{"type": "Feature", "properties": {"tracks": 2, "electrified": 1}, "geometry": {"type": "LineString", "coordinates": [[317691.56, 5689313.79], [317709.52, 5689244.97], [317743.98, 5689118.1], [317847.19, 5688753.53], [317849.76, 5688744.45], [317854.94, 5688724.74], [317867.55, 5688680.82], [317877.5, 5688646.02], [317886.45, 5688614.75], [317917.21, 5688508.14], [317964.17, 5688343.63], [317991.54, 5688245.93], [318041.18, 5688073.21], [318051.53, 5688035.05], [318063.64, 5687995.27], [318076.01, 5687948.27], [318083.31, 5687920.56], [318097.58, 5687860.27], [318098.91, 5687854.69], [318106.06, 5687813.36], [318110.51, 5687783.51], [318120.41, 5687691.28], [318125.33, 5687612.94], [318126.7, 5687580.29], [318128.66, 5687483.11], [318128.68, 5687454.05], [318128.04, 5687399.67], [318126.85, 5687370.5], [318125.08, 5687347.03], [318121.79, 5687315.02], [318114.97, 5687270.76], [318107.67, 5687235.92], [318098.38, 5687199.72], [318088.78, 5687166.14]]}}, {"type": "Feature", "properties": {"tracks": 1, "electrified": 1}, "geometry": {"type": "LineString", "coordinates": [[318063.38, 5688015.35], [318052.4, 5688047.18], [318044.99, 5688072.89], [318036.31, 5688099.56], [318005.51, 5688207.09], [317964.17, 5688343.63], [317986.25, 5688242.73], [318019.11, 5688099.86], [318025.95, 5688073.69], [318033.88, 5688044.77], [318054.04, 5687990.32]]}}]}