{"type": "FeatureCollection", "attribution": "\u00a9 OpenStreetMap contributors (ODbL)", "crs": {"type": "name", "properties": {"name": "urn:ogc:def:crs:EPSG::25833"}}, "features": [{"type": "Feature", "properties": {"k": "pontoon", "len": 69.3}, "geometry": {"type": "Polygon", "coordinates": [[[316121.09, 5690868.15], [316119.63, 5690863.77], [316119.42, 5690862.3], [316119.14, 5690862.3], [316118.94, 5690860.84], [316118.65, 5690860.84], [316118.46, 5690859.38], [316118.16, 5690859.38], [316117.98, 5690857.91], [316117.68, 5690857.91], [316117.68, 5690856.98], [316110.84, 5690836.91], [316110.62, 5690835.45], [316110.35, 5690835.45], [316110.14, 5690833.98], [316109.86, 5690833.98], [316109.66, 5690832.52], [316109.38, 5690832.52], [316109.19, 5690831.05], [316108.89, 5690831.05], [316108.71, 5690829.59], [316108.4, 5690829.59], [316108.23, 5690828.12], [316107.91, 5690828.12], [316107.75, 5690826.66], [316107.42, 5690826.66], [316107.42, 5690825.67], [316101.83, 5690808.59], [316101.56, 5690808.59], [316101.35, 5690807.13], [316101.07, 5690807.13], [316100.87, 5690805.66], [316100.59, 5690805.66], [316100.39, 5690804.2], [316100.1, 5690804.2], [316099.91, 5690802.73], [316099.61, 5690802.73], [316099.61, 5690802.28], [316096.9, 5690803.17], [316118.46, 5690869.01], [316121.09, 5690868.15]]]}}, {"type": "Feature", "properties": {"k": "pier", "deck": 108.02}, "geometry": {"type": "Polygon", "coordinates": [[[316108.73, 5690834.32], [316109.57, 5690837.2], [316112.91, 5690836.23], [316112.08, 5690833.35], [316108.73, 5690834.32]]]}}, {"type": "Feature", "properties": {"k": "pier", "deck": 110.83}, "geometry": {"type": "Polygon", "coordinates": [[[316839.7, 5690297.83], [316842.7, 5690297.97], [316844.44, 5690259.56], [316841.44, 5690259.42], [316839.7, 5690297.83]]]}}, {"type": "Feature", "properties": {"k": "pier", "deck": 110.87}, "geometry": {"type": "Polygon", "coordinates": [[[316841.71, 5690314.36], [316838.72, 5690314.15], [316837.92, 5690325.71], [316840.91, 5690325.91], [316841.71, 5690314.36]]]}}, {"type": "Feature", "properties": {"k": "pier", "deck": 108.11}, "geometry": {"type": "Polygon", "coordinates": [[[316827.53, 5690633.09], [316827.0, 5690639.28], [316828.5, 5690639.32], [316829.76, 5690638.52], [316830.34, 5690637.14], [316830.67, 5690633.35], [316827.53, 5690633.09]]]}}, {"type": "Feature", "properties": {"k": "pier", "deck": 108.57}, "geometry": {"type": "Polygon", "coordinates": [[[316791.21, 5691355.13], [316811.0, 5691360.68], [316809.52, 5691366.71], [316801.43, 5691360.59], [316796.1, 5691357.34], [316791.21, 5691355.13]]]}}, {"type": "Feature", "properties": {"k": "pier", "deck": 107.84}, "geometry": {"type": "Polygon", "coordinates": [[[316635.51, 5691308.81], [316637.92, 5691309.48], [316637.24, 5691311.89], [316634.83, 5691311.22], [316635.51, 5691308.81]]]}}, {"type": "Feature", "properties": {"k": "pier", "deck": 107.84}, "geometry": {"type": "Polygon", "coordinates": [[[316675.83, 5691322.73], [316678.23, 5691323.4], [316678.91, 5691321.0], [316676.5, 5691320.32], [316675.83, 5691322.73]]]}}]}