{"type": "FeatureCollection", "attribution": "Quelle: GeoSN, dl-de/by-2-0 (laser scan, LoD2)", "crs": {"type": "name", "properties": {"name": "urn:ogc:def:crs:EPSG::25833"}}, "features": [{"type": "Feature", "properties": {"z": 107.43, "h": 2.86}, "geometry": {"type": "Polygon", "coordinates": [[[316001.5, 5690999.5], [316001.5, 5691005.5], [316004.5, 5691005.5], [316004.5, 5690999.5], [316001.5, 5690999.5]]]}}, {"type": "Feature", "properties": {"z": 107.28, "h": 2.55}, "geometry": {"type": "Polygon", "coordinates": [[[316006.79, 5691036.68], [316005.26, 5691030.56], [316002.21, 5691031.32], [316003.74, 5691037.44], [316006.79, 5691036.68]]]}}, {"type": "Feature", "properties": {"z": 108.39, "h": 5.15}, "geometry": {"type": "Polygon", "coordinates": [[[316019.5, 5691099.5], [316019.5, 5691104.5], [316024.0, 5691104.5], [316024.0, 5691099.5], [316019.5, 5691099.5]]]}}, {"type": "Feature", "properties": {"z": 108.29, "h": 3.27}, "geometry": {"type": "Polygon", "coordinates": [[[316046.25, 5690382.75], [316043.5, 5690380.0], [316040.0, 5690383.5], [316042.75, 5690386.25], [316046.25, 5690382.75]]]}}, {"type": "Feature", "properties": {"z": 108.08, "h": 2.53}, "geometry": {"type": "Polygon", "coordinates": [[[316078.62, 5691365.53], [316076.97, 5691372.12], [316079.79, 5691372.82], [316081.44, 5691366.24], [316078.62, 5691365.53]]]}}, {"type": "Feature", "properties": {"z": 107.61, "h": 2.91}, "geometry": {"type": "Polygon", "coordinates": [[[316087.45, 5691395.15], [316085.15, 5691402.05], [316088.75, 5691403.25], [316091.05, 5691396.35], [316087.45, 5691395.15]]]}}, {"type": "Feature", "properties": {"z": 108.54, "h": 2.53}, "geometry": {"type": "Polygon", "coordinates": [[[316090.69, 5691007.96], [316095.19, 5691010.96], [316096.81, 5691008.54], [316092.31, 5691005.54], [316090.69, 5691007.96]]]}}, {"type": "Feature", "properties": {"z": 108.73, "h": 3.42}, "geometry": {"type": "Polygon", "coordinates": [[[316115.25, 5690522.75], [316111.25, 5690526.75], [316114.25, 5690529.75], [316118.25, 5690525.75], [316115.25, 5690522.75]]]}}, {"type": "Feature", "properties": {"z": 106.23, "h": 2.81}, "geometry": {"type": "Polygon", "coordinates": [[[316123.71, 5690913.82], [316127.35, 5690912.91], [316126.68, 5690910.21], [316123.03, 5690911.12], [316123.71, 5690913.82]]]}}, {"type": "Feature", "properties": {"z": 108.7, "h": 5.73}, "geometry": {"type": "Polygon", "coordinates": [[[316128.25, 5691107.25], [316131.5, 5691110.5], [316134.5, 5691107.5], [316131.25, 5691104.25], [316128.25, 5691107.25]]]}}, {"type": "Feature", "properties": {"z": 108.57, "h": 2.64}, "geometry": {"type": "Polygon", "coordinates": [[[316132.03, 5690747.72], [316128.51, 5690752.11], [316131.87, 5690754.79], [316135.38, 5690750.4], [316132.03, 5690747.72]]]}}, {"type": "Feature", "properties": {"z": 108.21, "h": 2.7}, "geometry": {"type": "Polygon", "coordinates": [[[316159.96, 5690781.17], [316164.29, 5690784.63], [316166.34, 5690782.07], [316162.01, 5690778.61], [316159.96, 5690781.17]]]}}, {"type": "Feature", "properties": {"z": 108.39, "h": 2.84}, "geometry": {"type": "Polygon", "coordinates": [[[316165.25, 5690752.25], [316156.5, 5690761.0], [316160.0, 5690764.5], [316168.75, 5690755.75], [316165.25, 5690752.25]]]}}, {"type": "Feature", "properties": {"z": 108.47, "h": 4.1}, "geometry": {"type": "Polygon", "coordinates": [[[316178.54, 5691109.67], [316173.41, 5691113.77], [316175.17, 5691115.96], [316180.29, 5691111.87], [316178.54, 5691109.67]]]}}, {"type": "Feature", "properties": {"z": 107.62, "h": 3.86}, "geometry": {"type": "Polygon", "coordinates": [[[316178.65, 5691646.05], [316183.75, 5691647.75], [316184.9, 5691644.3], [316179.8, 5691642.6], [316178.65, 5691646.05]]]}}, {"type": "Feature", "properties": {"z": 108.23, "h": 3.26}, "geometry": {"type": "Polygon", "coordinates": [[[316192.0, 5691307.5], [316192.0, 5691313.0], [316199.0, 5691313.0], [316199.0, 5691307.5], [316192.0, 5691307.5]]]}}, {"type": "Feature", "properties": {"z": 107.49, "h": 2.45}, "geometry": {"type": "Polygon", "coordinates": [[[316192.25, 5691610.25], [316190.6, 5691615.2], [316196.15, 5691617.05], [316197.8, 5691612.1], [316192.25, 5691610.25]]]}}, {"type": "Feature", "properties": {"z": 108.46, "h": 4.12}, "geometry": {"type": "Polygon", "coordinates": [[[316197.25, 5691095.25], [316199.25, 5691097.25], [316203.5, 5691093.0], [316201.5, 5691091.0], [316197.25, 5691095.25]]]}}, {"type": "Feature", "properties": {"z": 109.23, "h": 3.78}, "geometry": {"type": "Polygon", "coordinates": [[[316198.55, 5691226.35], [316209.95, 5691230.15], [316211.45, 5691225.65], [316200.05, 5691221.85], [316198.55, 5691226.35]]]}}, {"type": "Feature", "properties": {"z": 108.58, "h": 3.62}, "geometry": {"type": "Polygon", "coordinates": [[[316208.25, 5690569.75], [316206.25, 5690571.75], [316209.25, 5690574.75], [316211.25, 5690572.75], [316208.25, 5690569.75]]]}}, {"type": "Feature", "properties": {"z": 108.38, "h": 3.78}, "geometry": {"type": "Polygon", "coordinates": [[[316212.99, 5690575.13], [316222.41, 5690582.83], [316224.37, 5690580.44], [316214.95, 5690572.73], [316212.99, 5690575.13]]]}}, {"type": "Feature", "properties": {"z": 108.4, "h": 4.61}, "geometry": {"type": "Polygon", "coordinates": [[[316228.6, 5691231.2], [316222.45, 5691229.15], [316221.1, 5691233.2], [316227.25, 5691235.25], [316228.6, 5691231.2]]]}}, {"type": "Feature", "properties": {"z": 108.66, "h": 2.59}, "geometry": {"type": "Polygon", "coordinates": [[[316229.78, 5691151.04], [316237.34, 5691161.12], [316240.7, 5691158.6], [316233.14, 5691148.52], [316229.78, 5691151.04]]]}}, {"type": "Feature", "properties": {"z": 108.67, "h": 2.6}, "geometry": {"type": "Polygon", "coordinates": [[[316243.9, 5691164.41], [316250.92, 5691161.78], [316249.15, 5691157.07], [316242.14, 5691159.7], [316243.9, 5691164.41]]]}}, {"type": "Feature", "properties": {"z": 108.66, "h": 2.6}, "geometry": {"type": "Polygon", "coordinates": [[[316252.32, 5691160.76], [316264.16, 5691151.88], [316261.22, 5691147.96], [316249.38, 5691156.84], [316252.32, 5691160.76]]]}}, {"type": "Feature", "properties": {"z": 107.96, "h": 4.83}, "geometry": {"type": "Polygon", "coordinates": [[[316255.81, 5691172.46], [316264.92, 5691166.38], [316259.08, 5691157.62], [316249.96, 5691163.69], [316255.81, 5691172.46]]]}}, {"type": "Feature", "properties": {"z": 108.17, "h": 2.92}, "geometry": {"type": "Polygon", "coordinates": [[[316265.55, 5691167.18], [316256.19, 5691173.87], [316258.42, 5691176.99], [316267.78, 5691170.3], [316265.55, 5691167.18]]]}}, {"type": "Feature", "properties": {"z": 107.03, "h": 2.53}, "geometry": {"type": "Polygon", "coordinates": [[[316286.96, 5690923.22], [316290.2, 5690918.9], [316287.8, 5690917.1], [316284.56, 5690921.42], [316286.96, 5690923.22]]]}}, {"type": "Feature", "properties": {"z": 107.11, "h": 2.46}, "geometry": {"type": "Polygon", "coordinates": [[[316292.81, 5690915.74], [316296.07, 5690911.66], [316293.57, 5690909.66], [316290.31, 5690913.74], [316292.81, 5690915.74]]]}}, {"type": "Feature", "properties": {"z": 108.28, "h": 2.59}, "geometry": {"type": "Polygon", "coordinates": [[[316301.25, 5690968.25], [316297.25, 5690972.25], [316299.25, 5690974.25], [316303.25, 5690970.25], [316301.25, 5690968.25]]]}}, {"type": "Feature", "properties": {"z": 106.97, "h": 2.58}, "geometry": {"type": "Polygon", "coordinates": [[[316303.6, 5690896.7], [316300.48, 5690900.86], [316303.04, 5690902.78], [316306.16, 5690898.62], [316303.6, 5690896.7]]]}}, {"type": "Feature", "properties": {"z": 107.54, "h": 2.18}, "geometry": {"type": "Polygon", "coordinates": [[[316307.0, 5691426.0], [316307.0, 5691429.5], [316309.0, 5691429.5], [316309.0, 5691426.0], [316307.0, 5691426.0]]]}}, {"type": "Feature", "properties": {"z": 107.06, "h": 2.48}, "geometry": {"type": "Polygon", "coordinates": [[[316310.53, 5690893.22], [316314.23, 5690888.59], [316311.73, 5690886.59], [316308.03, 5690891.22], [316310.53, 5690893.22]]]}}, {"type": "Feature", "properties": {"z": 106.89, "h": 2.91}, "geometry": {"type": "Polygon", "coordinates": [[[316312.02, 5690877.64], [316307.7, 5690874.4], [316301.16, 5690883.12], [316305.48, 5690886.36], [316312.02, 5690877.64]]]}}, {"type": "Feature", "properties": {"z": 107.11, "h": 2.4}, "geometry": {"type": "Polygon", "coordinates": [[[316316.75, 5690880.75], [316313.0, 5690884.5], [316315.25, 5690886.75], [316319.0, 5690883.0], [316316.75, 5690880.75]]]}}, {"type": "Feature", "properties": {"z": 105.83, "h": 3.25}, "geometry": {"type": "Polygon", "coordinates": [[[316330.85, 5691541.66], [316327.26, 5691553.63], [316340.66, 5691557.65], [316344.25, 5691545.67], [316330.85, 5691541.66]]]}}, {"type": "Feature", "properties": {"z": 108.47, "h": 2.97}, "geometry": {"type": "Polygon", "coordinates": [[[316342.5, 5691210.0], [316342.5, 5691214.0], [316345.5, 5691214.0], [316345.5, 5691210.0], [316342.5, 5691210.0]]]}}, {"type": "Feature", "properties": {"z": 108.57, "h": 2.66}, "geometry": {"type": "Polygon", "coordinates": [[[316356.75, 5691216.25], [316354.25, 5691213.75], [316352.0, 5691216.0], [316354.5, 5691218.5], [316356.75, 5691216.25]]]}}, {"type": "Feature", "properties": {"z": 107.79, "h": 2.78}, "geometry": {"type": "Polygon", "coordinates": [[[316377.5, 5691364.0], [316377.5, 5691368.0], [316380.5, 5691368.0], [316380.5, 5691364.0], [316377.5, 5691364.0]]]}}, {"type": "Feature", "properties": {"z": 107.38, "h": 2.89}, "geometry": {"type": "Polygon", "coordinates": [[[316394.35, 5691563.0], [316379.7, 5691559.62], [316378.71, 5691563.93], [316393.35, 5691567.31], [316394.35, 5691563.0]]]}}, {"type": "Feature", "properties": {"z": 108.06, "h": 2.48}, "geometry": {"type": "Polygon", "coordinates": [[[316395.1, 5690789.2], [316392.58, 5690792.56], [316398.58, 5690797.06], [316401.1, 5690793.7], [316395.1, 5690789.2]]]}}, {"type": "Feature", "properties": {"z": 109.54, "h": 4.01}, "geometry": {"type": "Polygon", "coordinates": [[[316399.13, 5690192.33], [316397.69, 5690199.54], [316400.67, 5690200.13], [316402.12, 5690192.92], [316399.13, 5690192.33]]]}}, {"type": "Feature", "properties": {"z": 107.6, "h": 3.32}, "geometry": {"type": "Polygon", "coordinates": [[[316409.68, 5691397.29], [316411.32, 5691390.71], [316407.21, 5691389.68], [316405.56, 5691396.26], [316409.68, 5691397.29]]]}}, {"type": "Feature", "properties": {"z": 108.5, "h": 4.4}, "geometry": {"type": "Polygon", "coordinates": [[[316416.15, 5691232.23], [316415.04, 5691237.81], [316421.38, 5691239.08], [316422.5, 5691233.5], [316416.15, 5691232.23]]]}}, {"type": "Feature", "properties": {"z": 107.73, "h": 2.5}, "geometry": {"type": "Polygon", "coordinates": [[[316422.0, 5691025.0], [316419.75, 5691027.25], [316422.5, 5691030.0], [316424.75, 5691027.75], [316422.0, 5691025.0]]]}}, {"type": "Feature", "properties": {"z": 109.22, "h": 2.54}, "geometry": {"type": "Polygon", "coordinates": [[[316422.89, 5690014.15], [316418.11, 5690013.35], [316417.51, 5690016.92], [316422.3, 5690017.72], [316422.89, 5690014.15]]]}}, {"type": "Feature", "properties": {"z": 108.76, "h": 3.1}, "geometry": {"type": "Polygon", "coordinates": [[[316429.67, 5690009.81], [316428.49, 5690018.07], [316433.39, 5690018.77], [316434.57, 5690010.51], [316429.67, 5690009.81]]]}}, {"type": "Feature", "properties": {"z": 108.57, "h": 2.91}, "geometry": {"type": "Polygon", "coordinates": [[[316481.5, 5690523.0], [316477.25, 5690527.25], [316481.75, 5690531.75], [316486.0, 5690527.5], [316481.5, 5690523.0]]]}}, {"type": "Feature", "properties": {"z": 107.45, "h": 2.99}, "geometry": {"type": "Polygon", "coordinates": [[[316498.55, 5691418.35], [316503.65, 5691420.05], [316504.9, 5691416.3], [316499.8, 5691414.6], [316498.55, 5691418.35]]]}}, {"type": "Feature", "properties": {"z": 107.67, "h": 2.66}, "geometry": {"type": "Polygon", "coordinates": [[[316539.5, 5690800.5], [316535.25, 5690804.75], [316539.5, 5690809.0], [316543.75, 5690804.75], [316539.5, 5690800.5]]]}}, {"type": "Feature", "properties": {"z": 108.75, "h": 4.49}, "geometry": {"type": "Polygon", "coordinates": [[[316542.5, 5691220.5], [316542.5, 5691223.5], [316546.0, 5691223.5], [316546.0, 5691220.5], [316542.5, 5691220.5]]]}}, {"type": "Feature", "properties": {"z": 107.59, "h": 2.5}, "geometry": {"type": "Polygon", "coordinates": [[[316542.5, 5691417.5], [316542.5, 5691420.5], [316548.0, 5691420.5], [316548.0, 5691417.5], [316542.5, 5691417.5]]]}}, {"type": "Feature", "properties": {"z": 108.51, "h": 2.88}, "geometry": {"type": "Polygon", "coordinates": [[[316542.98, 5690572.35], [316549.13, 5690579.27], [316551.24, 5690577.4], [316545.09, 5690570.48], [316542.98, 5690572.35]]]}}, {"type": "Feature", "properties": {"z": 109.18, "h": 2.34}, "geometry": {"type": "Polygon", "coordinates": [[[316570.55, 5690295.12], [316572.31, 5690290.72], [316569.55, 5690289.62], [316567.79, 5690294.02], [316570.55, 5690295.12]]]}}, {"type": "Feature", "properties": {"z": 107.51, "h": 3.39}, "geometry": {"type": "Polygon", "coordinates": [[[316575.34, 5690589.71], [316570.97, 5690593.36], [316574.0, 5690597.0], [316578.38, 5690593.35], [316575.34, 5690589.71]]]}}, {"type": "Feature", "properties": {"z": 107.42, "h": 2.67}, "geometry": {"type": "Polygon", "coordinates": [[[316601.01, 5691427.63], [316598.73, 5691433.71], [316601.36, 5691434.7], [316603.64, 5691428.62], [316601.01, 5691427.63]]]}}, {"type": "Feature", "properties": {"z": 109.58, "h": 3.38}, "geometry": {"type": "Polygon", "coordinates": [[[316618.5, 5690122.5], [316618.5, 5690128.0], [316622.5, 5690128.0], [316622.5, 5690122.5], [316618.5, 5690122.5]]]}}, {"type": "Feature", "properties": {"z": 108.26, "h": 3.09}, "geometry": {"type": "Polygon", "coordinates": [[[316651.63, 5691099.29], [316644.07, 5691089.84], [316640.84, 5691092.43], [316648.4, 5691101.88], [316651.63, 5691099.29]]]}}, {"type": "Feature", "properties": {"z": 108.46, "h": 3.18}, "geometry": {"type": "Polygon", "coordinates": [[[316662.89, 5691114.83], [316651.74, 5691106.96], [316648.45, 5691111.61], [316659.6, 5691119.48], [316662.89, 5691114.83]]]}}, {"type": "Feature", "properties": {"z": 109.78, "h": 4.24}, "geometry": {"type": "Polygon", "coordinates": [[[316668.19, 5690282.04], [316666.56, 5690290.21], [316677.13, 5690292.33], [316678.77, 5690284.15], [316668.19, 5690282.04]]]}}, {"type": "Feature", "properties": {"z": 107.84, "h": 3.17}, "geometry": {"type": "Polygon", "coordinates": [[[316721.93, 5691249.34], [316716.01, 5691244.61], [316713.23, 5691248.09], [316719.15, 5691252.82], [316721.93, 5691249.34]]]}}, {"type": "Feature", "properties": {"z": 109.26, "h": 3.33}, "geometry": {"type": "Polygon", "coordinates": [[[316739.08, 5690266.84], [316724.44, 5690263.66], [316723.12, 5690269.74], [316737.75, 5690272.93], [316739.08, 5690266.84]]]}}, {"type": "Feature", "properties": {"z": 109.99, "h": 2.33}, "geometry": {"type": "Polygon", "coordinates": [[[316745.5, 5690312.0], [316745.5, 5690316.5], [316754.0, 5690316.5], [316754.0, 5690312.0], [316745.5, 5690312.0]]]}}, {"type": "Feature", "properties": {"z": 108.84, "h": 5.75}, "geometry": {"type": "Polygon", "coordinates": [[[316756.0, 5690999.0], [316758.2, 5691003.4], [316761.6, 5691001.7], [316759.4, 5690997.3], [316756.0, 5690999.0]]]}}, {"type": "Feature", "properties": {"z": 107.9, "h": 3.25}, "geometry": {"type": "Polygon", "coordinates": [[[316757.7, 5691294.4], [316753.38, 5691291.16], [316750.56, 5691294.92], [316754.88, 5691298.16], [316757.7, 5691294.4]]]}}, {"type": "Feature", "properties": {"z": 108.83, "h": 5.77}, "geometry": {"type": "Polygon", "coordinates": [[[316767.58, 5691008.94], [316764.64, 5691005.02], [316762.0, 5691007.0], [316764.94, 5691010.92], [316767.58, 5691008.94]]]}}, {"type": "Feature", "properties": {"z": 107.21, "h": 5.73}, "geometry": {"type": "Polygon", "coordinates": [[[316816.55, 5691763.65], [316813.55, 5691754.65], [316808.15, 5691756.45], [316811.15, 5691765.45], [316816.55, 5691763.65]]]}}, {"type": "Feature", "properties": {"z": 108.93, "h": 3.05, "hc": [2.01, 3.99, 4.04, 2.06]}, "geometry": {"type": "Polygon", "coordinates": [[[316820.0, 5690885.0], [316812.75, 5690892.25], [316815.0, 5690894.5], [316822.25, 5690887.25], [316820.0, 5690885.0]]]}}, {"type": "Feature", "properties": {"z": 107.83, "h": 3.86}, "geometry": {"type": "Polygon", "coordinates": [[[316840.0, 5691824.0], [316840.0, 5691827.5], [316847.0, 5691827.5], [316847.0, 5691824.0], [316840.0, 5691824.0]]]}}, {"type": "Feature", "properties": {"z": 108.42, "h": 3.1, "hc": [3.67, 2.62, 2.42, 3.46]}, "geometry": {"type": "Polygon", "coordinates": [[[316868.5, 5691800.0], [316868.5, 5691807.5], [316872.5, 5691807.5], [316872.5, 5691800.0], [316868.5, 5691800.0]]]}}, {"type": "Feature", "properties": {"z": 109.54, "h": 2.84}, "geometry": {"type": "Polygon", "coordinates": [[[316896.96, 5691901.23], [316901.89, 5691908.27], [316905.05, 5691906.07], [316900.11, 5691899.02], [316896.96, 5691901.23]]]}}, {"type": "Feature", "properties": {"z": 108.22, "h": 3.43}, "geometry": {"type": "Polygon", "coordinates": [[[316904.5, 5691542.0], [316904.5, 5691547.5], [316909.0, 5691547.5], [316909.0, 5691542.0], [316904.5, 5691542.0]]]}}, {"type": "Feature", "properties": {"z": 110.76, "h": 5.74, "hc": [5.6, 5.43, 5.91, 6.07]}, "geometry": {"type": "Polygon", "coordinates": [[[316913.67, 5690593.13], [316912.65, 5690598.23], [316915.92, 5690598.88], [316916.94, 5690593.79], [316913.67, 5690593.13]]]}}, {"type": "Feature", "properties": {"z": 110.36, "h": 6.31}, "geometry": {"type": "Polygon", "coordinates": [[[316918.1, 5690011.49], [316917.41, 5689998.24], [316911.92, 5689998.53], [316912.62, 5690011.78], [316918.1, 5690011.49]]]}}, {"type": "Feature", "properties": {"z": 110.83, "h": 3.05}, "geometry": {"type": "Polygon", "coordinates": [[[316919.75, 5690647.75], [316922.5, 5690650.5], [316925.25, 5690647.75], [316922.5, 5690645.0], [316919.75, 5690647.75]]]}}, {"type": "Feature", "properties": {"z": 110.84, "h": 3.09}, "geometry": {"type": "Polygon", "coordinates": [[[316926.5, 5690642.0], [316923.5, 5690645.0], [316926.25, 5690647.75], [316929.25, 5690644.75], [316926.5, 5690642.0]]]}}, {"type": "Feature", "properties": {"z": 110.9, "h": 3.14}, "geometry": {"type": "Polygon", "coordinates": [[[316932.88, 5690643.08], [316930.58, 5690639.62], [316927.0, 5690642.0], [316929.31, 5690645.46], [316932.88, 5690643.08]]]}}, {"type": "Feature", "properties": {"z": 109.99, "h": 4.85}, "geometry": {"type": "Polygon", "coordinates": [[[316933.0, 5690182.5], [316933.0, 5690185.5], [316936.5, 5690185.5], [316936.5, 5690182.5], [316933.0, 5690182.5]]]}}, {"type": "Feature", "properties": {"z": 112.07, "h": 2.69}, "geometry": {"type": "Polygon", "coordinates": [[[316936.71, 5690312.82], [316943.01, 5690314.22], [316943.85, 5690310.41], [316937.55, 5690309.01], [316936.71, 5690312.82]]]}}, {"type": "Feature", "properties": {"z": 110.81, "h": 4.27}, "geometry": {"type": "Polygon", "coordinates": [[[316949.5, 5690747.0], [316949.5, 5690752.5], [316953.0, 5690752.5], [316953.0, 5690747.0], [316949.5, 5690747.0]]]}}, {"type": "Feature", "properties": {"z": 110.84, "h": 2.62}, "geometry": {"type": "Polygon", "coordinates": [[[316951.5, 5690765.0], [316951.5, 5690769.0], [316954.5, 5690769.0], [316954.5, 5690765.0], [316951.5, 5690765.0]]]}}, {"type": "Feature", "properties": {"z": 111.01, "h": 4.88}, "geometry": {"type": "Polygon", "coordinates": [[[316952.0, 5690735.0], [316952.0, 5690743.5], [316958.0, 5690743.5], [316958.0, 5690735.0], [316952.0, 5690735.0]]]}}, {"type": "Feature", "properties": {"z": 112.38, "h": 3.98}, "geometry": {"type": "Polygon", "coordinates": [[[316971.0, 5690321.0], [316971.0, 5690325.5], [316979.5, 5690325.5], [316979.5, 5690321.0], [316971.0, 5690321.0]]]}}, {"type": "Feature", "properties": {"z": 108.49, "h": 2.31}, "geometry": {"type": "Polygon", "coordinates": [[[316973.5, 5691713.5], [316973.5, 5691719.5], [316977.0, 5691719.5], [316977.0, 5691713.5], [316973.5, 5691713.5]]]}}, {"type": "Feature", "properties": {"z": 110.45, "h": 2.88}, "geometry": {"type": "Polygon", "coordinates": [[[316978.5, 5690966.5], [316978.5, 5690978.5], [316990.5, 5690978.5], [316990.5, 5690966.5], [316978.5, 5690966.5]]]}}, {"type": "Feature", "properties": {"z": 108.42, "h": 2.58}, "geometry": {"type": "Polygon", "coordinates": [[[316992.5, 5691557.5], [316992.5, 5691560.5], [316998.0, 5691560.5], [316998.0, 5691557.5], [316992.5, 5691557.5]]]}}, {"type": "Feature", "properties": {"z": 110.93, "h": 3.31}, "geometry": {"type": "Polygon", "coordinates": [[[317009.77, 5690972.05], [316994.71, 5690971.43], [316994.24, 5690982.78], [317009.3, 5690983.41], [317009.77, 5690972.05]]]}}, {"type": "Feature", "properties": {"z": 108.38, "h": 2.65}, "geometry": {"type": "Polygon", "coordinates": [[[317023.25, 5691531.25], [317022.06, 5691537.21], [317025.81, 5691537.96], [317027.0, 5691532.0], [317023.25, 5691531.25]]]}}, {"type": "Feature", "properties": {"z": 112.42, "h": 2.77}, "geometry": {"type": "Polygon", "coordinates": [[[317026.53, 5691097.9], [317025.9, 5691109.97], [317030.12, 5691110.19], [317030.76, 5691098.12], [317026.53, 5691097.9]]]}}, {"type": "Feature", "properties": {"z": 113.56, "h": 5.28, "hc": [4.74, 5.06, 5.77, 5.44]}, "geometry": {"type": "Polygon", "coordinates": [[[317065.5, 5690684.0], [317065.5, 5690688.5], [317069.0, 5690688.5], [317069.0, 5690684.0], [317065.5, 5690684.0]]]}}, {"type": "Feature", "properties": {"z": 112.04, "h": 2.47}, "geometry": {"type": "Polygon", "coordinates": [[[317073.0, 5690078.5], [317073.0, 5690081.5], [317078.5, 5690081.5], [317078.5, 5690078.5], [317073.0, 5690078.5]]]}}, {"type": "Feature", "properties": {"z": 109.72, "h": 4.13}, "geometry": {"type": "Polygon", "coordinates": [[[317074.0, 5691225.0], [317074.0, 5691232.0], [317083.5, 5691232.0], [317083.5, 5691225.0], [317074.0, 5691225.0]]]}}, {"type": "Feature", "properties": {"z": 112.32, "h": 2.85}, "geometry": {"type": "Polygon", "coordinates": [[[317077.5, 5690141.5], [317077.5, 5690145.5], [317086.5, 5690145.5], [317086.5, 5690141.5], [317077.5, 5690141.5]]]}}, {"type": "Feature", "properties": {"z": 112.16, "h": 2.81}, "geometry": {"type": "Polygon", "coordinates": [[[317080.1, 5690082.7], [317077.46, 5690086.22], [317080.42, 5690088.44], [317083.06, 5690084.92], [317080.1, 5690082.7]]]}}, {"type": "Feature", "properties": {"z": 110.6, "h": 4.75}, "geometry": {"type": "Polygon", "coordinates": [[[317083.0, 5691182.0], [317083.0, 5691187.0], [317087.5, 5691187.0], [317087.5, 5691182.0], [317083.0, 5691182.0]]]}}, {"type": "Feature", "properties": {"z": 115.48, "h": 2.64}, "geometry": {"type": "Polygon", "coordinates": [[[317089.0, 5690484.0], [317086.5, 5690486.5], [317089.25, 5690489.25], [317091.75, 5690486.75], [317089.0, 5690484.0]]]}}, {"type": "Feature", "properties": {"z": 115.44, "h": 2.69}, "geometry": {"type": "Polygon", "coordinates": [[[317091.8, 5690486.1], [317090.75, 5690489.25], [317094.2, 5690490.4], [317095.25, 5690487.25], [317091.8, 5690486.1]]]}}, {"type": "Feature", "properties": {"z": 115.5, "h": 2.63}, "geometry": {"type": "Polygon", "coordinates": [[[317095.0, 5690487.5], [317095.0, 5690491.0], [317098.5, 5690491.0], [317098.5, 5690487.5], [317095.0, 5690487.5]]]}}, {"type": "Feature", "properties": {"z": 110.59, "h": 4.89}, "geometry": {"type": "Polygon", "coordinates": [[[317098.38, 5691179.77], [317092.13, 5691180.81], [317092.99, 5691185.92], [317099.23, 5691184.88], [317098.38, 5691179.77]]]}}, {"type": "Feature", "properties": {"z": 115.5, "h": 2.62}, "geometry": {"type": "Polygon", "coordinates": [[[317101.7, 5690493.1], [317103.3, 5690489.9], [317100.1, 5690488.3], [317098.5, 5690491.5], [317101.7, 5690493.1]]]}}, {"type": "Feature", "properties": {"z": 115.5, "h": 2.59}, "geometry": {"type": "Polygon", "coordinates": [[[317103.0, 5690490.0], [317103.0, 5690494.0], [317106.5, 5690494.0], [317106.5, 5690490.0], [317103.0, 5690490.0]]]}}, {"type": "Feature", "properties": {"z": 110.58, "h": 4.73}, "geometry": {"type": "Polygon", "coordinates": [[[317103.24, 5691178.96], [317104.11, 5691184.15], [317108.57, 5691183.41], [317107.7, 5691178.22], [317103.24, 5691178.96]]]}}, {"type": "Feature", "properties": {"z": 112.33, "h": 3.1}, "geometry": {"type": "Polygon", "coordinates": [[[317120.0, 5690164.5], [317120.0, 5690168.0], [317122.0, 5690168.0], [317122.0, 5690164.5], [317120.0, 5690164.5]]]}}, {"type": "Feature", "properties": {"z": 112.47, "h": 6.48}, "geometry": {"type": "Polygon", "coordinates": [[[317136.5, 5691059.5], [317136.5, 5691063.0], [317140.5, 5691063.0], [317140.5, 5691059.5], [317136.5, 5691059.5]]]}}, {"type": "Feature", "properties": {"z": 112.49, "h": 4.08}, "geometry": {"type": "Polygon", "coordinates": [[[317146.0, 5690075.0], [317146.0, 5690079.5], [317151.0, 5690079.5], [317151.0, 5690075.0], [317146.0, 5690075.0]]]}}, {"type": "Feature", "properties": {"z": 114.03, "h": 2.38}, "geometry": {"type": "Polygon", "coordinates": [[[317169.0, 5690215.0], [317169.0, 5690219.0], [317173.0, 5690219.0], [317173.0, 5690215.0], [317169.0, 5690215.0]]]}}, {"type": "Feature", "properties": {"z": 110.39, "h": 2.73}, "geometry": {"type": "Polygon", "coordinates": [[[317169.0, 5691150.5], [317169.0, 5691153.5], [317172.0, 5691153.5], [317172.0, 5691150.5], [317169.0, 5691150.5]]]}}, {"type": "Feature", "properties": {"z": 110.18, "h": 2.72}, "geometry": {"type": "Polygon", "coordinates": [[[317197.5, 5691211.5], [317197.5, 5691215.0], [317200.5, 5691215.0], [317200.5, 5691211.5], [317197.5, 5691211.5]]]}}, {"type": "Feature", "properties": {"z": 108.26, "h": 5.15}, "geometry": {"type": "Polygon", "coordinates": [[[317207.5, 5691661.0], [317207.5, 5691687.5], [317210.0, 5691687.5], [317210.0, 5691661.0], [317207.5, 5691661.0]]]}}, {"type": "Feature", "properties": {"z": 113.34, "h": 5.17}, "geometry": {"type": "Polygon", "coordinates": [[[317214.0, 5690815.0], [317214.0, 5690817.5], [317221.0, 5690817.5], [317221.0, 5690815.0], [317214.0, 5690815.0]]]}}, {"type": "Feature", "properties": {"z": 109.0, "h": 5.22, "hc": [5.01, 5.16, 5.46, 5.31]}, "geometry": {"type": "Polygon", "coordinates": [[[317258.0, 5691431.0], [317258.0, 5691435.0], [317260.0, 5691435.0], [317260.0, 5691431.0], [317258.0, 5691431.0]]]}}, {"type": "Feature", "properties": {"z": 108.92, "h": 2.53, "hc": [2.61, 2.05, 2.48, 3.04]}, "geometry": {"type": "Polygon", "coordinates": [[[317264.75, 5691709.25], [317267.0, 5691711.5], [317270.0, 5691708.5], [317267.75, 5691706.25], [317264.75, 5691709.25]]]}}, {"type": "Feature", "properties": {"z": 108.49, "h": 4.02}, "geometry": {"type": "Polygon", "coordinates": [[[317322.5, 5691896.0], [317322.5, 5691900.5], [317326.5, 5691900.5], [317326.5, 5691896.0], [317322.5, 5691896.0]]]}}, {"type": "Feature", "properties": {"z": 108.52, "h": 3.99}, "geometry": {"type": "Polygon", "coordinates": [[[317327.5, 5691897.0], [317327.5, 5691904.5], [317335.5, 5691904.5], [317335.5, 5691897.0], [317327.5, 5691897.0]]]}}, {"type": "Feature", "properties": {"z": 108.15, "h": 4.95}, "geometry": {"type": "Polygon", "coordinates": [[[317348.02, 5691298.1], [317338.88, 5691299.92], [317340.81, 5691309.54], [317349.94, 5691307.71], [317348.02, 5691298.1]]]}}, {"type": "Feature", "properties": {"z": 108.68, "h": 3.86}, "geometry": {"type": "Polygon", "coordinates": [[[317351.73, 5691901.52], [317340.16, 5691898.8], [317339.5, 5691901.65], [317351.06, 5691904.37], [317351.73, 5691901.52]]]}}, {"type": "Feature", "properties": {"z": 111.5, "h": 2.37}, "geometry": {"type": "Polygon", "coordinates": [[[317352.5, 5691088.5], [317352.5, 5691093.0], [317358.0, 5691093.0], [317358.0, 5691088.5], [317352.5, 5691088.5]]]}}, {"type": "Feature", "properties": {"z": 113.78, "h": 2.54}, "geometry": {"type": "Polygon", "coordinates": [[[317365.0, 5690161.0], [317367.9, 5690166.8], [317370.9, 5690165.3], [317368.0, 5690159.5], [317365.0, 5690161.0]]]}}, {"type": "Feature", "properties": {"z": 111.2, "h": 5.21}, "geometry": {"type": "Polygon", "coordinates": [[[317369.98, 5691118.78], [317360.92, 5691119.79], [317361.43, 5691124.4], [317370.49, 5691123.39], [317369.98, 5691118.78]]]}}, {"type": "Feature", "properties": {"z": 107.62, "h": 2.32}, "geometry": {"type": "Polygon", "coordinates": [[[317391.5, 5691965.5], [317391.5, 5691968.0], [317397.0, 5691968.0], [317397.0, 5691965.5], [317391.5, 5691965.5]]]}}, {"type": "Feature", "properties": {"z": 105.81, "h": 2.41}, "geometry": {"type": "Polygon", "coordinates": [[[317399.98, 5691956.69], [317405.91, 5691961.78], [317407.67, 5691959.72], [317401.74, 5691954.63], [317399.98, 5691956.69]]]}}, {"type": "Feature", "properties": {"z": 117.28, "h": 3.05}, "geometry": {"type": "Polygon", "coordinates": [[[317416.78, 5690587.51], [317409.78, 5690585.51], [317408.8, 5690588.94], [317415.8, 5690590.94], [317416.78, 5690587.51]]]}}, {"type": "Feature", "properties": {"z": 116.17, "h": 3.82}, "geometry": {"type": "Polygon", "coordinates": [[[317420.0, 5690584.5], [317420.0, 5690588.0], [317427.0, 5690588.0], [317427.0, 5690584.5], [317420.0, 5690584.5]]]}}, {"type": "Feature", "properties": {"z": 114.18, "h": 3.74, "hc": [3.89, 3.25, 3.6, 4.25]}, "geometry": {"type": "Polygon", "coordinates": [[[317424.93, 5690181.17], [317421.93, 5690174.17], [317419.03, 5690175.41], [317422.03, 5690182.41], [317424.93, 5690181.17]]]}}, {"type": "Feature", "properties": {"z": 111.69, "h": 2.67}, "geometry": {"type": "Polygon", "coordinates": [[[317426.96, 5691065.31], [317425.71, 5691059.06], [317422.54, 5691059.69], [317423.79, 5691065.94], [317426.96, 5691065.31]]]}}, {"type": "Feature", "properties": {"z": 108.13, "h": 4.46, "hc": [4.32, 4.9, 4.74, 4.16]}, "geometry": {"type": "Polygon", "coordinates": [[[317427.75, 5691787.25], [317425.25, 5691789.75], [317429.0, 5691793.5], [317431.5, 5691791.0], [317427.75, 5691787.25]]]}}, {"type": "Feature", "properties": {"z": 109.73, "h": 5.06}, "geometry": {"type": "Polygon", "coordinates": [[[317446.5, 5691211.0], [317446.5, 5691214.5], [317449.5, 5691214.5], [317449.5, 5691211.0], [317446.5, 5691211.0]]]}}, {"type": "Feature", "properties": {"z": 116.68, "h": 4.23}, "geometry": {"type": "Polygon", "coordinates": [[[317450.95, 5690603.85], [317449.15, 5690598.45], [317446.3, 5690599.4], [317448.1, 5690604.8], [317450.95, 5690603.85]]]}}, {"type": "Feature", "properties": {"z": 116.88, "h": 3.0}, "geometry": {"type": "Polygon", "coordinates": [[[317453.35, 5690606.41], [317446.88, 5690608.03], [317449.24, 5690617.44], [317455.71, 5690615.82], [317453.35, 5690606.41]]]}}, {"type": "Feature", "properties": {"z": 108.64, "h": 4.25}, "geometry": {"type": "Polygon", "coordinates": [[[317472.75, 5691876.18], [317463.37, 5691892.13], [317471.56, 5691896.95], [317480.94, 5691881.0], [317472.75, 5691876.18]]]}}, {"type": "Feature", "properties": {"z": 113.96, "h": 4.78, "hc": [5.89, 5.36, 3.52, 4.04]}, "geometry": {"type": "Polygon", "coordinates": [[[317476.0, 5690278.5], [317472.2, 5690280.4], [317473.9, 5690283.8], [317477.7, 5690281.9], [317476.0, 5690278.5]]]}}, {"type": "Feature", "properties": {"z": 114.79, "h": 4.28}, "geometry": {"type": "Polygon", "coordinates": [[[317478.7, 5690089.4], [317475.3, 5690091.1], [317476.9, 5690094.3], [317480.3, 5690092.6], [317478.7, 5690089.4]]]}}, {"type": "Feature", "properties": {"z": 108.99, "h": 5.94, "hc": [5.58, 5.44, 6.21, 6.34]}, "geometry": {"type": "Polygon", "coordinates": [[[317483.5, 5691218.5], [317483.5, 5691222.5], [317487.0, 5691222.5], [317487.0, 5691218.5], [317483.5, 5691218.5]]]}}, {"type": "Feature", "properties": {"z": 108.78, "h": 4.14}, "geometry": {"type": "Polygon", "coordinates": [[[317486.75, 5691229.75], [317488.75, 5691231.75], [317492.25, 5691228.25], [317490.25, 5691226.25], [317486.75, 5691229.75]]]}}, {"type": "Feature", "properties": {"z": 113.02, "h": 5.19}, "geometry": {"type": "Polygon", "coordinates": [[[317517.09, 5690963.74], [317523.62, 5690962.92], [317523.21, 5690959.66], [317516.68, 5690960.48], [317517.09, 5690963.74]]]}}, {"type": "Feature", "properties": {"z": 115.63, "h": 3.82}, "geometry": {"type": "Polygon", "coordinates": [[[317517.76, 5690764.06], [317512.35, 5690765.41], [317513.18, 5690768.71], [317518.59, 5690767.35], [317517.76, 5690764.06]]]}}, {"type": "Feature", "properties": {"z": 111.71, "h": 4.49}, "geometry": {"type": "Polygon", "coordinates": [[[317547.0, 5691070.0], [317547.0, 5691074.0], [317550.5, 5691074.0], [317550.5, 5691070.0], [317547.0, 5691070.0]]]}}, {"type": "Feature", "properties": {"z": 114.04, "h": 2.55}, "geometry": {"type": "Polygon", "coordinates": [[[317561.17, 5690344.37], [317560.33, 5690340.13], [317557.15, 5690340.77], [317558.0, 5690345.0], [317561.17, 5690344.37]]]}}, {"type": "Feature", "properties": {"z": 113.41, "h": 2.39}, "geometry": {"type": "Polygon", "coordinates": [[[317661.0, 5690954.5], [317661.0, 5690957.5], [317664.5, 5690957.5], [317664.5, 5690954.5], [317661.0, 5690954.5]]]}}, {"type": "Feature", "properties": {"z": 113.1, "h": 3.76}, "geometry": {"type": "Polygon", "coordinates": [[[317664.37, 5690015.35], [317651.59, 5690016.77], [317652.16, 5690021.98], [317664.95, 5690020.56], [317664.37, 5690015.35]]]}}, {"type": "Feature", "properties": {"z": 112.98, "h": 3.48}, "geometry": {"type": "Polygon", "coordinates": [[[317679.0, 5690006.0], [317679.0, 5690010.0], [317685.0, 5690010.0], [317685.0, 5690006.0], [317679.0, 5690006.0]]]}}, {"type": "Feature", "properties": {"z": 112.9, "h": 3.81}, "geometry": {"type": "Polygon", "coordinates": [[[317679.0, 5690016.5], [317679.0, 5690019.0], [317686.5, 5690019.0], [317686.5, 5690016.5], [317679.0, 5690016.5]]]}}, {"type": "Feature", "properties": {"z": 111.92, "h": 6.16}, "geometry": {"type": "Polygon", "coordinates": [[[317730.76, 5691903.2], [317716.3, 5691914.76], [317719.57, 5691918.84], [317734.02, 5691907.28], [317730.76, 5691903.2]]]}}, {"type": "Feature", "properties": {"z": 111.97, "h": 2.5}, "geometry": {"type": "Polygon", "coordinates": [[[317738.33, 5690172.15], [317727.05, 5690176.26], [317728.43, 5690180.07], [317739.71, 5690175.97], [317738.33, 5690172.15]]]}}, {"type": "Feature", "properties": {"z": 114.73, "h": 5.86}, "geometry": {"type": "Polygon", "coordinates": [[[317741.5, 5690841.0], [317738.25, 5690844.25], [317741.25, 5690847.25], [317744.5, 5690844.0], [317741.5, 5690841.0]]]}}, {"type": "Feature", "properties": {"z": 114.54, "h": 5.88, "hc": [5.47, 5.56, 6.34, 6.25]}, "geometry": {"type": "Polygon", "coordinates": [[[317755.81, 5690849.14], [317766.22, 5690846.3], [317765.55, 5690843.85], [317755.14, 5690846.69], [317755.81, 5690849.14]]]}}, {"type": "Feature", "properties": {"z": 115.26, "h": 5.83}, "geometry": {"type": "Polygon", "coordinates": [[[317762.88, 5690611.08], [317767.15, 5690608.23], [317765.08, 5690605.12], [317760.81, 5690607.96], [317762.88, 5690611.08]]]}}, {"type": "Feature", "properties": {"z": 111.94, "h": 5.41}, "geometry": {"type": "Polygon", "coordinates": [[[317765.25, 5691014.6], [317761.38, 5690997.8], [317751.63, 5691000.05], [317755.5, 5691016.85], [317765.25, 5691014.6]]]}}, {"type": "Feature", "properties": {"z": 116.3, "h": 6.05}, "geometry": {"type": "Polygon", "coordinates": [[[317772.5, 5690488.5], [317772.5, 5690492.0], [317775.5, 5690492.0], [317775.5, 5690488.5], [317772.5, 5690488.5]]]}}, {"type": "Feature", "properties": {"z": 110.39, "h": 4.84}, "geometry": {"type": "Polygon", "coordinates": [[[317779.5, 5691182.0], [317779.5, 5691187.5], [317783.5, 5691187.5], [317783.5, 5691182.0], [317779.5, 5691182.0]]]}}, {"type": "Feature", "properties": {"z": 111.76, "h": 2.83, "hc": [2.76, 3.33, 2.93, 2.37]}, "geometry": {"type": "Polygon", "coordinates": [[[317799.27, 5690416.15], [317796.81, 5690412.46], [317792.88, 5690415.08], [317795.35, 5690418.77], [317799.27, 5690416.15]]]}}, {"type": "Feature", "properties": {"z": 115.04, "h": 5.04, "hc": [5.91, 4.78, 4.33, 5.46]}, "geometry": {"type": "Polygon", "coordinates": [[[317801.85, 5690617.55], [317807.25, 5690615.75], [317805.9, 5690611.7], [317800.5, 5690613.5], [317801.85, 5690617.55]]]}}, {"type": "Feature", "properties": {"z": 114.97, "h": 5.84, "hc": [6.59, 6.86, 4.97, 4.7]}, "geometry": {"type": "Polygon", "coordinates": [[[317801.86, 5690617.75], [317804.05, 5690625.42], [317808.54, 5690624.13], [317806.35, 5690616.47], [317801.86, 5690617.75]]]}}, {"type": "Feature", "properties": {"z": 115.02, "h": 6.02, "hc": [6.43, 6.48, 5.65, 5.6]}, "geometry": {"type": "Polygon", "coordinates": [[[317805.3, 5690626.9], [317808.25, 5690635.75], [317811.7, 5690634.6], [317808.75, 5690625.75], [317805.3, 5690626.9]]]}}, {"type": "Feature", "properties": {"z": 115.04, "h": 5.96, "hc": [5.44, 6.35, 6.42, 5.52]}, "geometry": {"type": "Polygon", "coordinates": [[[317813.19, 5690634.72], [317809.22, 5690636.31], [317810.95, 5690640.62], [317814.91, 5690639.03], [317813.19, 5690634.72]]]}}, {"type": "Feature", "properties": {"z": 109.56, "h": 2.75}, "geometry": {"type": "Polygon", "coordinates": [[[317819.33, 5691293.87], [317823.46, 5691294.69], [317824.27, 5691290.65], [317820.13, 5691289.83], [317819.33, 5691293.87]]]}}, {"type": "Feature", "properties": {"z": 116.86, "h": 2.95}, "geometry": {"type": "Polygon", "coordinates": [[[317849.3, 5690514.4], [317853.2, 5690519.6], [317855.52, 5690517.86], [317851.62, 5690512.66], [317849.3, 5690514.4]]]}}, {"type": "Feature", "properties": {"z": 116.86, "h": 2.28}, "geometry": {"type": "Polygon", "coordinates": [[[317857.35, 5690523.73], [317856.31, 5690518.54], [317853.23, 5690519.15], [317854.27, 5690524.35], [317857.35, 5690523.73]]]}}, {"type": "Feature", "properties": {"z": 110.13, "h": 2.12}, "geometry": {"type": "Polygon", "coordinates": [[[317903.5, 5691160.0], [317903.5, 5691164.5], [317909.0, 5691164.5], [317909.0, 5691160.0], [317903.5, 5691160.0]]]}}, {"type": "Feature", "properties": {"z": 114.23, "h": 3.25, "hc": [3.42, 3.85, 2.99, 2.56]}, "geometry": {"type": "Polygon", "coordinates": [[[317911.9, 5690367.2], [317909.15, 5690358.95], [317906.0, 5690360.0], [317908.75, 5690368.25], [317911.9, 5690367.2]]]}}, {"type": "Feature", "properties": {"z": 115.24, "h": 4.86}, "geometry": {"type": "Polygon", "coordinates": [[[317921.7, 5690384.1], [317917.95, 5690385.35], [317919.05, 5690388.65], [317922.8, 5690387.4], [317921.7, 5690384.1]]]}}, {"type": "Feature", "properties": {"z": 114.72, "h": 5.52, "hc": [4.28, 4.25, 6.78, 6.81]}, "geometry": {"type": "Polygon", "coordinates": [[[317930.77, 5689995.96], [317905.77, 5690003.6], [317907.55, 5690009.43], [317932.55, 5690001.79], [317930.77, 5689995.96]]]}}, {"type": "Feature", "properties": {"z": 114.02, "h": 6.03, "hc": [7.06, 7.25, 4.94, 4.75]}, "geometry": {"type": "Polygon", "coordinates": [[[317933.44, 5690005.43], [317908.82, 5690012.7], [317910.41, 5690018.09], [317935.04, 5690010.82], [317933.44, 5690005.43]]]}}, {"type": "Feature", "properties": {"z": 114.64, "h": 3.66}, "geometry": {"type": "Polygon", "coordinates": [[[317935.0, 5690002.5], [317935.0, 5690006.0], [317941.0, 5690006.0], [317941.0, 5690002.5], [317935.0, 5690002.5]]]}}, {"type": "Feature", "properties": {"z": 117.22, "h": 3.53, "hc": [3.72, 4.26, 3.43, 2.89]}, "geometry": {"type": "Polygon", "coordinates": [[[317936.5, 5690467.5], [317942.5, 5690464.5], [317941.0, 5690461.5], [317935.0, 5690464.5], [317936.5, 5690467.5]]]}}, {"type": "Feature", "properties": {"z": 114.8, "h": 3.76}, "geometry": {"type": "Polygon", "coordinates": [[[317942.23, 5690814.88], [317941.3, 5690809.28], [317934.0, 5690810.5], [317934.93, 5690816.09], [317942.23, 5690814.88]]]}}, {"type": "Feature", "properties": {"z": 114.94, "h": 3.38, "hc": [2.96, 3.78, 4.0, 3.19]}, "geometry": {"type": "Polygon", "coordinates": [[[317943.5, 5690772.5], [317943.5, 5690777.0], [317948.5, 5690777.0], [317948.5, 5690772.5], [317943.5, 5690772.5]]]}}, {"type": "Feature", "properties": {"z": 115.42, "h": 2.85}, "geometry": {"type": "Polygon", "coordinates": [[[317949.0, 5690771.0], [317949.0, 5690774.0], [317954.5, 5690774.0], [317954.5, 5690771.0], [317949.0, 5690771.0]]]}}, {"type": "Feature", "properties": {"z": 107.18, "h": 2.53}, "geometry": {"type": "Polygon", "coordinates": [[[317961.5, 5691297.5], [317961.5, 5691302.5], [317968.0, 5691302.5], [317968.0, 5691297.5], [317961.5, 5691297.5]]]}}, {"type": "Feature", "properties": {"z": 114.9, "h": 3.51}, "geometry": {"type": "Polygon", "coordinates": [[[317973.45, 5690355.85], [317974.75, 5690359.75], [317976.85, 5690359.05], [317975.55, 5690355.15], [317973.45, 5690355.85]]]}}, {"type": "Feature", "properties": {"z": 109.2, "h": 2.74, "hc": [2.9, 2.31, 2.72, 3.31]}, "geometry": {"type": "Polygon", "coordinates": [[[317980.5, 5691437.0], [317980.5, 5691441.5], [317984.5, 5691441.5], [317984.5, 5691437.0], [317980.5, 5691437.0]]]}}, {"type": "Feature", "properties": {"z": 114.42, "h": 2.46}, "geometry": {"type": "Polygon", "coordinates": [[[317980.85, 5690112.55], [317982.35, 5690117.05], [317986.4, 5690115.7], [317984.9, 5690111.2], [317980.85, 5690112.55]]]}}, {"type": "Feature", "properties": {"z": 113.5, "h": 4.08}, "geometry": {"type": "Polygon", "coordinates": [[[317993.53, 5690177.12], [317998.38, 5690196.53], [318005.32, 5690194.79], [318000.47, 5690175.38], [317993.53, 5690177.12]]]}}]}