{"type": "FeatureCollection", "attribution": "\u00a9 OpenStreetMap contributors (ODbL); tower heights: Quelle: GeoSN, dl-de/by-2-0", "crs": {"type": "name", "properties": {"name": "urn:ogc:def:crs:EPSG::25833"}}, "features": [{"type": "Feature", "properties": {"k": "bell", "h": 69.5, "size": "large", "name": "St. Lukas-Kirche"}, "geometry": {"type": "Point", "coordinates": [319573.36, 5691188.7]}}, {"type": "Feature", "properties": {"k": "bell", "h": 64.4, "size": "medium", "name": "Heilig-Kreuz-Kirche"}, "geometry": {"type": "Point", "coordinates": [319177.57, 5691709.22]}}]}