{"type": "FeatureCollection", "attribution": "\u00a9 OpenStreetMap contributors (ODbL)", "crs": {"type": "name", "properties": {"name": "urn:ogc:def:crs:EPSG::25833"}}, "features": [{"type": "Feature", "properties": {"w": 2.5, "n": 20, "z": [113.45, 117.15]}, "geometry": {"type": "LineString", "coordinates": [[318200.34, 5689915.26], [318195.9, 5689897.76]]}}, {"type": "Feature", "properties": {"w": 2.5, "n": 5, "z": [121.94, 122.44]}, "geometry": {"type": "LineString", "coordinates": [[318201.96, 5689468.2], [318198.03, 5689468.17]]}}, {"type": "Feature", "properties": {"w": 2.5, "n": 5, "z": [121.36, 121.93]}, "geometry": {"type": "LineString", "coordinates": [[318314.91, 5689531.83], [318315.0, 5689529.27]]}}, {"type": "Feature", "properties": {"w": 2.5, "n": 7, "z": [118.77, 119.45]}, "geometry": {"type": "LineString", "coordinates": [[319596.72, 5689854.21], [319590.53, 5689848.72]]}}, {"type": "Feature", "properties": {"w": 2.5, "n": 2, "z": [121.96, 122.26]}, "geometry": {"type": "LineString", "coordinates": [[318198.19, 5689456.96], [318198.12, 5689459.47]]}}, {"type": "Feature", "properties": {"w": 2.5, "n": 21, "z": [131.78, 135.39]}, "geometry": {"type": "LineString", "coordinates": [[318899.57, 5688022.17], [318909.36, 5688003.93]]}}, {"type": "Feature", "properties": {"w": 2.5, "n": 5, "z": [117.47, 118.04]}, "geometry": {"type": "LineString", "coordinates": [[318454.45, 5689829.12], [318455.8, 5689827.32]]}}, {"type": "Feature", "properties": {"w": 2.5, "n": 10, "z": [115.96, 117.56]}, "geometry": {"type": "LineString", "coordinates": [[318308.11, 5689867.52], [318306.88, 5689863.31]]}}, {"type": "Feature", "properties": {"w": 2.5, "n": 4, "z": [118.5, 118.92]}, "geometry": {"type": "LineString", "coordinates": [[318551.66, 5689766.57], [318549.59, 5689766.61]]}}, {"type": "Feature", "properties": {"w": 2.5, "n": 3, "z": [119.59, 120.05]}, "geometry": {"type": "LineString", "coordinates": [[319624.2, 5689791.39], [319626.31, 5689790.63]]}}, {"type": "Feature", "properties": {"w": 2.5, "n": 5, "z": [119.52, 120.35]}, "geometry": {"type": "LineString", "coordinates": [[319689.98, 5689938.21], [319694.69, 5689936.55]]}}, {"type": "Feature", "properties": {"w": 22.71, "n": 10, "z": [132.38, 133.92]}, "geometry": {"type": "LineString", "coordinates": [[319040.22, 5688358.72], [319043.42, 5688355.88]]}}, {"type": "Feature", "properties": {"w": 30.0, "n": 20, "z": [134.49, 137.52]}, "geometry": {"type": "LineString", "coordinates": [[319063.02, 5688338.49], [319070.58, 5688331.78]]}}, {"type": "Feature", "properties": {"w": 2.5, "n": 6, "z": [131.96, 132.75]}, "geometry": {"type": "LineString", "coordinates": [[318533.89, 5688072.12], [318525.33, 5688073.26]]}}, {"type": "Feature", "properties": {"w": 2.5, "n": 6, "z": [122.03, 123.03]}, "geometry": {"type": "LineString", "coordinates": [[318206.05, 5688730.53], [318202.73, 5688736.57]]}}, {"type": "Feature", "properties": {"w": 2.5, "n": 6, "z": [115.91, 117.08]}, "geometry": {"type": "LineString", "coordinates": [[318105.89, 5689915.87], [318105.34, 5689914.12]]}}, {"type": "Feature", "properties": {"w": 2.5, "n": 11, "z": [113.78, 115.87]}, "geometry": {"type": "LineString", "coordinates": [[318107.65, 5689921.56], [318106.76, 5689918.72]]}}, {"type": "Feature", "properties": {"w": 2.5, "n": 17, "z": [112.64, 115.89]}, "geometry": {"type": "LineString", "coordinates": [[318126.0, 5689986.43], [318118.43, 5689988.52]]}}, {"type": "Feature", "properties": {"w": 2.5, "n": 5, "z": [116.9, 117.61]}, "geometry": {"type": "LineString", "coordinates": [[318017.35, 5689917.81], [318016.74, 5689916.29]]}}, {"type": "Feature", "properties": {"w": 2.5, "n": 5, "z": [117.67, 118.39]}, "geometry": {"type": "LineString", "coordinates": [[318003.35, 5689914.48], [318003.2, 5689912.99]]}}, {"type": "Feature", "properties": {"w": 2.5, "n": 5, "z": [116.87, 117.64]}, "geometry": {"type": "LineString", "coordinates": [[318003.93, 5689919.04], [318003.73, 5689917.49]]}}, {"type": "Feature", "properties": {"w": 2.5, "n": 18, "z": [113.74, 116.2]}, "geometry": {"type": "LineString", "coordinates": [[318435.25, 5689956.59], [318439.72, 5689953.4]]}}, {"type": "Feature", "properties": {"w": 5.0, "n": 6, "z": [138.76, 139.71]}, "geometry": {"type": "LineString", "coordinates": [[319753.85, 5688309.45], [319757.31, 5688304.19]]}}, {"type": "Feature", "properties": {"w": 2.5, "n": 4, "z": [139.76, 140.31]}, "geometry": {"type": "LineString", "coordinates": [[319748.87, 5688293.94], [319747.56, 5688292.24]]}}, {"type": "Feature", "properties": {"w": 2.5, "n": 4, "z": [139.92, 140.49]}, "geometry": {"type": "LineString", "coordinates": [[319771.33, 5688306.1], [319773.49, 5688306.45]]}}, {"type": "Feature", "properties": {"w": 2.5, "n": 6, "z": [115.94, 117.04]}, "geometry": {"type": "LineString", "coordinates": [[318090.42, 5689921.11], [318089.53, 5689919.01]]}}, {"type": "Feature", "properties": {"w": 2.5, "n": 18, "z": [130.99, 133.7]}, "geometry": {"type": "LineString", "coordinates": [[319131.23, 5688552.02], [319136.15, 5688547.65]]}}, {"type": "Feature", "properties": {"w": 2.5, "n": 12, "z": [131.2, 133.0]}, "geometry": {"type": "LineString", "coordinates": [[319090.05, 5688503.37], [319093.1, 5688500.64]]}}, {"type": "Feature", "properties": {"w": 2.5, "n": 7, "z": [130.87, 131.97]}, "geometry": {"type": "LineString", "coordinates": [[319077.34, 5688510.3], [319075.57, 5688508.37]]}}, {"type": "Feature", "properties": {"w": 2.5, "n": 2, "z": [118.54, 118.85]}, "geometry": {"type": "LineString", "coordinates": [[318551.58, 5689760.94], [318549.51, 5689760.99]]}}, {"type": "Feature", "properties": {"w": 2.5, "n": 5, "z": [117.45, 118.24]}, "geometry": {"type": "LineString", "coordinates": [[318205.92, 5689861.96], [318204.9, 5689858.43]]}}, {"type": "Feature", "properties": {"w": 2.5, "n": 20, "z": [114.73, 117.29]}, "geometry": {"type": "LineString", "coordinates": [[318150.61, 5689871.7], [318152.5, 5689878.64]]}}, {"type": "Feature", "properties": {"w": 30.0, "n": 5, "z": [128.33, 129.2]}, "geometry": {"type": "LineString", "coordinates": [[318727.63, 5688594.2], [318726.49, 5688592.96]]}}, {"type": "Feature", "properties": {"w": 2.5, "n": 20, "z": [119.79, 123.2]}, "geometry": {"type": "LineString", "coordinates": [[318145.04, 5688605.02], [318148.16, 5688595.8]]}}, {"type": "Feature", "properties": {"w": 2.5, "n": 34, "z": [120.62, 126.04]}, "geometry": {"type": "LineString", "coordinates": [[319978.14, 5689694.4], [319972.64, 5689686.18]]}}, {"type": "Feature", "properties": {"w": 2.5, "n": 37, "z": [120.33, 126.19]}, "geometry": {"type": "LineString", "coordinates": [[319967.6, 5689701.16], [319962.22, 5689693.11]]}}, {"type": "Feature", "properties": {"w": 2.5, "n": 3, "z": [121.23, 121.7]}, "geometry": {"type": "LineString", "coordinates": [[318756.58, 5689520.22], [318755.18, 5689519.91]]}}, {"type": "Feature", "properties": {"w": 2.5, "n": 2, "z": [121.12, 121.44]}, "geometry": {"type": "LineString", "coordinates": [[318740.02, 5689571.46], [318733.35, 5689569.79]]}}, {"type": "Feature", "properties": {"w": 2.5, "n": 41, "z": [124.47, 131.41]}, "geometry": {"type": "LineString", "coordinates": [[318067.55, 5688095.8], [318096.87, 5688087.19], [318104.19, 5688084.79], [318109.1, 5688081.28]]}}, {"type": "Feature", "properties": {"w": 2.5, "n": 3, "z": [127.76, 128.22]}, "geometry": {"type": "LineString", "coordinates": [[318645.61, 5688589.28], [318645.12, 5688589.73], [318644.63, 5688590.17]]}}, {"type": "Feature", "properties": {"w": 2.5, "n": 3, "z": [120.81, 121.23]}, "geometry": {"type": "LineString", "coordinates": [[319864.92, 5689703.67], [319863.35, 5689700.41]]}}, {"type": "Feature", "properties": {"w": 2.5, "n": 4, "z": [130.09, 130.83]}, "geometry": {"type": "LineString", "coordinates": [[318838.91, 5688199.43], [318837.6, 5688197.98]]}}, {"type": "Feature", "properties": {"w": 2.5, "n": 6, "z": [125.0, 125.66]}, "geometry": {"type": "LineString", "coordinates": [[319288.98, 5689174.3], [319287.81, 5689172.2]]}}, {"type": "Feature", "properties": {"w": 2.5, "n": 7, "z": [125.24, 126.32]}, "geometry": {"type": "LineString", "coordinates": [[319243.0, 5689172.38], [319238.76, 5689174.48]]}}, {"type": "Feature", "properties": {"w": 2.5, "n": 4, "z": [130.13, 130.83]}, "geometry": {"type": "LineString", "coordinates": [[318874.86, 5688216.33], [318876.85, 5688214.4]]}}, {"type": "Feature", "properties": {"w": 2.5, "n": 6, "z": [126.15, 127.12]}, "geometry": {"type": "LineString", "coordinates": [[318445.77, 5688719.25], [318452.22, 5688722.99]]}}, {"type": "Feature", "properties": {"w": 2.5, "n": 5, "z": [121.96, 122.49]}, "geometry": {"type": "LineString", "coordinates": [[318201.59, 5689484.69], [318197.43, 5689484.58]]}}, {"type": "Feature", "properties": {"w": 2.5, "n": 3, "z": [119.7, 120.05]}, "geometry": {"type": "LineString", "coordinates": [[318175.43, 5689649.11], [318173.59, 5689650.93]]}}, {"type": "Feature", "properties": {"w": 2.5, "n": 10, "z": [117.16, 118.29]}, "geometry": {"type": "LineString", "coordinates": [[318074.18, 5689901.66], [318073.18, 5689898.0]]}}, {"type": "Feature", "properties": {"w": 2.5, "n": 4, "z": [116.98, 117.32]}, "geometry": {"type": "LineString", "coordinates": [[318113.01, 5689882.6], [318113.55, 5689884.59]]}}, {"type": "Feature", "properties": {"w": 2.5, "n": 2, "z": [119.37, 119.68]}, "geometry": {"type": "LineString", "coordinates": [[318210.88, 5689675.6], [318210.24, 5689676.2]]}}]}