{"type": "FeatureCollection", "attribution": "\u00a9 OpenStreetMap contributors (ODbL)", "crs": {"type": "name", "properties": {"name": "urn:ogc:def:crs:EPSG::25833"}}, "features": [{"type": "Feature", "properties": {"w": 2.5, "n": 8, "z": [113.52, 114.75]}, "geometry": {"type": "LineString", "coordinates": [[319216.18, 5691200.95], [319216.6, 5691204.61]]}}, {"type": "Feature", "properties": {"w": 2.5, "n": 7, "z": [113.49, 114.85]}, "geometry": {"type": "LineString", "coordinates": [[319586.43, 5690605.19], [319595.58, 5690602.76]]}}, {"type": "Feature", "properties": {"w": 2.5, "n": 5, "z": [110.91, 111.63]}, "geometry": {"type": "LineString", "coordinates": [[319216.42, 5690821.6], [319212.24, 5690822.53], [319216.2, 5690840.51]]}}, {"type": "Feature", "properties": {"w": 2.5, "n": 9, "z": [111.51, 112.49]}, "geometry": {"type": "LineString", "coordinates": [[319208.58, 5690775.18], [319217.01, 5690774.74]]}}, {"type": "Feature", "properties": {"w": 2.5, "n": 17, "z": [117.22, 120.06]}, "geometry": {"type": "LineString", "coordinates": [[319897.69, 5691678.44], [319903.65, 5691677.92]]}}, {"type": "Feature", "properties": {"w": 2.5, "n": 22, "z": [118.63, 122.68]}, "geometry": {"type": "LineString", "coordinates": [[319951.61, 5691820.77], [319948.19, 5691828.79]]}}, {"type": "Feature", "properties": {"w": 2.5, "n": 15, "z": [115.71, 118.59]}, "geometry": {"type": "LineString", "coordinates": [[319961.82, 5691818.03], [319955.83, 5691818.14]]}}, {"type": "Feature", "properties": {"w": 2.5, "n": 13, "z": [117.2, 119.31]}, "geometry": {"type": "LineString", "coordinates": [[319930.83, 5691818.2], [319932.01, 5691812.32]]}}, {"type": "Feature", "properties": {"w": 2.5, "n": 34, "z": [116.76, 122.2]}, "geometry": {"type": "LineString", "coordinates": [[319330.03, 5690100.15], [319341.23, 5690095.45]]}}, {"type": "Feature", "properties": {"w": 2.5, "n": 27, "z": [115.1, 119.51]}, "geometry": {"type": "LineString", "coordinates": [[318822.7, 5690645.69], [318824.39, 5690656.27]]}}, {"type": "Feature", "properties": {"w": 2.5, "n": 10, "z": [115.6, 117.34]}, "geometry": {"type": "LineString", "coordinates": [[318802.11, 5690575.07], [318799.71, 5690580.44], [318797.59, 5690586.35]]}}, {"type": "Feature", "properties": {"w": 2.5, "n": 4, "z": [114.32, 114.93]}, "geometry": {"type": "LineString", "coordinates": [[318758.99, 5690724.55], [318757.82, 5690718.64]]}}, {"type": "Feature", "properties": {"w": 2.5, "n": 3, "z": [115.09, 115.57]}, "geometry": {"type": "LineString", "coordinates": [[318745.14, 5690656.37], [318743.72, 5690650.48]]}}, {"type": "Feature", "properties": {"w": 2.5, "n": 7, "z": [112.34, 113.13]}, "geometry": {"type": "LineString", "coordinates": [[319086.0, 5691228.65], [319089.19, 5691231.7]]}}, {"type": "Feature", "properties": {"w": 2.5, "n": 4, "z": [117.26, 118.16]}, "geometry": {"type": "LineString", "coordinates": [[319882.81, 5690204.07], [319881.95, 5690199.65], [319880.04, 5690194.87], [319878.89, 5690191.24]]}}, {"type": "Feature", "properties": {"w": 2.5, "n": 7, "z": [109.27, 110.43]}, "geometry": {"type": "LineString", "coordinates": [[318869.12, 5691347.8], [318861.24, 5691356.11]]}}, {"type": "Feature", "properties": {"w": 2.5, "n": 11, "z": [109.33, 110.96]}, "geometry": {"type": "LineString", "coordinates": [[318884.79, 5691204.58], [318894.18, 5691199.58]]}}, {"type": "Feature", "properties": {"w": 2.5, "n": 9, "z": [109.85, 111.01]}, "geometry": {"type": "LineString", "coordinates": [[318929.25, 5691306.42], [318935.34, 5691312.5]]}}, {"type": "Feature", "properties": {"w": 2.5, "n": 7, "z": [113.97, 114.96]}, "geometry": {"type": "LineString", "coordinates": [[318503.26, 5690697.55], [318509.86, 5690697.47]]}}, {"type": "Feature", "properties": {"w": 2.5, "n": 11, "z": [115.17, 116.9]}, "geometry": {"type": "LineString", "coordinates": [[318796.75, 5690596.05], [318795.83, 5690592.56]]}}, {"type": "Feature", "properties": {"w": 2.5, "n": 10, "z": [115.49, 116.87]}, "geometry": {"type": "LineString", "coordinates": [[318792.19, 5690578.76], [318793.11, 5690582.26]]}}, {"type": "Feature", "properties": {"w": 2.5, "n": 5, "z": [114.41, 115.25]}, "geometry": {"type": "LineString", "coordinates": [[319691.39, 5691934.98], [319691.76, 5691938.35]]}}, {"type": "Feature", "properties": {"w": 2.5, "n": 3, "z": [112.81, 113.38]}, "geometry": {"type": "LineString", "coordinates": [[319341.18, 5690552.04], [319341.66, 5690555.25]]}}, {"type": "Feature", "properties": {"w": 2.5, "n": 18, "z": [113.36, 116.15]}, "geometry": {"type": "LineString", "coordinates": [[319076.48, 5691349.98], [319077.65, 5691355.45]]}}, {"type": "Feature", "properties": {"w": 2.5, "n": 23, "z": [112.52, 116.13]}, "geometry": {"type": "LineString", "coordinates": [[318159.21, 5690117.81], [318149.0, 5690121.26]]}}, {"type": "Feature", "properties": {"w": 2.5, "n": 4, "z": [112.58, 113.2]}, "geometry": {"type": "LineString", "coordinates": [[319219.61, 5691715.22], [319223.08, 5691718.19]]}}, {"type": "Feature", "properties": {"w": 2.5, "n": 2, "z": [110.74, 111.1]}, "geometry": {"type": "LineString", "coordinates": [[318633.09, 5691261.39], [318631.51, 5691258.79]]}}, {"type": "Feature", "properties": {"w": 2.5, "n": 7, "z": [117.17, 118.2]}, "geometry": {"type": "LineString", "coordinates": [[318337.28, 5690384.41], [318335.37, 5690381.46]]}}, {"type": "Feature", "properties": {"w": 2.5, "n": 3, "z": [113.94, 114.34]}, "geometry": {"type": "LineString", "coordinates": [[319816.99, 5691072.47], [319818.77, 5691070.41]]}}, {"type": "Feature", "properties": {"w": 2.5, "n": 3, "z": [113.88, 114.36]}, "geometry": {"type": "LineString", "coordinates": [[319849.16, 5691045.85], [319847.53, 5691047.39]]}}, {"type": "Feature", "properties": {"w": 2.5, "n": 44, "z": [111.45, 119.18]}, "geometry": {"type": "LineString", "coordinates": [[318491.98, 5691975.7], [318509.98, 5691972.77]]}}, {"type": "Feature", "properties": {"w": 2.5, "n": 7, "z": [116.97, 118.3]}, "geometry": {"type": "LineString", "coordinates": [[319912.55, 5691633.57], [319908.23, 5691633.51]]}}, {"type": "Feature", "properties": {"w": 2.5, "n": 3, "z": [114.38, 114.87]}, "geometry": {"type": "LineString", "coordinates": [[319881.85, 5690891.16], [319883.5, 5690892.64]]}}, {"type": "Feature", "properties": {"w": 2.5, "n": 4, "z": [114.9, 115.26]}, "geometry": {"type": "LineString", "coordinates": [[319896.53, 5690874.37], [319898.07, 5690875.88]]}}, {"type": "Feature", "properties": {"w": 2.5, "n": 2, "z": [116.96, 117.29]}, "geometry": {"type": "LineString", "coordinates": [[319757.36, 5690365.02], [319754.52, 5690364.95]]}}, {"type": "Feature", "properties": {"w": 2.5, "n": 3, "z": [114.0, 114.44]}, "geometry": {"type": "LineString", "coordinates": [[318263.0, 5690760.67], [318256.94, 5690760.92]]}}, {"type": "Feature", "properties": {"w": 2.5, "n": 3, "z": [113.21, 113.66]}, "geometry": {"type": "LineString", "coordinates": [[318169.95, 5690941.89], [318163.27, 5690942.66]]}}, {"type": "Feature", "properties": {"w": 2.5, "n": 7, "z": [110.99, 112.03]}, "geometry": {"type": "LineString", "coordinates": [[318018.25, 5691097.42], [318020.12, 5691090.12], [318019.5, 5691084.81]]}}, {"type": "Feature", "properties": {"w": 2.5, "n": 3, "z": [110.82, 111.43]}, "geometry": {"type": "LineString", "coordinates": [[318245.44, 5691141.45], [318245.45, 5691145.83]]}}, {"type": "Feature", "properties": {"w": 2.5, "n": 7, "z": [117.22, 118.29]}, "geometry": {"type": "LineString", "coordinates": [[318316.89, 5690344.2], [318313.98, 5690348.66]]}}, {"type": "Feature", "properties": {"w": 2.5, "n": 6, "z": [111.42, 112.47]}, "geometry": {"type": "LineString", "coordinates": [[318977.34, 5690909.63], [318968.86, 5690910.09]]}}, {"type": "Feature", "properties": {"w": 2.5, "n": 2, "z": [115.07, 115.43]}, "geometry": {"type": "LineString", "coordinates": [[318110.87, 5690664.08], [318111.13, 5690662.69]]}}, {"type": "Feature", "properties": {"w": 2.5, "n": 7, "z": [115.19, 116.23]}, "geometry": {"type": "LineString", "coordinates": [[319794.39, 5690741.01], [319797.3, 5690743.67]]}}, {"type": "Feature", "properties": {"w": 2.5, "n": 3, "z": [109.58, 109.98]}, "geometry": {"type": "LineString", "coordinates": [[318243.18, 5691250.96], [318243.07, 5691252.2]]}}, {"type": "Feature", "properties": {"w": 2.5, "n": 11, "z": [117.02, 118.8]}, "geometry": {"type": "LineString", "coordinates": [[319946.23, 5690127.97], [319948.45, 5690136.76]]}}]}