{"type": "FeatureCollection", "crs": {"type": "name", "properties": {"name": "urn:ogc:def:crs:EPSG::25833"}}, "features": [{"type": "Feature", "properties": {"kind": "treerow"}, "geometry": {"type": "LineString", "coordinates": [[319901.59, 5688191.7], [320014.54, 5688140.19]]}}, {"type": "Feature", "properties": {"kind": "treerow"}, "geometry": {"type": "LineString", "coordinates": [[319792.42, 5688241.49], [319879.52, 5688201.77]]}}, {"type": "Feature", "properties": {"kind": "treerow"}, "geometry": {"type": "LineString", "coordinates": [[319904.19, 5688206.44], [320012.56, 5688156.73]]}}, {"type": "Feature", "properties": {"kind": "treerow"}, "geometry": {"type": "LineString", "coordinates": [[318284.59, 5688905.26], [318128.88, 5688842.69]]}}, {"type": "Feature", "properties": {"kind": "treerow"}, "geometry": {"type": "LineString", "coordinates": [[319411.52, 5689664.65], [319531.25, 5689606.86]]}}, {"type": "Feature", "properties": {"kind": "treerow"}, "geometry": {"type": "LineString", "coordinates": [[317884.0, 5688749.97], [317982.95, 5688788.43], [318085.65, 5688826.27]]}}, {"type": "Feature", "properties": {"kind": "treerow"}, "geometry": {"type": "LineString", "coordinates": [[318121.19, 5688856.41], [318225.34, 5688897.36]]}}, {"type": "Feature", "properties": {"kind": "treerow"}, "geometry": {"type": "LineString", "coordinates": [[319356.84, 5689259.28], [319301.55, 5689159.71]]}}, {"type": "Feature", "properties": {"kind": "treerow"}, "geometry": {"type": "LineString", "coordinates": [[318285.42, 5688896.53], [318129.92, 5688835.62]]}}, {"type": "Feature", "properties": {"kind": "treerow"}, "geometry": {"type": "LineString", "coordinates": [[318282.09, 5689043.92], [318353.4, 5688974.69]]}}, {"type": "Feature", "properties": {"kind": "treerow"}, "geometry": {"type": "LineString", "coordinates": [[317887.12, 5688741.66], [317941.37, 5688761.62], [318090.01, 5688818.37]]}}, {"type": "Feature", "properties": {"kind": "treerow"}, "geometry": {"type": "LineString", "coordinates": [[318053.01, 5689298.16], [318134.5, 5689208.77]]}}, {"type": "Feature", "properties": {"kind": "treerow"}, "geometry": {"type": "LineString", "coordinates": [[318140.32, 5689200.66], [318266.29, 5689060.76]]}}, {"type": "Feature", "properties": {"kind": "treerow"}, "geometry": {"type": "LineString", "coordinates": [[317972.76, 5689387.13], [318041.57, 5689313.13]]}}, {"type": "Feature", "properties": {"kind": "treerow"}, "geometry": {"type": "LineString", "coordinates": [[318085.65, 5688837.49], [317929.52, 5688778.87]]}}, {"type": "Feature", "properties": {"kind": "treerow"}, "geometry": {"type": "LineString", "coordinates": [[319303.21, 5689704.36], [319222.97, 5689743.02], [319176.19, 5689631.6]]}}, {"type": "Feature", "properties": {"kind": "treerow"}, "geometry": {"type": "LineString", "coordinates": [[319530.22, 5689595.43], [319408.81, 5689656.13]]}}, {"type": "Feature", "properties": {"kind": "treerow"}, "geometry": {"type": "LineString", "coordinates": [[319589.67, 5688332.35], [319536.76, 5688357.12], [319516.86, 5688367.7], [319489.34, 5688377.86], [319467.33, 5688385.27], [319443.41, 5688390.77]]}}, {"type": "Feature", "properties": {"kind": "treerow"}, "geometry": {"type": "LineString", "coordinates": [[319382.83, 5689667.77], [319318.38, 5689696.46]]}}, {"type": "Feature", "properties": {"kind": "treerow"}, "geometry": {"type": "LineString", "coordinates": [[318542.73, 5688273.98], [318452.19, 5688268.84], [318432.03, 5688114.71]]}}, {"type": "Feature", "properties": {"kind": "treerow"}, "geometry": {"type": "LineString", "coordinates": [[317989.6, 5689396.49], [318040.53, 5689339.53], [318276.06, 5689076.14], [318366.08, 5688985.5]]}}, {"type": "Feature", "properties": {"kind": "treerow"}, "geometry": {"type": "LineString", "coordinates": [[319781.87, 5688475.44], [319782.5, 5688316.27]]}}, {"type": "Feature", "properties": {"kind": "treerow"}, "geometry": {"type": "LineString", "coordinates": [[318304.96, 5688881.77], [318324.5, 5688841.86], [318361.09, 5688779.91], [318378.13, 5688755.79], [318396.43, 5688733.97], [318402.87, 5688721.49]]}}, {"type": "Feature", "properties": {"kind": "treerow"}, "geometry": {"type": "LineString", "coordinates": [[319781.02, 5688574.92], [319781.87, 5688488.99]]}}, {"type": "Feature", "properties": {"kind": "treerow"}, "geometry": {"type": "LineString", "coordinates": [[318348.82, 5689813.91], [318234.7, 5689692.51]]}}, {"type": "Feature", "properties": {"kind": "treerow"}, "geometry": {"type": "LineString", "coordinates": [[319100.11, 5688764.11], [319162.89, 5688653.31]]}}, {"type": "Feature", "properties": {"kind": "treerow"}, "geometry": {"type": "LineString", "coordinates": [[318127.22, 5689585.24], [318098.74, 5689553.44]]}}, {"type": "Feature", "properties": {"kind": "treerow"}, "geometry": {"type": "LineString", "coordinates": [[319521.94, 5688379.77], [319594.33, 5688346.32]]}}, {"type": "Feature", "properties": {"kind": "treerow"}, "geometry": {"type": "LineString", "coordinates": [[319607.24, 5688340.61], [319730.43, 5688284.94]]}}, {"type": "Feature", "properties": {"kind": "treerow"}, "geometry": {"type": "LineString", "coordinates": [[318169.42, 5689625.99], [318135.12, 5689590.23]]}}, {"type": "Feature", "properties": {"kind": "treerow"}, "geometry": {"type": "LineString", "coordinates": [[318214.53, 5688380.15], [318181.27, 5688369.34], [318140.32, 5688358.95], [318121.81, 5688354.79], [318129.53, 5688320.97], [318130.54, 5688316.56], [318175.43, 5688119.65]]}}, {"type": "Feature", "properties": {"kind": "treerow"}, "geometry": {"type": "LineString", "coordinates": [[319781.69, 5688307.52], [319781.28, 5688285.51]]}}, {"type": "Feature", "properties": {"kind": "treerow"}, "geometry": {"type": "LineString", "coordinates": [[319294.89, 5689145.37], [319192.62, 5688963.88]]}}, {"type": "Feature", "properties": {"kind": "treerow"}, "geometry": {"type": "LineString", "coordinates": [[319231.7, 5689751.34], [319393.43, 5689674.22]]}}, {"type": "Feature", "properties": {"kind": "treerow"}, "geometry": {"type": "LineString", "coordinates": [[319680.27, 5688291.92], [319602.8, 5688326.22]]}}, {"type": "Feature", "properties": {"kind": "treerow"}, "geometry": {"type": "LineString", "coordinates": [[318487.31, 5688572.17], [318486.46, 5688537.67], [318482.44, 5688498.09]]}}, {"type": "Feature", "properties": {"kind": "treerow"}, "geometry": {"type": "LineString", "coordinates": [[318227.42, 5689685.23], [318174.62, 5689631.18]]}}, {"type": "Feature", "properties": {"kind": "treerow"}, "geometry": {"type": "LineString", "coordinates": [[318326.46, 5688895.68], [318340.09, 5688864.44], [318361.69, 5688825.64], [318404.89, 5688756.44], [318419.36, 5688737.57], [318429.85, 5688720.58], [318444.13, 5688694.09], [318460.64, 5688667.42], [318470.8, 5688648.16], [318477.79, 5688631.65], [318480.33, 5688620.22], [318483.92, 5688608.15], [318486.89, 5688588.26]]}}, {"type": "Feature", "properties": {"kind": "treerow"}, "geometry": {"type": "LineString", "coordinates": [[319691.09, 5688287.7], [319779.49, 5688247.38]]}}, {"type": "Feature", "properties": {"kind": "treerow"}, "geometry": {"type": "LineString", "coordinates": [[319796.26, 5688255.95], [319880.11, 5688217.49]]}}, {"type": "Feature", "properties": {"kind": "treerow"}, "geometry": {"type": "LineString", "coordinates": [[318586.65, 5688733.64], [318533.99, 5688762.47], [318490.07, 5688800.84], [318474.99, 5688824.65], [318471.02, 5688843.97], [318477.9, 5688864.6], [318484.78, 5688873.86], [318503.83, 5688878.1], [318520.5, 5688876.51], [318546.43, 5688859.84], [318584.53, 5688825.71], [318596.96, 5688811.69], [318599.35, 5688790.26], [318602.26, 5688747.39]]}}]}