{"type": "FeatureCollection", "crs": {"type": "name", "properties": {"name": "urn:ogc:def:crs:EPSG::25833"}}, "features": [{"type": "Feature", "properties": {"kind": "treerow"}, "geometry": {"type": "LineString", "coordinates": [[319368.58, 5690186.72], [319427.15, 5690324.58]]}}, {"type": "Feature", "properties": {"kind": "treerow"}, "geometry": {"type": "LineString", "coordinates": [[319522.73, 5691124.82], [319418.38, 5691135.83]]}}, {"type": "Feature", "properties": {"kind": "treerow"}, "geometry": {"type": "LineString", "coordinates": [[319723.42, 5691551.46], [319890.44, 5691531.29]]}}, {"type": "Feature", "properties": {"kind": "treerow"}, "geometry": {"type": "LineString", "coordinates": [[319968.74, 5691899.9], [319993.48, 5691897.83], [320016.14, 5691898.03], [320033.81, 5691900.11], [320046.91, 5691903.65], [320060.83, 5691908.84], [320081.21, 5691920.28], [320098.67, 5691934.62]]}}, {"type": "Feature", "properties": {"kind": "treerow"}, "geometry": {"type": "LineString", "coordinates": [[318925.28, 5690774.95], [318882.66, 5690774.95]]}}, {"type": "Feature", "properties": {"kind": "treerow"}, "geometry": {"type": "LineString", "coordinates": [[318983.07, 5690777.03], [318945.24, 5690775.57]]}}, {"type": "Feature", "properties": {"kind": "treerow"}, "geometry": {"type": "LineString", "coordinates": [[319384.59, 5691978.27], [319533.65, 5691962.06], [319561.09, 5691959.57], [319592.48, 5691953.95], [319634.47, 5691943.35], [319658.17, 5691937.32]]}}, {"type": "Feature", "properties": {"kind": "treerow"}, "geometry": {"type": "LineString", "coordinates": [[318778.72, 5690774.54], [318717.81, 5690773.29]]}}, {"type": "Feature", "properties": {"kind": "treerow"}, "geometry": {"type": "LineString", "coordinates": [[319617.59, 5691565.02], [319696.63, 5691555.1]]}}, {"type": "Feature", "properties": {"kind": "treerow"}, "geometry": {"type": "LineString", "coordinates": [[319156.34, 5692042.51], [319179.0, 5692026.92], [319214.13, 5692010.29], [319255.08, 5691997.19], [319286.06, 5691990.12], [319325.76, 5691983.89]]}}, {"type": "Feature", "properties": {"kind": "hedge"}, "geometry": {"type": "LineString", "coordinates": [[319925.5, 5691726.09], [319961.22, 5691707.24], [320014.13, 5691677.14], [320114.01, 5691620.58], [320162.3, 5691592.14]]}}, {"type": "Feature", "properties": {"kind": "treerow"}, "geometry": {"type": "LineString", "coordinates": [[318862.08, 5690776.2], [318793.07, 5690774.12]]}}, {"type": "Feature", "properties": {"kind": "treerow"}, "geometry": {"type": "LineString", "coordinates": [[319646.21, 5691113.18], [319541.03, 5691124.61]]}}, {"type": "Feature", "properties": {"kind": "treerow"}, "geometry": {"type": "LineString", "coordinates": [[319797.24, 5691919.03], [319870.62, 5691911.34], [319925.3, 5691905.31], [319945.04, 5691901.57]]}}, {"type": "Feature", "properties": {"kind": "treerow"}, "geometry": {"type": "LineString", "coordinates": [[318776.23, 5690753.54], [318707.21, 5690753.33]]}}, {"type": "Feature", "properties": {"kind": "treerow"}, "geometry": {"type": "LineString", "coordinates": [[318943.57, 5690755.41], [318801.17, 5690754.79]]}}, {"type": "Feature", "properties": {"kind": "treerow"}, "geometry": {"type": "LineString", "coordinates": [[319334.31, 5690106.04], [319364.56, 5690177.25]]}}]}