{"type": "FeatureCollection", "attribution": "\u00a9 OpenStreetMap contributors (ODbL)", "crs": {"type": "name", "properties": {"name": "urn:ogc:def:crs:EPSG::25833"}}, "features": [{"type": "Feature", "properties": {"kind": "wall", "h": 1.5}, "geometry": {"type": "LineString", "coordinates": [[318208.7, 5689641.09], [318139.47, 5689569.05], [318201.72, 5689534.31], [318216.51, 5689526.06], [318243.28, 5689511.38], [318244.77, 5689510.56], [318246.12, 5689509.82], [318261.47, 5689501.4], [318258.69, 5689480.53], [318288.83, 5689481.29]]}}, {"type": "Feature", "properties": {"kind": "wall", "h": 1.5}, "geometry": {"type": "LineString", "coordinates": [[318213.33, 5689646.3], [318278.59, 5689713.08], [318335.46, 5689772.62], [318350.05, 5689764.45], [318350.11, 5689754.47], [318351.2, 5689658.8]]}}, {"type": "Feature", "properties": {"kind": "wall", "h": 1.5}, "geometry": {"type": "LineString", "coordinates": [[318351.39, 5689651.03], [318354.58, 5689571.19], [318311.16, 5689569.14]]}}, {"type": "Feature", "properties": {"kind": "wall", "h": 1.5}, "geometry": {"type": "LineString", "coordinates": [[318291.83, 5689481.37], [318300.12, 5689481.58], [318299.77, 5689491.86], [318298.45, 5689519.46], [318305.39, 5689519.78], [318310.75, 5689519.99], [318308.43, 5689569.07], [318310.03, 5689569.11]]}}, {"type": "Feature", "properties": {"kind": "wall", "h": 1.5}, "geometry": {"type": "LineString", "coordinates": [[318293.95, 5689357.87], [318293.98, 5689356.48], [318294.06, 5689353.01], [318281.43, 5689354.29], [318272.45, 5689355.19], [318248.79, 5689357.56], [318239.82, 5689358.46], [318217.47, 5689360.72]]}}, {"type": "Feature", "properties": {"kind": "wall", "h": 1.5}, "geometry": {"type": "LineString", "coordinates": [[318878.27, 5689757.98], [318874.58, 5689944.59], [318876.69, 5689947.14]]}}, {"type": "Feature", "properties": {"kind": "wall", "h": 1.5}, "geometry": {"type": "LineString", "coordinates": [[318876.77, 5689954.46], [318874.36, 5689956.16], [318874.18, 5689974.91], [318877.47, 5689978.29], [319034.19, 5689980.56], [319038.14, 5689979.82]]}}, {"type": "Feature", "properties": {"kind": "wall", "h": 1.0}, "geometry": {"type": "LineString", "coordinates": [[318633.36, 5689068.15], [318633.91, 5689066.74], [318634.81, 5689064.41], [318635.84, 5689063.39], [318637.17, 5689063.11], [318680.9, 5689067.25], [318682.48, 5689067.91], [318683.58, 5689068.96], [318684.17, 5689070.36], [318684.35, 5689071.8], [318684.1, 5689072.87], [318681.56, 5689083.8], [318679.73, 5689089.62], [318677.58, 5689095.59], [318674.4, 5689102.7], [318670.53, 5689110.87], [318666.29, 5689117.91], [318662.65, 5689122.96], [318655.25, 5689132.38], [318653.95, 5689133.54], [318652.11, 5689133.91], [318650.31, 5689133.84], [318648.65, 5689133.05], [318617.78, 5689103.18], [318617.31, 5689101.98], [318617.77, 5689100.65], [318619.06, 5689098.06], [318619.79, 5689096.59]]}}, {"type": "Feature", "properties": {"kind": "wall", "h": 2.0}, "geometry": {"type": "LineString", "coordinates": [[318661.0, 5689736.16], [318662.61, 5689676.52]]}}, {"type": "Feature", "properties": {"kind": "wall", "h": 1.5}, "geometry": {"type": "LineString", "coordinates": [[318764.8, 5689445.62], [318766.44, 5689437.14]]}}, {"type": "Feature", "properties": {"kind": "wall", "h": 2.0}, "geometry": {"type": "LineString", "coordinates": [[318671.15, 5689413.64], [318671.9, 5689381.68], [318677.71, 5689187.87], [318644.66, 5689157.01]]}}, {"type": "Feature", "properties": {"kind": "wall", "h": 2.0}, "geometry": {"type": "LineString", "coordinates": [[318474.96, 5689910.21], [318476.82, 5689912.21]]}}, {"type": "Feature", "properties": {"kind": "wall", "h": 2.0}, "geometry": {"type": "LineString", "coordinates": [[318505.75, 5689950.63], [318509.32, 5689954.01]]}}, {"type": "Feature", "properties": {"kind": "wall", "h": 2.0}, "geometry": {"type": "LineString", "coordinates": [[318542.3, 5689865.21], [318541.1, 5689888.74], [318540.14, 5689925.54], [318539.68, 5689943.33]]}}, {"type": "Feature", "properties": {"kind": "wall", "h": 1.5}, "geometry": {"type": "LineString", "coordinates": [[319378.19, 5688820.88], [319382.01, 5688831.36], [319386.78, 5688840.22], [319391.64, 5688848.32], [319399.21, 5688861.98]]}}, {"type": "Feature", "properties": {"kind": "retaining_wall", "h": 3.0}, "geometry": {"type": "LineString", "coordinates": [[319683.03, 5689117.3], [319660.51, 5689129.27]]}}, {"type": "Feature", "properties": {"kind": "wall", "h": 1.5}, "geometry": {"type": "LineString", "coordinates": [[319689.87, 5689162.38], [319693.83, 5689166.58], [319704.39, 5689188.64], [319704.88, 5689193.81], [319718.04, 5689221.22], [319721.65, 5689224.49], [319723.29, 5689227.89], [319723.73, 5689233.3], [319750.37, 5689288.13], [319753.6, 5689290.62], [319756.19, 5689295.59], [319756.43, 5689301.02], [319778.63, 5689346.87], [319782.06, 5689349.15], [319784.3, 5689353.46], [319784.94, 5689359.6], [319791.26, 5689372.44]]}}, {"type": "Feature", "properties": {"kind": "wall", "h": 1.5}, "geometry": {"type": "LineString", "coordinates": [[319669.95, 5689174.29], [319669.44, 5689177.35], [319671.99, 5689181.97], [319674.48, 5689183.06], [319734.48, 5689297.73], [319732.96, 5689299.54], [319736.01, 5689305.02], [319738.91, 5689306.49], [319764.72, 5689355.4], [319764.24, 5689358.35], [319767.26, 5689363.25], [319770.05, 5689364.33], [319799.93, 5689419.79], [319799.36, 5689423.2], [319826.65, 5689477.55], [319833.1, 5689487.81], [319847.73, 5689517.01], [319848.43, 5689522.22], [319850.79, 5689526.38], [319855.13, 5689529.8], [319863.75, 5689544.92], [319873.19, 5689559.71], [319874.8, 5689564.89], [319877.61, 5689569.27], [319881.6, 5689572.59], [319896.08, 5689593.82], [319896.72, 5689598.15], [319900.63, 5689603.92], [319904.06, 5689605.36], [319908.23, 5689611.7], [319909.16, 5689616.84], [319912.8, 5689622.21], [319916.34, 5689624.47], [319930.24, 5689645.24], [319931.73, 5689650.13], [319937.56, 5689658.63]]}}, {"type": "Feature", "properties": {"kind": "wall", "h": 1.5}, "geometry": {"type": "LineString", "coordinates": [[319413.8, 5688725.95], [319372.73, 5688654.64], [319374.78, 5688653.72], [319349.98, 5688608.99], [319347.5, 5688610.11], [319321.76, 5688568.64], [319323.79, 5688566.84], [319294.25, 5688522.23]]}}, {"type": "Feature", "properties": {"kind": "wall", "h": 1.5}, "geometry": {"type": "LineString", "coordinates": [[319646.53, 5689130.04], [319642.75, 5689126.3], [319640.39, 5689121.55], [319640.7, 5689118.62], [319633.68, 5689105.39], [319629.16, 5689103.15], [319626.28, 5689098.87], [319607.32, 5689064.79], [319584.13, 5689024.35]]}}, {"type": "Feature", "properties": {"kind": "wall", "h": 1.5}, "geometry": {"type": "LineString", "coordinates": [[319388.76, 5688602.29], [319412.63, 5688642.69], [319444.03, 5688699.8], [319476.98, 5688758.72]]}}, {"type": "Feature", "properties": {"kind": "wall", "h": 1.5}, "geometry": {"type": "LineString", "coordinates": [[319322.06, 5688551.75], [319360.41, 5688609.55], [319403.86, 5688679.68]]}}, {"type": "Feature", "properties": {"kind": "wall", "h": 1.5}, "geometry": {"type": "LineString", "coordinates": [[319306.05, 5688516.86], [319325.94, 5688544.71], [319327.03, 5688543.93], [319333.31, 5688552.29]]}}, {"type": "Feature", "properties": {"kind": "wall", "h": 1.5}, "geometry": {"type": "LineString", "coordinates": [[318312.71, 5688830.45], [318316.4, 5688823.81], [318320.07, 5688817.14]]}}, {"type": "Feature", "properties": {"kind": "wall", "h": 1.5}, "geometry": {"type": "LineString", "coordinates": [[318245.29, 5688854.14], [318241.02, 5688851.7], [318203.26, 5688830.69]]}}, {"type": "Feature", "properties": {"kind": "embankment", "h": 2.5}, "geometry": {"type": "LineString", "coordinates": [[318567.05, 5689619.76], [318568.69, 5689602.91], [318569.0, 5689580.13], [318569.91, 5689542.41], [318569.04, 5689517.81], [318567.56, 5689497.35]]}}, {"type": "Feature", "properties": {"kind": "embankment", "h": 2.5}, "geometry": {"type": "LineString", "coordinates": [[318595.15, 5689504.94], [318594.13, 5689550.13], [318591.57, 5689583.44], [318590.6, 5689619.3]]}}, {"type": "Feature", "properties": {"kind": "wall", "h": 1.5}, "geometry": {"type": "LineString", "coordinates": [[318047.63, 5688000.0], [318042.4, 5688013.49], [318035.82, 5688032.01], [318030.18, 5688049.31], [318026.13, 5688063.46]]}}, {"type": "Feature", "properties": {"kind": "wall", "h": 1.5}, "geometry": {"type": "LineString", "coordinates": [[318025.48, 5688090.69], [318020.24, 5688111.58], [318013.68, 5688142.8], [318007.35, 5688169.52]]}}, {"type": "Feature", "properties": {"kind": "retaining_wall", "h": 3.0}, "geometry": {"type": "LineString", "coordinates": [[318032.57, 5688063.56], [318038.35, 5688043.99], [318045.69, 5688022.22], [318053.69, 5688001.82], [318054.45, 5688000.0]]}}, {"type": "Feature", "properties": {"kind": "wall", "h": 1.5}, "geometry": {"type": "LineString", "coordinates": [[319314.91, 5688490.22], [319340.65, 5688524.07], [319348.97, 5688534.9], [319374.89, 5688571.97], [319399.54, 5688610.57]]}}, {"type": "Feature", "properties": {"kind": "retaining_wall", "h": 3.0}, "geometry": {"type": "LineString", "coordinates": [[319670.99, 5689194.67], [319656.45, 5689157.76]]}}, {"type": "Feature", "properties": {"kind": "wall", "h": 1.5}, "geometry": {"type": "LineString", "coordinates": [[319555.46, 5689814.56], [319553.67, 5689807.94], [319540.46, 5689758.84], [319538.65, 5689752.12]]}}, {"type": "Feature", "properties": {"kind": "retaining_wall", "h": 3.0}, "geometry": {"type": "LineString", "coordinates": [[318196.26, 5688077.33], [318195.44, 5688070.71], [318200.72, 5688046.4], [318205.42, 5688041.77]]}}, {"type": "Feature", "properties": {"kind": "retaining_wall", "h": 3.0}, "geometry": {"type": "LineString", "coordinates": [[318119.97, 5688051.51], [318125.45, 5688056.24], [318120.45, 5688079.05], [318116.68, 5688084.49], [318113.06, 5688082.05]]}}, {"type": "Feature", "properties": {"kind": "wall", "h": 1.5}, "geometry": {"type": "LineString", "coordinates": [[318290.1, 5688539.66], [318295.82, 5688529.19], [318301.66, 5688518.46]]}}, {"type": "Feature", "properties": {"kind": "wall", "h": 1.5}, "geometry": {"type": "LineString", "coordinates": [[318213.3, 5688677.89], [318217.45, 5688670.34], [318223.07, 5688660.09]]}}, {"type": "Feature", "properties": {"kind": "wall", "h": 1.5}, "geometry": {"type": "LineString", "coordinates": [[319922.18, 5689752.56], [319923.25, 5689751.91], [319924.89, 5689750.89], [319926.08, 5689750.16]]}}, {"type": "Feature", "properties": {"kind": "wall", "h": 1.5}, "geometry": {"type": "LineString", "coordinates": [[319204.87, 5689818.07], [319217.62, 5689813.51]]}}, {"type": "Feature", "properties": {"kind": "wall", "h": 1.5}, "geometry": {"type": "LineString", "coordinates": [[319188.01, 5689819.23], [319188.04, 5689824.03], [319188.06, 5689826.33], [319192.7, 5689864.73], [319195.86, 5689864.29], [319196.95, 5689872.51], [319202.12, 5689871.93], [319202.18, 5689868.17], [319204.92, 5689866.61]]}}, {"type": "Feature", "properties": {"kind": "wall", "h": 1.5}, "geometry": {"type": "LineString", "coordinates": [[319655.77, 5689091.86], [319665.61, 5689111.99], [319667.79, 5689116.01], [319684.58, 5689150.87], [319689.87, 5689162.38]]}}, {"type": "Feature", "properties": {"kind": "wall", "h": 1.5}, "geometry": {"type": "LineString", "coordinates": [[319728.11, 5689270.96], [319677.94, 5689167.62]]}}, {"type": "Feature", "properties": {"kind": "wall", "h": 1.0}, "geometry": {"type": "LineString", "coordinates": [[319700.41, 5688311.99], [319743.52, 5688292.64], [319749.2, 5688298.91], [319755.01, 5688302.7], [319760.01, 5688305.63], [319764.91, 5688308.24], [319771.38, 5688310.45], [319771.7, 5688354.36], [319771.66, 5688357.49]]}}, {"type": "Feature", "properties": {"kind": "wall", "h": 1.5}, "geometry": {"type": "LineString", "coordinates": [[319755.01, 5688302.7], [319751.08, 5688307.91]]}}, {"type": "Feature", "properties": {"kind": "wall", "h": 1.5}, "geometry": {"type": "LineString", "coordinates": [[319760.01, 5688305.63], [319756.45, 5688310.86]]}}, {"type": "Feature", "properties": {"kind": "retaining_wall", "h": 3.0}, "geometry": {"type": "LineString", "coordinates": [[318434.71, 5689955.62], [318433.29, 5689956.29], [318423.99, 5689943.26]]}}, {"type": "Feature", "properties": {"kind": "wall", "h": 1.0}, "geometry": {"type": "LineString", "coordinates": [[318693.94, 5688622.11], [318712.64, 5688605.15], [318713.51, 5688606.1]]}}, {"type": "Feature", "properties": {"kind": "wall", "h": 1.0}, "geometry": {"type": "LineString", "coordinates": [[318758.7, 5688563.42], [318740.0, 5688580.38], [318740.66, 5688581.1]]}}, {"type": "Feature", "properties": {"kind": "wall", "h": 1.5}, "geometry": {"type": "LineString", "coordinates": [[319657.81, 5689127.14], [319672.42, 5689157.1], [319675.24, 5689162.02], [319677.94, 5689167.62]]}}, {"type": "Feature", "properties": {"kind": "wall", "h": 1.5}, "geometry": {"type": "LineString", "coordinates": [[319646.53, 5689130.04], [319663.08, 5689161.84], [319665.57, 5689166.11], [319669.95, 5689174.29]]}}, {"type": "Feature", "properties": {"kind": "retaining_wall", "h": 3.0}, "geometry": {"type": "LineString", "coordinates": [[319653.51, 5689127.71], [319655.44, 5689131.67]]}}, {"type": "Feature", "properties": {"kind": "retaining_wall", "h": 3.0}, "geometry": {"type": "LineString", "coordinates": [[319660.51, 5689129.27], [319658.56, 5689125.26]]}}, {"type": "Feature", "properties": {"kind": "retaining_wall", "h": 3.0}, "geometry": {"type": "LineString", "coordinates": [[319655.44, 5689131.67], [319646.02, 5689136.14]]}}, {"type": "Feature", "properties": {"kind": "retaining_wall", "h": 3.0}, "geometry": {"type": "LineString", "coordinates": [[319656.17, 5689126.32], [319653.22, 5689120.25], [319652.82, 5689119.44], [319649.65, 5689112.92]]}}, {"type": "Feature", "properties": {"kind": "retaining_wall", "h": 3.0}, "geometry": {"type": "LineString", "coordinates": [[319646.95, 5689114.24], [319650.09, 5689120.69], [319650.51, 5689121.56], [319653.51, 5689127.71]]}}, {"type": "Feature", "properties": {"kind": "retaining_wall", "h": 3.0}, "geometry": {"type": "LineString", "coordinates": [[319646.02, 5689136.14], [319640.78, 5689138.46]]}}, {"type": "Feature", "properties": {"kind": "retaining_wall", "h": 3.0}, "geometry": {"type": "LineString", "coordinates": [[319646.02, 5689136.14], [319642.44, 5689131.34], [319627.75, 5689111.73], [319612.75, 5689094.48]]}}, {"type": "Feature", "properties": {"kind": "retaining_wall", "h": 3.0}, "geometry": {"type": "LineString", "coordinates": [[319656.45, 5689157.76], [319688.84, 5689142.4]]}}, {"type": "Feature", "properties": {"kind": "retaining_wall", "h": 3.0}, "geometry": {"type": "LineString", "coordinates": [[319688.84, 5689142.4], [319700.16, 5689134.74]]}}, {"type": "Feature", "properties": {"kind": "wall", "h": 1.5}, "geometry": {"type": "LineString", "coordinates": [[318816.78, 5688513.83], [318825.07, 5688506.26], [318826.09, 5688507.44]]}}, {"type": "Feature", "properties": {"kind": "wall", "h": 1.5}, "geometry": {"type": "LineString", "coordinates": [[318790.88, 5688539.24], [318789.75, 5688538.03], [318800.96, 5688528.11]]}}, {"type": "Feature", "properties": {"kind": "wall", "h": 1.5}, "geometry": {"type": "LineString", "coordinates": [[319014.4, 5689187.78], [319037.86, 5689248.87], [319082.48, 5689231.44]]}}, {"type": "Feature", "properties": {"kind": "wall", "h": 1.5}, "geometry": {"type": "LineString", "coordinates": [[319197.28, 5689076.67], [319167.11, 5689092.21], [319146.95, 5689055.11]]}}, {"type": "Feature", "properties": {"kind": "wall", "h": 1.5}, "geometry": {"type": "LineString", "coordinates": [[319204.35, 5688768.05], [319186.11, 5688800.37], [319178.84, 5688795.46]]}}, {"type": "Feature", "properties": {"kind": "wall", "h": 1.5}, "geometry": {"type": "LineString", "coordinates": [[319907.75, 5688747.93], [319925.5, 5688750.31], [319933.3, 5688751.44], [319933.51, 5688749.6], [319952.69, 5688750.74]]}}, {"type": "Feature", "properties": {"kind": "wall", "h": 1.5}, "geometry": {"type": "LineString", "coordinates": [[318957.61, 5688485.25], [318964.22, 5688493.59]]}}, {"type": "Feature", "properties": {"kind": "wall", "h": 1.5}, "geometry": {"type": "LineString", "coordinates": [[318959.66, 5688535.49], [318967.1, 5688530.43], [318967.85, 5688529.91], [318944.18, 5688506.9], [318959.18, 5688491.6], [318958.7, 5688490.88], [318955.99, 5688486.76]]}}, {"type": "Feature", "properties": {"kind": "wall", "h": 1.5}, "geometry": {"type": "LineString", "coordinates": [[318997.46, 5688515.71], [318986.58, 5688526.86], [318985.89, 5688527.57], [318975.98, 5688537.7], [318969.62, 5688531.68], [318969.05, 5688532.09], [318968.5, 5688532.45], [318961.35, 5688537.17]]}}, {"type": "Feature", "properties": {"kind": "embankment", "h": 2.5}, "geometry": {"type": "LineString", "coordinates": [[319293.85, 5688447.62], [319225.26, 5688368.66], [319156.88, 5688289.95], [319156.0, 5688289.08]]}}, {"type": "Feature", "properties": {"kind": "embankment", "h": 2.5}, "geometry": {"type": "LineString", "coordinates": [[319105.15, 5688323.43], [319173.46, 5688392.65], [319209.58, 5688433.59], [319262.54, 5688499.45]]}}, {"type": "Feature", "properties": {"kind": "wall", "h": 1.5}, "geometry": {"type": "LineString", "coordinates": [[319084.48, 5689275.13], [319087.55, 5689273.86], [319089.06, 5689276.29], [319104.23, 5689274.87], [319106.07, 5689279.33]]}}, {"type": "Feature", "properties": {"kind": "wall", "h": 1.5}, "geometry": {"type": "LineString", "coordinates": [[319649.81, 5689995.68], [319650.75, 5690000.0]]}}, {"type": "Feature", "properties": {"kind": "retaining_wall", "h": 3.0}, "geometry": {"type": "LineString", "coordinates": [[318192.68, 5689861.48], [318201.48, 5689858.92], [318202.7, 5689863.11]]}}, {"type": "Feature", "properties": {"kind": "wall", "h": 1.5}, "geometry": {"type": "LineString", "coordinates": [[319702.1, 5689456.46], [319709.3, 5689471.24]]}}, {"type": "Feature", "properties": {"kind": "wall", "h": 1.5}, "geometry": {"type": "LineString", "coordinates": [[319846.97, 5688977.73], [319791.31, 5688975.44]]}}, {"type": "Feature", "properties": {"kind": "wall", "h": 1.5}, "geometry": {"type": "LineString", "coordinates": [[318442.99, 5688723.77], [318445.77, 5688719.25], [318448.47, 5688714.85]]}}, {"type": "Feature", "properties": {"kind": "wall", "h": 1.5}, "geometry": {"type": "LineString", "coordinates": [[319214.37, 5689524.76], [319213.88, 5689523.34], [319213.28, 5689521.84]]}}, {"type": "Feature", "properties": {"kind": "wall", "h": 1.5}, "geometry": {"type": "LineString", "coordinates": [[319570.59, 5689591.97], [319572.34, 5689591.17], [319573.42, 5689590.67], [319576.58, 5689589.08], [319579.2, 5689587.75], [319581.28, 5689586.7], [319587.0, 5689583.81], [319589.84, 5689589.15], [319624.67, 5689654.45], [319634.79, 5689658.15], [319633.63, 5689661.76], [319633.32, 5689662.72], [319633.11, 5689663.35], [319632.95, 5689663.84], [319631.28, 5689668.67], [319630.65, 5689670.49], [319630.05, 5689672.05]]}}, {"type": "Feature", "properties": {"kind": "wall", "h": 1.5}, "geometry": {"type": "LineString", "coordinates": [[319629.44, 5689662.63], [319632.95, 5689663.84], [319634.79, 5689658.15], [319631.31, 5689656.88], [319629.44, 5689662.63]]}}, {"type": "Feature", "properties": {"kind": "wall", "h": 1.5}, "geometry": {"type": "LineString", "coordinates": [[319576.58, 5689589.08], [319577.16, 5689590.33], [319578.34, 5689592.84], [319583.03, 5689590.62], [319581.28, 5689586.7]]}}, {"type": "Feature", "properties": {"kind": "wall", "h": 1.5}, "geometry": {"type": "LineString", "coordinates": [[319726.09, 5689596.47], [319727.65, 5689595.74], [319737.74, 5689591.02], [319748.82, 5689585.84], [319750.07, 5689585.25]]}}, {"type": "Feature", "properties": {"kind": "wall", "h": 1.5}, "geometry": {"type": "LineString", "coordinates": [[319695.56, 5689531.38], [319697.2, 5689530.58], [319703.19, 5689527.6], [319705.74, 5689526.33], [319708.34, 5689525.04], [319717.73, 5689520.39], [319719.32, 5689519.6]]}}, {"type": "Feature", "properties": {"kind": "wall", "h": 1.5}, "geometry": {"type": "LineString", "coordinates": [[319703.19, 5689527.6], [319704.2, 5689529.95], [319705.1, 5689532.03], [319710.31, 5689529.51], [319709.88, 5689528.54], [319708.34, 5689525.04]]}}, {"type": "Feature", "properties": {"kind": "wall", "h": 1.5}, "geometry": {"type": "LineString", "coordinates": [[318024.84, 5689296.85], [318013.38, 5689309.13], [318024.31, 5689319.05], [318033.51, 5689309.14], [318029.41, 5689305.32], [318031.51, 5689303.08], [318024.84, 5689296.85]]}}, {"type": "Feature", "properties": {"kind": "wall", "h": 1.5}, "geometry": {"type": "LineString", "coordinates": [[318980.24, 5688516.94], [318982.07, 5688519.65], [318983.59, 5688518.54], [318982.42, 5688515.3], [318980.24, 5688516.94]]}}, {"type": "Feature", "properties": {"kind": "fence", "type": "railing", "h": 1.2}, "geometry": {"type": "LineString", "coordinates": [[318216.83, 5689367.87], [318217.47, 5689360.72]]}}, {"type": "Feature", "properties": {"kind": "fence", "type": "railing", "h": 1.2}, "geometry": {"type": "LineString", "coordinates": [[318290.21, 5689362.36], [318291.35, 5689360.99], [318293.95, 5689357.87]]}}, {"type": "Feature", "properties": {"kind": "fence", "type": "railing", "h": 1.2}, "geometry": {"type": "LineString", "coordinates": [[318294.38, 5689349.36], [318204.25, 5689357.88], [318199.7, 5689358.31], [318192.1, 5689350.06], [318212.44, 5689326.26], [318244.46, 5689298.24], [318249.51, 5689298.49], [318254.01, 5689298.72]]}}, {"type": "Feature", "properties": {"kind": "fence", "type": "railing", "h": 1.2}, "geometry": {"type": "LineString", "coordinates": [[318671.15, 5689413.64], [318702.32, 5689414.57], [318775.58, 5689429.96], [318796.65, 5689336.19], [318805.72, 5689296.48], [318817.25, 5689263.22], [318822.14, 5689250.32], [318822.95, 5689248.17], [318849.55, 5689176.5], [318849.9, 5689175.6], [318850.15, 5689174.74], [318853.32, 5689164.22], [318860.64, 5689139.9], [318872.04, 5689075.99], [318871.65, 5689073.71], [318869.25, 5689072.24], [318694.98, 5689069.92], [318693.42, 5689072.61], [318691.88, 5689080.33], [318688.53, 5689092.47], [318684.22, 5689103.89], [318679.43, 5689113.64], [318673.91, 5689122.97], [318665.77, 5689134.4], [318655.98, 5689145.22], [318651.43, 5689149.95], [318644.66, 5689157.01]]}}, {"type": "Feature", "properties": {"kind": "fence", "type": "railing", "h": 1.2}, "geometry": {"type": "LineString", "coordinates": [[318259.06, 5689294.62], [318258.64, 5689285.83], [318354.54, 5689209.15], [318365.42, 5689212.03], [318363.56, 5689279.93]]}}, {"type": "Feature", "properties": {"kind": "fence", "type": "railing", "h": 1.2}, "geometry": {"type": "LineString", "coordinates": [[318327.75, 5689531.38], [318329.89, 5689530.49], [318329.91, 5689527.63], [318329.95, 5689522.92], [318330.0, 5689519.65]]}}, {"type": "Feature", "properties": {"kind": "fence", "type": "railing", "h": 1.2}, "geometry": {"type": "LineString", "coordinates": [[318354.58, 5689571.19], [318354.69, 5689568.49], [318354.96, 5689556.14], [318355.07, 5689549.15], [318350.95, 5689549.08]]}}, {"type": "Feature", "properties": {"kind": "fence", "type": "railing", "h": 1.2}, "geometry": {"type": "LineString", "coordinates": [[318188.25, 5689393.45], [318198.03, 5689393.79], [318198.36, 5689384.32], [318196.09, 5689384.24], [318188.58, 5689383.99]]}}, {"type": "Feature", "properties": {"kind": "fence", "type": "railing", "h": 1.2}, "geometry": {"type": "LineString", "coordinates": [[318361.4, 5689352.48], [318362.22, 5689325.33]]}}, {"type": "Feature", "properties": {"kind": "fence", "type": "railing", "h": 1.2}, "geometry": {"type": "LineString", "coordinates": [[318356.43, 5689368.41], [318360.84, 5689367.91], [318361.09, 5689362.82]]}}, {"type": "Feature", "properties": {"kind": "fence", "type": "railing", "h": 1.2}, "geometry": {"type": "LineString", "coordinates": [[318759.88, 5689430.74], [318744.98, 5689427.93]]}}, {"type": "Feature", "properties": {"kind": "fence", "type": "railing", "h": 1.2}, "geometry": {"type": "LineString", "coordinates": [[318719.87, 5689428.31], [318715.06, 5689427.27], [318716.24, 5689422.11], [318701.44, 5689419.2], [318660.93, 5689417.24], [318662.04, 5689381.43], [318601.59, 5689379.68]]}}, {"type": "Feature", "properties": {"kind": "fence", "type": "railing", "h": 1.2}, "geometry": {"type": "LineString", "coordinates": [[318721.79, 5689614.51], [318723.9, 5689614.52], [318726.83, 5689614.54], [318732.01, 5689604.24], [318733.17, 5689595.79], [318733.1, 5689592.2]]}}, {"type": "Feature", "properties": {"kind": "fence", "type": "railing", "h": 1.2}, "geometry": {"type": "LineString", "coordinates": [[318482.48, 5689830.0], [318484.29, 5689832.79], [318485.98, 5689835.58], [318493.62, 5689835.44], [318500.52, 5689842.52], [318503.81, 5689841.58]]}}, {"type": "Feature", "properties": {"kind": "fence", "type": "railing", "h": 1.2}, "geometry": {"type": "LineString", "coordinates": [[318495.75, 5689814.04], [318514.52, 5689814.59], [318531.42, 5689832.41], [318528.86, 5689834.56], [318529.9, 5689835.64], [318531.05, 5689836.85], [318533.74, 5689834.67], [318542.74, 5689844.82], [318542.3, 5689865.21]]}}, {"type": "Feature", "properties": {"kind": "fence", "type": "railing", "h": 1.2}, "geometry": {"type": "LineString", "coordinates": [[319281.67, 5689996.4], [319285.14, 5689994.75], [319288.39, 5689993.47]]}}, {"type": "Feature", "properties": {"kind": "fence", "type": "railing", "h": 1.2}, "geometry": {"type": "LineString", "coordinates": [[319317.81, 5689785.04], [319303.57, 5689762.53]]}}, {"type": "Feature", "properties": {"kind": "fence", "type": "railing", "h": 1.2}, "geometry": {"type": "LineString", "coordinates": [[319440.31, 5689995.89], [319446.01, 5689983.59]]}}, {"type": "Feature", "properties": {"kind": "fence", "type": "railing", "h": 1.2}, "geometry": {"type": "LineString", "coordinates": [[319651.54, 5689633.2], [319665.51, 5689626.88], [319663.82, 5689623.32], [319673.86, 5689618.83]]}}, {"type": "Feature", "properties": {"kind": "fence", "type": "railing", "h": 1.2}, "geometry": {"type": "LineString", "coordinates": [[319651.54, 5689633.2], [319617.2, 5689565.81], [319667.74, 5689540.79], [319672.13, 5689541.7], [319686.48, 5689573.06], [319702.78, 5689608.27], [319692.0, 5689613.27], [319690.95, 5689610.95], [319682.25, 5689614.95]]}}, {"type": "Feature", "properties": {"kind": "fence", "type": "railing", "h": 1.2}, "geometry": {"type": "LineString", "coordinates": [[319521.59, 5690000.0], [319553.89, 5689987.89], [319610.94, 5689966.52], [319634.6, 5689959.09], [319703.82, 5689935.58]]}}, {"type": "Feature", "properties": {"kind": "fence", "type": "railing", "h": 1.2}, "geometry": {"type": "LineString", "coordinates": [[319687.66, 5689849.25], [319680.36, 5689834.43], [319685.58, 5689823.42], [319689.29, 5689822.55]]}}, {"type": "Feature", "properties": {"kind": "fence", "type": "railing", "h": 1.2}, "geometry": {"type": "LineString", "coordinates": [[319257.63, 5689934.41], [319261.22, 5689933.16], [319264.9, 5689931.87]]}}, {"type": "Feature", "properties": {"kind": "fence", "type": "railing", "h": 1.2}, "geometry": {"type": "LineString", "coordinates": [[318298.32, 5688255.94], [318304.31, 5688261.14]]}}, {"type": "Feature", "properties": {"kind": "fence", "type": "railing", "h": 1.2}, "geometry": {"type": "LineString", "coordinates": [[318256.66, 5688225.39], [318261.87, 5688225.51], [318260.64, 5688248.7], [318275.09, 5688249.68], [318288.74, 5688260.2]]}}, {"type": "Feature", "properties": {"kind": "fence", "type": "railing", "h": 1.2}, "geometry": {"type": "LineString", "coordinates": [[318278.95, 5688247.86], [318296.52, 5688260.67]]}}, {"type": "Feature", "properties": {"kind": "fence", "type": "railing", "h": 1.2}, "geometry": {"type": "LineString", "coordinates": [[318490.41, 5688266.83], [318481.1, 5688199.37]]}}, {"type": "Feature", "properties": {"kind": "fence", "type": "railing", "h": 1.2}, "geometry": {"type": "LineString", "coordinates": [[318460.03, 5688202.08], [318468.49, 5688266.29], [318483.2, 5688266.65], [318490.41, 5688266.83], [318552.4, 5688268.36], [318550.71, 5688254.78], [318541.9, 5688183.62], [318534.06, 5688137.24], [318524.09, 5688056.04]]}}, {"type": "Feature", "properties": {"kind": "fence", "type": "railing", "h": 1.2}, "geometry": {"type": "LineString", "coordinates": [[318850.15, 5689174.74], [318838.93, 5689174.36], [318839.01, 5689167.92], [318839.07, 5689163.98], [318844.41, 5689164.07], [318853.32, 5689164.22]]}}, {"type": "Feature", "properties": {"kind": "fence", "type": "railing", "h": 1.2}, "geometry": {"type": "LineString", "coordinates": [[319987.06, 5688989.94], [319987.41, 5688988.17], [319981.29, 5688968.63]]}}, {"type": "Feature", "properties": {"kind": "fence", "type": "railing", "h": 1.2}, "geometry": {"type": "LineString", "coordinates": [[318000.0, 5689554.1], [318011.91, 5689544.82], [318026.04, 5689532.79], [318043.28, 5689519.61], [318049.12, 5689515.36], [318053.4, 5689514.47], [318062.16, 5689524.04], [318076.55, 5689538.64], [318088.56, 5689550.34]]}}, {"type": "Feature", "properties": {"kind": "fence", "type": "railing", "h": 1.2}, "geometry": {"type": "LineString", "coordinates": [[318266.17, 5688162.21], [318390.31, 5688169.12]]}}, {"type": "Feature", "properties": {"kind": "fence", "type": "railing", "h": 1.2}, "geometry": {"type": "LineString", "coordinates": [[318304.31, 5688261.14], [318351.32, 5688263.01]]}}, {"type": "Feature", "properties": {"kind": "fence", "type": "railing", "h": 1.2}, "geometry": {"type": "LineString", "coordinates": [[318351.32, 5688263.01], [318352.7, 5688227.78]]}}, {"type": "Feature", "properties": {"kind": "fence", "type": "railing", "h": 1.2}, "geometry": {"type": "LineString", "coordinates": [[318288.74, 5688260.2], [318257.49, 5688258.75], [318166.16, 5688254.49], [318161.78, 5688247.17], [318161.4, 5688241.77], [318162.48, 5688235.02], [318178.99, 5688157.35]]}}, {"type": "Feature", "properties": {"kind": "fence", "type": "railing", "h": 1.2}, "geometry": {"type": "LineString", "coordinates": [[318224.3, 5688273.54], [318219.04, 5688375.4]]}}, {"type": "Feature", "properties": {"kind": "fence", "type": "railing", "h": 1.2}, "geometry": {"type": "LineString", "coordinates": [[318145.01, 5688269.9], [318224.3, 5688273.54], [318327.76, 5688278.28]]}}, {"type": "Feature", "properties": {"kind": "fence", "type": "railing", "h": 1.2}, "geometry": {"type": "LineString", "coordinates": [[318219.04, 5688375.4], [318125.45, 5688351.65], [318145.01, 5688269.9]]}}, {"type": "Feature", "properties": {"kind": "fence", "type": "railing", "h": 1.2}, "geometry": {"type": "LineString", "coordinates": [[319110.09, 5689961.98], [319129.1, 5689957.38], [319136.48, 5689955.59]]}}, {"type": "Feature", "properties": {"kind": "fence", "type": "railing", "h": 1.2}, "geometry": {"type": "LineString", "coordinates": [[318845.94, 5689171.02], [318845.97, 5689168.6]]}}, {"type": "Feature", "properties": {"kind": "fence", "type": "railing", "h": 1.2}, "geometry": {"type": "LineString", "coordinates": [[318107.26, 5688566.29], [318068.1, 5688554.03]]}}, {"type": "Feature", "properties": {"kind": "fence", "type": "railing", "h": 1.2}, "geometry": {"type": "LineString", "coordinates": [[318219.7, 5688417.52], [318256.94, 5688436.29], [318237.16, 5688476.09], [318253.0, 5688484.24], [318282.72, 5688499.54]]}}, {"type": "Feature", "properties": {"kind": "fence", "type": "railing", "h": 1.2}, "geometry": {"type": "LineString", "coordinates": [[318000.0, 5688550.32], [318004.32, 5688542.86], [318044.71, 5688405.13], [318046.71, 5688400.23], [318054.32, 5688371.45], [318054.16, 5688364.76], [318058.06, 5688358.59], [318056.19, 5688357.07], [318054.32, 5688355.53], [318061.31, 5688336.56]]}}, {"type": "Feature", "properties": {"kind": "fence", "type": "railing", "h": 1.2}, "geometry": {"type": "LineString", "coordinates": [[318061.31, 5688336.56], [318075.41, 5688336.68], [318091.83, 5688258.31], [318114.55, 5688149.91], [318128.41, 5688083.73]]}}, {"type": "Feature", "properties": {"kind": "fence", "type": "railing", "h": 1.2}, "geometry": {"type": "LineString", "coordinates": [[318282.72, 5688499.54], [318223.68, 5688599.54], [318201.32, 5688593.77], [318173.67, 5688658.05], [318091.16, 5688801.05], [318034.93, 5688779.74], [318000.0, 5688766.51]]}}, {"type": "Feature", "properties": {"kind": "fence", "type": "railing", "h": 1.2}, "geometry": {"type": "LineString", "coordinates": [[318188.63, 5688720.93], [318163.36, 5688766.84], [318161.52, 5688770.19]]}}, {"type": "Feature", "properties": {"kind": "fence", "type": "railing", "h": 1.2}, "geometry": {"type": "LineString", "coordinates": [[318049.74, 5689001.94], [318047.35, 5688999.63], [318096.69, 5688945.24], [318164.81, 5689003.39], [318113.44, 5689059.6]]}}, {"type": "Feature", "properties": {"kind": "fence", "type": "railing", "h": 1.2}, "geometry": {"type": "LineString", "coordinates": [[319926.08, 5689750.16], [319937.21, 5689765.91]]}}, {"type": "Feature", "properties": {"kind": "fence", "type": "railing", "h": 1.2}, "geometry": {"type": "LineString", "coordinates": [[319214.33, 5689804.77], [319213.17, 5689805.27], [319205.83, 5689808.51], [319193.79, 5689776.54]]}}, {"type": "Feature", "properties": {"kind": "fence", "type": "railing", "h": 1.2}, "geometry": {"type": "LineString", "coordinates": [[319633.79, 5689955.92], [319634.6, 5689959.09]]}}, {"type": "Feature", "properties": {"kind": "fence", "type": "railing", "h": 1.2}, "geometry": {"type": "LineString", "coordinates": [[319124.2, 5689757.55], [319119.9, 5689757.52], [319111.11, 5689757.93], [319088.62, 5689757.46], [319077.91, 5689757.23], [319071.81, 5689757.19], [319058.31, 5689757.1]]}}, {"type": "Feature", "properties": {"kind": "fence", "type": "railing", "h": 1.2}, "geometry": {"type": "LineString", "coordinates": [[319784.54, 5688303.78], [319783.92, 5688281.23], [319783.0, 5688272.84]]}}, {"type": "Feature", "properties": {"kind": "fence", "type": "railing", "h": 1.2}, "geometry": {"type": "LineString", "coordinates": [[319773.38, 5688266.73], [319776.22, 5688266.63], [319778.38, 5688267.61], [319780.11, 5688268.87]]}}, {"type": "Feature", "properties": {"kind": "fence", "type": "railing", "h": 1.2}, "geometry": {"type": "LineString", "coordinates": [[319743.83, 5688279.8], [319768.83, 5688268.57]]}}, {"type": "Feature", "properties": {"kind": "fence", "type": "railing", "h": 1.2}, "geometry": {"type": "LineString", "coordinates": [[319932.61, 5689725.41], [319957.95, 5689706.82], [319964.39, 5689702.2]]}}, {"type": "Feature", "properties": {"kind": "fence", "type": "railing", "h": 1.2}, "geometry": {"type": "LineString", "coordinates": [[319943.25, 5689738.71], [319962.66, 5689725.94], [319974.67, 5689718.86]]}}, {"type": "Feature", "properties": {"kind": "fence", "type": "railing", "h": 1.2}, "geometry": {"type": "LineString", "coordinates": [[318718.58, 5688830.31], [318713.07, 5688833.37]]}}, {"type": "Feature", "properties": {"kind": "fence", "type": "railing", "h": 1.2}, "geometry": {"type": "LineString", "coordinates": [[318770.81, 5688817.26], [318775.06, 5688824.26], [318767.53, 5688828.36], [318782.65, 5688856.62], [318785.26, 5688855.2], [318810.17, 5688842.66], [318811.0, 5688836.02], [318808.21, 5688828.91], [318789.91, 5688794.21], [318785.14, 5688785.17], [318781.75, 5688779.51], [318776.74, 5688775.21], [318771.74, 5688772.36], [318764.63, 5688771.34], [318759.55, 5688771.49], [318752.57, 5688774.19], [318716.23, 5688799.37], [318710.44, 5688805.89], [318708.01, 5688810.12], [318706.67, 5688814.64], [318706.47, 5688819.69], [318706.97, 5688823.21], [318710.37, 5688829.44], [318713.07, 5688833.37]]}}, {"type": "Feature", "properties": {"kind": "fence", "type": "railing", "h": 1.2}, "geometry": {"type": "LineString", "coordinates": [[318722.6, 5688828.08], [318725.0, 5688826.74]]}}, {"type": "Feature", "properties": {"kind": "fence", "type": "railing", "h": 1.2}, "geometry": {"type": "LineString", "coordinates": [[318789.91, 5688794.21], [318785.61, 5688795.78]]}}, {"type": "Feature", "properties": {"kind": "fence", "type": "mesh", "h": 2.0}, "geometry": {"type": "LineString", "coordinates": [[318985.42, 5688265.82], [318988.14, 5688263.25]]}}, {"type": "Feature", "properties": {"kind": "fence", "type": "mesh", "h": 2.0}, "geometry": {"type": "LineString", "coordinates": [[318938.7, 5688271.03], [318942.56, 5688275.21], [318947.17, 5688280.2], [318974.85, 5688254.49], [318975.44, 5688255.23], [318985.42, 5688265.82], [319003.5, 5688285.03]]}}, {"type": "Feature", "properties": {"kind": "fence", "type": "railing", "h": 2.0}, "geometry": {"type": "LineString", "coordinates": [[319061.67, 5688938.79], [319032.4, 5688997.27], [319045.94, 5689004.63], [319134.5, 5688958.53], [319144.04, 5688953.56], [319129.19, 5688925.17], [319156.15, 5688910.03], [319151.27, 5688898.82], [319144.99, 5688887.58]]}}, {"type": "Feature", "properties": {"kind": "fence", "type": "railing", "h": 1.2}, "geometry": {"type": "LineString", "coordinates": [[319171.4, 5689223.46], [319168.8, 5689217.27], [319165.15, 5689208.67]]}}, {"type": "Feature", "properties": {"kind": "fence", "type": "railing", "h": 1.2}, "geometry": {"type": "LineString", "coordinates": [[319212.71, 5689201.92], [319210.94, 5689198.84], [319206.94, 5689191.81]]}}, {"type": "Feature", "properties": {"kind": "fence", "type": "railing", "h": 1.2}, "geometry": {"type": "LineString", "coordinates": [[319012.06, 5689503.76], [319012.04, 5689492.36]]}}, {"type": "Feature", "properties": {"kind": "fence", "type": "railing", "h": 1.2}, "geometry": {"type": "LineString", "coordinates": [[318901.33, 5688235.83], [318908.15, 5688230.09], [318903.93, 5688225.63], [318897.53, 5688218.4], [318888.56, 5688226.67], [318876.85, 5688214.4], [318859.14, 5688195.85]]}}, {"type": "Feature", "properties": {"kind": "fence", "type": "railing", "h": 1.2}, "geometry": {"type": "LineString", "coordinates": [[318926.58, 5688211.36], [318943.87, 5688194.62], [318956.85, 5688180.02], [319014.08, 5688239.6], [318997.52, 5688255.08], [318982.91, 5688248.37], [318975.44, 5688255.23]]}}, {"type": "Feature", "properties": {"kind": "fence", "type": "railing", "h": 1.2}, "geometry": {"type": "LineString", "coordinates": [[318901.33, 5688235.83], [318904.35, 5688238.65], [318907.24, 5688241.92]]}}, {"type": "Feature", "properties": {"kind": "fence", "type": "railing", "h": 1.2}, "geometry": {"type": "LineString", "coordinates": [[318934.12, 5688275.09], [318928.22, 5688280.42], [318899.84, 5688248.44], [318905.57, 5688243.46]]}}, {"type": "Feature", "properties": {"kind": "fence", "type": "railing", "h": 1.2}, "geometry": {"type": "LineString", "coordinates": [[318859.14, 5688195.85], [318888.93, 5688168.76], [318893.24, 5688172.93], [318901.76, 5688164.79], [318906.85, 5688160.18], [318915.29, 5688160.02], [318939.92, 5688189.85], [318943.87, 5688194.62]]}}, {"type": "Feature", "properties": {"kind": "fence", "type": "railing", "h": 1.2}, "geometry": {"type": "LineString", "coordinates": [[319159.81, 5689470.33], [319201.97, 5689448.93], [319205.0, 5689454.31]]}}, {"type": "Feature", "properties": {"kind": "fence", "type": "railing", "h": 1.2}, "geometry": {"type": "LineString", "coordinates": [[319584.1, 5688614.72], [319585.57, 5688622.35], [319602.42, 5688619.54], [319608.69, 5688658.95], [319611.88, 5688678.98], [319610.76, 5688681.07], [319606.57, 5688683.77], [319603.87, 5688685.06], [319603.54, 5688699.93], [319591.08, 5688700.89], [319581.99, 5688700.53], [319567.24, 5688699.85], [319541.93, 5688690.84], [319511.84, 5688667.83], [319507.47, 5688626.66], [319584.1, 5688614.72]]}}, {"type": "Feature", "properties": {"kind": "fence", "type": "railing", "h": 1.2}, "geometry": {"type": "LineString", "coordinates": [[318856.01, 5688876.96], [318860.32, 5688888.83], [318893.42, 5688879.12], [318929.31, 5688870.23], [318918.65, 5688831.56], [318915.3, 5688832.48], [318900.57, 5688836.37], [318901.11, 5688838.13], [318899.01, 5688838.76], [318897.39, 5688839.25], [318896.69, 5688837.63], [318848.49, 5688854.55], [318848.1, 5688855.6], [318849.72, 5688859.36]]}}, {"type": "Feature", "properties": {"kind": "fence", "type": "railing", "h": 1.2}, "geometry": {"type": "LineString", "coordinates": [[319311.72, 5689230.29], [319306.92, 5689221.13]]}}, {"type": "Feature", "properties": {"kind": "fence", "type": "railing", "h": 1.2}, "geometry": {"type": "LineString", "coordinates": [[319237.82, 5689173.96], [319242.53, 5689171.48], [319254.57, 5689165.33], [319261.23, 5689161.93], [319263.54, 5689160.75], [319267.75, 5689158.51], [319268.74, 5689157.98], [319273.86, 5689154.99]]}}, {"type": "Feature", "properties": {"kind": "fence", "type": "railing", "h": 1.2}, "geometry": {"type": "LineString", "coordinates": [[319742.16, 5688975.48], [319733.74, 5688975.04], [319725.21, 5688974.34], [319709.27, 5688973.26], [319707.12, 5688953.22]]}}, {"type": "Feature", "properties": {"kind": "fence", "type": "railing", "h": 1.2}, "geometry": {"type": "LineString", "coordinates": [[319711.11, 5688992.83], [319709.27, 5688973.26]]}}, {"type": "Feature", "properties": {"kind": "fence", "type": "railing", "h": 1.2}, "geometry": {"type": "LineString", "coordinates": [[319740.95, 5688995.41], [319733.81, 5688994.78]]}}, {"type": "Feature", "properties": {"kind": "fence", "type": "railing", "h": 1.2}, "geometry": {"type": "LineString", "coordinates": [[319143.96, 5689156.48], [319115.3, 5689083.14]]}}, {"type": "Feature", "properties": {"kind": "fence", "type": "railing", "h": 1.2}, "geometry": {"type": "LineString", "coordinates": [[319146.95, 5689055.11], [319111.13, 5689072.8], [319086.11, 5689007.11]]}}, {"type": "Feature", "properties": {"kind": "fence", "type": "railing", "h": 1.2}, "geometry": {"type": "LineString", "coordinates": [[319146.95, 5689055.11], [319118.04, 5689003.14]]}}, {"type": "Feature", "properties": {"kind": "fence", "type": "railing", "h": 1.2}, "geometry": {"type": "LineString", "coordinates": [[319113.46, 5688995.0], [319112.64, 5688993.36], [319092.57, 5689003.99]]}}, {"type": "Feature", "properties": {"kind": "fence", "type": "railing", "h": 1.2}, "geometry": {"type": "LineString", "coordinates": [[319197.98, 5689492.22], [319194.39, 5689494.1]]}}, {"type": "Feature", "properties": {"kind": "fence", "type": "railing", "h": 1.2}, "geometry": {"type": "LineString", "coordinates": [[319194.39, 5689494.1], [319191.98, 5689495.5]]}}, {"type": "Feature", "properties": {"kind": "fence", "type": "railing", "h": 3.5}, "geometry": {"type": "LineString", "coordinates": [[318738.55, 5688106.25], [318764.94, 5688082.5]]}}, {"type": "Feature", "properties": {"kind": "fence", "type": "railing", "h": 3.5}, "geometry": {"type": "LineString", "coordinates": [[318775.11, 5688146.65], [318801.5, 5688122.89], [318794.9, 5688115.6]]}}, {"type": "Feature", "properties": {"kind": "fence", "type": "railing", "h": 1.2}, "geometry": {"type": "LineString", "coordinates": [[318000.0, 5688105.72], [318005.92, 5688094.51], [318003.94, 5688091.22], [318000.0, 5688091.16]]}}, {"type": "Feature", "properties": {"kind": "fence", "type": "railing", "h": 1.2}, "geometry": {"type": "LineString", "coordinates": [[319853.45, 5689037.27], [319855.11, 5689035.49], [319855.99, 5689033.15], [319856.76, 5689030.62]]}}, {"type": "Feature", "properties": {"kind": "fence", "type": "railing", "h": 1.2}, "geometry": {"type": "LineString", "coordinates": [[318362.71, 5688789.9], [318365.9, 5688784.94]]}}, {"type": "Feature", "properties": {"kind": "fence", "type": "railing", "h": 1.2}, "geometry": {"type": "LineString", "coordinates": [[318375.21, 5688790.5], [318372.17, 5688795.37]]}}, {"type": "Feature", "properties": {"kind": "fence", "type": "railing", "h": 1.2}, "geometry": {"type": "LineString", "coordinates": [[319811.78, 5689691.03], [319810.94, 5689689.07]]}}, {"type": "Feature", "properties": {"kind": "fence", "type": "mesh", "h": 1.4}, "geometry": {"type": "LineString", "coordinates": [[319992.27, 5688506.16], [320000.0, 5688502.81]]}}, {"type": "Feature", "properties": {"kind": "fence", "type": "railing", "h": 1.2}, "geometry": {"type": "LineString", "coordinates": [[319363.23, 5689522.23], [319374.71, 5689516.04], [319382.6, 5689520.2], [319392.41, 5689539.97]]}}, {"type": "Feature", "properties": {"kind": "fence", "type": "railing", "h": 1.2}, "geometry": {"type": "LineString", "coordinates": [[319313.24, 5689233.13], [319311.72, 5689230.29]]}}, {"type": "Feature", "properties": {"kind": "fence", "type": "railing", "h": 1.2}, "geometry": {"type": "LineString", "coordinates": [[319092.57, 5689003.99], [319086.11, 5689007.11]]}}, {"type": "Feature", "properties": {"kind": "fence", "type": "railing", "h": 1.2}, "geometry": {"type": "LineString", "coordinates": [[319583.83, 5689004.42], [319533.38, 5688917.23]]}}, {"type": "Feature", "properties": {"kind": "fence", "type": "railing", "h": 1.2}, "geometry": {"type": "LineString", "coordinates": [[319620.88, 5689063.24], [319623.91, 5689061.58], [319590.86, 5688997.93], [319592.75, 5688996.97]]}}, {"type": "Feature", "properties": {"kind": "fence", "type": "railing", "h": 1.2}, "geometry": {"type": "LineString", "coordinates": [[319646.95, 5689114.24], [319650.09, 5689120.69], [319652.82, 5689119.44], [319649.65, 5689112.92]]}}, {"type": "Feature", "properties": {"kind": "fence", "type": "railing", "h": 1.2}, "geometry": {"type": "LineString", "coordinates": [[318081.14, 5689315.94], [318099.42, 5689295.46]]}}, {"type": "Feature", "properties": {"kind": "fence", "type": "railing", "h": 1.2}, "geometry": {"type": "LineString", "coordinates": [[318093.82, 5689334.07], [318095.23, 5689332.37], [318096.25, 5689331.26], [318105.14, 5689321.54]]}}, {"type": "Feature", "properties": {"kind": "fence", "type": "railing", "h": 1.2}, "geometry": {"type": "LineString", "coordinates": [[318105.14, 5689321.54], [318112.48, 5689313.42], [318113.63, 5689312.17], [318110.35, 5689309.03], [318102.87, 5689317.35], [318102.26, 5689318.03], [318101.82, 5689318.51], [318105.14, 5689321.54]]}}, {"type": "Feature", "properties": {"kind": "fence", "type": "rail", "h": 1.0}, "geometry": {"type": "LineString", "coordinates": [[318068.57, 5689336.98], [318060.35, 5689345.94], [318068.26, 5689353.6]]}}, {"type": "Feature", "properties": {"kind": "fence", "type": "rail", "h": 1.0}, "geometry": {"type": "LineString", "coordinates": [[318058.43, 5689347.08], [318068.53, 5689356.14], [318071.09, 5689353.32]]}}, {"type": "Feature", "properties": {"kind": "fence", "type": "rail", "h": 1.0}, "geometry": {"type": "LineString", "coordinates": [[318079.37, 5689398.02], [318080.75, 5689399.16]]}}, {"type": "Feature", "properties": {"kind": "fence", "type": "rail", "h": 1.0}, "geometry": {"type": "LineString", "coordinates": [[318077.22, 5689400.44], [318079.37, 5689398.02], [318084.7, 5689391.98]]}}, {"type": "Feature", "properties": {"kind": "fence", "type": "rail", "h": 1.0}, "geometry": {"type": "LineString", "coordinates": [[318076.11, 5689399.41], [318084.9, 5689389.8], [318085.68, 5689390.57]]}}, {"type": "Feature", "properties": {"kind": "fence", "type": "railing", "h": 3.5}, "geometry": {"type": "LineString", "coordinates": [[318829.47, 5688084.47], [318840.61, 5688074.45], [318793.73, 5688022.63], [318748.01, 5688063.79], [318752.3, 5688068.53]]}}, {"type": "Feature", "properties": {"kind": "fence", "type": "railing", "h": 1.2}, "geometry": {"type": "LineString", "coordinates": [[319242.71, 5689173.52], [319206.94, 5689191.81], [319177.5, 5689206.26], [319171.52, 5689191.63], [319168.06, 5689193.23], [319158.83, 5689197.22]]}}, {"type": "Feature", "properties": {"kind": "fence", "type": "railing", "h": 1.2}, "geometry": {"type": "LineString", "coordinates": [[319273.86, 5689154.99], [319278.14, 5689152.96]]}}, {"type": "Feature", "properties": {"kind": "fence", "type": "railing", "h": 1.2}, "geometry": {"type": "LineString", "coordinates": [[319116.69, 5689407.92], [319120.99, 5689417.91]]}}, {"type": "Feature", "properties": {"kind": "fence", "type": "railing", "h": 1.2}, "geometry": {"type": "LineString", "coordinates": [[318154.43, 5689875.94], [318190.97, 5689865.15], [318199.49, 5689862.63]]}}, {"type": "Feature", "properties": {"kind": "fence", "type": "railing", "h": 1.2}, "geometry": {"type": "LineString", "coordinates": [[318154.43, 5689875.94], [318152.98, 5689871.12]]}}, {"type": "Feature", "properties": {"kind": "fence", "type": "railing", "h": 1.2}, "geometry": {"type": "LineString", "coordinates": [[318190.97, 5689865.15], [318189.31, 5689859.51], [318200.83, 5689856.13], [318199.55, 5689851.78]]}}, {"type": "Feature", "properties": {"kind": "fence", "type": "railing", "h": 1.2}, "geometry": {"type": "LineString", "coordinates": [[318209.81, 5689861.05], [318206.67, 5689849.65]]}}, {"type": "Feature", "properties": {"kind": "fence", "type": "railing", "h": 1.2}, "geometry": {"type": "LineString", "coordinates": [[318349.7, 5690000.0], [318349.03, 5689998.27], [318377.15, 5689985.88], [318382.76, 5690000.0]]}}, {"type": "Feature", "properties": {"kind": "fence", "type": "railing", "h": 1.2}, "geometry": {"type": "LineString", "coordinates": [[318384.94, 5690000.0], [318378.97, 5689985.21], [318428.68, 5689963.18], [318439.74, 5689955.88], [318451.91, 5689970.9]]}}, {"type": "Feature", "properties": {"kind": "fence", "type": "railing", "h": 1.2}, "geometry": {"type": "LineString", "coordinates": [[318374.51, 5689977.3], [318416.74, 5689958.96], [318418.3, 5689956.79], [318390.81, 5689916.52], [318366.18, 5689926.15]]}}, {"type": "Feature", "properties": {"kind": "fence", "type": "railing", "h": 1.2}, "geometry": {"type": "LineString", "coordinates": [[318365.18, 5689922.91], [318388.36, 5689913.8], [318362.21, 5689875.16]]}}, {"type": "Feature", "properties": {"kind": "fence", "type": "railing", "h": 1.2}, "geometry": {"type": "LineString", "coordinates": [[318365.81, 5689873.5], [318414.0, 5689943.12], [318444.58, 5689920.15]]}}, {"type": "Feature", "properties": {"kind": "fence", "type": "railing", "h": 1.2}, "geometry": {"type": "LineString", "coordinates": [[318725.09, 5689901.23], [318726.03, 5689889.89], [318726.58, 5689883.26]]}}, {"type": "Feature", "properties": {"kind": "fence", "type": "railing", "h": 1.2}, "geometry": {"type": "LineString", "coordinates": [[319621.25, 5689926.87], [319623.65, 5689936.48], [319548.96, 5689961.08]]}}, {"type": "Feature", "properties": {"kind": "fence", "type": "railing", "h": 1.2}, "geometry": {"type": "LineString", "coordinates": [[319212.52, 5689658.82], [319234.7, 5689650.67], [319240.63, 5689666.68]]}}, {"type": "Feature", "properties": {"kind": "fence", "type": "railing", "h": 1.2}, "geometry": {"type": "LineString", "coordinates": [[318363.56, 5689279.93], [318362.8, 5689307.69], [318362.22, 5689325.33], [318308.19, 5689324.7], [318283.4, 5689324.42]]}}, {"type": "Feature", "properties": {"kind": "fence", "type": "railing", "h": 1.2}, "geometry": {"type": "LineString", "coordinates": [[318722.71, 5689428.92], [318719.87, 5689428.31]]}}, {"type": "Feature", "properties": {"kind": "fence", "type": "railing", "h": 1.2}, "geometry": {"type": "LineString", "coordinates": [[319421.02, 5689744.88], [319422.37, 5689747.89], [319426.72, 5689747.83]]}}, {"type": "Feature", "properties": {"kind": "fence", "type": "railing", "h": 1.2}, "geometry": {"type": "LineString", "coordinates": [[319327.31, 5689712.61], [319289.12, 5689731.15]]}}, {"type": "Feature", "properties": {"kind": "fence", "type": "railing", "h": 1.2}, "geometry": {"type": "LineString", "coordinates": [[319426.72, 5689747.83], [319429.19, 5689753.06], [319429.14, 5689755.63], [319427.44, 5689757.7], [319407.56, 5689766.84], [319404.4, 5689768.04], [319354.54, 5689787.0], [319323.2, 5689798.93]]}}, {"type": "Feature", "properties": {"kind": "fence", "type": "railing", "h": 1.2}, "geometry": {"type": "LineString", "coordinates": [[319348.64, 5689702.28], [319352.94, 5689700.16], [319368.61, 5689692.4], [319372.17, 5689690.65]]}}, {"type": "Feature", "properties": {"kind": "fence", "type": "railing", "h": 1.2}, "geometry": {"type": "LineString", "coordinates": [[318178.99, 5688157.35], [318266.17, 5688162.21]]}}, {"type": "Feature", "properties": {"kind": "fence", "type": "railing", "h": 1.2}, "geometry": {"type": "LineString", "coordinates": [[318682.52, 5689991.85], [318679.32, 5689991.72]]}}, {"type": "Feature", "properties": {"kind": "fence", "type": "railing", "h": 1.2}, "geometry": {"type": "LineString", "coordinates": [[318679.32, 5689991.72], [318676.59, 5689991.71]]}}, {"type": "Feature", "properties": {"kind": "fence", "type": "railing", "h": 1.2}, "geometry": {"type": "LineString", "coordinates": [[318128.15, 5689323.91], [318165.79, 5689281.29], [318161.45, 5689277.48], [318163.05, 5689275.68], [318169.03, 5689268.98], [318177.9, 5689259.04], [318186.36, 5689249.38], [318286.75, 5689138.64], [318311.36, 5689161.14]]}}, {"type": "Feature", "properties": {"kind": "fence", "type": "railing", "h": 1.2}, "geometry": {"type": "LineString", "coordinates": [[318299.25, 5690000.0], [318298.19, 5689997.0], [318322.95, 5689986.18], [318324.11, 5689988.84], [318327.77, 5689997.49], [318374.51, 5689977.3], [318355.87, 5689930.57], [318366.18, 5689926.15], [318365.18, 5689922.91], [318359.12, 5689903.5], [318350.56, 5689880.48], [318362.21, 5689875.16], [318365.81, 5689873.5], [318362.51, 5689867.64], [318380.58, 5689853.98], [318444.58, 5689920.15], [318446.31, 5689921.94], [318473.54, 5689950.13], [318451.91, 5689970.9], [318445.4, 5689977.16], [318418.1, 5690000.0]]}}, {"type": "Feature", "properties": {"kind": "fence", "type": "railing", "h": 1.2}, "geometry": {"type": "LineString", "coordinates": [[318559.26, 5689792.28], [318560.38, 5689748.64], [318606.09, 5689749.8], [318604.96, 5689793.44], [318559.26, 5689792.28]]}}, {"type": "Feature", "properties": {"kind": "fence", "type": "railing", "h": 1.2}, "geometry": {"type": "LineString", "coordinates": [[318000.0, 5689064.97], [318058.8, 5689117.86], [318000.0, 5689182.88]]}}, {"type": "Feature", "properties": {"kind": "fence", "type": "railing", "h": 1.2}, "geometry": {"type": "LineString", "coordinates": [[318711.55, 5689705.69], [318718.82, 5689709.64], [318726.18, 5689713.63], [318742.15, 5689684.39], [318727.53, 5689676.44], [318726.26, 5689678.77], [318711.55, 5689705.69]]}}, {"type": "Feature", "properties": {"kind": "fence", "type": "railing", "h": 1.2}, "geometry": {"type": "LineString", "coordinates": [[320000.0, 5689267.56], [319981.3, 5689276.6], [319970.97, 5689270.07], [319886.58, 5689312.84], [319883.95, 5689321.02], [319833.58, 5689348.98], [319831.33, 5689356.09], [319832.36, 5689364.27], [319882.35, 5689450.44], [319897.27, 5689476.16], [319905.69, 5689438.93], [319932.8, 5689425.26], [319918.65, 5689398.8], [319985.14, 5689363.62], [320000.0, 5689355.79]]}}, {"type": "Feature", "properties": {"kind": "fence", "type": "railing", "h": 1.2}, "geometry": {"type": "LineString", "coordinates": [[318115.85, 5689739.02], [318121.07, 5689738.46], [318125.41, 5689745.01], [318124.8, 5689750.53], [318124.08, 5689756.94], [318088.98, 5689767.2], [318077.52, 5689761.49], [318068.54, 5689742.01], [318110.91, 5689731.73], [318115.85, 5689739.02]]}}, {"type": "Feature", "properties": {"kind": "fence", "type": "railing", "h": 1.2}, "geometry": {"type": "LineString", "coordinates": [[318604.96, 5689793.44], [318606.09, 5689749.8], [318606.31, 5689744.66], [318612.95, 5689744.86], [318613.77, 5689718.25], [318653.22, 5689719.45], [318652.62, 5689738.85], [318613.32, 5689795.49], [318612.4, 5689796.81], [318604.7, 5689796.57], [318604.96, 5689793.44]]}}, {"type": "Feature", "properties": {"kind": "fence", "type": "railing", "h": 1.2}, "geometry": {"type": "LineString", "coordinates": [[318466.22, 5689085.51], [318498.13, 5689058.82], [318502.77, 5689052.69], [318504.83, 5689047.4], [318504.24, 5689041.07], [318501.45, 5689036.32], [318453.34, 5689010.55], [318444.42, 5689009.46], [318439.39, 5689006.85], [318389.33, 5688980.78], [318383.18, 5688987.23], [318380.02, 5688985.61], [318376.31, 5688989.64], [318368.53, 5688998.11], [318411.68, 5689036.15], [318421.56, 5689045.23], [318466.22, 5689085.51]]}}, {"type": "Feature", "properties": {"kind": "fence", "type": "railing", "h": 1.2}, "geometry": {"type": "LineString", "coordinates": [[318000.0, 5689428.68], [318020.82, 5689447.06], [318051.39, 5689474.05], [318054.71, 5689475.84], [318058.89, 5689475.09], [318096.9, 5689431.89], [318063.63, 5689402.81], [318060.84, 5689400.37], [318058.19, 5689398.06], [318066.46, 5689388.69], [318079.35, 5689374.08], [318063.31, 5689360.2], [318048.14, 5689346.94], [318046.38, 5689346.74], [318045.38, 5689347.85], [318042.17, 5689351.36], [318000.0, 5689397.75]]}}, {"type": "Feature", "properties": {"kind": "gate", "w": 1.2, "on": "fence"}, "geometry": {"type": "Point", "coordinates": [318446.31, 5689921.94]}}, {"type": "Feature", "properties": {"kind": "gate", "w": 1.2, "on": "wall"}, "geometry": {"type": "Point", "coordinates": [318244.77, 5689510.56]}}, {"type": "Feature", "properties": {"kind": "gate", "w": 1.2, "on": "fence"}, "geometry": {"type": "Point", "coordinates": [318849.9, 5689175.6]}}, {"type": "Feature", "properties": {"kind": "gate", "w": 1.2, "on": "fence"}, "geometry": {"type": "Point", "coordinates": [318655.98, 5689145.22]}}, {"type": "Feature", "properties": {"kind": "gate", "w": 1.2, "on": "fence"}, "geometry": {"type": "Point", "coordinates": [318493.62, 5689835.44]}}, {"type": "Feature", "properties": {"kind": "gate", "w": 1.2, "on": "wall"}, "geometry": {"type": "Point", "coordinates": [318505.75, 5689950.63]}}, {"type": "Feature", "properties": {"kind": "gate", "w": 1.2, "on": "fence"}, "geometry": {"type": "Point", "coordinates": [318329.95, 5689522.92]}}, {"type": "Feature", "properties": {"kind": "gate", "w": 1.2, "on": "fence"}, "geometry": {"type": "Point", "coordinates": [318718.82, 5689709.64]}}, {"type": "Feature", "properties": {"kind": "gate", "w": 1.2, "on": "fence"}, "geometry": {"type": "Point", "coordinates": [318291.35, 5689360.99]}}, {"type": "Feature", "properties": {"kind": "gate", "w": 1.2, "on": "fence"}, "geometry": {"type": "Point", "coordinates": [318796.65, 5689336.19]}}, {"type": "Feature", "properties": {"kind": "gate", "w": 1.2, "on": "fence"}, "geometry": {"type": "Point", "coordinates": [318726.26, 5689678.77]}}, {"type": "Feature", "properties": {"kind": "gate", "w": 1.2, "on": "fence"}, "geometry": {"type": "Point", "coordinates": [319610.94, 5689966.52]}}, {"type": "Feature", "properties": {"kind": "gate", "w": 1.2, "on": "fence"}, "geometry": {"type": "Point", "coordinates": [318719.87, 5689428.31]}}, {"type": "Feature", "properties": {"kind": "gate", "w": 1.2, "on": "fence"}, "geometry": {"type": "Point", "coordinates": [318249.51, 5689298.49]}}, {"type": "Feature", "properties": {"kind": "gate", "w": 1.2, "on": "wall"}, "geometry": {"type": "Point", "coordinates": [318619.06, 5689098.06]}}, {"type": "Feature", "properties": {"kind": "gate", "w": 1.2, "on": "fence"}, "geometry": {"type": "Point", "coordinates": [318354.69, 5689568.49]}}, {"type": "Feature", "properties": {"kind": "gate", "w": 1.2, "on": "fence"}, "geometry": {"type": "Point", "coordinates": [318363.56, 5689279.93]}}, {"type": "Feature", "properties": {"kind": "gate", "w": 1.2, "on": "fence"}, "geometry": {"type": "Point", "coordinates": [318362.8, 5689307.69]}}, {"type": "Feature", "properties": {"kind": "gate", "w": 1.2, "on": "wall"}, "geometry": {"type": "Point", "coordinates": [318633.91, 5689066.74]}}, {"type": "Feature", "properties": {"kind": "gate", "w": 1.2, "on": "fence"}, "geometry": {"type": "Point", "coordinates": [318204.25, 5689357.88]}}, {"type": "Feature", "properties": {"kind": "gate", "w": 1.2, "on": "fence"}, "geometry": {"type": "Point", "coordinates": [318733.17, 5689595.79]}}, {"type": "Feature", "properties": {"kind": "gate", "w": 1.2, "on": "fence"}, "geometry": {"type": "Point", "coordinates": [318484.29, 5689832.79]}}, {"type": "Feature", "properties": {"kind": "gate", "w": 1.2, "on": "fence"}, "geometry": {"type": "Point", "coordinates": [318529.9, 5689835.64]}}, {"type": "Feature", "properties": {"kind": "gate", "w": 1.2, "on": "fence"}, "geometry": {"type": "Point", "coordinates": [319261.22, 5689933.16]}}, {"type": "Feature", "properties": {"kind": "gate", "w": 1.2, "on": "fence"}, "geometry": {"type": "Point", "coordinates": [319285.14, 5689994.75]}}, {"type": "Feature", "properties": {"kind": "gate", "w": 1.2, "on": "fence"}, "geometry": {"type": "Point", "coordinates": [318822.14, 5689250.32]}}, {"type": "Feature", "properties": {"kind": "gate", "w": 1.2, "on": "fence"}, "geometry": {"type": "Point", "coordinates": [318056.19, 5688357.07]}}, {"type": "Feature", "properties": {"kind": "gate", "w": 1.2, "on": "wall"}, "geometry": {"type": "Point", "coordinates": [319757.37, 5688304.08]}}, {"type": "Feature", "properties": {"kind": "gate", "w": 1.2, "on": "wall"}, "geometry": {"type": "Point", "coordinates": [319572.34, 5689591.17]}}, {"type": "Feature", "properties": {"kind": "gate", "w": 4.0, "on": "fence", "type": "lift_gate"}, "geometry": {"type": "Point", "coordinates": [318257.49, 5688258.75]}}, {"type": "Feature", "properties": {"kind": "gate", "w": 1.2, "on": "fence"}, "geometry": {"type": "Point", "coordinates": [318534.06, 5688137.24]}}, {"type": "Feature", "properties": {"kind": "gate", "w": 1.2, "on": "fence"}, "geometry": {"type": "Point", "coordinates": [318550.71, 5688254.78]}}, {"type": "Feature", "properties": {"kind": "gate", "w": 1.2, "on": "fence"}, "geometry": {"type": "Point", "coordinates": [318163.36, 5688766.84]}}, {"type": "Feature", "properties": {"kind": "gate", "w": 1.2, "on": "wall"}, "geometry": {"type": "Point", "coordinates": [318316.4, 5688823.81]}}, {"type": "Feature", "properties": {"kind": "gate", "w": 1.2, "on": "wall"}, "geometry": {"type": "Point", "coordinates": [318217.45, 5688670.34]}}, {"type": "Feature", "properties": {"kind": "gate", "w": 1.2, "on": "wall"}, "geometry": {"type": "Point", "coordinates": [318241.02, 5688851.7]}}, {"type": "Feature", "properties": {"kind": "gate", "w": 1.2, "on": "wall"}, "geometry": {"type": "Point", "coordinates": [318295.82, 5688529.19]}}, {"type": "Feature", "properties": {"kind": "gate", "w": 1.2, "on": "fence"}, "geometry": {"type": "Point", "coordinates": [318839.01, 5689167.92]}}, {"type": "Feature", "properties": {"kind": "gate", "w": 1.2, "on": "fence"}, "geometry": {"type": "Point", "coordinates": [319263.54, 5689160.75]}}, {"type": "Feature", "properties": {"kind": "gate", "w": 1.2, "on": "fence"}, "geometry": {"type": "Point", "coordinates": [319092.57, 5689003.99]}}, {"type": "Feature", "properties": {"kind": "gate", "w": 1.2, "on": "wall"}, "geometry": {"type": "Point", "coordinates": [319213.88, 5689523.34]}}, {"type": "Feature", "properties": {"kind": "gate", "w": 1.2, "on": "wall"}, "geometry": {"type": "Point", "coordinates": [319923.25, 5689751.91]}}, {"type": "Feature", "properties": {"kind": "gate", "w": 1.2, "on": "wall"}, "geometry": {"type": "Point", "coordinates": [318350.11, 5689754.47]}}, {"type": "Feature", "properties": {"kind": "gate", "w": 1.2, "on": "wall"}, "geometry": {"type": "Point", "coordinates": [319771.7, 5688354.36]}}, {"type": "Feature", "properties": {"kind": "gate", "w": 1.2, "on": "fence"}, "geometry": {"type": "Point", "coordinates": [318613.32, 5689795.49]}}, {"type": "Feature", "properties": {"kind": "gate", "w": 1.2, "on": "fence"}, "geometry": {"type": "Point", "coordinates": [319071.81, 5689757.19]}}, {"type": "Feature", "properties": {"kind": "gate", "w": 1.2, "on": "fence"}, "geometry": {"type": "Point", "coordinates": [319129.1, 5689957.38]}}, {"type": "Feature", "properties": {"kind": "gate", "w": 1.2, "on": "fence"}, "geometry": {"type": "Point", "coordinates": [319957.95, 5689706.82]}}, {"type": "Feature", "properties": {"kind": "gate", "w": 1.2, "on": "fence"}, "geometry": {"type": "Point", "coordinates": [319962.66, 5689725.94]}}, {"type": "Feature", "properties": {"kind": "gate", "w": 1.2, "on": "fence"}, "geometry": {"type": "Point", "coordinates": [318942.56, 5688275.21]}}, {"type": "Feature", "properties": {"kind": "gate", "w": 1.2, "on": "fence"}, "geometry": {"type": "Point", "coordinates": [319168.8, 5689217.27]}}, {"type": "Feature", "properties": {"kind": "gate", "w": 1.2, "on": "fence"}, "geometry": {"type": "Point", "coordinates": [319210.94, 5689198.84]}}, {"type": "Feature", "properties": {"kind": "gate", "w": 1.2, "on": "fence"}, "geometry": {"type": "Point", "coordinates": [319088.62, 5689757.46]}}, {"type": "Feature", "properties": {"kind": "gate", "w": 1.2, "on": "fence"}, "geometry": {"type": "Point", "coordinates": [318876.85, 5688214.4]}}, {"type": "Feature", "properties": {"kind": "gate", "w": 1.2, "on": "fence"}, "geometry": {"type": "Point", "coordinates": [318904.35, 5688238.65]}}, {"type": "Feature", "properties": {"kind": "gate", "w": 1.2, "on": "fence"}, "geometry": {"type": "Point", "coordinates": [318915.3, 5688832.48]}}, {"type": "Feature", "properties": {"kind": "gate", "w": 1.2, "on": "fence"}, "geometry": {"type": "Point", "coordinates": [318899.01, 5688838.76]}}, {"type": "Feature", "properties": {"kind": "gate", "w": 1.2, "on": "fence"}, "geometry": {"type": "Point", "coordinates": [319311.72, 5689230.29]}}, {"type": "Feature", "properties": {"kind": "gate", "w": 1.2, "on": "fence"}, "geometry": {"type": "Point", "coordinates": [319168.8, 5689217.27]}}, {"type": "Feature", "properties": {"kind": "gate", "w": 1.2, "on": "fence"}, "geometry": {"type": "Point", "coordinates": [318034.93, 5688779.74]}}, {"type": "Feature", "properties": {"kind": "gate", "w": 1.2, "on": "fence"}, "geometry": {"type": "Point", "coordinates": [319194.39, 5689494.1]}}, {"type": "Feature", "properties": {"kind": "gate", "w": 1.2, "on": "fence"}, "geometry": {"type": "Point", "coordinates": [318411.68, 5689036.15]}}, {"type": "Feature", "properties": {"kind": "gate", "w": 1.2, "on": "fence"}, "geometry": {"type": "Point", "coordinates": [318102.87, 5689317.35]}}, {"type": "Feature", "properties": {"kind": "gate", "w": 1.2, "on": "fence"}, "geometry": {"type": "Point", "coordinates": [318112.48, 5689313.42]}}, {"type": "Feature", "properties": {"kind": "gate", "w": 1.2, "on": "fence"}, "geometry": {"type": "Point", "coordinates": [318095.23, 5689332.37]}}, {"type": "Feature", "properties": {"kind": "gate", "w": 1.2, "on": "fence"}, "geometry": {"type": "Point", "coordinates": [318186.36, 5689249.38]}}, {"type": "Feature", "properties": {"kind": "gate", "w": 1.2, "on": "fence"}, "geometry": {"type": "Point", "coordinates": [318376.31, 5688989.64]}}, {"type": "Feature", "properties": {"kind": "gate", "w": 1.2, "on": "fence"}, "geometry": {"type": "Point", "coordinates": [318439.39, 5689006.85]}}, {"type": "Feature", "properties": {"kind": "gate", "w": 1.2, "on": "fence"}, "geometry": {"type": "Point", "coordinates": [319168.06, 5689193.23]}}, {"type": "Feature", "properties": {"kind": "gate", "w": 1.2, "on": "fence"}, "geometry": {"type": "Point", "coordinates": [319268.74, 5689157.98]}}, {"type": "Feature", "properties": {"kind": "gate", "w": 1.2, "on": "fence"}, "geometry": {"type": "Point", "coordinates": [319273.86, 5689154.99]}}, {"type": "Feature", "properties": {"kind": "gate", "w": 1.2, "on": "fence"}, "geometry": {"type": "Point", "coordinates": [318124.8, 5689750.53]}}, {"type": "Feature", "properties": {"kind": "gate", "w": 1.2, "on": "fence"}, "geometry": {"type": "Point", "coordinates": [318726.03, 5689889.89]}}, {"type": "Feature", "properties": {"kind": "gate", "w": 1.2, "on": "fence"}, "geometry": {"type": "Point", "coordinates": [319404.4, 5689768.04]}}, {"type": "Feature", "properties": {"kind": "gate", "w": 1.2, "on": "fence"}, "geometry": {"type": "Point", "coordinates": [319354.54, 5689787.0]}}, {"type": "Feature", "properties": {"kind": "gate", "w": 1.2, "on": "fence"}, "geometry": {"type": "Point", "coordinates": [319352.94, 5689700.16]}}, {"type": "Feature", "properties": {"kind": "gate", "w": 1.2, "on": "fence"}, "geometry": {"type": "Point", "coordinates": [319368.61, 5689692.4]}}, {"type": "Feature", "properties": {"kind": "gate", "w": 1.2, "on": "wall"}, "geometry": {"type": "Point", "coordinates": [319633.32, 5689662.72]}}, {"type": "Feature", "properties": {"kind": "gate", "w": 1.2, "on": "wall"}, "geometry": {"type": "Point", "coordinates": [319630.65, 5689670.49]}}, {"type": "Feature", "properties": {"kind": "gate", "w": 1.2, "on": "wall"}, "geometry": {"type": "Point", "coordinates": [319632.12, 5689663.55]}}, {"type": "Feature", "properties": {"kind": "gate", "w": 1.2, "on": "wall"}, "geometry": {"type": "Point", "coordinates": [319632.12, 5689663.55]}}, {"type": "Feature", "properties": {"kind": "gate", "w": 1.2, "on": "wall"}, "geometry": {"type": "Point", "coordinates": [319580.12, 5689587.29]}}, {"type": "Feature", "properties": {"kind": "gate", "w": 1.2, "on": "wall"}, "geometry": {"type": "Point", "coordinates": [319577.16, 5689590.33]}}, {"type": "Feature", "properties": {"kind": "gate", "w": 1.2, "on": "wall"}, "geometry": {"type": "Point", "coordinates": [319727.65, 5689595.74]}}, {"type": "Feature", "properties": {"kind": "gate", "w": 1.2, "on": "wall"}, "geometry": {"type": "Point", "coordinates": [319737.74, 5689591.02]}}, {"type": "Feature", "properties": {"kind": "gate", "w": 1.2, "on": "wall"}, "geometry": {"type": "Point", "coordinates": [319748.82, 5689585.84]}}, {"type": "Feature", "properties": {"kind": "gate", "w": 1.2, "on": "wall"}, "geometry": {"type": "Point", "coordinates": [319717.73, 5689520.39]}}, {"type": "Feature", "properties": {"kind": "gate", "w": 1.2, "on": "wall"}, "geometry": {"type": "Point", "coordinates": [319705.74, 5689526.33]}}, {"type": "Feature", "properties": {"kind": "gate", "w": 1.2, "on": "wall"}, "geometry": {"type": "Point", "coordinates": [319697.2, 5689530.58]}}, {"type": "Feature", "properties": {"kind": "gate", "w": 1.2, "on": "wall"}, "geometry": {"type": "Point", "coordinates": [319704.2, 5689529.95]}}, {"type": "Feature", "properties": {"kind": "gate", "w": 1.2, "on": "wall"}, "geometry": {"type": "Point", "coordinates": [319709.88, 5689528.54]}}, {"type": "Feature", "properties": {"kind": "gate", "w": 1.2, "on": "fence"}, "geometry": {"type": "Point", "coordinates": [318679.32, 5689991.72]}}, {"type": "Feature", "properties": {"kind": "gate", "w": 1.2, "on": "fence"}, "geometry": {"type": "Point", "coordinates": [318169.03, 5689268.98]}}, {"type": "Feature", "properties": {"kind": "gate", "w": 1.2, "on": "fence"}, "geometry": {"type": "Point", "coordinates": [318163.05, 5689275.68]}}]}