{"type": "FeatureCollection", "attribution": "Quelle: GeoSN, dl-de/by-2-0 (laser scan); \u00a9 OpenStreetMap contributors (ODbL)", "crs": {"type": "name", "properties": {"name": "urn:ogc:def:crs:EPSG::25833"}}, "features": [{"type": "Feature", "properties": {"kind": "hedge", "h": 2.0, "w": 1.4, "src": "osm+lsc"}, "geometry": {"type": "LineString", "coordinates": [[392549.2, 5669061.9], [392567.9, 5669036.5]]}}, {"type": "Feature", "properties": {"kind": "hedge", "h": 1.5, "w": 1.0, "src": "osm"}, "geometry": {"type": "LineString", "coordinates": [[392522.9, 5669166.1], [392526.8, 5669151.3], [392529.1, 5669147.4], [392521.5, 5669146.1], [392522.8, 5669138.2], [392529.2, 5669139.0]]}}, {"type": "Feature", "properties": {"kind": "hedge", "h": 1.6, "w": 1.7, "src": "osm+lsc"}, "geometry": {"type": "LineString", "coordinates": [[392611.8, 5669136.5], [392620.4, 5669139.6]]}}, {"type": "Feature", "properties": {"kind": "hedge", "h": 1.7, "w": 2.0, "src": "osm+lsc"}, "geometry": {"type": "LineString", "coordinates": [[392576.6, 5669145.8], [392577.1, 5669144.4], [392577.2, 5669141.4], [392580.8, 5669130.9], [392582.7, 5669128.2], [392584.2, 5669127.1], [392586.2, 5669127.2], [392602.9, 5669133.3]]}}, {"type": "Feature", "properties": {"kind": "hedge", "h": 1.3, "w": 1.4, "src": "osm+lsc"}, "geometry": {"type": "LineString", "coordinates": [[392591.6, 5669123.8], [392606.0, 5669129.0]]}}, {"type": "Feature", "properties": {"kind": "hedge", "h": 1.5, "w": 2.0, "src": "osm+lsc"}, "geometry": {"type": "LineString", "coordinates": [[392618.9, 5669133.5], [392622.2, 5669134.4], [392624.4, 5669126.4]]}}, {"type": "Feature", "properties": {"kind": "hedge", "h": 1.5, "w": 1.0, "src": "osm"}, "geometry": {"type": "LineString", "coordinates": [[392101.2, 5669763.1], [392066.8, 5669752.8], [392059.9, 5669774.2], [392059.9, 5669776.0], [392060.6, 5669779.0], [392080.0, 5669786.0], [392103.4, 5669792.2], [392110.3, 5669794.9]]}}, {"type": "Feature", "properties": {"kind": "hedge", "h": 1.7, "w": 2.0, "src": "osm+lsc"}, "geometry": {"type": "LineString", "coordinates": [[392528.9, 5669176.0], [392526.9, 5669173.7], [392528.2, 5669167.8]]}}, {"type": "Feature", "properties": {"kind": "hedge", "h": 1.6, "w": 1.8, "src": "osm+lsc"}, "geometry": {"type": "LineString", "coordinates": [[392523.3, 5669208.7], [392526.8, 5669180.4]]}}, {"type": "Feature", "properties": {"kind": "hedge", "h": 1.8, "w": 2.0, "src": "osm+lsc"}, "geometry": {"type": "LineString", "coordinates": [[393760.9, 5668839.3], [393798.2, 5668841.9], [393820.5, 5668845.1], [393819.7, 5668851.6]]}}, {"type": "Feature", "properties": {"kind": "hedge", "h": 1.5, "w": 1.0, "src": "osm"}, "geometry": {"type": "LineString", "coordinates": [[393133.2, 5668649.9], [393150.0, 5668675.2], [393165.8, 5668698.9]]}}]}