{"type": "FeatureCollection", "attribution": "Quelle: GeoSN, dl-de/by-2-0; \u00a9 OpenStreetMap contributors (ODbL)", "crs": {"type": "name", "properties": {"name": "urn:ogc:def:crs:EPSG::25833"}}, "features": [{"type": "Feature", "properties": {"kind": "column", "source": "dlm", "name": "Postmeilens\u00e4ule", "relief": {"west": 393543.0, "north": 5669258.0, "cols": 3, "rows": 4, "dm": [0, 0, 0, 0, 12, 0, 0, 15, 0, 0, 0, 0]}}, "geometry": {"type": "Point", "coordinates": [393544.09, 5669256.69]}}, {"type": "Feature", "properties": {"kind": "fountain", "source": "osm", "style": "basin", "figure": false}, "geometry": {"type": "Point", "coordinates": [392859.71, 5669146.98]}}, {"type": "Feature", "properties": {"kind": "fountain", "source": "dlm", "name": "Waltersbrunnen", "style": "basin", "figure": true}, "geometry": {"type": "Point", "coordinates": [392911.76, 5669114.26]}}, {"type": "Feature", "properties": {"kind": "fountain", "source": "osm", "name": "R\u00f6hrfahrtbrunnen an der Frauenkirche", "style": "basin", "figure": false}, "geometry": {"type": "Point", "coordinates": [393036.81, 5669043.07]}}, {"type": "Feature", "properties": {"kind": "fountain", "source": "osm", "name": "Brunnen", "style": "basin", "figure": false}, "geometry": {"type": "Point", "coordinates": [393045.8, 5669278.83]}}, {"type": "Feature", "properties": {"kind": "fountain", "source": "osm", "style": "basin", "figure": false}, "geometry": {"type": "Point", "coordinates": [393061.65, 5668808.6]}}, {"type": "Feature", "properties": {"kind": "fountain", "source": "osm", "name": "Spatzenbrunnen", "style": "basin", "figure": false}, "geometry": {"type": "Point", "coordinates": [393099.32, 5669231.79]}}, {"type": "Feature", "properties": {"kind": "fountain", "source": "osm", "name": "Brunnen Theaterplatz", "style": "basin", "figure": false}, "geometry": {"type": "Point", "coordinates": [393182.02, 5669242.86]}}, {"type": "Feature", "properties": {"kind": "fountain", "source": "dlm+osm", "name": "Heinrichsbrunnen", "style": "basin", "figure": true}, "geometry": {"type": "Point", "coordinates": [393198.42, 5669110.82]}}, {"type": "Feature", "properties": {"kind": "fountain", "source": "osm", "name": "Kaendler-Brunnen", "style": "basin", "figure": false}, "geometry": {"type": "Point", "coordinates": [393312.53, 5669186.48]}}, {"type": "Feature", "properties": {"kind": "statue", "source": "dlm", "name": "Kriegsdenkmal"}, "geometry": {"type": "Point", "coordinates": [392410.96, 5669058.34]}}, {"type": "Feature", "properties": {"kind": "statue", "source": "dlm", "name": "Kriegsdenkmal"}, "geometry": {"type": "Point", "coordinates": [392540.15, 5669034.49]}}, {"type": "Feature", "properties": {"kind": "statue", "source": "dlm", "name": "Johann-Friedrich-B\u00f6ttger-Denkmal"}, "geometry": {"type": "Point", "coordinates": [392577.66, 5668343.89]}}, {"type": "Feature", "properties": {"kind": "statue", "source": "dlm", "name": "Mahnmal", "relief": {"west": 392898.0, "north": 5668468.0, "cols": 6, "rows": 6, "dm": [0, 0, 0, 0, 0, 0, 0, 0, 11, 0, 0, 0, 0, 7, 40, 37, 0, 0, 0, 0, 27, 41, 40, 0, 0, 0, 0, 12, 0, 0, 0, 0, 0, 0, 0, 0]}}, "geometry": {"type": "Point", "coordinates": [392901.22, 5668464.86]}}, {"type": "Feature", "properties": {"kind": "statue", "source": "dlm", "name": "Samuel-Hahnemann-Denkmal"}, "geometry": {"type": "Point", "coordinates": [392943.51, 5668339.24]}}, {"type": "Feature", "properties": {"kind": "statue", "source": "dlm", "name": "Dr.-Johann-Christian-Eberle-Denkmal"}, "geometry": {"type": "Point", "coordinates": [393774.21, 5669100.25]}}]}