{"type": "FeatureCollection", "attribution": "\u00a9 OpenStreetMap contributors (ODbL)", "crs": {"type": "name", "properties": {"name": "urn:ogc:def:crs:EPSG::25833"}}, "features": [{"type": "Feature", "properties": {}, "geometry": {"type": "Polygon", "coordinates": [[[393170.77, 5668529.95], [393221.51, 5668621.38], [393242.34, 5668659.91], [393243.55, 5668659.25], [393244.33, 5668658.83], [393245.85, 5668658.01], [393247.18, 5668657.29], [393248.15, 5668656.77], [393227.33, 5668618.26], [393175.01, 5668527.06], [393170.77, 5668529.95]]]}}, {"type": "Feature", "properties": {}, "geometry": {"type": "Polygon", "coordinates": [[[393869.07, 5669029.84], [393870.12, 5669027.03], [393871.94, 5669022.13], [393888.73, 5669028.33], [393919.57, 5669038.68], [393950.66, 5669048.84], [393993.2, 5669061.6], [394010.7, 5669066.38], [394008.73, 5669074.99], [393990.88, 5669070.31], [393981.44, 5669067.77], [393948.13, 5669057.97], [393927.31, 5669050.8], [393905.43, 5669043.11], [393880.49, 5669034.36], [393869.07, 5669029.84]]]}}]}