{"type": "FeatureCollection", "attribution": "\u00a9 OpenStreetMap contributors (ODbL)", "crs": {"type": "name", "properties": {"name": "urn:ogc:def:crs:EPSG::25833"}}, "features": [{"type": "Feature", "properties": {"kind": "chimney", "z": 174.2, "h": 19.1, "r": 1.38, "rt": 0.83}, "geometry": {"type": "Point", "coordinates": [392238.5, 5668765.5]}}, {"type": "Feature", "properties": {"kind": "chimney", "z": 167.12, "h": 23.9, "r": 4.15, "rt": 2.49}, "geometry": {"type": "Point", "coordinates": [392476.5, 5669101.5]}}, {"type": "Feature", "properties": {"kind": "tower", "z": 134.04, "h": 11.9, "r": 2.34, "rt": 2.11}, "geometry": {"type": "Point", "coordinates": [392909.93, 5668961.35]}}, {"type": "Feature", "properties": {"kind": "building", "z": 110.52, "h": 13.1}, "geometry": {"type": "Polygon", "coordinates": [[[392171.88, 5667995.11], [392162.69, 5668002.09], [392166.93, 5668007.56], [392162.57, 5668010.94], [392168.84, 5668019.03], [392182.34, 5668008.62], [392171.88, 5667995.11]]]}}, {"type": "Feature", "properties": {"kind": "building", "z": 107.17, "h": 16.2}, "geometry": {"type": "Polygon", "coordinates": [[[392455.84, 5668026.27], [392461.77, 5668017.57], [392457.14, 5668014.62], [392460.42, 5668009.14], [392465.53, 5668012.06], [392481.05, 5667989.02], [392486.64, 5667992.74], [392486.14, 5667993.5], [392526.07, 5668019.95], [392526.53, 5668019.31], [392533.07, 5668023.66], [392527.0, 5668032.82], [392522.28, 5668029.9], [392510.01, 5668044.74], [392500.91, 5668052.92], [392492.05, 5668041.28], [392500.85, 5668035.3], [392502.4, 5668037.47], [392512.85, 5668024.6], [392509.65, 5668022.62], [392505.68, 5668028.83], [392488.32, 5668017.84], [392492.6, 5668011.45], [392484.22, 5668005.9], [392474.33, 5668021.01], [392475.98, 5668022.18], [392468.1, 5668033.98], [392455.84, 5668026.27]]]}}, {"type": "Feature", "properties": {"kind": "building", "z": 185.92, "h": 7.8}, "geometry": {"type": "Polygon", "coordinates": [[[391999.17, 5668666.56], [392006.57, 5668666.15], [392006.13, 5668658.22], [391998.73, 5668658.63], [391999.17, 5668666.56]]]}}, {"type": "Feature", "properties": {"kind": "building", "z": 172.34, "h": 7.3}, "geometry": {"type": "Polygon", "coordinates": [[[392005.78, 5669005.02], [392013.4, 5668999.66], [392007.82, 5668991.77], [392000.2, 5668997.14], [392005.78, 5669005.02]]]}}, {"type": "Feature", "properties": {"kind": "building", "z": 186.02, "h": 9.5}, "geometry": {"type": "Polygon", "coordinates": [[[393060.78, 5668009.13], [393075.18, 5668012.36], [393077.49, 5668002.11], [393063.1, 5667998.88], [393060.78, 5668009.13]]]}}, {"type": "Feature", "properties": {"kind": "building", "z": 100.01, "h": 6.4}, "geometry": {"type": "Polygon", "coordinates": [[[393530.52, 5668880.21], [393535.74, 5668882.27], [393538.73, 5668874.75], [393533.5, 5668872.69], [393530.52, 5668880.21]]]}}, {"type": "Feature", "properties": {"kind": "building", "z": 108.02, "h": 12.7}, "geometry": {"type": "Polygon", "coordinates": [[[392409.81, 5668003.44], [392406.54, 5668005.96], [392407.89, 5668007.7], [392403.05, 5668011.45], [392401.73, 5668009.75], [392398.41, 5668012.32], [392392.26, 5668004.41], [392403.68, 5667995.56], [392409.81, 5668003.44]]]}}, {"type": "Feature", "properties": {"kind": "building", "z": 140.5, "h": 16.0}, "geometry": {"type": "Polygon", "coordinates": [[[393021.98, 5669409.88], [393012.3, 5669400.46], [393010.03, 5669402.66], [393020.0, 5669412.11], [393021.98, 5669409.88]]]}}, {"type": "Feature", "properties": {"kind": "building", "z": 170.04, "h": 15.1}, "geometry": {"type": "Polygon", "coordinates": [[[393408.86, 5667988.69], [393414.3, 5667997.46], [393364.83, 5668027.99], [393359.39, 5668019.23], [393408.86, 5667988.69]]]}}, {"type": "Feature", "properties": {"kind": "building", "z": 165.91, "h": 13.4}, "geometry": {"type": "Polygon", "coordinates": [[[393438.72, 5668021.22], [393478.56, 5667997.24], [393483.66, 5668005.68], [393443.83, 5668029.65], [393438.72, 5668021.22]]]}}, {"type": "Feature", "properties": {"kind": "building", "z": 182.26, "h": 8.6}, "geometry": {"type": "Polygon", "coordinates": [[[392957.1, 5668024.12], [392965.23, 5668020.57], [392962.61, 5668014.62], [392977.15, 5668008.26], [392974.04, 5668001.19], [392962.74, 5668006.13], [392958.89, 5667997.34], [392952.78, 5668000.01], [392955.09, 5668005.25], [392952.1, 5668006.56], [392954.04, 5668010.98], [392952.77, 5668011.54], [392955.83, 5668018.51], [392954.83, 5668018.95], [392957.1, 5668024.12]]]}}, {"type": "Feature", "properties": {"kind": "building", "z": 126.69, "h": 7.5}, "geometry": {"type": "Polygon", "coordinates": [[[392838.53, 5668010.75], [392848.3, 5667996.3], [392842.64, 5667992.48], [392832.87, 5668006.94], [392838.53, 5668010.75]]]}}, {"type": "Feature", "properties": {"kind": "building", "z": 152.21, "h": 7.0}, "geometry": {"type": "Polygon", "coordinates": [[[392655.31, 5669188.51], [392659.35, 5669188.84], [392658.76, 5669174.01], [392654.46, 5669171.72], [392655.31, 5669188.51]]]}}, {"type": "Feature", "properties": {"kind": "building", "z": 127.1, "h": 5.2}, "geometry": {"type": "Polygon", "coordinates": [[[392601.2, 5669367.98], [392605.7, 5669366.7], [392609.16, 5669375.37], [392601.24, 5669377.93], [392599.04, 5669372.11], [392602.17, 5669370.96], [392601.2, 5669367.98]]]}}, {"type": "Feature", "properties": {"kind": "building", "z": 131.45, "h": 5.5}, "geometry": {"type": "Polygon", "coordinates": [[[392415.78, 5669737.67], [392404.88, 5669753.7], [392394.93, 5669746.78], [392405.83, 5669730.86], [392415.78, 5669737.67]]]}}, {"type": "Feature", "properties": {"kind": "building", "z": 103.39, "h": 3.6}, "geometry": {"type": "Polygon", "coordinates": [[[393905.14, 5668577.45], [393914.15, 5668579.22], [393918.66, 5668555.84], [393909.71, 5668554.07], [393905.14, 5668577.45]]]}}, {"type": "Feature", "properties": {"kind": "building", "z": 116.52, "h": 10.4}, "geometry": {"type": "Polygon", "coordinates": [[[393099.2, 5669322.22], [393110.18, 5669324.93], [393108.82, 5669330.63], [393098.06, 5669328.3], [393099.2, 5669322.22]]]}}, {"type": "Feature", "properties": {"kind": "building", "z": 102.97, "h": 7.1}, "geometry": {"type": "Polygon", "coordinates": [[[393158.09, 5669269.5], [393141.01, 5669271.02], [393140.97, 5669277.64], [393135.81, 5669278.07], [393136.86, 5669264.2], [393148.38, 5669264.46], [393156.32, 5669262.73], [393156.79, 5669267.34], [393158.49, 5669267.16], [393158.09, 5669269.5]]]}}, {"type": "Feature", "properties": {"kind": "building", "z": 107.62, "h": 8.4}, "geometry": {"type": "Polygon", "coordinates": [[[393104.55, 5669223.45], [393103.71, 5669228.46], [393094.2, 5669226.88], [393095.03, 5669221.88], [393104.55, 5669223.45]]]}}, {"type": "Feature", "properties": {"kind": "building", "z": 122.44, "h": 8.1}, "geometry": {"type": "Polygon", "coordinates": [[[392982.01, 5669203.4], [392983.07, 5669211.25], [392978.93, 5669211.59], [392975.09, 5669204.07], [392982.01, 5669203.4]]]}}, {"type": "Feature", "properties": {"kind": "building", "z": 122.94, "h": 16.3}, "geometry": {"type": "Polygon", "coordinates": [[[393337.74, 5668717.22], [393344.11, 5668715.68], [393345.72, 5668722.07], [393339.07, 5668723.6], [393337.74, 5668717.22]]]}}, {"type": "Feature", "properties": {"kind": "building", "z": 130.58, "h": 7.8}, "geometry": {"type": "Polygon", "coordinates": [[[392408.65, 5669231.58], [392407.05, 5669235.65], [392398.19, 5669232.19], [392399.79, 5669228.12], [392408.65, 5669231.58]]]}}, {"type": "Feature", "properties": {"kind": "building", "z": 114.14, "h": 2.9}, "geometry": {"type": "Polygon", "coordinates": [[[392901.31, 5669329.21], [392909.43, 5669334.71], [392910.44, 5669333.22], [392912.3, 5669334.48], [392914.26, 5669331.63], [392904.1, 5669324.74], [392901.31, 5669329.21]]]}}, {"type": "Feature", "properties": {"kind": "building", "z": 106.4, "h": 7.4}, "geometry": {"type": "Polygon", "coordinates": [[[393512.71, 5669565.63], [393515.54, 5669577.8], [393523.19, 5669576.03], [393520.35, 5669563.86], [393512.71, 5669565.63]]]}}, {"type": "Feature", "properties": {"kind": "building", "z": 107.54, "h": 4.2}, "geometry": {"type": "Polygon", "coordinates": [[[393574.18, 5669236.96], [393578.19, 5669231.96], [393585.04, 5669237.2], [393580.62, 5669242.08], [393574.18, 5669236.96]]]}}, {"type": "Feature", "properties": {"kind": "building", "z": 108.8, "h": 3.5}, "geometry": {"type": "Polygon", "coordinates": [[[393560.55, 5669339.56], [393554.75, 5669352.41], [393549.82, 5669350.96], [393551.26, 5669344.69], [393554.43, 5669339.04], [393558.06, 5669340.09], [393558.36, 5669339.16], [393560.55, 5669339.56]]]}}, {"type": "Feature", "properties": {"kind": "building", "z": 109.6, "h": 20.4}, "geometry": {"type": "Polygon", "coordinates": [[[393652.81, 5669510.39], [393652.96, 5669513.01], [393630.21, 5669514.41], [393630.03, 5669511.76], [393652.81, 5669510.39]]]}}, {"type": "Feature", "properties": {"kind": "building", "z": 107.95, "h": 3.9}, "geometry": {"type": "Polygon", "coordinates": [[[393575.0, 5669573.53], [393582.51, 5669571.52], [393579.57, 5669562.9], [393574.18, 5669564.73], [393575.0, 5669573.53]]]}}, {"type": "Feature", "properties": {"kind": "building", "z": 109.21, "h": 12.3}, "geometry": {"type": "Polygon", "coordinates": [[[393743.82, 5669493.17], [393750.13, 5669489.56], [393753.41, 5669495.25], [393747.1, 5669498.86], [393743.82, 5669493.17]]]}}, {"type": "Feature", "properties": {"kind": "building", "z": 107.52, "h": 3.5}, "geometry": {"type": "Polygon", "coordinates": [[[393840.96, 5669158.97], [393844.82, 5669160.65], [393851.12, 5669146.27], [393847.27, 5669144.59], [393840.96, 5669158.97]]]}}, {"type": "Feature", "properties": {"kind": "building", "z": 124.22, "h": 7.1}, "geometry": {"type": "Polygon", "coordinates": [[[393693.85, 5669155.01], [393693.34, 5669150.05], [393705.15, 5669148.84], [393705.66, 5669153.79], [393693.85, 5669155.01]]]}}, {"type": "Feature", "properties": {"kind": "building", "z": 102.94, "h": 9.0}, "geometry": {"type": "Polygon", "coordinates": [[[393856.68, 5668809.19], [393855.03, 5668823.76], [393850.15, 5668823.18], [393851.74, 5668808.69], [393856.68, 5668809.19]]]}}, {"type": "Feature", "properties": {"kind": "building", "z": 107.95, "h": 3.9}, "geometry": {"type": "Polygon", "coordinates": [[[393950.14, 5668912.21], [393963.43, 5668913.55], [393963.05, 5668918.07], [393949.76, 5668916.43], [393950.14, 5668912.21]]]}}, {"type": "Feature", "properties": {"kind": "building", "z": 186.0, "h": 9.4}, "geometry": {"type": "Polygon", "coordinates": [[[393075.18, 5668012.36], [393089.57, 5668015.58], [393091.89, 5668005.33], [393077.49, 5668002.11], [393075.18, 5668012.36]]]}}, {"type": "Feature", "properties": {"kind": "building", "z": 173.44, "h": 9.0}, "geometry": {"type": "Polygon", "coordinates": [[[393283.61, 5668004.07], [393284.97, 5668019.75], [393295.36, 5668018.85], [393293.98, 5668003.16], [393283.61, 5668004.07]]]}}, {"type": "Feature", "properties": {"kind": "building", "z": 162.27, "h": 6.8}, "geometry": {"type": "Polygon", "coordinates": [[[392491.13, 5669116.28], [392490.5, 5669112.8], [392487.36, 5669113.37], [392486.66, 5669109.54], [392490.36, 5669108.87], [392490.86, 5669111.68], [392497.11, 5669110.56], [392497.92, 5669115.06], [392491.13, 5669116.28]]]}}, {"type": "Feature", "properties": {"kind": "building", "z": 153.72, "h": 5.7}, "geometry": {"type": "Polygon", "coordinates": [[[393378.52, 5668472.05], [393371.62, 5668473.61], [393372.89, 5668479.21], [393379.79, 5668477.64], [393378.52, 5668472.05]]]}}, {"type": "Feature", "properties": {"kind": "building", "z": 108.17, "h": 9.7}, "geometry": {"type": "Polygon", "coordinates": [[[392374.66, 5667998.64], [392369.09, 5667991.42], [392358.65, 5668000.09], [392354.76, 5667995.11], [392347.24, 5668000.96], [392356.38, 5668012.99], [392374.66, 5667998.64]]]}}, {"type": "Feature", "properties": {"kind": "building", "z": 169.88, "h": 6.8}, "geometry": {"type": "Polygon", "coordinates": [[[392489.57, 5668915.2], [392495.8, 5668908.15], [392489.48, 5668902.3], [392483.07, 5668909.54], [392489.57, 5668915.2]]]}}, {"type": "Feature", "properties": {"kind": "building", "z": 184.46, "h": 3.2}, "geometry": {"type": "Polygon", "coordinates": [[[392043.52, 5668810.6], [392049.18, 5668814.9], [392053.45, 5668809.31], [392047.78, 5668805.01], [392043.52, 5668810.6]]]}}, {"type": "Feature", "properties": {"kind": "building", "z": 165.93, "h": 8.6}, "geometry": {"type": "Polygon", "coordinates": [[[392201.67, 5669036.83], [392201.83, 5669024.41], [392187.03, 5669024.72], [392186.87, 5669036.86], [392201.67, 5669036.83]]]}}, {"type": "Feature", "properties": {"kind": "building", "z": 169.81, "h": 7.3}, "geometry": {"type": "Polygon", "coordinates": [[[392140.66, 5669035.91], [392140.72, 5669025.69], [392130.21, 5669025.78], [392130.01, 5669035.98], [392140.66, 5669035.91]]]}}, {"type": "Feature", "properties": {"kind": "building", "z": 175.06, "h": 8.8}, "geometry": {"type": "Polygon", "coordinates": [[[392128.47, 5668988.56], [392134.78, 5668981.05], [392127.25, 5668975.07], [392121.05, 5668982.68], [392128.47, 5668988.56]]]}}, {"type": "Feature", "properties": {"kind": "building", "z": 170.41, "h": 6.9}, "geometry": {"type": "Polygon", "coordinates": [[[392499.92, 5668768.49], [392501.33, 5668758.56], [392489.33, 5668756.99], [392488.21, 5668766.85], [392499.92, 5668768.49]]]}}, {"type": "Feature", "properties": {"kind": "building", "z": 170.35, "h": 3.7}, "geometry": {"type": "Polygon", "coordinates": [[[392499.92, 5668768.49], [392507.63, 5668769.52], [392508.62, 5668763.21], [392500.81, 5668762.21], [392499.92, 5668768.49]]]}}, {"type": "Feature", "properties": {"kind": "building", "z": 165.21, "h": 7.1}, "geometry": {"type": "Polygon", "coordinates": [[[392535.22, 5668862.53], [392543.08, 5668853.86], [392533.31, 5668844.51], [392524.96, 5668853.4], [392527.88, 5668856.05], [392529.32, 5668854.78], [392533.38, 5668858.32], [392532.23, 5668859.87], [392535.22, 5668862.53]]]}}, {"type": "Feature", "properties": {"kind": "building", "z": 168.25, "h": 6.2}, "geometry": {"type": "Polygon", "coordinates": [[[392517.8, 5668847.17], [392525.66, 5668838.5], [392515.89, 5668829.15], [392507.54, 5668838.04], [392510.46, 5668840.7], [392511.91, 5668839.41], [392515.97, 5668842.95], [392514.81, 5668844.51], [392517.8, 5668847.17]]]}}, {"type": "Feature", "properties": {"kind": "building", "z": 124.61, "h": 12.0, "name": "Haus C1"}, "geometry": {"type": "Polygon", "coordinates": [[[393809.49, 5669293.79], [393800.59, 5669303.96], [393833.65, 5669331.08], [393841.97, 5669321.36], [393817.15, 5669299.74], [393816.77, 5669300.17], [393809.49, 5669293.79]]]}}, {"type": "Feature", "properties": {"kind": "building", "z": 128.6, "h": 3.2, "name": "Sanit\u00e4rhaus & Lager"}, "geometry": {"type": "Polygon", "coordinates": [[[393576.58, 5669477.03], [393587.12, 5669474.48], [393586.16, 5669470.51], [393575.62, 5669473.05], [393576.58, 5669477.03]]]}}, {"type": "Feature", "properties": {"kind": "building", "z": 102.94, "h": 2.9, "name": "Jugendbus"}, "geometry": {"type": "Polygon", "coordinates": [[[393814.24, 5668824.08], [393817.37, 5668806.59], [393814.74, 5668806.13], [393811.6, 5668823.61], [393814.24, 5668824.08]]]}}, {"type": "Feature", "properties": {"kind": "building", "z": 133.75, "h": 5.8}, "geometry": {"type": "Polygon", "coordinates": [[[392358.34, 5669300.34], [392350.46, 5669292.14], [392357.14, 5669285.75], [392365.02, 5669293.95], [392358.34, 5669300.34]]]}}, {"type": "Feature", "properties": {"kind": "building", "z": 164.19, "h": 8.3}, "geometry": {"type": "Polygon", "coordinates": [[[392538.13, 5668797.96], [392539.66, 5668799.43], [392538.37, 5668800.86], [392544.78, 5668806.52], [392555.78, 5668794.32], [392547.84, 5668787.0], [392538.13, 5668797.96]]]}}, {"type": "Feature", "properties": {"kind": "building", "z": 167.46, "h": 3.8}, "geometry": {"type": "Polygon", "coordinates": [[[392525.52, 5668787.36], [392531.48, 5668780.79], [392522.4, 5668772.75], [392516.63, 5668779.51], [392525.52, 5668787.36]]]}}, {"type": "Feature", "properties": {"kind": "building", "z": 186.08, "h": 6.8}, "geometry": {"type": "Polygon", "coordinates": [[[392020.21, 5668807.16], [392027.73, 5668800.22], [392019.71, 5668791.65], [392012.38, 5668798.78], [392020.21, 5668807.16]]]}}, {"type": "Feature", "properties": {"kind": "building", "z": 114.52, "h": 7.0, "name": "Pfadfinderheim CPD Paul Richter Mei\u00dfen"}, "geometry": {"type": "Polygon", "coordinates": [[[393595.19, 5669288.61], [393598.77, 5669290.8], [393600.51, 5669289.58], [393602.21, 5669291.06], [393608.38, 5669287.76], [393608.47, 5669282.86], [393605.93, 5669280.96], [393604.78, 5669282.21], [393601.84, 5669280.25], [393594.99, 5669283.39], [393595.19, 5669288.61]]]}}, {"type": "Feature", "properties": {"kind": "building", "z": 119.36, "h": 7.1}, "geometry": {"type": "Polygon", "coordinates": [[[393890.82, 5669340.59], [393899.69, 5669340.41], [393899.47, 5669329.66], [393890.6, 5669329.84], [393890.82, 5669340.59]]]}}, {"type": "Feature", "properties": {"kind": "building", "z": 134.46, "h": 4.6}, "geometry": {"type": "Polygon", "coordinates": [[[392730.59, 5668826.98], [392745.36, 5668826.81], [392745.25, 5668816.43], [392730.47, 5668816.59], [392730.59, 5668826.98]]]}}, {"type": "Feature", "properties": {"kind": "building", "z": 127.52, "h": 8.0}, "geometry": {"type": "Polygon", "coordinates": [[[392156.05, 5668144.76], [392161.74, 5668138.97], [392169.67, 5668146.7], [392163.98, 5668152.49], [392156.05, 5668144.76]]]}}, {"type": "Feature", "properties": {"kind": "relief", "z": 134.66, "h": 19.1, "of": "UUID_5bbabd53-738c-4920-84c9-61577cee537b", "grid": {"x": 393170.0, "y": 5669446.0, "res": 1.0, "cols": 6, "rows": 5, "z": [-1.0, 17.4, -1.0, -1.0, -1.0, -1.0, 19.1, 16.8, 15.3, 9.7, -1.0, -1.0, -1.0, 16.8, 13.5, 8.2, 7.2, -1.0, -1.0, -1.0, 13.8, 12.2, 7.6, 8.1, -1.0, -1.0, -1.0, -1.0, 12.2, -1.0]}}, "geometry": {"type": "Polygon", "coordinates": [[[393171.0, 5669446.0], [393170.0, 5669444.0], [393171.0, 5669444.0], [393172.0, 5669442.0], [393174.0, 5669442.0], [393174.0, 5669441.0], [393175.0, 5669441.0], [393176.0, 5669443.0], [393175.0, 5669443.0], [393174.0, 5669445.0], [393172.0, 5669445.0], [393172.0, 5669446.0], [393171.0, 5669446.0]]]}}, {"type": "Feature", "properties": {"kind": "relief", "z": 134.66, "h": 31.4, "of": "UUID_5bbabd53-738c-4920-84c9-61577cee537b", "grid": {"x": 393167.0, "y": 5669438.0, "res": 1.0, "cols": 12, "rows": 9, "z": [-1.0, -1.0, -1.0, -1.0, -1.0, -1.0, -1.0, -1.0, -1.0, 15.6, -1.0, -1.0, -1.0, -1.0, -1.0, -1.0, -1.0, -1.0, -1.0, -1.0, 21.7, 17.0, 16.9, -1.0, -1.0, -1.0, -1.0, -1.0, -1.0, -1.0, -1.0, 29.5, 27.3, 24.7, 21.7, -1.0, -1.0, -1.0, -1.0, -1.0, -1.0, -1.0, 30.9, 28.8, 20.5, 18.2, 16.1, -1.0, -1.0, -1.0, -1.0, -1.0, -1.0, -1.0, 30.0, 27.5, 18.0, 15.4, 14.9, 15.0, -1.0, -1.0, -1.0, -1.0, 31.4, 30.9, 29.2, 19.3, 16.0, 15.1, 15.2, 15.3, -1.0, 31.3, 30.9, 30.5, 30.1, 29.9, 28.7, 22.5, 16.7, 16.0, 15.9, -1.0, 30.7, 30.0, 29.4, 29.0, 23.7, -1.0, -1.0, -1.0, 20.1, 16.9, -1.0, -1.0, -1.0, 27.9, 19.7, -1.0, -1.0, -1.0, -1.0, -1.0, -1.0, -1.0, -1.0, -1.0]}}, "geometry": {"type": "Polygon", "coordinates": [[[393176.0, 5669438.0], [393176.0, 5669437.0], [393175.0, 5669437.0], [393175.0, 5669436.0], [393173.0, 5669435.0], [393173.0, 5669433.0], [393171.0, 5669433.0], [393171.0, 5669432.0], [393168.0, 5669432.0], [393167.0, 5669430.0], [393168.0, 5669430.0], [393168.0, 5669429.0], [393170.0, 5669429.0], [393170.0, 5669430.0], [393172.0, 5669430.0], [393172.0, 5669431.0], [393175.0, 5669431.0], [393175.0, 5669430.0], [393177.0, 5669430.0], [393177.0, 5669431.0], [393179.0, 5669432.0], [393179.0, 5669434.0], [393178.0, 5669434.0], [393178.0, 5669437.0], [393176.0, 5669438.0]]]}}, {"type": "Feature", "properties": {"kind": "relief", "z": 190.23, "h": 22.3, "of": "UUID_660e0867-5ed3-423e-bb58-8b2e964571c5", "grid": {"x": 393098.0, "y": 5669423.0, "res": 1.0, "cols": 11, "rows": 12, "z": [-1.0, -1.0, -1.0, -1.0, -1.0, 20.3, 18.5, 15.0, -1.0, -1.0, -1.0, -1.0, -1.0, 22.3, 21.4, 21.3, 19.4, 16.8, 14.5, 10.2, -1.0, -1.0, -1.0, 18.9, 19.4, 19.0, 17.8, 17.5, 12.1, 9.3, 7.3, -1.0, -1.0, 16.6, 13.2, 17.6, 11.3, 7.5, 7.9, 11.6, 7.9, 5.3, -1.0, -1.0, 9.9, 7.8, 13.6, 6.4, 5.4, 5.4, 6.8, 6.2, 5.2, -1.0, -1.0, -1.0, 6.2, 5.5, 5.1, 4.7, 4.7, 4.9, 5.0, 5.8, -1.0, -1.0, -1.0, 4.8, 4.9, 4.7, 4.7, 4.8, 5.0, 5.3, 8.7, 9.7, -1.0, -1.0, -1.0, 5.4, 5.0, 5.3, 6.6, 7.6, 6.6, 6.2, 7.2, -1.0, -1.0, 7.1, 9.0, 7.2, 5.8, 5.7, 5.0, 5.0, 5.1, 5.4, -1.0, -1.0, -1.0, 7.9, 5.2, 4.8, 4.7, 4.7, 4.8, 6.0, 5.9, 4.2, -1.0, -1.0, -1.0, 5.1, 4.6, 4.6, 4.7, 4.9, 6.8, 6.9, -1.0, -1.0, -1.0, -1.0, -1.0, 4.5, 4.6, 6.0, -1.0, -1.0, -1.0, -1.0]}}, "geometry": {"type": "Polygon", "coordinates": [[[393103.0, 5669423.0], [393103.0, 5669422.0], [393100.0, 5669422.0], [393100.0, 5669421.0], [393098.0, 5669420.0], [393098.0, 5669418.0], [393099.0, 5669418.0], [393099.0, 5669416.0], [393100.0, 5669416.0], [393099.0, 5669414.0], [393100.0, 5669414.0], [393100.0, 5669413.0], [393101.0, 5669413.0], [393102.0, 5669411.0], [393105.0, 5669411.0], [393105.0, 5669412.0], [393108.0, 5669412.0], [393109.0, 5669414.0], [393108.0, 5669414.0], [393108.0, 5669417.0], [393107.0, 5669417.0], [393107.0, 5669422.0], [393106.0, 5669422.0], [393106.0, 5669423.0], [393103.0, 5669423.0]]]}}, {"type": "Feature", "properties": {"kind": "relief", "z": 157.75, "h": 8.3, "of": "UUID_b73cdb53-668a-4b37-b703-a25969aa85b6", "grid": {"x": 393156.0, "y": 5669413.0, "res": 1.0, "cols": 14, "rows": 14, "z": [-1.0, -1.0, -1.0, -1.0, -1.0, -1.0, -1.0, -1.0, -1.0, -1.0, 2.7, -1.0, -1.0, -1.0, -1.0, -1.0, -1.0, -1.0, -1.0, -1.0, -1.0, 4.6, 4.6, 3.9, 2.9, 2.0, -1.0, -1.0, -1.0, -1.0, -1.0, -1.0, 6.2, 7.8, 7.2, 6.1, 5.1, 4.1, 3.0, 2.1, -1.0, -1.0, -1.0, 3.3, 4.5, 5.6, 6.7, 7.6, 7.4, 6.5, 5.4, 4.3, 3.2, 2.2, 1.4, -1.0, 2.1, 3.1, 4.2, 5.4, 6.5, 7.5, 7.6, 6.7, 5.6, 4.5, 3.4, 2.3, 1.5, -1.0, 1.9, 2.8, 4.1, 5.1, 6.2, 7.3, 7.8, 6.9, 5.9, 4.7, 3.6, 2.5, 1.6, -1.0, 1.7, 2.5, 3.7, 4.8, 5.9, 7.1, 7.9, 7.2, 6.1, 4.9, 3.8, 2.7, 1.8, -1.0, -1.0, 2.3, 3.3, 4.4, 5.6, 6.9, 7.9, 7.4, 6.4, 5.2, 4.0, 2.9, 2.0, -1.0, -1.0, -1.0, 3.1, 3.6, -1.0, -1.0, -1.0, 8.3, 6.6, 5.4, 4.3, 3.1, 2.2, -1.0, -1.0, -1.0, -1.0, -1.0, -1.0, -1.0, -1.0, 7.9, 6.8, 5.7, 4.5, 3.4, 2.4, 1.5, -1.0, -1.0, -1.0, -1.0, -1.0, -1.0, -1.0, 8.0, 7.1, 5.9, 4.8, 3.7, 2.7, -1.0, -1.0, -1.0, -1.0, -1.0, -1.0, -1.0, -1.0, 8.0, 7.3, 6.2, 5.2, 4.2, -1.0, -1.0, -1.0, -1.0, -1.0, -1.0, -1.0, -1.0, -1.0, -1.0, 7.5, 6.6, 5.7, -1.0, -1.0, -1.0, -1.0, -1.0, -1.0, -1.0, -1.0, -1.0, -1.0, -1.0, -1.0, 6.9, -1.0, -1.0, -1.0, -1.0]}}, "geometry": {"type": "Polygon", "coordinates": [[[393166.0, 5669413.0], [393166.0, 5669412.0], [393163.0, 5669412.0], [393163.0, 5669411.0], [393160.0, 5669411.0], [393160.0, 5669410.0], [393157.0, 5669410.0], [393157.0, 5669409.0], [393156.0, 5669409.0], [393156.0, 5669406.0], [393157.0, 5669406.0], [393158.0, 5669404.0], [393160.0, 5669404.0], [393160.0, 5669405.0], [393163.0, 5669405.0], [393163.0, 5669401.0], [393164.0, 5669401.0], [393165.0, 5669399.0], [393166.0, 5669399.0], [393166.0, 5669400.0], [393167.0, 5669400.0], [393167.0, 5669401.0], [393168.0, 5669401.0], [393168.0, 5669402.0], [393170.0, 5669403.0], [393170.0, 5669404.0], [393169.0, 5669404.0], [393169.0, 5669410.0], [393168.0, 5669410.0], [393168.0, 5669412.0], [393166.0, 5669413.0]]]}}]}