{"type": "FeatureCollection", "attribution": "Stra\u00dfenverkehrsz\u00e4hlung 2021 \u00a9 Freistaat Sachsen, LASuV (dl-de/by-2-0)", "crs": {"type": "name", "properties": {"name": "urn:ogc:def:crs:EPSG::25833"}}, "features": [{"type": "Feature", "properties": {"t": 6973, "f": 3487, "b": 3486, "sp": 1, "hf": 0.121, "hb": 0.121, "y": 2021, "m": "census", "n": "B 101"}, "geometry": {"type": "LineString", "coordinates": [[392000.0, 5669670.24], [392027.69, 5669665.9], [392056.65, 5669658.86], [392100.23, 5669647.76], [392155.18, 5669631.51], [392209.6, 5669613.65], [392255.61, 5669596.32], [392284.85, 5669586.85], [392380.95, 5669553.55], [392457.82, 5669528.38], [392497.88, 5669517.01], [392565.45, 5669501.78], [392608.75, 5669495.76], [392660.61, 5669497.91], [392701.56, 5669503.51], [392747.16, 5669516.91], [392793.56, 5669538.74], [392834.31, 5669564.93], [392870.63, 5669602.28], [392895.53, 5669627.18], [392947.23, 5669684.3], [392979.76, 5669718.29], [393050.48, 5669798.54], [393055.61, 5669805.49], [393071.19, 5669820.64], [393087.72, 5669836.15], [393097.23, 5669842.59]]}}, {"type": "Feature", "properties": {"t": 5744, "f": 2872, "b": 2872, "sp": 1, "hf": 0.132, "hb": 0.132, "y": 2021, "m": "census", "n": "B 6"}, "geometry": {"type": "LineString", "coordinates": [[393494.92, 5668931.65], [393486.48, 5668946.81], [393477.03, 5668962.01], [393466.76, 5668977.44], [393451.17, 5669003.78], [393439.88, 5669024.41], [393411.8, 5669072.24], [393399.21, 5669096.2], [393384.86, 5669122.49], [393373.64, 5669141.97]]}}, {"type": "Feature", "properties": {"t": 5744, "f": 2872, "b": 2872, "sp": 1, "hf": 0.132, "hb": 0.132, "y": 2021, "m": "census", "n": "B 6"}, "geometry": {"type": "LineString", "coordinates": [[393726.37, 5668000.0], [393714.59, 5668027.85], [393695.48, 5668075.65], [393645.48, 5668189.9], [393628.58, 5668231.1], [393618.82, 5668257.36], [393611.47, 5668278.83], [393603.4, 5668305.71], [393596.66, 5668331.74], [393590.91, 5668356.98], [393584.06, 5668396.37], [393580.53, 5668422.4], [393577.3, 5668449.21], [393571.41, 5668510.78], [393567.24, 5668565.89], [393564.96, 5668609.29], [393563.12, 5668659.31], [393562.44, 5668710.17], [393562.45, 5668753.65], [393561.66, 5668761.99], [393560.64, 5668768.59], [393559.22, 5668774.41], [393554.59, 5668788.95], [393522.98, 5668873.4], [393494.92, 5668931.65]]}}, {"type": "Feature", "properties": {"t": 11561, "f": 5781, "b": 5780, "sp": 1, "hf": 0.074, "hb": 0.074, "y": 2021, "m": "census", "n": "B 6"}, "geometry": {"type": "LineString", "coordinates": [[393189.0, 5669671.93], [393176.05, 5669698.03], [393126.87, 5669801.51], [393103.78, 5669843.46]]}}, {"type": "Feature", "properties": {"t": 11561, "f": 5781, "b": 5780, "sp": 1, "hf": 0.074, "hb": 0.074, "y": 2021, "m": "census", "n": "B 6"}, "geometry": {"type": "LineString", "coordinates": [[393373.64, 5669141.97], [393370.68, 5669149.05], [393361.34, 5669164.29], [393351.2, 5669183.03], [393338.19, 5669208.13], [393331.73, 5669224.27], [393326.95, 5669238.72], [393324.13, 5669248.4], [393307.75, 5669319.96], [393302.99, 5669344.12], [393294.38, 5669379.76], [393287.54, 5669411.69], [393281.53, 5669436.84], [393270.07, 5669488.75], [393262.6, 5669513.03], [393252.38, 5669540.76], [393245.34, 5669556.07], [393232.25, 5669583.6], [393189.0, 5669671.93]]}}, {"type": "Feature", "properties": {"t": 11786, "f": 5893, "b": 5893, "sp": 1, "hf": 0.112, "hb": 0.112, "y": 2021, "m": "census", "n": "B 101"}, "geometry": {"type": "LineString", "coordinates": [[393102.08, 5669846.09], [393116.22, 5669851.78], [393128.79, 5669856.24], [393133.82, 5669857.69], [393208.56, 5669871.36], [393258.35, 5669884.69], [393347.14, 5669902.04], [393370.84, 5669906.95], [393396.31, 5669914.3], [393430.21, 5669922.98], [393448.04, 5669928.12], [393465.5, 5669931.53], [393501.19, 5669931.76], [393515.37, 5669929.15]]}}, {"type": "Feature", "properties": {"t": 11786, "f": 5893, "b": 5893, "sp": 1, "hf": 0.112, "hb": 0.112, "y": 2021, "m": "census", "n": "B 101"}, "geometry": {"type": "LineString", "coordinates": [[394000.0, 5669621.06], [393567.23, 5669901.43], [393554.12, 5669909.76], [393545.0, 5669915.07], [393530.93, 5669922.55], [393517.26, 5669928.57]]}}, {"type": "Feature", "properties": {"t": 1738, "f": 869, "b": 869, "sp": 1, "hf": 0.109, "hb": 0.109, "y": 2021, "m": "census", "n": "S 83"}, "geometry": {"type": "LineString", "coordinates": [[392331.04, 5668000.0], [392384.12, 5668067.92], [392457.91, 5668156.9], [392463.81, 5668164.76], [392489.18, 5668196.74], [392506.11, 5668214.82], [392518.12, 5668226.23], [392524.92, 5668234.27], [392531.19, 5668243.44], [392577.45, 5668317.17], [392588.71, 5668334.51], [392599.61, 5668350.05], [392606.93, 5668359.52], [392625.34, 5668375.78], [392636.41, 5668383.46], [392646.78, 5668389.9], [392656.6, 5668395.07], [392671.08, 5668401.15], [392719.72, 5668418.81], [392772.57, 5668436.53], [392807.41, 5668450.64], [392820.81, 5668457.25], [392830.81, 5668464.09], [392847.43, 5668474.41], [392852.08, 5668475.48], [392857.98, 5668474.94], [392862.45, 5668473.34], [392921.41, 5668423.31], [392928.73, 5668416.52], [392938.38, 5668406.51], [392943.21, 5668403.11], [392948.57, 5668400.43], [392955.01, 5668399.36], [392973.38, 5668403.52], [392982.57, 5668404.89], [392988.77, 5668406.33], [392997.8, 5668410.69]]}}, {"type": "Feature", "properties": {"t": 8722, "f": 4361, "b": 4361, "sp": 1, "hf": 0.074, "hb": 0.074, "y": 2021, "m": "census", "n": "S 177"}, "geometry": {"type": "LineString", "coordinates": [[393791.69, 5669081.72], [393801.01, 5669083.62], [393833.07, 5669099.98], [393858.38, 5669111.54], [393903.96, 5669130.94], [393923.03, 5669137.64], [393958.05, 5669151.67], [393986.19, 5669162.14], [394000.0, 5669168.49]]}}, {"type": "Feature", "properties": {"t": 9672, "f": 4836, "b": 4836, "sp": 1, "hf": 0.068, "hb": 0.068, "y": 2021, "m": "census", "n": "S 177"}, "geometry": {"type": "LineString", "coordinates": [[392997.8, 5668410.69], [393011.75, 5668427.57], [393066.93, 5668523.28], [393142.4, 5668652.96], [393193.96, 5668726.16], [393242.32, 5668803.4], [393245.22, 5668808.6], [393249.62, 5668814.12], [393253.68, 5668817.74], [393258.21, 5668820.72], [393271.14, 5668826.36], [393278.63, 5668830.55], [393332.84, 5668868.9], [393338.84, 5668872.66], [393345.9, 5668876.36], [393354.9, 5668880.07], [393364.01, 5668882.82], [393446.43, 5668911.63], [393464.74, 5668920.47], [393494.92, 5668931.65]]}}, {"type": "Feature", "properties": {"t": 14170, "f": 7085, "b": 7085, "sp": 1, "hf": 0.066, "hb": 0.066, "y": 2021, "m": "census", "n": "S 177"}, "geometry": {"type": "LineString", "coordinates": [[393791.69, 5669081.67], [393774.3, 5669086.37], [393715.96, 5669108.82], [393689.64, 5669117.82], [393677.43, 5669122.49], [393664.26, 5669128.08], [393643.95, 5669138.63], [393637.84, 5669143.58], [393626.98, 5669153.62], [393615.85, 5669165.84], [393563.14, 5669228.43], [393554.32, 5669238.27], [393549.09, 5669242.46], [393541.43, 5669246.11], [393535.41, 5669247.21], [393529.76, 5669247.75], [393524.28, 5669246.66], [393521.36, 5669245.56], [393517.17, 5669244.65], [393477.59, 5669227.33], [393401.0, 5669198.33], [393379.3, 5669190.49], [393356.31, 5669181.37], [393342.45, 5669176.63], [393315.54, 5669165.83], [393311.75, 5669162.58], [393309.2, 5669159.01], [393308.01, 5669154.88], [393307.85, 5669150.72], [393308.41, 5669146.02], [393311.79, 5669139.05], [393314.61, 5669136.78], [393321.32, 5669133.86], [393330.6, 5669133.03], [393340.99, 5669133.76], [393349.75, 5669135.22], [393361.43, 5669138.14], [393373.64, 5669141.97]]}}, {"type": "Feature", "properties": {"t": 8286, "f": 4143, "b": 4143, "sp": 1, "hf": 0.068, "hb": 0.068, "y": 2021, "m": "census", "n": "B 6"}, "geometry": {"type": "LineString", "coordinates": [[393102.33, 5669846.08], [393088.83, 5669861.82], [393072.16, 5669882.61], [393061.52, 5669895.21], [393052.87, 5669904.83], [393032.33, 5669923.39], [393000.78, 5669953.11], [392962.3, 5669981.26], [392927.5, 5670000.0]]}}, {"type": "Feature", "properties": {"t": 5978, "f": 2989, "b": 2989, "sp": 1, "hf": 0.054, "hb": 0.054, "y": 2021, "m": "census", "n": "S 177"}, "geometry": {"type": "LineString", "coordinates": [[393308.78, 5668000.0], [393310.86, 5668038.57], [393311.32, 5668057.97], [393311.37, 5668080.16], [393308.87, 5668171.9], [393307.19, 5668203.06], [393306.75, 5668228.72], [393306.01, 5668244.11], [393304.84, 5668256.36], [393281.66, 5668455.85], [393278.47, 5668478.16], [393271.84, 5668515.77], [393270.96, 5668525.15], [393271.23, 5668534.57], [393272.48, 5668543.11], [393288.29, 5668605.18], [393288.58, 5668608.38], [393288.36, 5668610.52], [393287.66, 5668612.68], [393286.52, 5668614.5], [393284.32, 5668616.45], [393281.62, 5668617.6], [393278.68, 5668617.81], [393275.6, 5668617.01], [393270.43, 5668614.67], [393265.64, 5668611.63], [393261.32, 5668607.94], [393257.56, 5668603.68], [393254.16, 5668598.43], [393231.73, 5668555.83], [393220.78, 5668536.23], [393194.26, 5668493.05], [393191.51, 5668489.09], [393187.99, 5668484.84], [393180.94, 5668478.24], [393158.73, 5668461.44], [393149.98, 5668454.44], [393083.47, 5668397.4], [393078.89, 5668392.59], [393075.29, 5668387.82], [393066.98, 5668373.41], [393064.49, 5668369.69], [393061.64, 5668366.42], [393058.55, 5668363.83], [393055.49, 5668361.96], [393051.33, 5668360.28], [393046.95, 5668359.36], [393042.48, 5668359.23], [393038.49, 5668359.81], [393034.14, 5668361.18], [393030.52, 5668362.96], [393026.44, 5668365.71], [393022.06, 5668369.56], [393017.54, 5668374.54], [393002.66, 5668394.2], [393000.81, 5668398.18], [393000.11, 5668402.41], [392997.8, 5668410.69]]}}, {"type": "Feature", "properties": {"t": 5896, "f": 2948, "b": 2948, "sp": 1, "hf": 0.045, "hb": 0.045, "y": 2021, "m": "census", "n": "S 82"}, "geometry": {"type": "LineString", "coordinates": [[394000.0, 5668550.45], [393994.09, 5668571.94], [393987.37, 5668592.48], [393981.33, 5668613.93], [393975.69, 5668632.25], [393933.92, 5668753.27], [393927.02, 5668771.17], [393911.62, 5668806.66], [393904.72, 5668823.86], [393899.77, 5668837.39], [393887.88, 5668872.15], [393882.66, 5668886.19], [393874.76, 5668904.55], [393863.56, 5668927.27], [393861.63, 5668932.17], [393854.92, 5668951.98], [393852.01, 5668959.49], [393802.55, 5669071.82], [393791.69, 5669081.72]]}}]}