{"type": "FeatureCollection", "attribution": "\u00a9 OpenStreetMap contributors (ODbL)", "crs": {"type": "name", "properties": {"name": "urn:ogc:def:crs:EPSG::25832"}}, "features": [{"type": "Feature", "properties": {"k": "signal", "a": 33}, "geometry": {"type": "Point", "coordinates": [408936.12, 5709858.55]}}, {"type": "Feature", "properties": {"k": "bollard"}, "geometry": {"type": "Point", "coordinates": [408032.9, 5708781.56]}}, {"type": "Feature", "properties": {"k": "bollard"}, "geometry": {"type": "Point", "coordinates": [408012.35, 5708826.6]}}, {"type": "Feature", "properties": {"k": "bollard"}, "geometry": {"type": "Point", "coordinates": [408084.74, 5708904.9]}}, {"type": "Feature", "properties": {"k": "bollard"}, "geometry": {"type": "Point", "coordinates": [409203.21, 5708846.33]}}, {"type": "Feature", "properties": {"k": "bollard"}, "geometry": {"type": "Point", "coordinates": [409204.09, 5708821.09]}}, {"type": "Feature", "properties": {"k": "bollard"}, "geometry": {"type": "Point", "coordinates": [409590.24, 5709255.0]}}, {"type": "Feature", "properties": {"k": "bollard"}, "geometry": {"type": "Point", "coordinates": [409929.99, 5709948.51]}}, {"type": "Feature", "properties": {"k": "bollard"}, "geometry": {"type": "Point", "coordinates": [408971.28, 5708307.9]}}, {"type": "Feature", "properties": {"k": "bollard"}, "geometry": {"type": "Point", "coordinates": [409902.43, 5709649.23]}}, {"type": "Feature", "properties": {"k": "bollard"}, "geometry": {"type": "Point", "coordinates": [409582.18, 5709958.06]}}, {"type": "Feature", "properties": {"k": "bollard"}, "geometry": {"type": "Point", "coordinates": [409577.94, 5709975.39]}}, {"type": "Feature", "properties": {"k": "bollard"}, "geometry": {"type": "Point", "coordinates": [408003.09, 5708863.94]}}, {"type": "Feature", "properties": {"k": "bollard"}, "geometry": {"type": "Point", "coordinates": [409794.02, 5709024.17]}}, {"type": "Feature", "properties": {"k": "shelter", "a": 268}, "geometry": {"type": "Point", "coordinates": [408135.93, 5709816.52]}}, {"type": "Feature", "properties": {"k": "shelter", "a": 88}, "geometry": {"type": "Point", "coordinates": [408130.34, 5709808.43]}}, {"type": "Feature", "properties": {"k": "shelter", "a": 273}, "geometry": {"type": "Point", "coordinates": [408127.85, 5709617.83]}}, {"type": "Feature", "properties": {"k": "signal", "a": 181}, "geometry": {"type": "Point", "coordinates": [409220.6, 5709959.74]}}, {"type": "Feature", "properties": {"k": "signal", "a": 211}, "geometry": {"type": "Point", "coordinates": [409236.25, 5709933.26]}}, {"type": "Feature", "properties": {"k": "signal", "a": 131}, "geometry": {"type": "Point", "coordinates": [409255.93, 5709951.35]}}, {"type": "Feature", "properties": {"k": "signal", "a": 215}, "geometry": {"type": "Point", "coordinates": [408927.09, 5709832.42]}}, {"type": "Feature", "properties": {"k": "signal", "a": 299}, "geometry": {"type": "Point", "coordinates": [408918.59, 5709841.91]}}, {"type": "Feature", "properties": {"k": "signal", "a": 272}, "geometry": {"type": "Point", "coordinates": [408720.86, 5709919.11]}}, {"type": "Feature", "properties": {"k": "signal", "a": 219}, "geometry": {"type": "Point", "coordinates": [409810.41, 5709690.31]}}, {"type": "Feature", "properties": {"k": "signal", "a": 233}, "geometry": {"type": "Point", "coordinates": [409790.78, 5709688.28]}}, {"type": "Feature", "properties": {"k": "signal", "a": 50}, "geometry": {"type": "Point", "coordinates": [409801.65, 5709713.11]}}, {"type": "Feature", "properties": {"k": "signal", "a": 161}, "geometry": {"type": "Point", "coordinates": [409429.59, 5709462.98]}}, {"type": "Feature", "properties": {"k": "signal", "a": 337}, "geometry": {"type": "Point", "coordinates": [409412.14, 5709488.15]}}, {"type": "Feature", "properties": {"k": "signal", "a": 217}, "geometry": {"type": "Point", "coordinates": [409786.91, 5709708.06]}}, {"type": "Feature", "properties": {"k": "signal", "a": 69}, "geometry": {"type": "Point", "coordinates": [409432.83, 5709485.35]}}, {"type": "Feature", "properties": {"k": "signal", "a": 252}, "geometry": {"type": "Point", "coordinates": [409413.23, 5709464.35]}}, {"type": "Feature", "properties": {"k": "signal", "a": 192}, "geometry": {"type": "Point", "coordinates": [408623.13, 5709355.16]}}, {"type": "Feature", "properties": {"k": "signal", "a": 343}, "geometry": {"type": "Point", "coordinates": [408597.99, 5709360.89]}}, {"type": "Feature", "properties": {"k": "signal", "a": 118}, "geometry": {"type": "Point", "coordinates": [408612.7, 5709361.3]}}, {"type": "Feature", "properties": {"k": "signal", "a": 118}, "geometry": {"type": "Point", "coordinates": [408601.11, 5709341.09]}}, {"type": "Feature", "properties": {"k": "bollard"}, "geometry": {"type": "Point", "coordinates": [409417.14, 5709890.59]}}, {"type": "Feature", "properties": {"k": "shelter", "a": 1}, "geometry": {"type": "Point", "coordinates": [408697.1, 5709915.8]}}, {"type": "Feature", "properties": {"k": "shelter", "a": 117}, "geometry": {"type": "Point", "coordinates": [408524.58, 5709214.36]}}, {"type": "Feature", "properties": {"k": "shelter", "a": 298}, "geometry": {"type": "Point", "coordinates": [408545.1, 5709221.56]}}, {"type": "Feature", "properties": {"k": "bench", "a": 325}, "geometry": {"type": "Point", "coordinates": [408883.49, 5708197.64]}}, {"type": "Feature", "properties": {"k": "bench", "back": false, "a": 290}, "geometry": {"type": "Point", "coordinates": [408307.01, 5708645.34]}}, {"type": "Feature", "properties": {"k": "bollard"}, "geometry": {"type": "Point", "coordinates": [408092.0, 5709170.85]}}, {"type": "Feature", "properties": {"k": "bollard"}, "geometry": {"type": "Point", "coordinates": [408254.36, 5709124.3]}}, {"type": "Feature", "properties": {"k": "bollard"}, "geometry": {"type": "Point", "coordinates": [409881.51, 5708921.02]}}, {"type": "Feature", "properties": {"k": "shelter", "a": 84}, "geometry": {"type": "Point", "coordinates": [409482.12, 5709044.78]}}, {"type": "Feature", "properties": {"k": "shelter", "a": 263}, "geometry": {"type": "Point", "coordinates": [409492.91, 5709073.31]}}, {"type": "Feature", "properties": {"k": "shelter", "a": 89}, "geometry": {"type": "Point", "coordinates": [409868.71, 5709388.44]}}, {"type": "Feature", "properties": {"k": "shelter", "a": 180}, "geometry": {"type": "Point", "coordinates": [408307.11, 5708987.12]}}, {"type": "Feature", "properties": {"k": "shelter", "a": 260}, "geometry": {"type": "Point", "coordinates": [409372.53, 5709650.18]}}, {"type": "Feature", "properties": {"k": "shelter", "a": 294}, "geometry": {"type": "Point", "coordinates": [408468.68, 5709060.33]}}, {"type": "Feature", "properties": {"k": "shelter", "a": 114}, "geometry": {"type": "Point", "coordinates": [408453.36, 5709048.37]}}, {"type": "Feature", "properties": {"k": "bollard"}, "geometry": {"type": "Point", "coordinates": [409008.62, 5709325.79]}}, {"type": "Feature", "properties": {"k": "bench", "a": 86}, "geometry": {"type": "Point", "coordinates": [408755.62, 5708574.72]}}, {"type": "Feature", "properties": {"k": "bench", "a": 25}, "geometry": {"type": "Point", "coordinates": [408782.53, 5708750.47]}}, {"type": "Feature", "properties": {"k": "bench", "a": 66}, "geometry": {"type": "Point", "coordinates": [408745.95, 5708765.78]}}, {"type": "Feature", "properties": {"k": "bench", "a": 120}, "geometry": {"type": "Point", "coordinates": [408767.86, 5708849.17]}}, {"type": "Feature", "properties": {"k": "bench", "a": 179}, "geometry": {"type": "Point", "coordinates": [409024.9, 5708798.84]}}, {"type": "Feature", "properties": {"k": "bench", "a": 179}, "geometry": {"type": "Point", "coordinates": [409054.7, 5708799.85]}}, {"type": "Feature", "properties": {"k": "bollard"}, "geometry": {"type": "Point", "coordinates": [409133.87, 5709156.96]}}, {"type": "Feature", "properties": {"k": "bollard"}, "geometry": {"type": "Point", "coordinates": [408931.41, 5709163.9]}}, {"type": "Feature", "properties": {"k": "bollard"}, "geometry": {"type": "Point", "coordinates": [409065.37, 5709857.69]}}, {"type": "Feature", "properties": {"k": "bollard"}, "geometry": {"type": "Point", "coordinates": [409066.12, 5709856.34]}}, {"type": "Feature", "properties": {"k": "bench", "a": 57}, "geometry": {"type": "Point", "coordinates": [409066.12, 5709848.53]}}, {"type": "Feature", "properties": {"k": "bench", "a": 21}, "geometry": {"type": "Point", "coordinates": [408999.92, 5709851.31]}}, {"type": "Feature", "properties": {"k": "bollard"}, "geometry": {"type": "Point", "coordinates": [409870.07, 5708961.79]}}, {"type": "Feature", "properties": {"k": "bollard"}, "geometry": {"type": "Point", "coordinates": [409572.03, 5709986.22]}}, {"type": "Feature", "properties": {"k": "bench", "a": 215}, "geometry": {"type": "Point", "coordinates": [409723.61, 5709768.73]}}, {"type": "Feature", "properties": {"k": "bollard"}, "geometry": {"type": "Point", "coordinates": [409852.68, 5709212.07]}}, {"type": "Feature", "properties": {"k": "bollard"}, "geometry": {"type": "Point", "coordinates": [409878.09, 5708961.27]}}, {"type": "Feature", "properties": {"k": "bollard"}, "geometry": {"type": "Point", "coordinates": [409888.95, 5708843.24]}}, {"type": "Feature", "properties": {"k": "bench", "a": 290}, "geometry": {"type": "Point", "coordinates": [408399.76, 5708760.96]}}, {"type": "Feature", "properties": {"k": "bench", "a": 185}, "geometry": {"type": "Point", "coordinates": [408444.19, 5708861.12]}}, {"type": "Feature", "properties": {"k": "bollard"}, "geometry": {"type": "Point", "coordinates": [409120.4, 5709789.05]}}, {"type": "Feature", "properties": {"k": "bollard"}, "geometry": {"type": "Point", "coordinates": [409143.35, 5709785.35]}}, {"type": "Feature", "properties": {"k": "postbox", "a": 171}, "geometry": {"type": "Point", "coordinates": [409458.1, 5709406.39]}}, {"type": "Feature", "properties": {"k": "bollard"}, "geometry": {"type": "Point", "coordinates": [409550.7, 5709263.31]}}, {"type": "Feature", "properties": {"k": "bollard"}, "geometry": {"type": "Point", "coordinates": [409539.95, 5709017.41]}}, {"type": "Feature", "properties": {"k": "bollard"}, "geometry": {"type": "Point", "coordinates": [409852.91, 5709019.71]}}, {"type": "Feature", "properties": {"k": "bollard"}, "geometry": {"type": "Point", "coordinates": [408385.62, 5709973.58]}}, {"type": "Feature", "properties": {"k": "bollard"}, "geometry": {"type": "Point", "coordinates": [408109.47, 5709409.09]}}, {"type": "Feature", "properties": {"k": "bench", "a": 91}, "geometry": {"type": "Point", "coordinates": [408072.93, 5708986.41]}}, {"type": "Feature", "properties": {"k": "bench", "a": 91}, "geometry": {"type": "Point", "coordinates": [408074.9, 5708984.65]}}, {"type": "Feature", "properties": {"k": "bench", "a": 270}, "geometry": {"type": "Point", "coordinates": [408980.78, 5709170.72]}}, {"type": "Feature", "properties": {"k": "bench", "a": 270}, "geometry": {"type": "Point", "coordinates": [408982.73, 5709194.04]}}, {"type": "Feature", "properties": {"k": "bench", "a": 270}, "geometry": {"type": "Point", "coordinates": [408982.27, 5709196.83]}}, {"type": "Feature", "properties": {"k": "bench", "a": 265}, "geometry": {"type": "Point", "coordinates": [408973.65, 5709255.55]}}, {"type": "Feature", "properties": {"k": "bench", "a": 265}, "geometry": {"type": "Point", "coordinates": [408973.41, 5709258.15]}}, {"type": "Feature", "properties": {"k": "bench", "a": 270}, "geometry": {"type": "Point", "coordinates": [408971.98, 5709282.26]}}, {"type": "Feature", "properties": {"k": "bench", "a": 334}, "geometry": {"type": "Point", "coordinates": [409075.73, 5709523.3]}}, {"type": "Feature", "properties": {"k": "bench", "a": 254}, "geometry": {"type": "Point", "coordinates": [409076.33, 5709525.66]}}, {"type": "Feature", "properties": {"k": "bench", "a": 305}, "geometry": {"type": "Point", "coordinates": [408949.56, 5709850.53]}}, {"type": "Feature", "properties": {"k": "bench", "a": 20}, "geometry": {"type": "Point", "coordinates": [408884.08, 5708197.07]}}, {"type": "Feature", "properties": {"k": "bin"}, "geometry": {"type": "Point", "coordinates": [408701.12, 5708570.75]}}, {"type": "Feature", "properties": {"k": "bin"}, "geometry": {"type": "Point", "coordinates": [408755.41, 5708573.67]}}, {"type": "Feature", "properties": {"k": "bench", "a": 326}, "geometry": {"type": "Point", "coordinates": [408865.8, 5708710.65]}}, {"type": "Feature", "properties": {"k": "bench", "a": 105}, "geometry": {"type": "Point", "coordinates": [408888.28, 5708226.91]}}, {"type": "Feature", "properties": {"k": "bench", "a": 264}, "geometry": {"type": "Point", "coordinates": [408892.77, 5708814.09]}}, {"type": "Feature", "properties": {"k": "bin"}, "geometry": {"type": "Point", "coordinates": [408892.95, 5708812.35]}}, {"type": "Feature", "properties": {"k": "bin"}, "geometry": {"type": "Point", "coordinates": [408980.63, 5709167.02]}}, {"type": "Feature", "properties": {"k": "bin"}, "geometry": {"type": "Point", "coordinates": [408981.62, 5709204.54]}}, {"type": "Feature", "properties": {"k": "bench", "a": 285}, "geometry": {"type": "Point", "coordinates": [408968.78, 5709101.83]}}, {"type": "Feature", "properties": {"k": "bin"}, "geometry": {"type": "Point", "coordinates": [408919.39, 5708977.92]}}, {"type": "Feature", "properties": {"k": "bin"}, "geometry": {"type": "Point", "coordinates": [408971.51, 5709113.82]}}, {"type": "Feature", "properties": {"k": "bin"}, "geometry": {"type": "Point", "coordinates": [408973.52, 5709125.97]}}, {"type": "Feature", "properties": {"k": "bin"}, "geometry": {"type": "Point", "coordinates": [408931.58, 5709133.79]}}, {"type": "Feature", "properties": {"k": "bench", "a": 279}, "geometry": {"type": "Point", "coordinates": [408974.1, 5709127.99]}}, {"type": "Feature", "properties": {"k": "bench", "a": 279}, "geometry": {"type": "Point", "coordinates": [408974.11, 5709131.29]}}, {"type": "Feature", "properties": {"k": "bench", "a": 289}, "geometry": {"type": "Point", "coordinates": [408957.21, 5709067.91]}}, {"type": "Feature", "properties": {"k": "bin"}, "geometry": {"type": "Point", "coordinates": [408943.96, 5709027.94]}}, {"type": "Feature", "properties": {"k": "bench", "a": 289}, "geometry": {"type": "Point", "coordinates": [408955.93, 5709065.72]}}, {"type": "Feature", "properties": {"k": "bin"}, "geometry": {"type": "Point", "coordinates": [408960.09, 5709074.8]}}, {"type": "Feature", "properties": {"k": "bench", "a": 285}, "geometry": {"type": "Point", "coordinates": [408969.15, 5709106.9]}}, {"type": "Feature", "properties": {"k": "bench", "a": 102}, "geometry": {"type": "Point", "coordinates": [408933.04, 5709137.7]}}, {"type": "Feature", "properties": {"k": "bench", "a": 102}, "geometry": {"type": "Point", "coordinates": [408934.07, 5709139.12]}}, {"type": "Feature", "properties": {"k": "bin"}, "geometry": {"type": "Point", "coordinates": [408919.49, 5709074.79]}}, {"type": "Feature", "properties": {"k": "bench", "a": 3}, "geometry": {"type": "Point", "coordinates": [408665.95, 5708783.76]}}, {"type": "Feature", "properties": {"k": "bench", "a": 101}, "geometry": {"type": "Point", "coordinates": [408921.02, 5709079.0]}}, {"type": "Feature", "properties": {"k": "bench", "a": 101}, "geometry": {"type": "Point", "coordinates": [408920.57, 5709077.13]}}, {"type": "Feature", "properties": {"k": "bench", "a": 3}, "geometry": {"type": "Point", "coordinates": [408661.63, 5708787.41]}}, {"type": "Feature", "properties": {"k": "bin"}, "geometry": {"type": "Point", "coordinates": [408663.03, 5708784.54]}}, {"type": "Feature", "properties": {"k": "bollard"}, "geometry": {"type": "Point", "coordinates": [408831.85, 5708533.94]}}, {"type": "Feature", "properties": {"k": "bollard"}, "geometry": {"type": "Point", "coordinates": [409020.33, 5709897.84]}}, {"type": "Feature", "properties": {"k": "bollard"}, "geometry": {"type": "Point", "coordinates": [409529.43, 5709800.35]}}, {"type": "Feature", "properties": {"k": "bench", "a": 51}, "geometry": {"type": "Point", "coordinates": [408274.18, 5709938.71]}}, {"type": "Feature", "properties": {"k": "bench", "a": 231}, "geometry": {"type": "Point", "coordinates": [408272.42, 5709949.59]}}, {"type": "Feature", "properties": {"k": "bollard"}, "geometry": {"type": "Point", "coordinates": [408269.93, 5709971.11]}}, {"type": "Feature", "properties": {"k": "bench", "a": 356}, "geometry": {"type": "Point", "coordinates": [408147.88, 5709804.11]}}, {"type": "Feature", "properties": {"k": "bin"}, "geometry": {"type": "Point", "coordinates": [408149.16, 5709805.15]}}, {"type": "Feature", "properties": {"k": "bench", "a": 252}, "geometry": {"type": "Point", "coordinates": [409079.21, 5709542.48]}}, {"type": "Feature", "properties": {"k": "bench", "a": 322}, "geometry": {"type": "Point", "coordinates": [409078.55, 5709539.7]}}, {"type": "Feature", "properties": {"k": "bench", "back": false, "a": 161}, "geometry": {"type": "Point", "coordinates": [409061.56, 5709609.16]}}, {"type": "Feature", "properties": {"k": "bench", "back": false, "a": 227}, "geometry": {"type": "Point", "coordinates": [409067.6, 5709607.18]}}, {"type": "Feature", "properties": {"k": "bench", "back": false, "a": 288}, "geometry": {"type": "Point", "coordinates": [409069.55, 5709601.61]}}, {"type": "Feature", "properties": {"k": "bench", "back": false, "a": 121}, "geometry": {"type": "Point", "coordinates": [409056.66, 5709605.69]}}, {"type": "Feature", "properties": {"k": "bench", "a": 211}, "geometry": {"type": "Point", "coordinates": [409563.04, 5709967.27]}}, {"type": "Feature", "properties": {"k": "bench", "a": 131}, "geometry": {"type": "Point", "coordinates": [409565.93, 5709967.97]}}, {"type": "Feature", "properties": {"k": "bench", "a": 131}, "geometry": {"type": "Point", "coordinates": [409567.78, 5709966.86]}}, {"type": "Feature", "properties": {"k": "bench", "back": false, "a": 242}, "geometry": {"type": "Point", "coordinates": [409538.57, 5709999.6]}}, {"type": "Feature", "properties": {"k": "bench", "back": false, "a": 242}, "geometry": {"type": "Point", "coordinates": [409541.61, 5709998.66]}}, {"type": "Feature", "properties": {"k": "bench", "back": false, "a": 242}, "geometry": {"type": "Point", "coordinates": [409541.28, 5709996.57]}}, {"type": "Feature", "properties": {"k": "bench", "back": false, "a": 242}, "geometry": {"type": "Point", "coordinates": [409539.92, 5709995.31]}}, {"type": "Feature", "properties": {"k": "bin"}, "geometry": {"type": "Point", "coordinates": [409544.3, 5709983.6]}}, {"type": "Feature", "properties": {"k": "bin"}, "geometry": {"type": "Point", "coordinates": [409564.25, 5709968.34]}}, {"type": "Feature", "properties": {"k": "bench", "a": 135}, "geometry": {"type": "Point", "coordinates": [409574.57, 5709971.43]}}, {"type": "Feature", "properties": {"k": "bench", "a": 131}, "geometry": {"type": "Point", "coordinates": [409572.8, 5709968.4]}}, {"type": "Feature", "properties": {"k": "bench", "a": 311}, "geometry": {"type": "Point", "coordinates": [409574.11, 5709961.28]}}, {"type": "Feature", "properties": {"k": "bench", "a": 311}, "geometry": {"type": "Point", "coordinates": [409576.63, 5709961.69]}}, {"type": "Feature", "properties": {"k": "bench", "a": 60}, "geometry": {"type": "Point", "coordinates": [409578.57, 5709963.42]}}, {"type": "Feature", "properties": {"k": "bench", "a": 278}, "geometry": {"type": "Point", "coordinates": [409567.9, 5709954.79]}}, {"type": "Feature", "properties": {"k": "bench", "a": 81}, "geometry": {"type": "Point", "coordinates": [408829.19, 5708783.52]}}, {"type": "Feature", "properties": {"k": "bench", "a": 81}, "geometry": {"type": "Point", "coordinates": [408830.6, 5708775.86]}}, {"type": "Feature", "properties": {"k": "postbox", "a": 98}, "geometry": {"type": "Point", "coordinates": [409002.72, 5709993.71]}}, {"type": "Feature", "properties": {"k": "stop", "a": 80}, "geometry": {"type": "Point", "coordinates": [409365.25, 5709638.92]}}, {"type": "Feature", "properties": {"k": "stop", "a": 282}, "geometry": {"type": "Point", "coordinates": [408018.7, 5709339.11]}}, {"type": "Feature", "properties": {"k": "stop", "a": 91}, "geometry": {"type": "Point", "coordinates": [408115.3, 5709612.1]}}, {"type": "Feature", "properties": {"k": "stop", "a": 6}, "geometry": {"type": "Point", "coordinates": [409048.62, 5709802.78]}}, {"type": "Feature", "properties": {"k": "stop", "a": 292}, "geometry": {"type": "Point", "coordinates": [408238.59, 5708466.73]}}, {"type": "Feature", "properties": {"k": "stop", "a": 109}, "geometry": {"type": "Point", "coordinates": [408226.42, 5708468.77]}}, {"type": "Feature", "properties": {"k": "stop", "a": 290}, "geometry": {"type": "Point", "coordinates": [408304.96, 5708649.8]}}, {"type": "Feature", "properties": {"k": "stop", "a": 111}, "geometry": {"type": "Point", "coordinates": [408292.61, 5708643.11]}}, {"type": "Feature", "properties": {"k": "stop", "a": 305}, "geometry": {"type": "Point", "coordinates": [408825.93, 5709684.74]}}, {"type": "Feature", "properties": {"k": "stop", "a": 125}, "geometry": {"type": "Point", "coordinates": [408868.65, 5709762.66]}}, {"type": "Feature", "properties": {"k": "stop", "a": 209}, "geometry": {"type": "Point", "coordinates": [409346.29, 5709878.37]}}, {"type": "Feature", "properties": {"k": "stop", "a": 37}, "geometry": {"type": "Point", "coordinates": [409326.39, 5709878.06]}}, {"type": "Feature", "properties": {"k": "stop", "a": 84}, "geometry": {"type": "Point", "coordinates": [409451.22, 5709319.43]}}, {"type": "Feature", "properties": {"k": "stop", "a": 186}, "geometry": {"type": "Point", "coordinates": [409659.45, 5709303.87]}}, {"type": "Feature", "properties": {"k": "stop", "a": 263}, "geometry": {"type": "Point", "coordinates": [409457.69, 5709343.7]}}, {"type": "Feature", "properties": {"k": "stop", "a": 29}, "geometry": {"type": "Point", "coordinates": [409919.84, 5709597.08]}}, {"type": "Feature", "properties": {"k": "stop", "a": 218}, "geometry": {"type": "Point", "coordinates": [409903.54, 5709628.61]}}, {"type": "Feature", "properties": {"k": "stop", "a": 35}, "geometry": {"type": "Point", "coordinates": [409681.87, 5709774.92]}}, {"type": "Feature", "properties": {"k": "stop", "a": 243}, "geometry": {"type": "Point", "coordinates": [409583.07, 5709918.05]}}, {"type": "Feature", "properties": {"k": "stop", "a": 0}, "geometry": {"type": "Point", "coordinates": [408641.03, 5709528.04]}}, {"type": "Feature", "properties": {"k": "stop", "a": 206}, "geometry": {"type": "Point", "coordinates": [409678.51, 5709791.15]}}, {"type": "Feature", "properties": {"k": "stop", "a": 269}, "geometry": {"type": "Point", "coordinates": [409878.7, 5709400.29]}}, {"type": "Feature", "properties": {"k": "stop", "a": 3}, "geometry": {"type": "Point", "coordinates": [409597.74, 5709138.07]}}, {"type": "Feature", "properties": {"k": "stop", "a": 185}, "geometry": {"type": "Point", "coordinates": [409592.42, 5709147.72]}}, {"type": "Feature", "properties": {"k": "playground"}, "geometry": {"type": "Polygon", "coordinates": [[[408061.04, 5709116.24], [408073.82, 5709082.95], [408081.81, 5709096.47], [408085.5, 5709116.37], [408061.04, 5709116.24]]]}}, {"type": "Feature", "properties": {"k": "playground"}, "geometry": {"type": "Polygon", "coordinates": [[[408244.96, 5708805.32], [408234.75, 5708777.97], [408276.82, 5708762.34], [408287.03, 5708789.69], [408244.96, 5708805.32]]]}}, {"type": "Feature", "properties": {"k": "playground"}, "geometry": {"type": "Polygon", "coordinates": [[[409003.76, 5709157.22], [409055.85, 5709155.7], [409062.29, 5709107.61], [409043.79, 5709108.4], [409043.28, 5709059.92], [408982.58, 5709060.34], [409003.76, 5709157.22]]]}}, {"type": "Feature", "properties": {"k": "playground"}, "geometry": {"type": "Polygon", "coordinates": [[[409071.54, 5709642.94], [409096.06, 5709630.05], [409089.53, 5709620.42], [409072.13, 5709618.96], [409065.39, 5709625.76], [409071.54, 5709642.94]]]}}, {"type": "Feature", "properties": {"k": "playground"}, "geometry": {"type": "Polygon", "coordinates": [[[409289.55, 5709079.09], [409289.18, 5709047.41], [409304.04, 5709032.67], [409318.72, 5709032.25], [409318.86, 5709078.6], [409289.55, 5709079.09]]]}}, {"type": "Feature", "properties": {"k": "playground"}, "geometry": {"type": "Polygon", "coordinates": [[[408730.25, 5709772.15], [408728.67, 5709756.09], [408738.16, 5709755.07], [408738.7, 5709759.42], [408749.68, 5709758.34], [408750.37, 5709765.06], [408739.53, 5709770.59], [408730.25, 5709772.15]]]}}, {"type": "Feature", "properties": {"k": "playground"}, "geometry": {"type": "Polygon", "coordinates": [[[409587.77, 5709137.87], [409584.96, 5709111.48], [409645.75, 5709106.89], [409646.78, 5709130.45], [409644.65, 5709133.98], [409641.09, 5709135.28], [409587.77, 5709137.87]]]}}, {"type": "Feature", "properties": {"k": "playground"}, "geometry": {"type": "Polygon", "coordinates": [[[409000.51, 5709856.48], [408995.16, 5709851.35], [409003.25, 5709849.92], [409002.3, 5709844.5], [409016.69, 5709842.48], [409015.89, 5709836.32], [409026.4, 5709834.28], [409028.86, 5709852.25], [409020.27, 5709853.76], [409000.51, 5709856.48]]]}}, {"type": "Feature", "properties": {"k": "playground"}, "geometry": {"type": "Polygon", "coordinates": [[[409157.97, 5709566.61], [409162.27, 5709569.03], [409164.14, 5709576.13], [409164.01, 5709582.61], [409162.41, 5709586.13], [409158.53, 5709588.45], [409154.8, 5709589.34], [409157.03, 5709583.74], [409156.2, 5709574.94], [409154.64, 5709573.22], [409154.9, 5709567.17], [409157.97, 5709566.61]]]}}, {"type": "Feature", "properties": {"k": "playground"}, "geometry": {"type": "Polygon", "coordinates": [[[408400.73, 5709885.42], [408401.13, 5709870.88], [408370.74, 5709870.05], [408370.33, 5709884.59], [408400.73, 5709885.42]]]}}, {"type": "Feature", "properties": {"k": "playground"}, "geometry": {"type": "Polygon", "coordinates": [[[410002.19, 5709390.4], [410012.22, 5709378.43], [409968.96, 5709373.82], [409970.78, 5709387.06], [410002.19, 5709390.4]]]}}, {"type": "Feature", "properties": {"k": "playground"}, "geometry": {"type": "Polygon", "coordinates": [[[409320.17, 5709347.78], [409346.69, 5709347.67], [409344.06, 5709362.38], [409342.15, 5709364.55], [409338.35, 5709365.45], [409321.18, 5709362.79], [409320.17, 5709347.78]]]}}, {"type": "Feature", "properties": {"k": "playground"}, "geometry": {"type": "Polygon", "coordinates": [[[408422.35, 5709368.54], [408422.26, 5709353.13], [408445.99, 5709353.45], [408445.83, 5709364.96], [408422.35, 5709368.54]]]}}, {"type": "Feature", "properties": {"k": "playground"}, "geometry": {"type": "Polygon", "coordinates": [[[408436.35, 5708865.49], [408432.23, 5708848.47], [408461.04, 5708845.73], [408462.63, 5708861.75], [408436.35, 5708865.49]]]}}, {"type": "Feature", "properties": {"k": "swing"}, "geometry": {"type": "Point", "coordinates": [408438.16, 5708854.45]}}, {"type": "Feature", "properties": {"k": "playhouse"}, "geometry": {"type": "Point", "coordinates": [408450.27, 5708858.04]}}, {"type": "Feature", "properties": {"k": "climb"}, "geometry": {"type": "Point", "coordinates": [408455.41, 5708853.58]}}, {"type": "Feature", "properties": {"k": "roundabout"}, "geometry": {"type": "Point", "coordinates": [408450.64, 5708851.34]}}, {"type": "Feature", "properties": {"k": "swing"}, "geometry": {"type": "Point", "coordinates": [409600.17, 5709127.77]}}, {"type": "Feature", "properties": {"k": "sandpit"}, "geometry": {"type": "Polygon", "coordinates": [[[409018.88, 5709851.6], [409018.06, 5709844.99], [409024.02, 5709844.18], [409024.73, 5709850.65], [409018.88, 5709851.6]]]}}]}