{"type": "FeatureCollection", "attribution": "\u00a9 OpenStreetMap contributors (ODbL)", "crs": {"type": "name", "properties": {"name": "urn:ogc:def:crs:EPSG::25832"}}, "features": [{"type": "Feature", "properties": {"k": "signal", "a": 182}, "geometry": {"type": "Point", "coordinates": [408301.69, 5710104.81]}}, {"type": "Feature", "properties": {"k": "signal", "a": 47}, "geometry": {"type": "Point", "coordinates": [409381.85, 5711149.22]}}, {"type": "Feature", "properties": {"k": "signal", "a": 259}, "geometry": {"type": "Point", "coordinates": [408619.26, 5711133.78]}}, {"type": "Feature", "properties": {"k": "signal", "a": 288}, "geometry": {"type": "Point", "coordinates": [408656.78, 5711931.44]}}, {"type": "Feature", "properties": {"k": "signal", "a": 176}, "geometry": {"type": "Point", "coordinates": [409056.01, 5711169.56]}}, {"type": "Feature", "properties": {"k": "signal", "a": 238}, "geometry": {"type": "Point", "coordinates": [408291.53, 5710089.03]}}, {"type": "Feature", "properties": {"k": "bollard"}, "geometry": {"type": "Point", "coordinates": [409176.59, 5710129.9]}}, {"type": "Feature", "properties": {"k": "signal", "a": 91}, "geometry": {"type": "Point", "coordinates": [408099.28, 5710419.81]}}, {"type": "Feature", "properties": {"k": "signal", "a": 254}, "geometry": {"type": "Point", "coordinates": [408269.08, 5710120.23]}}, {"type": "Feature", "properties": {"k": "bollard"}, "geometry": {"type": "Point", "coordinates": [408928.9, 5710105.94]}}, {"type": "Feature", "properties": {"k": "bollard"}, "geometry": {"type": "Point", "coordinates": [409173.51, 5710372.2]}}, {"type": "Feature", "properties": {"k": "signal", "a": 187}, "geometry": {"type": "Point", "coordinates": [409400.6, 5710349.63]}}, {"type": "Feature", "properties": {"k": "bollard"}, "geometry": {"type": "Point", "coordinates": [409235.56, 5710433.75]}}, {"type": "Feature", "properties": {"k": "bollard"}, "geometry": {"type": "Point", "coordinates": [409309.83, 5710127.47]}}, {"type": "Feature", "properties": {"k": "bollard"}, "geometry": {"type": "Point", "coordinates": [409243.87, 5710364.48]}}, {"type": "Feature", "properties": {"k": "signal", "a": 5}, "geometry": {"type": "Point", "coordinates": [408545.38, 5710425.96]}}, {"type": "Feature", "properties": {"k": "signal", "a": 167}, "geometry": {"type": "Point", "coordinates": [408077.7, 5710099.26]}}, {"type": "Feature", "properties": {"k": "bollard"}, "geometry": {"type": "Point", "coordinates": [409206.87, 5711511.63]}}, {"type": "Feature", "properties": {"k": "bollard"}, "geometry": {"type": "Point", "coordinates": [408607.21, 5710648.77]}}, {"type": "Feature", "properties": {"k": "bollard"}, "geometry": {"type": "Point", "coordinates": [408240.31, 5710929.96]}}, {"type": "Feature", "properties": {"k": "bollard"}, "geometry": {"type": "Point", "coordinates": [408500.43, 5711136.79]}}, {"type": "Feature", "properties": {"k": "bollard"}, "geometry": {"type": "Point", "coordinates": [409577.35, 5711772.62]}}, {"type": "Feature", "properties": {"k": "bollard"}, "geometry": {"type": "Point", "coordinates": [408068.16, 5711011.16]}}, {"type": "Feature", "properties": {"k": "signal", "a": 16}, "geometry": {"type": "Point", "coordinates": [409523.14, 5710151.41]}}, {"type": "Feature", "properties": {"k": "bollard"}, "geometry": {"type": "Point", "coordinates": [408575.12, 5710976.77]}}, {"type": "Feature", "properties": {"k": "bollard"}, "geometry": {"type": "Point", "coordinates": [408566.84, 5710884.3]}}, {"type": "Feature", "properties": {"k": "shelter", "a": 116}, "geometry": {"type": "Point", "coordinates": [409333.34, 5710109.37]}}, {"type": "Feature", "properties": {"k": "bollard"}, "geometry": {"type": "Point", "coordinates": [409042.12, 5710980.66]}}, {"type": "Feature", "properties": {"k": "bollard"}, "geometry": {"type": "Point", "coordinates": [409290.21, 5710334.14]}}, {"type": "Feature", "properties": {"k": "signal", "a": 218}, "geometry": {"type": "Point", "coordinates": [409367.06, 5711119.4]}}, {"type": "Feature", "properties": {"k": "bollard"}, "geometry": {"type": "Point", "coordinates": [409210.46, 5711522.94]}}, {"type": "Feature", "properties": {"k": "bollard"}, "geometry": {"type": "Point", "coordinates": [409297.95, 5711465.13]}}, {"type": "Feature", "properties": {"k": "bench", "a": 76}, "geometry": {"type": "Point", "coordinates": [408678.33, 5711330.64]}}, {"type": "Feature", "properties": {"k": "bench", "a": 228}, "geometry": {"type": "Point", "coordinates": [408906.91, 5711263.0]}}, {"type": "Feature", "properties": {"k": "bench", "a": 206}, "geometry": {"type": "Point", "coordinates": [408916.67, 5711242.63]}}, {"type": "Feature", "properties": {"k": "bench", "a": 1}, "geometry": {"type": "Point", "coordinates": [408888.19, 5711251.77]}}, {"type": "Feature", "properties": {"k": "bollard", "metal": true}, "geometry": {"type": "Point", "coordinates": [408871.73, 5711292.15]}}, {"type": "Feature", "properties": {"k": "bollard"}, "geometry": {"type": "Point", "coordinates": [409555.78, 5710005.98]}}, {"type": "Feature", "properties": {"k": "signal", "a": 359}, "geometry": {"type": "Point", "coordinates": [409541.21, 5710134.23]}}, {"type": "Feature", "properties": {"k": "bollard"}, "geometry": {"type": "Point", "coordinates": [409154.29, 5710641.35]}}, {"type": "Feature", "properties": {"k": "postbox", "a": 207}, "geometry": {"type": "Point", "coordinates": [409223.89, 5710232.27]}}, {"type": "Feature", "properties": {"k": "bollard"}, "geometry": {"type": "Point", "coordinates": [409290.03, 5710111.02]}}, {"type": "Feature", "properties": {"k": "bollard"}, "geometry": {"type": "Point", "coordinates": [409661.78, 5711987.23]}}, {"type": "Feature", "properties": {"k": "shelter", "a": 84}, "geometry": {"type": "Point", "coordinates": [408589.2, 5711464.54]}}, {"type": "Feature", "properties": {"k": "postbox", "a": 265}, "geometry": {"type": "Point", "coordinates": [408872.97, 5710279.19]}}, {"type": "Feature", "properties": {"k": "bench", "a": 186}, "geometry": {"type": "Point", "coordinates": [408740.5, 5711310.78]}}, {"type": "Feature", "properties": {"k": "signal", "a": 229}, "geometry": {"type": "Point", "coordinates": [408078.25, 5710484.21]}}, {"type": "Feature", "properties": {"k": "signal", "a": 122}, "geometry": {"type": "Point", "coordinates": [408097.06, 5710486.46]}}, {"type": "Feature", "properties": {"k": "postbox", "a": 340}, "geometry": {"type": "Point", "coordinates": [408171.39, 5710270.91]}}, {"type": "Feature", "properties": {"k": "shelter", "a": 3}, "geometry": {"type": "Point", "coordinates": [408783.57, 5710076.75]}}, {"type": "Feature", "properties": {"k": "shelter", "a": 2}, "geometry": {"type": "Point", "coordinates": [408426.29, 5710090.22]}}, {"type": "Feature", "properties": {"k": "shelter", "a": 237}, "geometry": {"type": "Point", "coordinates": [408636.32, 5711911.83]}}, {"type": "Feature", "properties": {"k": "bollard"}, "geometry": {"type": "Point", "coordinates": [409459.71, 5711388.12]}}, {"type": "Feature", "properties": {"k": "signal", "a": 39}, "geometry": {"type": "Point", "coordinates": [409383.78, 5710364.31]}}, {"type": "Feature", "properties": {"k": "bollard"}, "geometry": {"type": "Point", "coordinates": [409163.25, 5710646.08]}}, {"type": "Feature", "properties": {"k": "signal", "a": 218}, "geometry": {"type": "Point", "coordinates": [409352.12, 5711142.0]}}, {"type": "Feature", "properties": {"k": "bench", "a": 334}, "geometry": {"type": "Point", "coordinates": [409358.13, 5710357.85]}}, {"type": "Feature", "properties": {"k": "bench", "a": 64}, "geometry": {"type": "Point", "coordinates": [409348.54, 5710363.32]}}, {"type": "Feature", "properties": {"k": "bench", "a": 64}, "geometry": {"type": "Point", "coordinates": [409348.41, 5710361.19]}}, {"type": "Feature", "properties": {"k": "bench", "a": 11}, "geometry": {"type": "Point", "coordinates": [409362.07, 5710359.82]}}, {"type": "Feature", "properties": {"k": "bench", "a": 293}, "geometry": {"type": "Point", "coordinates": [409353.85, 5710358.3]}}, {"type": "Feature", "properties": {"k": "bench", "a": 327}, "geometry": {"type": "Point", "coordinates": [409360.18, 5710358.55]}}, {"type": "Feature", "properties": {"k": "bench", "a": 6}, "geometry": {"type": "Point", "coordinates": [409355.89, 5710357.61]}}, {"type": "Feature", "properties": {"k": "postbox", "a": 170}, "geometry": {"type": "Point", "coordinates": [409186.28, 5710516.13]}}, {"type": "Feature", "properties": {"k": "signal", "a": 226}, "geometry": {"type": "Point", "coordinates": [409327.56, 5710180.25]}}, {"type": "Feature", "properties": {"k": "signal", "a": 169}, "geometry": {"type": "Point", "coordinates": [409398.31, 5710410.32]}}, {"type": "Feature", "properties": {"k": "signal", "a": 107}, "geometry": {"type": "Point", "coordinates": [409361.83, 5710178.68]}}, {"type": "Feature", "properties": {"k": "bench", "a": 260}, "geometry": {"type": "Point", "coordinates": [409194.99, 5710543.02]}}, {"type": "Feature", "properties": {"k": "bench", "a": 79}, "geometry": {"type": "Point", "coordinates": [409191.3, 5710524.15]}}, {"type": "Feature", "properties": {"k": "bollard"}, "geometry": {"type": "Point", "coordinates": [408127.23, 5710033.52]}}, {"type": "Feature", "properties": {"k": "signal", "a": 182}, "geometry": {"type": "Point", "coordinates": [408242.96, 5710106.9]}}, {"type": "Feature", "properties": {"k": "signal", "a": 1}, "geometry": {"type": "Point", "coordinates": [408533.51, 5710109.11]}}, {"type": "Feature", "properties": {"k": "signal", "a": 92}, "geometry": {"type": "Point", "coordinates": [408557.51, 5710094.91]}}, {"type": "Feature", "properties": {"k": "signal", "a": 272}, "geometry": {"type": "Point", "coordinates": [408516.09, 5710089.34]}}, {"type": "Feature", "properties": {"k": "signal", "a": 284}, "geometry": {"type": "Point", "coordinates": [409498.3, 5710135.58]}}, {"type": "Feature", "properties": {"k": "signal", "a": 192}, "geometry": {"type": "Point", "coordinates": [409513.06, 5710125.46]}}, {"type": "Feature", "properties": {"k": "signal", "a": 101}, "geometry": {"type": "Point", "coordinates": [409031.51, 5710531.16]}}, {"type": "Feature", "properties": {"k": "signal", "a": 93}, "geometry": {"type": "Point", "coordinates": [408845.78, 5710538.02]}}, {"type": "Feature", "properties": {"k": "signal", "a": 179}, "geometry": {"type": "Point", "coordinates": [408833.63, 5710511.14]}}, {"type": "Feature", "properties": {"k": "signal", "a": 359}, "geometry": {"type": "Point", "coordinates": [408822.64, 5710550.23]}}, {"type": "Feature", "properties": {"k": "signal", "a": 80}, "geometry": {"type": "Point", "coordinates": [408567.16, 5710417.27]}}, {"type": "Feature", "properties": {"k": "signal", "a": 251}, "geometry": {"type": "Point", "coordinates": [408539.3, 5710403.46]}}, {"type": "Feature", "properties": {"k": "bollard"}, "geometry": {"type": "Point", "coordinates": [409260.7, 5710110.43]}}, {"type": "Feature", "properties": {"k": "bollard"}, "geometry": {"type": "Point", "coordinates": [409173.96, 5710435.03]}}, {"type": "Feature", "properties": {"k": "bollard"}, "geometry": {"type": "Point", "coordinates": [409168.56, 5710377.05]}}, {"type": "Feature", "properties": {"k": "signal", "a": 359}, "geometry": {"type": "Point", "coordinates": [408415.06, 5710868.37]}}, {"type": "Feature", "properties": {"k": "signal", "a": 360}, "geometry": {"type": "Point", "coordinates": [408379.04, 5710867.65]}}, {"type": "Feature", "properties": {"k": "signal", "a": 98}, "geometry": {"type": "Point", "coordinates": [408395.68, 5710889.92]}}, {"type": "Feature", "properties": {"k": "shelter", "a": 175}, "geometry": {"type": "Point", "coordinates": [408995.76, 5711167.88]}}, {"type": "Feature", "properties": {"k": "signal", "a": 347}, "geometry": {"type": "Point", "coordinates": [408621.6, 5711157.31]}}, {"type": "Feature", "properties": {"k": "signal", "a": 140}, "geometry": {"type": "Point", "coordinates": [408652.33, 5711127.38]}}, {"type": "Feature", "properties": {"k": "signal", "a": 91}, "geometry": {"type": "Point", "coordinates": [408650.59, 5711147.81]}}, {"type": "Feature", "properties": {"k": "signal", "a": 213}, "geometry": {"type": "Point", "coordinates": [409526.0, 5711335.95]}}, {"type": "Feature", "properties": {"k": "signal", "a": 114}, "geometry": {"type": "Point", "coordinates": [409554.04, 5711353.44]}}, {"type": "Feature", "properties": {"k": "signal", "a": 204}, "geometry": {"type": "Point", "coordinates": [409560.21, 5711315.52]}}, {"type": "Feature", "properties": {"k": "signal", "a": 303}, "geometry": {"type": "Point", "coordinates": [409532.76, 5711298.51]}}, {"type": "Feature", "properties": {"k": "shelter", "a": 85}, "geometry": {"type": "Point", "coordinates": [408576.57, 5711417.07]}}, {"type": "Feature", "properties": {"k": "signal", "a": 359}, "geometry": {"type": "Point", "coordinates": [409404.13, 5710421.9]}}, {"type": "Feature", "properties": {"k": "bike", "n": 12, "a": 29}, "geometry": {"type": "Point", "coordinates": [409155.99, 5710630.75]}}, {"type": "Feature", "properties": {"k": "shelter", "a": 182}, "geometry": {"type": "Point", "coordinates": [408532.21, 5710150.48]}}, {"type": "Feature", "properties": {"k": "shelter", "a": 91}, "geometry": {"type": "Point", "coordinates": [409463.49, 5711440.37]}}, {"type": "Feature", "properties": {"k": "shelter", "a": 215}, "geometry": {"type": "Point", "coordinates": [409506.45, 5711366.22]}}, {"type": "Feature", "properties": {"k": "shelter", "a": 268}, "geometry": {"type": "Point", "coordinates": [409357.69, 5711743.24]}}, {"type": "Feature", "properties": {"k": "bollard"}, "geometry": {"type": "Point", "coordinates": [409800.47, 5710369.03]}}, {"type": "Feature", "properties": {"k": "bollard"}, "geometry": {"type": "Point", "coordinates": [408723.83, 5711307.47]}}, {"type": "Feature", "properties": {"k": "bench", "a": 200}, "geometry": {"type": "Point", "coordinates": [408932.4, 5711646.22]}}, {"type": "Feature", "properties": {"k": "shelter", "a": 38}, "geometry": {"type": "Point", "coordinates": [408885.96, 5710933.96]}}, {"type": "Feature", "properties": {"k": "bike", "n": 2, "a": 269}, "geometry": {"type": "Point", "coordinates": [408925.29, 5710073.4]}}, {"type": "Feature", "properties": {"k": "bin"}, "geometry": {"type": "Point", "coordinates": [409049.62, 5710074.33]}}, {"type": "Feature", "properties": {"k": "bin"}, "geometry": {"type": "Point", "coordinates": [409074.41, 5710071.94]}}, {"type": "Feature", "properties": {"k": "bench", "a": 206}, "geometry": {"type": "Point", "coordinates": [409118.35, 5710067.71]}}, {"type": "Feature", "properties": {"k": "bin"}, "geometry": {"type": "Point", "coordinates": [409118.5, 5710070.93]}}, {"type": "Feature", "properties": {"k": "bin"}, "geometry": {"type": "Point", "coordinates": [409127.42, 5710118.96]}}, {"type": "Feature", "properties": {"k": "bench", "a": 15}, "geometry": {"type": "Point", "coordinates": [409127.3, 5710117.44]}}, {"type": "Feature", "properties": {"k": "bike", "n": 3, "a": 332}, "geometry": {"type": "Point", "coordinates": [409110.56, 5710143.1]}}, {"type": "Feature", "properties": {"k": "bench", "a": 164}, "geometry": {"type": "Point", "coordinates": [409204.03, 5710138.17]}}, {"type": "Feature", "properties": {"k": "bin"}, "geometry": {"type": "Point", "coordinates": [409214.56, 5710139.67]}}, {"type": "Feature", "properties": {"k": "postbox", "a": 184}, "geometry": {"type": "Point", "coordinates": [409990.24, 5710563.88]}}, {"type": "Feature", "properties": {"k": "postbox", "a": 360}, "geometry": {"type": "Point", "coordinates": [408482.13, 5710865.66]}}, {"type": "Feature", "properties": {"k": "bollard", "metal": true}, "geometry": {"type": "Point", "coordinates": [408101.95, 5711958.08]}}, {"type": "Feature", "properties": {"k": "bin"}, "geometry": {"type": "Point", "coordinates": [409073.63, 5710169.29]}}, {"type": "Feature", "properties": {"k": "bike", "n": 4, "a": 95}, "geometry": {"type": "Point", "coordinates": [409162.75, 5710387.82]}}, {"type": "Feature", "properties": {"k": "bike", "n": 2, "a": 37}, "geometry": {"type": "Point", "coordinates": [409023.62, 5710201.69]}}, {"type": "Feature", "properties": {"k": "bench", "a": 179}, "geometry": {"type": "Point", "coordinates": [409367.83, 5711582.28]}}, {"type": "Feature", "properties": {"k": "bench", "a": 93}, "geometry": {"type": "Point", "coordinates": [408521.85, 5710145.09]}}, {"type": "Feature", "properties": {"k": "bench", "a": 229}, "geometry": {"type": "Point", "coordinates": [409397.84, 5711624.14]}}, {"type": "Feature", "properties": {"k": "bench", "a": 272}, "geometry": {"type": "Point", "coordinates": [409389.89, 5711606.09]}}, {"type": "Feature", "properties": {"k": "bench", "a": 71}, "geometry": {"type": "Point", "coordinates": [408839.85, 5710313.52]}}, {"type": "Feature", "properties": {"k": "shelter", "a": 284}, "geometry": {"type": "Point", "coordinates": [408882.55, 5710277.82]}}, {"type": "Feature", "properties": {"k": "shelter", "a": 265}, "geometry": {"type": "Point", "coordinates": [408872.85, 5710277.46]}}, {"type": "Feature", "properties": {"k": "shelter", "a": 259}, "geometry": {"type": "Point", "coordinates": [409211.95, 5710467.65]}}, {"type": "Feature", "properties": {"k": "shelter", "a": 16}, "geometry": {"type": "Point", "coordinates": [408924.34, 5710922.03]}}, {"type": "Feature", "properties": {"k": "shelter", "a": 183}, "geometry": {"type": "Point", "coordinates": [408759.92, 5711146.89]}}, {"type": "Feature", "properties": {"k": "shelter", "a": 189}, "geometry": {"type": "Point", "coordinates": [409260.56, 5711181.94]}}, {"type": "Feature", "properties": {"k": "postbox", "a": 154}, "geometry": {"type": "Point", "coordinates": [408586.97, 5711310.67]}}, {"type": "Feature", "properties": {"k": "bench", "back": false, "a": 54}, "geometry": {"type": "Point", "coordinates": [408769.98, 5711412.06]}}, {"type": "Feature", "properties": {"k": "bench", "back": false, "a": 257}, "geometry": {"type": "Point", "coordinates": [408738.76, 5711427.99]}}, {"type": "Feature", "properties": {"k": "bike", "n": 12, "a": 188}, "geometry": {"type": "Point", "coordinates": [409221.15, 5710445.55]}}, {"type": "Feature", "properties": {"k": "bike", "n": 1, "a": 6}, "geometry": {"type": "Point", "coordinates": [409239.98, 5710430.9]}}, {"type": "Feature", "properties": {"k": "bike", "n": 12, "a": 262}, "geometry": {"type": "Point", "coordinates": [409221.78, 5710426.15]}}, {"type": "Feature", "properties": {"k": "bench", "a": 91}, "geometry": {"type": "Point", "coordinates": [408685.67, 5711696.33]}}, {"type": "Feature", "properties": {"k": "bench", "a": 51}, "geometry": {"type": "Point", "coordinates": [408654.84, 5711803.59]}}, {"type": "Feature", "properties": {"k": "bench", "a": 278}, "geometry": {"type": "Point", "coordinates": [408741.6, 5711621.95]}}, {"type": "Feature", "properties": {"k": "bench", "a": 94}, "geometry": {"type": "Point", "coordinates": [408677.47, 5711725.26]}}, {"type": "Feature", "properties": {"k": "bench", "a": 94}, "geometry": {"type": "Point", "coordinates": [408678.21, 5711741.64]}}, {"type": "Feature", "properties": {"k": "bench", "a": 278}, "geometry": {"type": "Point", "coordinates": [408744.81, 5711640.52]}}, {"type": "Feature", "properties": {"k": "bench", "a": 279}, "geometry": {"type": "Point", "coordinates": [408754.18, 5711704.61]}}, {"type": "Feature", "properties": {"k": "bench", "a": 320}, "geometry": {"type": "Point", "coordinates": [408914.37, 5711808.27]}}, {"type": "Feature", "properties": {"k": "bench", "a": 103}, "geometry": {"type": "Point", "coordinates": [408927.28, 5711806.11]}}, {"type": "Feature", "properties": {"k": "bollard"}, "geometry": {"type": "Point", "coordinates": [409261.74, 5710095.66]}}, {"type": "Feature", "properties": {"k": "bollard"}, "geometry": {"type": "Point", "coordinates": [409261.62, 5710097.31]}}, {"type": "Feature", "properties": {"k": "bollard"}, "geometry": {"type": "Point", "coordinates": [409261.48, 5710099.29]}}, {"type": "Feature", "properties": {"k": "bollard"}, "geometry": {"type": "Point", "coordinates": [409261.39, 5710101.01]}}, {"type": "Feature", "properties": {"k": "bench", "a": 186}, "geometry": {"type": "Point", "coordinates": [408740.09, 5711313.91]}}, {"type": "Feature", "properties": {"k": "bench", "a": 289}, "geometry": {"type": "Point", "coordinates": [408738.63, 5711315.55]}}, {"type": "Feature", "properties": {"k": "bench", "a": 22}, "geometry": {"type": "Point", "coordinates": [408698.13, 5711663.38]}}, {"type": "Feature", "properties": {"k": "bench", "a": 289}, "geometry": {"type": "Point", "coordinates": [408736.28, 5711315.59]}}, {"type": "Feature", "properties": {"k": "bench", "a": 212}, "geometry": {"type": "Point", "coordinates": [408955.8, 5711634.31]}}, {"type": "Feature", "properties": {"k": "bench", "a": 270}, "geometry": {"type": "Point", "coordinates": [409361.47, 5711222.75]}}, {"type": "Feature", "properties": {"k": "bench", "a": 270}, "geometry": {"type": "Point", "coordinates": [409359.42, 5711172.72]}}, {"type": "Feature", "properties": {"k": "bench", "a": 273}, "geometry": {"type": "Point", "coordinates": [408714.82, 5711384.25]}}, {"type": "Feature", "properties": {"k": "bench", "a": 273}, "geometry": {"type": "Point", "coordinates": [408716.31, 5711397.72]}}, {"type": "Feature", "properties": {"k": "bike", "n": 10, "a": 2}, "geometry": {"type": "Point", "coordinates": [409277.77, 5710488.19]}}, {"type": "Feature", "properties": {"k": "bollard"}, "geometry": {"type": "Point", "coordinates": [408425.17, 5711135.38]}}, {"type": "Feature", "properties": {"k": "bench", "a": 38}, "geometry": {"type": "Point", "coordinates": [409019.34, 5711659.98]}}, {"type": "Feature", "properties": {"k": "bench", "a": 355}, "geometry": {"type": "Point", "coordinates": [409037.65, 5711655.21]}}, {"type": "Feature", "properties": {"k": "bollard"}, "geometry": {"type": "Point", "coordinates": [409606.93, 5711482.69]}}, {"type": "Feature", "properties": {"k": "bollard"}, "geometry": {"type": "Point", "coordinates": [409060.5, 5711361.22]}}, {"type": "Feature", "properties": {"k": "bench", "a": 116}, "geometry": {"type": "Point", "coordinates": [409611.33, 5711313.55]}}, {"type": "Feature", "properties": {"k": "bench", "a": 198}, "geometry": {"type": "Point", "coordinates": [408860.47, 5711183.34]}}, {"type": "Feature", "properties": {"k": "bench", "a": 173}, "geometry": {"type": "Point", "coordinates": [408831.5, 5711292.43]}}, {"type": "Feature", "properties": {"k": "bench", "a": 173}, "geometry": {"type": "Point", "coordinates": [408851.42, 5711293.93]}}, {"type": "Feature", "properties": {"k": "bench", "a": 261}, "geometry": {"type": "Point", "coordinates": [408810.44, 5711316.76]}}, {"type": "Feature", "properties": {"k": "bench", "a": 261}, "geometry": {"type": "Point", "coordinates": [408810.29, 5711320.58]}}, {"type": "Feature", "properties": {"k": "bench", "a": 261}, "geometry": {"type": "Point", "coordinates": [408809.9, 5711327.64]}}, {"type": "Feature", "properties": {"k": "bench", "a": 77}, "geometry": {"type": "Point", "coordinates": [408670.03, 5711364.81]}}, {"type": "Feature", "properties": {"k": "bench", "a": 77}, "geometry": {"type": "Point", "coordinates": [408669.36, 5711369.03]}}, {"type": "Feature", "properties": {"k": "bench", "back": false, "a": 261}, "geometry": {"type": "Point", "coordinates": [408736.81, 5711434.99]}}, {"type": "Feature", "properties": {"k": "bench", "back": false, "a": 261}, "geometry": {"type": "Point", "coordinates": [408736.56, 5711437.52]}}, {"type": "Feature", "properties": {"k": "bench", "a": 3}, "geometry": {"type": "Point", "coordinates": [408604.44, 5710137.77]}}, {"type": "Feature", "properties": {"k": "bench", "a": 93}, "geometry": {"type": "Point", "coordinates": [408606.2, 5710251.69]}}, {"type": "Feature", "properties": {"k": "bench", "a": 2}, "geometry": {"type": "Point", "coordinates": [408631.55, 5710278.39]}}, {"type": "Feature", "properties": {"k": "bench", "a": 182}, "geometry": {"type": "Point", "coordinates": [408691.74, 5710282.02]}}, {"type": "Feature", "properties": {"k": "bench", "a": 182}, "geometry": {"type": "Point", "coordinates": [408717.62, 5710244.84]}}, {"type": "Feature", "properties": {"k": "bench", "a": 3}, "geometry": {"type": "Point", "coordinates": [408706.23, 5710133.55]}}, {"type": "Feature", "properties": {"k": "bollard"}, "geometry": {"type": "Point", "coordinates": [409031.41, 5711373.87]}}, {"type": "Feature", "properties": {"k": "bench", "a": 90}, "geometry": {"type": "Point", "coordinates": [409348.91, 5711682.03]}}, {"type": "Feature", "properties": {"k": "bench", "a": 197}, "geometry": {"type": "Point", "coordinates": [409419.47, 5711945.2]}}, {"type": "Feature", "properties": {"k": "bench", "a": 189}, "geometry": {"type": "Point", "coordinates": [409381.67, 5711767.82]}}, {"type": "Feature", "properties": {"k": "bollard"}, "geometry": {"type": "Point", "coordinates": [409065.15, 5711295.73]}}, {"type": "Feature", "properties": {"k": "bench", "a": 180}, "geometry": {"type": "Point", "coordinates": [409360.77, 5711248.87]}}, {"type": "Feature", "properties": {"k": "bench", "a": 90}, "geometry": {"type": "Point", "coordinates": [409355.03, 5711233.85]}}, {"type": "Feature", "properties": {"k": "bench", "a": 90}, "geometry": {"type": "Point", "coordinates": [409355.01, 5711187.14]}}, {"type": "Feature", "properties": {"k": "bollard"}, "geometry": {"type": "Point", "coordinates": [408993.54, 5710928.32]}}, {"type": "Feature", "properties": {"k": "bench", "a": 96}, "geometry": {"type": "Point", "coordinates": [408965.21, 5710932.18]}}, {"type": "Feature", "properties": {"k": "bench", "a": 96}, "geometry": {"type": "Point", "coordinates": [408966.13, 5710941.44]}}, {"type": "Feature", "properties": {"k": "bin"}, "geometry": {"type": "Point", "coordinates": [408963.8, 5710928.62]}}, {"type": "Feature", "properties": {"k": "bollard"}, "geometry": {"type": "Point", "coordinates": [408964.63, 5710996.24]}}, {"type": "Feature", "properties": {"k": "bench", "back": false, "a": 271}, "geometry": {"type": "Point", "coordinates": [409288.78, 5711565.76]}}, {"type": "Feature", "properties": {"k": "bench", "a": 91}, "geometry": {"type": "Point", "coordinates": [409281.49, 5711618.43]}}, {"type": "Feature", "properties": {"k": "bench", "a": 290}, "geometry": {"type": "Point", "coordinates": [409428.95, 5711553.12]}}, {"type": "Feature", "properties": {"k": "bollard"}, "geometry": {"type": "Point", "coordinates": [409333.27, 5711833.25]}}, {"type": "Feature", "properties": {"k": "bollard"}, "geometry": {"type": "Point", "coordinates": [409266.19, 5711784.61]}}, {"type": "Feature", "properties": {"k": "bollard"}, "geometry": {"type": "Point", "coordinates": [409361.53, 5711784.82]}}, {"type": "Feature", "properties": {"k": "bollard"}, "geometry": {"type": "Point", "coordinates": [409266.03, 5711781.74]}}, {"type": "Feature", "properties": {"k": "bollard"}, "geometry": {"type": "Point", "coordinates": [409362.69, 5711782.08]}}, {"type": "Feature", "properties": {"k": "bollard"}, "geometry": {"type": "Point", "coordinates": [408416.07, 5710330.61]}}, {"type": "Feature", "properties": {"k": "hydrant"}, "geometry": {"type": "Point", "coordinates": [409068.76, 5711301.42]}}, {"type": "Feature", "properties": {"k": "signal", "a": 117}, "geometry": {"type": "Point", "coordinates": [409033.62, 5710530.46]}}, {"type": "Feature", "properties": {"k": "signal", "a": 45}, "geometry": {"type": "Point", "coordinates": [409013.33, 5710560.43]}}, {"type": "Feature", "properties": {"k": "signal", "a": 10}, "geometry": {"type": "Point", "coordinates": [408990.69, 5710532.6]}}, {"type": "Feature", "properties": {"k": "bench", "a": 181}, "geometry": {"type": "Point", "coordinates": [409311.86, 5711628.42]}}, {"type": "Feature", "properties": {"k": "bench", "a": 179}, "geometry": {"type": "Point", "coordinates": [409320.44, 5711628.9]}}, {"type": "Feature", "properties": {"k": "bench", "a": 91}, "geometry": {"type": "Point", "coordinates": [409280.5, 5711616.27]}}, {"type": "Feature", "properties": {"k": "postbox", "a": 280}, "geometry": {"type": "Point", "coordinates": [409354.41, 5711737.73]}}, {"type": "Feature", "properties": {"k": "bench", "a": 80}, "geometry": {"type": "Point", "coordinates": [409225.63, 5710409.98]}}, {"type": "Feature", "properties": {"k": "bench", "a": 80}, "geometry": {"type": "Point", "coordinates": [409225.5, 5710411.08]}}, {"type": "Feature", "properties": {"k": "bench", "a": 80}, "geometry": {"type": "Point", "coordinates": [409225.7, 5710409.43]}}, {"type": "Feature", "properties": {"k": "bench", "a": 80}, "geometry": {"type": "Point", "coordinates": [409225.56, 5710410.53]}}, {"type": "Feature", "properties": {"k": "bench", "a": 140}, "geometry": {"type": "Point", "coordinates": [409224.79, 5710431.03]}}, {"type": "Feature", "properties": {"k": "bench", "a": 140}, "geometry": {"type": "Point", "coordinates": [409224.33, 5710430.72]}}, {"type": "Feature", "properties": {"k": "bench", "a": 140}, "geometry": {"type": "Point", "coordinates": [409223.87, 5710430.4]}}, {"type": "Feature", "properties": {"k": "bench", "a": 140}, "geometry": {"type": "Point", "coordinates": [409223.42, 5710430.09]}}, {"type": "Feature", "properties": {"k": "bike", "n": 1, "a": 343}, "geometry": {"type": "Point", "coordinates": [409417.34, 5710475.15]}}, {"type": "Feature", "properties": {"k": "bollard"}, "geometry": {"type": "Point", "coordinates": [409317.88, 5711851.15]}}, {"type": "Feature", "properties": {"k": "bench", "a": 37}, "geometry": {"type": "Point", "coordinates": [409026.71, 5711425.72]}}, {"type": "Feature", "properties": {"k": "bench", "a": 37}, "geometry": {"type": "Point", "coordinates": [408933.41, 5711493.45]}}, {"type": "Feature", "properties": {"k": "column"}, "geometry": {"type": "Point", "coordinates": [408602.93, 5711633.28]}}, {"type": "Feature", "properties": {"k": "bollard"}, "geometry": {"type": "Point", "coordinates": [408652.79, 5711492.44]}}, {"type": "Feature", "properties": {"k": "bollard", "metal": true}, "geometry": {"type": "Point", "coordinates": [408482.8, 5711283.73]}}, {"type": "Feature", "properties": {"k": "bollard", "metal": true}, "geometry": {"type": "Point", "coordinates": [408423.64, 5711167.76]}}, {"type": "Feature", "properties": {"k": "bollard", "metal": true}, "geometry": {"type": "Point", "coordinates": [408424.14, 5711160.58]}}, {"type": "Feature", "properties": {"k": "bollard", "metal": true}, "geometry": {"type": "Point", "coordinates": [408343.04, 5711162.2]}}, {"type": "Feature", "properties": {"k": "bollard", "metal": true}, "geometry": {"type": "Point", "coordinates": [408264.34, 5711162.11]}}, {"type": "Feature", "properties": {"k": "column"}, "geometry": {"type": "Point", "coordinates": [409312.51, 5711157.86]}}, {"type": "Feature", "properties": {"k": "bench", "a": 270}, "geometry": {"type": "Point", "coordinates": [409359.08, 5711197.71]}}, {"type": "Feature", "properties": {"k": "bollard"}, "geometry": {"type": "Point", "coordinates": [409406.32, 5711209.18]}}, {"type": "Feature", "properties": {"k": "bollard"}, "geometry": {"type": "Point", "coordinates": [409425.65, 5711222.5]}}, {"type": "Feature", "properties": {"k": "hydrant"}, "geometry": {"type": "Point", "coordinates": [409661.66, 5711995.59]}}, {"type": "Feature", "properties": {"k": "bench", "a": 189}, "geometry": {"type": "Point", "coordinates": [409009.15, 5711728.11]}}, {"type": "Feature", "properties": {"k": "bench", "a": 106}, "geometry": {"type": "Point", "coordinates": [409349.98, 5710258.84]}}, {"type": "Feature", "properties": {"k": "bench", "a": 150}, "geometry": {"type": "Point", "coordinates": [408768.91, 5711746.46]}}, {"type": "Feature", "properties": {"k": "bench", "a": 278}, "geometry": {"type": "Point", "coordinates": [408753.08, 5711701.02]}}, {"type": "Feature", "properties": {"k": "bench", "a": 287}, "geometry": {"type": "Point", "coordinates": [408996.82, 5711995.3]}}, {"type": "Feature", "properties": {"k": "bench", "a": 24}, "geometry": {"type": "Point", "coordinates": [408969.21, 5711931.77]}}, {"type": "Feature", "properties": {"k": "bench", "a": 290}, "geometry": {"type": "Point", "coordinates": [408968.15, 5711929.26]}}, {"type": "Feature", "properties": {"k": "bike", "n": 1, "a": 278}, "geometry": {"type": "Point", "coordinates": [409181.74, 5710549.83]}}, {"type": "Feature", "properties": {"k": "bin"}, "geometry": {"type": "Point", "coordinates": [409094.18, 5710835.12]}}, {"type": "Feature", "properties": {"k": "bench", "back": false, "a": 277}, "geometry": {"type": "Point", "coordinates": [409002.66, 5711225.93]}}, {"type": "Feature", "properties": {"k": "bench", "back": false, "a": 283}, "geometry": {"type": "Point", "coordinates": [409003.15, 5711223.63]}}, {"type": "Feature", "properties": {"k": "bench", "a": 217}, "geometry": {"type": "Point", "coordinates": [409004.51, 5711216.26]}}, {"type": "Feature", "properties": {"k": "bench", "a": 225}, "geometry": {"type": "Point", "coordinates": [409003.76, 5711212.07]}}, {"type": "Feature", "properties": {"k": "bench", "a": 226}, "geometry": {"type": "Point", "coordinates": [409002.15, 5711210.13]}}, {"type": "Feature", "properties": {"k": "bench", "a": 147}, "geometry": {"type": "Point", "coordinates": [408972.28, 5711226.06]}}, {"type": "Feature", "properties": {"k": "bench", "a": 147}, "geometry": {"type": "Point", "coordinates": [408978.91, 5711227.73]}}, {"type": "Feature", "properties": {"k": "bench", "a": 2}, "geometry": {"type": "Point", "coordinates": [409001.68, 5711241.61]}}, {"type": "Feature", "properties": {"k": "bench", "a": 268}, "geometry": {"type": "Point", "coordinates": [408994.19, 5711241.88]}}, {"type": "Feature", "properties": {"k": "bench", "a": 345}, "geometry": {"type": "Point", "coordinates": [409008.53, 5711240.81]}}, {"type": "Feature", "properties": {"k": "bin"}, "geometry": {"type": "Point", "coordinates": [408970.67, 5711380.16]}}, {"type": "Feature", "properties": {"k": "bin"}, "geometry": {"type": "Point", "coordinates": [408917.15, 5711386.87]}}, {"type": "Feature", "properties": {"k": "bin"}, "geometry": {"type": "Point", "coordinates": [408955.77, 5711372.55]}}, {"type": "Feature", "properties": {"k": "bin"}, "geometry": {"type": "Point", "coordinates": [409013.09, 5711363.66]}}, {"type": "Feature", "properties": {"k": "bike", "n": 8, "a": 39}, "geometry": {"type": "Point", "coordinates": [409191.33, 5710015.7]}}, {"type": "Feature", "properties": {"k": "bike", "n": 1, "a": 80}, "geometry": {"type": "Point", "coordinates": [409182.48, 5710559.62]}}, {"type": "Feature", "properties": {"k": "bike", "n": 1, "a": 272}, "geometry": {"type": "Point", "coordinates": [408966.13, 5710131.8]}}, {"type": "Feature", "properties": {"k": "bench", "a": 92}, "geometry": {"type": "Point", "coordinates": [408988.28, 5710129.3]}}, {"type": "Feature", "properties": {"k": "bench", "a": 2}, "geometry": {"type": "Point", "coordinates": [408983.42, 5710133.67]}}, {"type": "Feature", "properties": {"k": "bench", "a": 182}, "geometry": {"type": "Point", "coordinates": [408980.17, 5710124.12]}}, {"type": "Feature", "properties": {"k": "bench", "a": 182}, "geometry": {"type": "Point", "coordinates": [408973.94, 5710124.79]}}, {"type": "Feature", "properties": {"k": "bench", "a": 2}, "geometry": {"type": "Point", "coordinates": [408978.28, 5710135.86]}}, {"type": "Feature", "properties": {"k": "water", "a": 153}, "geometry": {"type": "Point", "coordinates": [409139.89, 5710054.32]}}, {"type": "Feature", "properties": {"k": "bench", "a": 194}, "geometry": {"type": "Point", "coordinates": [409090.7, 5710392.18]}}, {"type": "Feature", "properties": {"k": "bench", "a": 182}, "geometry": {"type": "Point", "coordinates": [408958.95, 5710080.71]}}, {"type": "Feature", "properties": {"k": "bench", "a": 181}, "geometry": {"type": "Point", "coordinates": [408939.56, 5710081.35]}}, {"type": "Feature", "properties": {"k": "bench", "back": false, "a": 256}, "geometry": {"type": "Point", "coordinates": [408790.86, 5710184.09]}}, {"type": "Feature", "properties": {"k": "bench", "back": false, "a": 244}, "geometry": {"type": "Point", "coordinates": [408782.64, 5710185.07]}}, {"type": "Feature", "properties": {"k": "bench", "back": false}, "geometry": {"type": "Point", "coordinates": [408792.74, 5710200.66]}}, {"type": "Feature", "properties": {"k": "bench", "back": false}, "geometry": {"type": "Point", "coordinates": [408784.66, 5710201.79]}}, {"type": "Feature", "properties": {"k": "bollard"}, "geometry": {"type": "Point", "coordinates": [409578.55, 5711451.33]}}, {"type": "Feature", "properties": {"k": "bollard"}, "geometry": {"type": "Point", "coordinates": [409803.19, 5710314.1]}}, {"type": "Feature", "properties": {"k": "bollard"}, "geometry": {"type": "Point", "coordinates": [409348.08, 5710281.66]}}, {"type": "Feature", "properties": {"k": "bollard"}, "geometry": {"type": "Point", "coordinates": [408421.6, 5710314.81]}}, {"type": "Feature", "properties": {"k": "bench", "a": 35}, "geometry": {"type": "Point", "coordinates": [409223.45, 5710024.97]}}, {"type": "Feature", "properties": {"k": "bench", "a": 175}, "geometry": {"type": "Point", "coordinates": [409249.57, 5710112.24]}}, {"type": "Feature", "properties": {"k": "bench", "a": 175}, "geometry": {"type": "Point", "coordinates": [409252.74, 5710112.47]}}, {"type": "Feature", "properties": {"k": "bench", "a": 175}, "geometry": {"type": "Point", "coordinates": [409264.53, 5710113.19]}}, {"type": "Feature", "properties": {"k": "bench", "a": 175}, "geometry": {"type": "Point", "coordinates": [409267.7, 5710113.45]}}, {"type": "Feature", "properties": {"k": "bollard"}, "geometry": {"type": "Point", "coordinates": [409260.85, 5710108.26]}}, {"type": "Feature", "properties": {"k": "bollard"}, "geometry": {"type": "Point", "coordinates": [409260.99, 5710106.31]}}, {"type": "Feature", "properties": {"k": "bollard"}, "geometry": {"type": "Point", "coordinates": [409261.11, 5710104.53]}}, {"type": "Feature", "properties": {"k": "bollard"}, "geometry": {"type": "Point", "coordinates": [409261.25, 5710102.67]}}, {"type": "Feature", "properties": {"k": "bench", "a": 105}, "geometry": {"type": "Point", "coordinates": [409354.95, 5710396.28]}}, {"type": "Feature", "properties": {"k": "bench", "a": 259}, "geometry": {"type": "Point", "coordinates": [408358.96, 5710784.67]}}, {"type": "Feature", "properties": {"k": "bollard"}, "geometry": {"type": "Point", "coordinates": [408530.63, 5710803.67]}}, {"type": "Feature", "properties": {"k": "bin"}, "geometry": {"type": "Point", "coordinates": [409024.13, 5711373.16]}}, {"type": "Feature", "properties": {"k": "bollard"}, "geometry": {"type": "Point", "coordinates": [408323.8, 5711789.95]}}, {"type": "Feature", "properties": {"k": "bollard"}, "geometry": {"type": "Point", "coordinates": [409617.06, 5711000.56]}}, {"type": "Feature", "properties": {"k": "bollard"}, "geometry": {"type": "Point", "coordinates": [409536.11, 5711010.43]}}, {"type": "Feature", "properties": {"k": "bench", "a": 91}, "geometry": {"type": "Point", "coordinates": [408522.69, 5710136.58]}}, {"type": "Feature", "properties": {"k": "bench", "a": 91}, "geometry": {"type": "Point", "coordinates": [408522.6, 5710133.97]}}, {"type": "Feature", "properties": {"k": "bench", "a": 91}, "geometry": {"type": "Point", "coordinates": [408522.51, 5710131.52]}}, {"type": "Feature", "properties": {"k": "bench", "a": 91}, "geometry": {"type": "Point", "coordinates": [408522.41, 5710128.69]}}, {"type": "Feature", "properties": {"k": "bench", "a": 92}, "geometry": {"type": "Point", "coordinates": [408525.95, 5710120.83]}}, {"type": "Feature", "properties": {"k": "bollard"}, "geometry": {"type": "Point", "coordinates": [408378.33, 5710247.33]}}, {"type": "Feature", "properties": {"k": "bench", "a": 163}, "geometry": {"type": "Point", "coordinates": [409496.11, 5710031.32]}}, {"type": "Feature", "properties": {"k": "bench", "a": 163}, "geometry": {"type": "Point", "coordinates": [409496.41, 5710033.68]}}, {"type": "Feature", "properties": {"k": "bin"}, "geometry": {"type": "Point", "coordinates": [409496.53, 5710032.52]}}, {"type": "Feature", "properties": {"k": "bench", "back": false, "a": 242}, "geometry": {"type": "Point", "coordinates": [409535.7, 5710001.05]}}, {"type": "Feature", "properties": {"k": "bench", "back": false, "a": 242}, "geometry": {"type": "Point", "coordinates": [409537.65, 5710001.82]}}, {"type": "Feature", "properties": {"k": "bench", "a": 164}, "geometry": {"type": "Point", "coordinates": [409192.24, 5710136.81]}}, {"type": "Feature", "properties": {"k": "bench", "a": 164}, "geometry": {"type": "Point", "coordinates": [409201.49, 5710137.67]}}, {"type": "Feature", "properties": {"k": "bench", "a": 164}, "geometry": {"type": "Point", "coordinates": [409199.34, 5710137.28]}}, {"type": "Feature", "properties": {"k": "bench", "a": 164}, "geometry": {"type": "Point", "coordinates": [409217.34, 5710140.34]}}, {"type": "Feature", "properties": {"k": "bench", "a": 164}, "geometry": {"type": "Point", "coordinates": [409194.26, 5710137.16]}}, {"type": "Feature", "properties": {"k": "bench", "a": 164}, "geometry": {"type": "Point", "coordinates": [409219.27, 5710140.89]}}, {"type": "Feature", "properties": {"k": "bin"}, "geometry": {"type": "Point", "coordinates": [409352.11, 5710328.91]}}, {"type": "Feature", "properties": {"k": "bench", "a": 85}, "geometry": {"type": "Point", "coordinates": [409351.93, 5710327.28]}}, {"type": "Feature", "properties": {"k": "bench", "a": 85}, "geometry": {"type": "Point", "coordinates": [409352.16, 5710324.92]}}, {"type": "Feature", "properties": {"k": "bin"}, "geometry": {"type": "Point", "coordinates": [409799.7, 5710898.19]}}, {"type": "Feature", "properties": {"k": "bench", "a": 181}, "geometry": {"type": "Point", "coordinates": [409208.87, 5711388.37]}}, {"type": "Feature", "properties": {"k": "bench", "a": 237}, "geometry": {"type": "Point", "coordinates": [409220.62, 5711388.23]}}, {"type": "Feature", "properties": {"k": "bike", "n": 5, "a": 188}, "geometry": {"type": "Point", "coordinates": [409011.41, 5710924.56]}}, {"type": "Feature", "properties": {"k": "bike", "n": 1, "a": 245}, "geometry": {"type": "Point", "coordinates": [408859.62, 5710411.7]}}, {"type": "Feature", "properties": {"k": "bike", "n": 1, "a": 184}, "geometry": {"type": "Point", "coordinates": [408826.6, 5710343.17]}}, {"type": "Feature", "properties": {"k": "bench"}, "geometry": {"type": "Point", "coordinates": [408201.59, 5710589.34]}}, {"type": "Feature", "properties": {"k": "bin"}, "geometry": {"type": "Point", "coordinates": [408161.9, 5710598.29]}}, {"type": "Feature", "properties": {"k": "bike", "n": 1, "a": 100}, "geometry": {"type": "Point", "coordinates": [409209.58, 5710543.31]}}, {"type": "Feature", "properties": {"k": "bike", "n": 1, "a": 351}, "geometry": {"type": "Point", "coordinates": [409220.67, 5710487.39]}}, {"type": "Feature", "properties": {"k": "bike", "n": 12, "a": 5}, "geometry": {"type": "Point", "coordinates": [409108.06, 5710542.55]}}, {"type": "Feature", "properties": {"k": "bike", "n": 1, "a": 124}, "geometry": {"type": "Point", "coordinates": [409345.38, 5711638.91]}}, {"type": "Feature", "properties": {"k": "bollard"}, "geometry": {"type": "Point", "coordinates": [408851.89, 5710928.47]}}, {"type": "Feature", "properties": {"k": "bollard"}, "geometry": {"type": "Point", "coordinates": [408847.44, 5710913.36]}}, {"type": "Feature", "properties": {"k": "bench", "a": 107}, "geometry": {"type": "Point", "coordinates": [408851.59, 5710247.21]}}, {"type": "Feature", "properties": {"k": "bench", "a": 107}, "geometry": {"type": "Point", "coordinates": [408852.28, 5710249.98]}}, {"type": "Feature", "properties": {"k": "bike", "n": 1, "a": 165}, "geometry": {"type": "Point", "coordinates": [408854.56, 5710257.05]}}, {"type": "Feature", "properties": {"k": "bike", "n": 1, "a": 92}, "geometry": {"type": "Point", "coordinates": [408854.69, 5710132.24]}}, {"type": "Feature", "properties": {"k": "bin"}, "geometry": {"type": "Point", "coordinates": [409094.8, 5711299.18]}}, {"type": "Feature", "properties": {"k": "bench", "back": false, "a": 257}, "geometry": {"type": "Point", "coordinates": [408739.58, 5711424.21]}}, {"type": "Feature", "properties": {"k": "stop", "a": 288}, "geometry": {"type": "Point", "coordinates": [408675.73, 5711956.83]}}, {"type": "Feature", "properties": {"k": "stop", "a": 180}, "geometry": {"type": "Point", "coordinates": [408769.44, 5710087.95]}}, {"type": "Feature", "properties": {"k": "stop", "a": 182}, "geometry": {"type": "Point", "coordinates": [408310.86, 5710110.23]}}, {"type": "Feature", "properties": {"k": "stop", "a": 305}, "geometry": {"type": "Point", "coordinates": [409666.31, 5710344.54]}}, {"type": "Feature", "properties": {"k": "stop", "a": 125}, "geometry": {"type": "Point", "coordinates": [409663.4, 5710356.2]}}, {"type": "Feature", "properties": {"k": "stop", "a": 127}, "geometry": {"type": "Point", "coordinates": [409565.51, 5710216.21]}}, {"type": "Feature", "properties": {"k": "stop", "a": 357}, "geometry": {"type": "Point", "coordinates": [409790.48, 5710142.29]}}, {"type": "Feature", "properties": {"k": "stop", "a": 55}, "geometry": {"type": "Point", "coordinates": [409108.95, 5710696.17]}}, {"type": "Feature", "properties": {"k": "stop", "a": 1}, "geometry": {"type": "Point", "coordinates": [408628.54, 5710083.79]}}, {"type": "Feature", "properties": {"k": "stop", "a": 275}, "geometry": {"type": "Point", "coordinates": [409365.63, 5711716.68]}}, {"type": "Feature", "properties": {"k": "stop", "a": 180}, "geometry": {"type": "Point", "coordinates": [408782.8, 5710541.94]}}, {"type": "Feature", "properties": {"k": "stop", "a": 165}, "geometry": {"type": "Point", "coordinates": [408037.47, 5710093.22]}}, {"type": "Feature", "properties": {"k": "stop", "a": 341}, "geometry": {"type": "Point", "coordinates": [408007.96, 5710069.5]}}, {"type": "Feature", "properties": {"k": "stop", "a": 91}, "geometry": {"type": "Point", "coordinates": [408128.4, 5710023.53]}}, {"type": "Feature", "properties": {"k": "stop", "a": 270}, "geometry": {"type": "Point", "coordinates": [408138.49, 5710026.12]}}, {"type": "Feature", "properties": {"k": "stop", "a": 76}, "geometry": {"type": "Point", "coordinates": [409202.23, 5710469.15]}}, {"type": "Feature", "properties": {"k": "stop", "a": 62}, "geometry": {"type": "Point", "coordinates": [408178.72, 5710230.6]}}, {"type": "Feature", "properties": {"k": "stop", "a": 242}, "geometry": {"type": "Point", "coordinates": [408184.45, 5710242.1]}}, {"type": "Feature", "properties": {"k": "stop", "a": 3}, "geometry": {"type": "Point", "coordinates": [408756.95, 5711137.08]}}, {"type": "Feature", "properties": {"k": "stop", "a": 359}, "geometry": {"type": "Point", "coordinates": [408866.28, 5710445.63]}}, {"type": "Feature", "properties": {"k": "stop", "a": 282}, "geometry": {"type": "Point", "coordinates": [409659.06, 5711744.2]}}, {"type": "Feature", "properties": {"k": "stop", "a": 180}, "geometry": {"type": "Point", "coordinates": [408020.21, 5710877.15]}}, {"type": "Feature", "properties": {"k": "stop", "a": 97}, "geometry": {"type": "Point", "coordinates": [408414.22, 5711063.28]}}, {"type": "Feature", "properties": {"k": "stop", "a": 277}, "geometry": {"type": "Point", "coordinates": [408415.99, 5710981.94]}}, {"type": "Feature", "properties": {"k": "stop", "a": 175}, "geometry": {"type": "Point", "coordinates": [408965.31, 5711153.96]}}, {"type": "Feature", "properties": {"k": "stop", "a": 4}, "geometry": {"type": "Point", "coordinates": [409254.08, 5711172.8]}}, {"type": "Feature", "properties": {"k": "stop", "a": 359}, "geometry": {"type": "Point", "coordinates": [408013.41, 5711124.88]}}, {"type": "Feature", "properties": {"k": "stop", "a": 179}, "geometry": {"type": "Point", "coordinates": [408031.47, 5711136.47]}}, {"type": "Feature", "properties": {"k": "stop", "a": 181}, "geometry": {"type": "Point", "coordinates": [408666.67, 5710881.96]}}, {"type": "Feature", "properties": {"k": "stop", "a": 0}, "geometry": {"type": "Point", "coordinates": [408624.02, 5710867.77]}}, {"type": "Feature", "properties": {"k": "stop", "a": 337}, "geometry": {"type": "Point", "coordinates": [409232.88, 5711498.24]}}, {"type": "Feature", "properties": {"k": "stop", "a": 184}, "geometry": {"type": "Point", "coordinates": [409907.44, 5710569.95]}}, {"type": "Feature", "properties": {"k": "stop", "a": 4}, "geometry": {"type": "Point", "coordinates": [409902.29, 5710559.27]}}, {"type": "Feature", "properties": {"k": "stop", "a": 177}, "geometry": {"type": "Point", "coordinates": [409783.78, 5710157.48]}}, {"type": "Feature", "properties": {"k": "stop", "a": 114}, "geometry": {"type": "Point", "coordinates": [408710.35, 5711993.99]}}, {"type": "Feature", "properties": {"k": "stop", "a": 79}, "geometry": {"type": "Point", "coordinates": [408133.87, 5711762.82]}}, {"type": "Feature", "properties": {"k": "stop", "a": 103}, "geometry": {"type": "Point", "coordinates": [409657.24, 5711786.43]}}, {"type": "Feature", "properties": {"k": "bench", "a": 266, "l": 8.0, "back": false}, "geometry": {"type": "Point", "coordinates": [409376.55, 5711189.17]}}, {"type": "Feature", "properties": {"k": "playground"}, "geometry": {"type": "Polygon", "coordinates": [[[409284.71, 5711629.12], [409281.77, 5711631.74], [409274.78, 5711631.46], [409269.23, 5711628.6], [409268.82, 5711617.8], [409272.98, 5711612.75], [409281.53, 5711615.59], [409285.58, 5711621.3], [409283.37, 5711599.45], [409271.57, 5711596.72], [409272.32, 5711542.44], [409279.16, 5711537.08], [409296.3, 5711540.86], [409304.13, 5711544.48], [409320.39, 5711553.96], [409330.95, 5711565.87], [409338.84, 5711577.98], [409341.9, 5711590.49], [409343.46, 5711603.08], [409343.43, 5711628.76], [409284.71, 5711629.12]]]}}, {"type": "Feature", "properties": {"k": "playground"}, "geometry": {"type": "Polygon", "coordinates": [[[408818.32, 5711157.37], [408885.46, 5711161.22], [408883.82, 5711171.55], [408862.93, 5711186.04], [408821.31, 5711184.26], [408818.25, 5711165.99], [408818.32, 5711157.37]]]}}, {"type": "Feature", "properties": {"k": "playground"}, "geometry": {"type": "Polygon", "coordinates": [[[409079.84, 5712008.4], [409096.2, 5711997.16], [409108.58, 5711982.46], [409109.93, 5711964.25], [409093.02, 5711948.77], [409061.62, 5711946.75], [409055.22, 5711945.28], [409049.89, 5711935.65], [409066.89, 5711932.47], [409086.92, 5711926.07], [409096.08, 5711917.74], [409086.69, 5711902.71], [409071.96, 5711890.35], [409032.11, 5711909.06], [409016.2, 5711877.46], [408991.56, 5711889.36], [409015.66, 5711937.64], [409033.22, 5711929.08], [409039.42, 5711953.84], [409032.54, 5711974.55], [409027.09, 5712002.29], [409033.31, 5712016.49], [409044.92, 5712011.06], [409047.2, 5712003.23], [409079.84, 5712008.4]]]}}, {"type": "Feature", "properties": {"k": "playground"}, "geometry": {"type": "Polygon", "coordinates": [[[408683.25, 5711645.44], [408720.25, 5711627.8], [408717.0, 5711645.28], [408708.09, 5711663.68], [408687.31, 5711671.92], [408662.14, 5711672.34], [408660.52, 5711671.8], [408666.53, 5711648.61], [408683.25, 5711645.44]]]}}, {"type": "Feature", "properties": {"k": "playground"}, "geometry": {"type": "Polygon", "coordinates": [[[409295.62, 5710333.98], [409293.96, 5710312.97], [409339.93, 5710308.25], [409338.49, 5710331.47], [409307.12, 5710336.12], [409304.19, 5710333.66], [409299.72, 5710333.19], [409295.62, 5710333.98]]]}}, {"type": "Feature", "properties": {"k": "playground"}, "geometry": {"type": "Polygon", "coordinates": [[[409191.45, 5711979.71], [409189.7, 5711976.57], [409191.59, 5711972.34], [409200.09, 5711972.25], [409202.36, 5711973.84], [409202.69, 5711981.33], [409197.31, 5711981.85], [409196.09, 5711979.91], [409191.45, 5711979.71]]]}}, {"type": "Feature", "properties": {"k": "playground"}, "geometry": {"type": "Polygon", "coordinates": [[[409359.44, 5711996.74], [409359.9, 5711985.75], [409367.93, 5711985.7], [409367.36, 5711997.11], [409359.44, 5711996.74]]]}}, {"type": "Feature", "properties": {"k": "playground"}, "geometry": {"type": "Polygon", "coordinates": [[[409520.92, 5711962.61], [409518.99, 5711963.91], [409516.73, 5711964.48], [409514.07, 5711964.12], [409512.09, 5711963.03], [409510.6, 5711961.39], [409509.68, 5711959.09], [409509.77, 5711956.11], [409511.01, 5711953.63], [409511.87, 5711952.75], [409513.25, 5711951.82], [409514.85, 5711951.26], [409517.33, 5711951.19], [409519.74, 5711952.07], [409521.08, 5711953.15], [409522.69, 5711953.08], [409522.66, 5711951.31], [409537.82, 5711951.23], [409537.3, 5711963.66], [409523.63, 5711963.82], [409523.05, 5711962.44], [409520.92, 5711962.61]]]}}, {"type": "Feature", "properties": {"k": "playground"}, "geometry": {"type": "Polygon", "coordinates": [[[409585.77, 5711785.18], [409587.68, 5711789.95], [409594.07, 5711793.27], [409603.16, 5711791.99], [409611.12, 5711789.53], [409614.13, 5711786.8], [409613.49, 5711781.88], [409609.77, 5711766.08], [409590.69, 5711770.97], [409585.14, 5711775.49], [409585.77, 5711785.18]]]}}, {"type": "Feature", "properties": {"k": "playground"}, "geometry": {"type": "Polygon", "coordinates": [[[408335.58, 5710756.51], [408337.02, 5710799.42], [408366.78, 5710798.43], [408365.34, 5710755.52], [408335.58, 5710756.51]]]}}, {"type": "Feature", "properties": {"k": "playground"}, "geometry": {"type": "Polygon", "coordinates": [[[408392.66, 5710460.84], [408392.68, 5710457.31], [408401.35, 5710437.39], [408405.34, 5710436.76], [408411.23, 5710438.69], [408411.14, 5710443.8], [408407.63, 5710445.07], [408406.37, 5710447.5], [408409.11, 5710449.96], [408407.79, 5710454.07], [408404.92, 5710455.23], [408404.67, 5710461.63], [408402.29, 5710463.81], [408397.26, 5710463.16], [408392.66, 5710460.84]]]}}, {"type": "Feature", "properties": {"k": "playground"}, "geometry": {"type": "Polygon", "coordinates": [[[409202.74, 5711922.93], [409202.91, 5711907.85], [409189.18, 5711907.71], [409189.02, 5711922.78], [409202.74, 5711922.93]]]}}, {"type": "Feature", "properties": {"k": "playground"}, "geometry": {"type": "Polygon", "coordinates": [[[408918.45, 5711544.27], [408920.73, 5711542.77], [408913.62, 5711528.21], [408910.47, 5711530.42], [408918.45, 5711544.27]]]}}, {"type": "Feature", "properties": {"k": "playground"}, "geometry": {"type": "Polygon", "coordinates": [[[408248.39, 5710297.69], [408278.89, 5710208.86], [408303.91, 5710217.28], [408310.19, 5710219.88], [408279.03, 5710308.57], [408248.39, 5710297.69]]]}}, {"type": "Feature", "properties": {"k": "playground"}, "geometry": {"type": "Polygon", "coordinates": [[[408867.3, 5711432.72], [408876.91, 5711445.61], [408884.4, 5711440.18], [408873.36, 5711425.67], [408867.0, 5711430.38], [408867.5, 5711431.06], [408867.3, 5711432.72]]]}}, {"type": "Feature", "properties": {"k": "playground"}, "geometry": {"type": "Polygon", "coordinates": [[[409363.79, 5711495.79], [409371.55, 5711487.68], [409378.45, 5711494.23], [409370.69, 5711502.35], [409363.79, 5711495.79]]]}}, {"type": "Feature", "properties": {"k": "playground"}, "geometry": {"type": "Polygon", "coordinates": [[[409529.67, 5711390.15], [409518.04, 5711392.22], [409517.11, 5711377.62], [409522.96, 5711375.69], [409529.67, 5711390.15]]]}}, {"type": "Feature", "properties": {"k": "playground"}, "geometry": {"type": "Polygon", "coordinates": [[[409432.83, 5711407.3], [409432.73, 5711396.87], [409449.7, 5711396.7], [409449.8, 5711407.13], [409432.83, 5711407.3]]]}}, {"type": "Feature", "properties": {"k": "playground"}, "geometry": {"type": "Polygon", "coordinates": [[[408424.1, 5711194.78], [408467.81, 5711195.54], [408469.69, 5711228.06], [408430.32, 5711227.88], [408424.03, 5711212.13], [408424.1, 5711194.78]]]}}, {"type": "Feature", "properties": {"k": "playground"}, "geometry": {"type": "Polygon", "coordinates": [[[409188.11, 5711957.61], [409200.37, 5711957.33], [409200.54, 5711964.8], [409188.28, 5711965.07], [409188.11, 5711957.61]]]}}, {"type": "Feature", "properties": {"k": "playground"}, "geometry": {"type": "Polygon", "coordinates": [[[409092.18, 5710405.13], [409079.63, 5710404.94], [409079.88, 5710388.17], [409092.44, 5710388.37], [409092.18, 5710405.13]]]}}, {"type": "Feature", "properties": {"k": "playground"}, "geometry": {"type": "Polygon", "coordinates": [[[408087.3, 5711007.04], [408087.11, 5710992.38], [408072.65, 5710992.58], [408072.84, 5711007.23], [408087.3, 5711007.04]]]}}, {"type": "Feature", "properties": {"k": "playground"}, "geometry": {"type": "Polygon", "coordinates": [[[408374.65, 5711606.68], [408388.18, 5711598.55], [408382.34, 5711589.76], [408377.78, 5711589.56], [408367.57, 5711595.78], [408374.65, 5711606.68]]]}}, {"type": "Feature", "properties": {"k": "playground"}, "geometry": {"type": "Polygon", "coordinates": [[[409617.95, 5711533.54], [409647.76, 5711533.24], [409644.45, 5711551.26], [409644.2, 5711584.65], [409628.35, 5711584.89], [409617.95, 5711533.54]]]}}, {"type": "Feature", "properties": {"k": "playground"}, "geometry": {"type": "Polygon", "coordinates": [[[409316.57, 5711904.84], [409309.67, 5711896.92], [409298.47, 5711898.0], [409292.34, 5711896.26], [409288.06, 5711900.68], [409280.89, 5711901.35], [409277.12, 5711898.05], [409274.4, 5711897.89], [409270.53, 5711901.1], [409266.72, 5711901.06], [409256.96, 5711909.71], [409253.57, 5711909.02], [409254.73, 5711864.55], [409264.75, 5711864.05], [409266.48, 5711875.86], [409268.03, 5711876.92], [409273.14, 5711876.72], [409277.3, 5711877.51], [409280.35, 5711876.98], [409292.77, 5711876.82], [409295.72, 5711879.41], [409295.96, 5711881.29], [409301.18, 5711881.13], [409303.36, 5711878.12], [409307.0, 5711876.57], [409311.55, 5711877.1], [409314.28, 5711877.8], [409318.13, 5711881.24], [409318.32, 5711903.14], [409316.57, 5711904.84]]]}}, {"type": "Feature", "properties": {"k": "playground"}, "geometry": {"type": "Polygon", "coordinates": [[[408328.67, 5711903.56], [408346.86, 5711897.2], [408344.11, 5711888.83], [408332.38, 5711886.76], [408328.67, 5711903.56]]]}}, {"type": "Feature", "properties": {"k": "playground"}, "geometry": {"type": "Polygon", "coordinates": [[[409231.67, 5711403.12], [409231.43, 5711390.52], [409245.21, 5711390.25], [409245.45, 5711402.86], [409231.67, 5711403.12]]]}}, {"type": "Feature", "properties": {"k": "playground"}, "geometry": {"type": "Polygon", "coordinates": [[[408994.81, 5710123.86], [408994.41, 5710112.71], [408982.16, 5710113.34], [408982.27, 5710124.41], [408994.81, 5710123.86]]]}}, {"type": "Feature", "properties": {"k": "climb"}, "geometry": {"type": "Point", "coordinates": [409054.33, 5711967.56]}}, {"type": "Feature", "properties": {"k": "swing"}, "geometry": {"type": "Point", "coordinates": [409192.34, 5710210.93]}}, {"type": "Feature", "properties": {"k": "roundabout"}, "geometry": {"type": "Point", "coordinates": [409279.97, 5711590.88]}}, {"type": "Feature", "properties": {"k": "springy"}, "geometry": {"type": "Point", "coordinates": [408922.54, 5710081.82]}}, {"type": "Feature", "properties": {"k": "climb"}, "geometry": {"type": "Point", "coordinates": [409278.61, 5711564.08]}}, {"type": "Feature", "properties": {"k": "swing"}, "geometry": {"type": "Point", "coordinates": [409279.23, 5711575.48]}}]}