{"type": "FeatureCollection", "attribution": "Geobasis NRW, dl-de/zero-2-0 (laser scan); \u00a9 OpenStreetMap contributors (ODbL)", "crs": {"type": "name", "properties": {"name": "urn:ogc:def:crs:EPSG::25832"}}, "features": [{"type": "Feature", "properties": {"kind": "hedge", "h": 1.2, "w": 2.0, "src": "osm+lsc"}, "geometry": {"type": "LineString", "coordinates": [[408664.9, 5711876.4], [408659.7, 5711864.6], [408685.3, 5711854.6], [408687.5, 5711859.7]]}}, {"type": "Feature", "properties": {"kind": "hedge", "h": 1.5, "w": 1.0, "src": "osm"}, "geometry": {"type": "LineString", "coordinates": [[408653.9, 5711851.7], [408657.9, 5711860.9], [408683.8, 5711850.5], [408682.4, 5711846.2]]}}, {"type": "Feature", "properties": {"kind": "hedge", "h": 2.4, "w": 2.0, "src": "osm+lsc"}, "geometry": {"type": "LineString", "coordinates": [[408893.5, 5711633.2], [408893.2, 5711647.4], [408905.6, 5711705.9]]}}, {"type": "Feature", "properties": {"kind": "hedge", "h": 1.2, "w": 1.0, "src": "osm+lsc"}, "geometry": {"type": "LineString", "coordinates": [[408957.7, 5711383.9], [408958.7, 5711391.3], [408959.7, 5711399.8], [408960.8, 5711408.4], [408961.9, 5711417.0], [408962.9, 5711425.4], [408963.9, 5711433.2]]}}, {"type": "Feature", "properties": {"kind": "hedge", "h": 1.3, "w": 1.0, "src": "osm+lsc"}, "geometry": {"type": "LineString", "coordinates": [[408981.9, 5711430.9], [408980.9, 5711422.9], [408979.9, 5711414.8], [408978.8, 5711406.1], [408977.7, 5711397.4], [408976.6, 5711388.9], [408975.7, 5711381.7]]}}, {"type": "Feature", "properties": {"kind": "hedge", "h": 1.2, "w": 1.0, "src": "osm+lsc"}, "geometry": {"type": "LineString", "coordinates": [[408998.7, 5711420.7], [408997.7, 5711412.6], [408996.6, 5711403.9], [408995.5, 5711395.2], [408994.4, 5711386.6], [408993.5, 5711379.4]]}}, {"type": "Feature", "properties": {"kind": "hedge", "h": 1.2, "w": 1.0, "src": "osm+lsc"}, "geometry": {"type": "LineString", "coordinates": [[409015.4, 5711409.0], [409014.5, 5711401.5], [409013.4, 5711392.9], [409012.3, 5711384.3], [409011.4, 5711377.2]]}}, {"type": "Feature", "properties": {"kind": "hedge", "h": 1.2, "w": 1.0, "src": "osm+lsc"}, "geometry": {"type": "LineString", "coordinates": [[408940.0, 5711386.1], [408940.9, 5711393.4], [408942.0, 5711401.9], [408943.1, 5711410.6], [408944.1, 5711419.3], [408945.1, 5711427.2]]}}, {"type": "Feature", "properties": {"kind": "hedge", "h": 1.2, "w": 1.0, "src": "osm+lsc"}, "geometry": {"type": "LineString", "coordinates": [[408922.1, 5711388.4], [408923.0, 5711395.5], [408924.1, 5711404.3], [408925.1, 5711412.7], [408926.1, 5711420.4]]}}, {"type": "Feature", "properties": {"kind": "hedge", "h": 1.5, "w": 1.0, "src": "osm"}, "geometry": {"type": "LineString", "coordinates": [[408139.5, 5710006.2], [408139.5, 5710000.0]]}}, {"type": "Feature", "properties": {"kind": "hedge", "h": 2.1, "w": 1.4, "src": "osm+lsc"}, "geometry": {"type": "LineString", "coordinates": [[408868.0, 5710198.6], [408885.7, 5710191.7], [408891.2, 5710205.5], [408905.7, 5710197.7], [408923.0, 5710191.2], [408919.1, 5710179.6], [408916.8, 5710172.6]]}}]}