{"type": "FeatureCollection", "attribution": "Geobasis NRW, dl-de/zero-2-0; \u00a9 OpenStreetMap contributors (ODbL)", "crs": {"type": "name", "properties": {"name": "urn:ogc:def:crs:EPSG::25832"}}, "features": [{"type": "Feature", "properties": {"kind": "fountain", "source": "osm", "style": "basin", "figure": false}, "geometry": {"type": "Point", "coordinates": [409204.08, 5710134.91]}}, {"type": "Feature", "properties": {"kind": "fountain", "source": "dlm+osm", "style": "basin", "figure": true, "relief": {"west": 409231.0, "north": 5710474.0, "cols": 3, "rows": 4, "dm": [0, 0, 0, 0, 47, 0, 0, 11, 0, 0, 0, 0]}}, "geometry": {"type": "Point", "coordinates": [409233.01, 5710472.89]}}, {"type": "Feature", "properties": {"kind": "statue", "source": "dlm"}, "geometry": {"type": "Point", "coordinates": [408525.1, 5710109.47]}}, {"type": "Feature", "properties": {"kind": "statue", "source": "dlm"}, "geometry": {"type": "Point", "coordinates": [408660.26, 5711304.61]}}, {"type": "Feature", "properties": {"kind": "statue", "source": "dlm"}, "geometry": {"type": "Point", "coordinates": [408744.55, 5711310.4]}}, {"type": "Feature", "properties": {"kind": "statue", "source": "dlm"}, "geometry": {"type": "Point", "coordinates": [409356.58, 5710363.11]}}, {"type": "Feature", "properties": {"kind": "statue", "source": "dlm"}, "geometry": {"type": "Point", "coordinates": [409382.04, 5711615.16]}}]}