{"type": "FeatureCollection", "attribution": "Geobasis NRW, dl-de/zero-2-0; \u00a9 OpenStreetMap contributors (ODbL)", "crs": {"type": "name", "properties": {"name": "urn:ogc:def:crs:EPSG::25832"}}, "features": [{"type": "Feature", "properties": {"kind": "fountain", "source": "osm", "style": "basin", "figure": false}, "geometry": {"type": "Point", "coordinates": [408926.55, 5709081.14]}}, {"type": "Feature", "properties": {"kind": "fountain", "source": "dlm", "style": "basin", "figure": true}, "geometry": {"type": "Point", "coordinates": [409020.0, 5708026.88]}}, {"type": "Feature", "properties": {"kind": "fountain", "source": "dlm", "style": "basin", "figure": true}, "geometry": {"type": "Point", "coordinates": [409039.3, 5708038.77]}}, {"type": "Feature", "properties": {"kind": "fountain", "source": "osm", "name": "Kastanienbrunnen", "style": "basin", "figure": false}, "geometry": {"type": "Point", "coordinates": [409088.56, 5709997.69]}}]}