{"type": "FeatureCollection", "attribution": "\u00a9 OpenStreetMap contributors (ODbL)", "crs": {"type": "name", "properties": {"name": "urn:ogc:def:crs:EPSG::25832"}}, "features": [{"type": "Feature", "properties": {}, "geometry": {"type": "Polygon", "coordinates": [[[409348.32, 5710576.63], [409366.51, 5710573.86], [409512.61, 5710551.41], [409513.05, 5710554.7], [409448.9, 5710564.41], [409364.89, 5710577.76], [409364.73, 5710576.67], [409355.97, 5710577.94], [409356.14, 5710579.04], [409348.89, 5710580.11], [409326.0, 5710583.62], [409325.5, 5710580.25], [409348.32, 5710576.63]]]}}, {"type": "Feature", "properties": {}, "geometry": {"type": "Polygon", "coordinates": [[[408154.39, 5710594.66], [408177.72, 5710590.37], [408198.84, 5710587.44], [408207.32, 5710586.43], [408223.13, 5710584.98], [408237.59, 5710583.98], [408252.34, 5710583.49], [408273.31, 5710583.55], [408273.3, 5710586.61], [408252.07, 5710586.64], [408237.63, 5710587.03], [408223.21, 5710587.86], [408211.79, 5710588.96], [408204.43, 5710589.7], [408194.7, 5710591.07], [408184.12, 5710592.56], [408178.74, 5710594.6], [408174.93, 5710596.34], [408154.44, 5710600.53], [408154.12, 5710597.81], [408153.98, 5710596.58], [408154.71, 5710596.36], [408154.39, 5710594.66]]]}}, {"type": "Feature", "properties": {}, "geometry": {"type": "Polygon", "coordinates": [[[409633.21, 5710520.89], [409494.3, 5710541.85], [409414.96, 5710554.0], [409380.87, 5710561.33], [409380.65, 5710560.0], [409370.68, 5710561.57], [409370.89, 5710562.9], [409368.4, 5710563.28], [409368.02, 5710560.97], [409382.51, 5710557.32], [409414.18, 5710549.57], [409632.47, 5710516.42], [409633.21, 5710520.89]]]}}, {"type": "Feature", "properties": {}, "geometry": {"type": "Polygon", "coordinates": [[[409633.21, 5710520.89], [409633.91, 5710525.25], [409526.79, 5710541.7], [409383.46, 5710563.33], [409368.78, 5710565.58], [409368.4, 5710563.28], [409370.89, 5710562.9], [409371.1, 5710564.23], [409381.08, 5710562.68], [409380.87, 5710561.33], [409414.96, 5710554.0], [409494.3, 5710541.85], [409633.21, 5710520.89]]]}}, {"type": "Feature", "properties": {}, "geometry": {"type": "Polygon", "coordinates": [[[409326.49, 5710586.99], [409349.47, 5710583.61], [409367.63, 5710580.8], [409513.47, 5710557.99], [409513.05, 5710554.7], [409448.9, 5710564.41], [409364.89, 5710577.76], [409365.05, 5710578.86], [409356.3, 5710580.13], [409356.14, 5710579.04], [409348.89, 5710580.11], [409326.0, 5710583.62], [409326.49, 5710586.99]]]}}, {"type": "Feature", "properties": {}, "geometry": {"type": "Polygon", "coordinates": [[[409268.32, 5710596.11], [409267.89, 5710593.55], [409267.45, 5710590.95], [409267.23, 5710589.65], [409202.28, 5710599.04], [409202.57, 5710601.29], [409202.76, 5710602.74], [409192.05, 5710604.17], [409191.55, 5710600.64], [409139.82, 5710607.78], [409140.21, 5710611.98], [409166.54, 5710610.46], [409184.36, 5710609.08], [409205.27, 5710606.08], [409264.88, 5710596.65], [409268.32, 5710596.11]]]}}]}