{"type": "FeatureCollection", "attribution": "Geobasis NRW, dl-de/zero-2-0 (LoD2, DOM1)", "crs": {"type": "name", "properties": {"name": "urn:ogc:def:crs:EPSG::25832"}}, "features": [{"type": "Feature", "properties": {"id": "DENW12AL0000hp0S", "z": 89.83}, "geometry": {"type": "Polygon", "coordinates": [[[408617.0, 5711375.0], [408620.0, 5711375.0], [408622.0, 5711378.0], [408627.0, 5711378.0], [408630.0, 5711373.0], [408631.0, 5711373.0], [408631.0, 5711372.01], [408630.2, 5711371.94], [408630.37, 5711370.0], [408612.84, 5711370.0], [408612.57, 5711373.0], [408616.0, 5711373.0], [408617.0, 5711375.0]]]}}, {"type": "Feature", "properties": {"id": "DENW12AL0000hp0S", "z": 87.27}, "geometry": {"type": "Polygon", "coordinates": [[[408612.91, 5711369.18], [408612.84, 5711370.0], [408630.37, 5711370.0], [408630.55, 5711368.0], [408613.01, 5711368.0], [408612.91, 5711369.18]]]}}, {"type": "Feature", "properties": {"id": "DENW12AL0000hp0S", "z": 86.04}, "geometry": {"type": "Polygon", "coordinates": [[[408614.0, 5711388.0], [408613.0, 5711388.0], [408613.0, 5711403.0], [408614.0, 5711405.0], [408616.0, 5711404.0], [408616.0, 5711402.0], [408620.0, 5711401.0], [408623.0, 5711403.0], [408623.0, 5711403.59], [408630.58, 5711404.26], [408631.0, 5711403.0], [408634.0, 5711403.0], [408634.0, 5711406.0], [408637.0, 5711405.0], [408637.0, 5711397.0], [408639.0, 5711395.0], [408639.0, 5711385.0], [408640.0, 5711385.0], [408640.0, 5711377.0], [408639.0, 5711376.0], [408632.0, 5711376.0], [408631.0, 5711374.0], [408631.0, 5711373.0], [408630.0, 5711373.0], [408627.0, 5711378.0], [408635.0, 5711378.0], [408636.0, 5711379.0], [408636.0, 5711394.0], [408635.0, 5711394.0], [408635.0, 5711399.0], [408624.0, 5711399.0], [408624.0, 5711398.0], [408621.0, 5711398.0], [408621.0, 5711397.0], [408618.0, 5711397.0], [408617.0, 5711396.0], [408617.0, 5711391.0], [408618.0, 5711391.0], [408618.0, 5711378.0], [408622.0, 5711378.0], [408620.0, 5711375.0], [408617.0, 5711375.0], [408616.0, 5711373.0], [408612.57, 5711373.0], [408612.22, 5711377.0], [408614.0, 5711377.0], [408614.0, 5711388.0]]]}}, {"type": "Feature", "properties": {"id": "DENW12AL0000hp0S", "z": 84.77}, "geometry": {"type": "Polygon", "coordinates": [[[408613.19, 5711366.0], [408613.01, 5711368.0], [408630.55, 5711368.0], [408630.84, 5711364.74], [408629.0, 5711364.58], [408629.0, 5711366.0], [408613.19, 5711366.0]]]}}, {"type": "Feature", "properties": {"id": "DENW12AL0000hp0S", "z": 84.42}, "geometry": {"type": "Polygon", "coordinates": [[[408635.0, 5711380.0], [408635.0, 5711386.0], [408634.0, 5711386.0], [408634.0, 5711397.0], [408631.0, 5711398.0], [408630.0, 5711396.0], [408620.0, 5711396.0], [408619.0, 5711395.0], [408619.0, 5711389.0], [408620.0, 5711389.0], [408620.0, 5711380.0], [408622.0, 5711378.0], [408618.0, 5711378.0], [408618.0, 5711391.0], [408617.0, 5711391.0], [408617.0, 5711396.0], [408618.0, 5711397.0], [408621.0, 5711397.0], [408621.0, 5711398.0], [408624.0, 5711398.0], [408624.0, 5711399.0], [408635.0, 5711399.0], [408635.0, 5711394.0], [408636.0, 5711394.0], [408636.0, 5711379.0], [408635.0, 5711378.0], [408627.0, 5711378.0], [408628.0, 5711380.0], [408635.0, 5711380.0]]]}}, {"type": "Feature", "properties": {"id": "DENW12AL0000hp0S", "z": 83.81}, "geometry": {"type": "Polygon", "coordinates": [[[408620.0, 5711401.0], [408616.0, 5711402.0], [408616.0, 5711404.0], [408614.0, 5711405.0], [408613.0, 5711403.0], [408613.0, 5711388.0], [408614.0, 5711388.0], [408614.0, 5711377.0], [408612.22, 5711377.0], [408611.94, 5711380.13], [408609.54, 5711407.14], [408618.72, 5711407.96], [408619.05, 5711404.24], [408621.92, 5711404.49], [408622.01, 5711403.5], [408623.0, 5711403.59], [408623.0, 5711403.0], [408620.0, 5711401.0]]]}}, {"type": "Feature", "properties": {"id": "DENW12AL0000hp0S", "z": 83.33}, "geometry": {"type": "Polygon", "coordinates": [[[408632.0, 5711376.0], [408639.0, 5711376.0], [408640.0, 5711377.0], [408640.0, 5711385.0], [408639.0, 5711385.0], [408639.0, 5711395.0], [408637.0, 5711397.0], [408637.0, 5711405.0], [408634.0, 5711406.0], [408634.0, 5711403.0], [408631.0, 5711403.0], [408630.58, 5711404.26], [408631.29, 5711404.33], [408630.86, 5711409.19], [408640.12, 5711410.01], [408643.39, 5711373.11], [408634.13, 5711372.29], [408631.0, 5711372.01], [408631.0, 5711374.0], [408632.0, 5711376.0]]]}}, {"type": "Feature", "properties": {"id": "DENW12AL0000hp0S", "z": 82.67}, "geometry": {"type": "Polygon", "coordinates": [[[408629.0, 5711364.58], [408613.44, 5711363.2], [408613.19, 5711366.0], [408629.0, 5711366.0], [408629.0, 5711364.58]]]}}, {"type": "Feature", "properties": {"id": "DENW12AL0000hp0S", "z": 82.15}, "geometry": {"type": "Polygon", "coordinates": [[[408620.0, 5711389.0], [408619.0, 5711389.0], [408619.0, 5711395.0], [408620.0, 5711396.0], [408630.0, 5711396.0], [408631.0, 5711398.0], [408634.0, 5711397.0], [408634.0, 5711386.0], [408635.0, 5711386.0], [408635.0, 5711380.0], [408628.0, 5711380.0], [408627.0, 5711378.0], [408622.0, 5711378.0], [408620.0, 5711380.0], [408620.0, 5711389.0]], [[408622.0, 5711393.0], [408622.0, 5711386.0], [408625.0, 5711386.0], [408625.0, 5711383.0], [408628.0, 5711383.0], [408628.0, 5711384.0], [408631.0, 5711384.0], [408631.0, 5711392.0], [408629.0, 5711394.0], [408626.0, 5711394.0], [408626.0, 5711393.0], [408622.0, 5711393.0]]]}}, {"type": "Feature", "properties": {"id": "DENW12AL0000hp47", "z": 83.39}, "geometry": {"type": "Polygon", "coordinates": [[[408710.0, 5711940.0], [408707.0, 5711933.0], [408701.0, 5711935.0], [408701.0, 5711939.0], [408702.0, 5711939.0], [408702.0, 5711942.0], [408703.0, 5711944.0], [408705.0, 5711944.0], [408705.0, 5711945.02], [408711.0, 5711942.25], [408711.0, 5711940.0], [408710.0, 5711940.0]]]}}, {"type": "Feature", "properties": {"id": "DENW12AL0000hp47", "z": 81.42}, "geometry": {"type": "Polygon", "coordinates": [[[408716.0, 5711938.0], [408713.0, 5711936.0], [408713.0, 5711933.0], [408712.0, 5711933.0], [408709.71, 5711927.65], [408704.5, 5711930.1], [408704.55, 5711930.22], [408697.55, 5711933.48], [408697.06, 5711933.71], [408696.8, 5711933.72], [408696.02, 5711936.41], [408696.26, 5711936.48], [408699.03, 5711942.55], [408698.9, 5711942.61], [408700.96, 5711946.89], [408703.34, 5711945.79], [408705.0, 5711945.02], [408705.0, 5711944.0], [408703.0, 5711944.0], [408702.0, 5711942.0], [408702.0, 5711939.0], [408701.0, 5711939.0], [408701.0, 5711935.0], [408707.0, 5711933.0], [408710.0, 5711940.0], [408711.0, 5711940.0], [408711.0, 5711942.25], [408711.89, 5711941.84], [408712.27, 5711942.65], [408714.44, 5711941.64], [408715.0, 5711942.84], [408715.0, 5711940.0], [408716.0, 5711938.0]]]}}, {"type": "Feature", "properties": {"id": "DENW12AL0000hp47", "z": 77.46}, "geometry": {"type": "Polygon", "coordinates": [[[408713.0, 5711933.0], [408713.0, 5711936.0], [408716.0, 5711938.0], [408715.0, 5711940.0], [408715.0, 5711941.0], [408718.0, 5711941.0], [408718.0, 5711940.0], [408726.0, 5711940.0], [408726.0, 5711937.0], [408725.0, 5711937.0], [408725.0, 5711934.0], [408724.0, 5711934.0], [408724.0, 5711931.0], [408725.17, 5711930.61], [408722.8, 5711925.7], [408720.58, 5711926.77], [408718.91, 5711923.33], [408709.71, 5711927.65], [408712.0, 5711933.0], [408713.0, 5711933.0]]]}}, {"type": "Feature", "properties": {"id": "DENW12AL0000hp47", "z": 74.54}, "geometry": {"type": "Polygon", "coordinates": [[[408724.0, 5711934.0], [408725.0, 5711934.0], [408725.0, 5711937.0], [408726.0, 5711937.0], [408726.0, 5711939.0], [408729.0, 5711939.0], [408729.0, 5711937.3], [408728.51, 5711937.53], [408725.17, 5711930.61], [408724.0, 5711931.0], [408724.0, 5711934.0]]]}}, {"type": "Feature", "properties": {"id": "DENW12AL0000hp47", "z": 72.8}, "geometry": {"type": "Polygon", "coordinates": [[[408726.0, 5711939.0], [408726.0, 5711940.0], [408718.0, 5711940.0], [408718.0, 5711941.0], [408715.0, 5711941.0], [408715.0, 5711942.84], [408715.4, 5711943.71], [408707.34, 5711947.53], [408708.62, 5711950.3], [408711.05, 5711949.17], [408715.14, 5711947.27], [408716.72, 5711946.54], [408731.96, 5711939.46], [408731.8, 5711939.13], [408730.55, 5711936.55], [408729.0, 5711937.3], [408729.0, 5711939.0], [408726.0, 5711939.0]]]}}, {"type": "Feature", "properties": {"id": "DENW12AL0000hpcs", "z": 88.69}, "geometry": {"type": "Polygon", "coordinates": [[[409099.0, 5711109.0], [409094.0, 5711109.0], [409094.0, 5711110.0], [409091.0, 5711110.0], [409091.0, 5711111.0], [409089.59, 5711111.0], [409090.1, 5711115.0], [409091.0, 5711115.0], [409091.0, 5711114.0], [409095.0, 5711114.0], [409095.0, 5711113.0], [409101.17, 5711113.0], [409100.79, 5711110.0], [409099.0, 5711110.0], [409099.0, 5711109.0]]]}}, {"type": "Feature", "properties": {"id": "DENW12AL0000hpcs", "z": 86.47}, "geometry": {"type": "Polygon", "coordinates": [[[409091.0, 5711110.0], [409094.0, 5711110.0], [409094.0, 5711109.0], [409099.0, 5711109.0], [409099.0, 5711110.0], [409100.79, 5711110.0], [409100.02, 5711103.84], [409093.17, 5711104.7], [409093.31, 5711105.82], [409092.0, 5711105.99], [409091.85, 5711105.86], [409091.62, 5711105.7], [409091.38, 5711105.58], [409091.16, 5711105.5], [409090.94, 5711105.45], [409090.73, 5711105.42], [409090.55, 5711105.42], [409090.36, 5711105.43], [409090.16, 5711105.47], [409089.94, 5711105.53], [409089.72, 5711105.62], [409089.49, 5711105.75], [409089.26, 5711105.92], [409089.12, 5711106.06], [409088.97, 5711106.25], [409088.81, 5711106.49], [409088.71, 5711106.73], [409088.64, 5711106.97], [409088.6, 5711107.19], [409088.58, 5711107.39], [409088.59, 5711107.58], [409088.61, 5711107.76], [409088.66, 5711107.96], [409088.73, 5711108.18], [409088.83, 5711108.4], [409088.97, 5711108.62], [409089.16, 5711108.84], [409089.34, 5711109.0], [409089.59, 5711111.0], [409091.0, 5711111.0], [409091.0, 5711110.0]]]}}, {"type": "Feature", "properties": {"id": "DENW12AL0000hpcs", "z": 83.65}, "geometry": {"type": "Polygon", "coordinates": [[[409095.0, 5711114.0], [409091.0, 5711114.0], [409091.0, 5711115.0], [409090.1, 5711115.0], [409090.59, 5711118.94], [409090.97, 5711118.9], [409101.74, 5711117.54], [409101.17, 5711113.0], [409095.0, 5711113.0], [409095.0, 5711114.0]]]}}, {"type": "Feature", "properties": {"id": "DENW12AL0000hpqg", "z": 96.45}, "geometry": {"type": "Polygon", "coordinates": [[[409726.0, 5710675.0], [409725.0, 5710674.0], [409710.0, 5710674.0], [409710.0, 5710673.0], [409694.0, 5710673.0], [409694.0, 5710672.0], [409687.78, 5710672.0], [409684.68, 5710717.74], [409697.11, 5710718.59], [409697.17, 5710717.7], [409707.94, 5710718.43], [409711.0, 5710718.63], [409711.52, 5710711.0], [409709.0, 5710711.0], [409707.0, 5710709.0], [409700.0, 5710709.0], [409698.0, 5710710.0], [409698.0, 5710699.0], [409699.0, 5710699.0], [409699.0, 5710693.0], [409700.0, 5710692.0], [409723.0, 5710692.0], [409723.0, 5710693.0], [409733.0, 5710693.0], [409733.0, 5710692.72], [409732.04, 5710692.65], [409732.59, 5710684.0], [409726.0, 5710684.0], [409726.0, 5710675.0]]]}}, {"type": "Feature", "properties": {"id": "DENW12AL0000hpqg", "z": 94.3}, "geometry": {"type": "Polygon", "coordinates": [[[409706.0, 5710708.0], [409704.0, 5710705.0], [409699.0, 5710705.0], [409698.0, 5710704.0], [409698.0, 5710710.0], [409700.0, 5710709.0], [409707.0, 5710709.0], [409709.0, 5710711.0], [409711.52, 5710711.0], [409711.67, 5710708.68], [409712.29, 5710708.64], [409711.0, 5710708.0], [409706.0, 5710708.0]]]}}, {"type": "Feature", "properties": {"id": "DENW12AL0000hpqg", "z": 92.91}, "geometry": {"type": "Polygon", "coordinates": [[[409694.0, 5710673.0], [409710.0, 5710673.0], [409710.0, 5710674.0], [409725.0, 5710674.0], [409726.0, 5710675.0], [409726.0, 5710684.0], [409732.59, 5710684.0], [409732.98, 5710677.77], [409731.69, 5710666.72], [409731.39, 5710664.16], [409726.54, 5710663.84], [409726.41, 5710665.79], [409688.56, 5710663.23], [409688.37, 5710663.21], [409687.78, 5710672.0], [409694.0, 5710672.0], [409694.0, 5710673.0]]]}}, {"type": "Feature", "properties": {"id": "DENW12AL0000hpqg", "z": 92.03}, "geometry": {"type": "Polygon", "coordinates": [[[409723.0, 5710693.0], [409723.0, 5710692.0], [409700.0, 5710692.0], [409699.0, 5710693.0], [409699.0, 5710699.0], [409698.0, 5710699.0], [409698.0, 5710704.0], [409699.0, 5710705.0], [409704.0, 5710705.0], [409706.0, 5710708.0], [409711.0, 5710708.0], [409712.29, 5710708.64], [409714.57, 5710708.51], [409733.74, 5710709.79], [409734.49, 5710692.81], [409733.0, 5710692.72], [409733.0, 5710693.0], [409723.0, 5710693.0]]]}}, {"type": "Feature", "properties": {"id": "DENW12AL0000hpqm", "z": 94.87}, "geometry": {"type": "Polygon", "coordinates": [[[409743.0, 5710738.0], [409728.06, 5710738.0], [409727.28, 5710752.96], [409746.63, 5710753.57], [409745.19, 5710739.0], [409743.0, 5710739.0], [409743.0, 5710738.0]]]}}, {"type": "Feature", "properties": {"id": "DENW12AL0000hpqm", "z": 92.2}, "geometry": {"type": "Polygon", "coordinates": [[[409743.0, 5710739.0], [409745.19, 5710739.0], [409743.77, 5710724.63], [409728.81, 5710723.84], [409728.1, 5710737.26], [409728.06, 5710738.0], [409743.0, 5710738.0], [409743.0, 5710739.0]]]}}, {"type": "Feature", "properties": {"id": "DENW12AL0000htQr", "z": 115.48}, "geometry": {"type": "Polygon", "coordinates": [[[408053.0, 5710272.0], [408057.0, 5710273.0], [408057.0, 5710272.0], [408059.17, 5710272.0], [408060.42, 5710266.54], [408060.87, 5710264.57], [408059.21, 5710264.19], [408055.17, 5710263.27], [408053.81, 5710262.96], [408052.18, 5710262.59], [408050.81, 5710268.6], [408052.0, 5710269.0], [408053.0, 5710272.0]]]}}, {"type": "Feature", "properties": {"id": "DENW12AL0000htQr", "z": 109.87}, "geometry": {"type": "Polygon", "coordinates": [[[408057.0, 5710273.0], [408053.0, 5710272.0], [408052.0, 5710269.0], [408050.81, 5710268.6], [408050.35, 5710270.63], [408049.33, 5710270.4], [408047.62, 5710277.91], [408050.26, 5710278.52], [408053.76, 5710279.31], [408054.9, 5710279.57], [408054.68, 5710280.53], [408053.54, 5710280.27], [408053.25, 5710281.56], [408055.15, 5710281.99], [408056.6, 5710282.32], [408057.11, 5710280.08], [408057.32, 5710280.12], [408057.34, 5710280.04], [408058.0, 5710280.19], [408058.0, 5710274.0], [408060.0, 5710274.0], [408060.0, 5710272.8], [408059.04, 5710272.56], [408059.17, 5710272.0], [408057.0, 5710272.0], [408057.0, 5710273.0]]]}}, {"type": "Feature", "properties": {"id": "DENW12AL0000htQr", "z": 108.01}, "geometry": {"type": "Polygon", "coordinates": [[[408057.49, 5710282.51], [408057.47, 5710282.62], [408059.8, 5710283.15], [408061.77, 5710274.49], [408061.67, 5710274.46], [408061.94, 5710273.29], [408060.0, 5710272.8], [408060.0, 5710274.0], [408058.0, 5710274.0], [408058.0, 5710280.19], [408058.02, 5710280.19], [408058.0, 5710280.28], [408058.0, 5710282.0], [408057.49, 5710282.51]]]}}, {"type": "Feature", "properties": {"id": "DENW12AL0000htSj", "z": 121.04}, "geometry": {"type": "Polygon", "coordinates": [[[408088.0, 5710114.0], [408088.0, 5710113.0], [408086.56, 5710113.0], [408086.31, 5710116.13], [408086.23, 5710117.0], [408090.0, 5710117.0], [408090.0, 5710118.0], [408096.29, 5710118.0], [408096.54, 5710115.02], [408095.0, 5710114.0], [408088.0, 5710114.0]]]}}, {"type": "Feature", "properties": {"id": "DENW12AL0000htSj", "z": 118.46}, "geometry": {"type": "Polygon", "coordinates": [[[408090.0, 5710117.0], [408086.23, 5710117.0], [408085.93, 5710120.78], [408085.95, 5710120.78], [408085.85, 5710122.0], [408095.81, 5710122.0], [408095.84, 5710121.66], [408095.99, 5710121.67], [408096.29, 5710118.0], [408090.0, 5710118.0], [408090.0, 5710117.0]]]}}, {"type": "Feature", "properties": {"id": "DENW12AL0000htSj", "z": 118.37}, "geometry": {"type": "Polygon", "coordinates": [[[408088.0, 5710114.0], [408095.0, 5710114.0], [408096.54, 5710115.02], [408096.87, 5710110.94], [408096.22, 5710110.89], [408096.38, 5710108.98], [408087.63, 5710108.26], [408087.48, 5710110.13], [408086.8, 5710110.07], [408086.56, 5710113.0], [408088.0, 5710113.0], [408088.0, 5710114.0]]]}}, {"type": "Feature", "properties": {"id": "DENW12AL0000htSj", "z": 113.22}, "geometry": {"type": "Polygon", "coordinates": [[[408085.64, 5710124.66], [408085.47, 5710126.69], [408090.17, 5710127.07], [408090.24, 5710126.19], [408090.34, 5710125.03], [408095.53, 5710125.46], [408095.81, 5710122.0], [408085.85, 5710122.0], [408085.64, 5710124.66]]]}}, {"type": "Feature", "properties": {"id": "DENW12AL0000htSq", "z": 122.95}, "geometry": {"type": "Polygon", "coordinates": [[[408215.0, 5710268.0], [408215.0, 5710264.0], [408212.0, 5710262.0], [408208.0, 5710262.0], [408207.0, 5710263.0], [408207.0, 5710268.0], [408210.0, 5710268.0], [408210.0, 5710272.53], [408213.0, 5710273.6], [408213.0, 5710269.0], [408215.0, 5710268.0]]]}}, {"type": "Feature", "properties": {"id": "DENW12AL0000htSq", "z": 120.47}, "geometry": {"type": "Polygon", "coordinates": [[[408207.0, 5710268.0], [408207.0, 5710263.0], [408208.0, 5710262.0], [408212.0, 5710262.0], [408215.0, 5710264.0], [408215.0, 5710268.0], [408213.0, 5710269.0], [408213.0, 5710273.6], [408215.0, 5710274.32], [408215.0, 5710269.0], [408217.0, 5710267.0], [408220.0, 5710267.0], [408222.0, 5710269.0], [408225.0, 5710269.0], [408225.0, 5710270.0], [408228.0, 5710270.0], [408228.0, 5710271.0], [408232.0, 5710271.0], [408232.0, 5710269.0], [408234.0, 5710268.0], [408234.0, 5710266.72], [408232.0, 5710266.01], [408232.0, 5710267.0], [408226.0, 5710267.0], [408226.0, 5710266.0], [408223.0, 5710266.0], [408221.0, 5710264.0], [408218.0, 5710264.0], [408218.0, 5710262.17], [408212.84, 5710260.35], [408213.71, 5710257.9], [408211.0, 5710257.0], [408212.0, 5710255.0], [408212.0, 5710252.0], [408214.0, 5710251.0], [408213.0, 5710248.0], [408208.0, 5710248.0], [408208.0, 5710253.0], [408207.0, 5710253.0], [408207.0, 5710258.0], [408201.77, 5710258.0], [408200.45, 5710261.72], [408201.0, 5710262.0], [408204.0, 5710262.0], [408205.0, 5710263.0], [408205.0, 5710269.0], [408208.0, 5710269.0], [408208.0, 5710271.81], [408210.0, 5710272.53], [408210.0, 5710268.0], [408207.0, 5710268.0]]]}}, {"type": "Feature", "properties": {"id": "DENW12AL0000htSq", "z": 118.77}, "geometry": {"type": "Polygon", "coordinates": [[[408213.0, 5710246.0], [408208.0, 5710246.0], [408208.0, 5710245.0], [408206.99, 5710245.0], [408203.4, 5710255.14], [408202.85, 5710254.94], [408201.77, 5710258.0], [408207.0, 5710258.0], [408207.0, 5710253.0], [408208.0, 5710253.0], [408208.0, 5710248.0], [408213.0, 5710248.0], [408214.0, 5710251.0], [408212.0, 5710252.0], [408212.0, 5710255.0], [408211.0, 5710257.0], [408213.71, 5710257.9], [408215.61, 5710252.54], [408217.93, 5710253.36], [408219.47, 5710249.0], [408217.0, 5710249.0], [408213.0, 5710246.0]]]}}, {"type": "Feature", "properties": {"id": "DENW12AL0000htSq", "z": 118.69}, "geometry": {"type": "Polygon", "coordinates": [[[408205.0, 5710269.0], [408205.0, 5710263.0], [408204.0, 5710262.0], [408201.0, 5710262.0], [408200.45, 5710261.72], [408200.11, 5710262.69], [408203.33, 5710263.83], [408201.34, 5710269.43], [408208.0, 5710271.81], [408208.0, 5710269.0], [408205.0, 5710269.0]]]}}, {"type": "Feature", "properties": {"id": "DENW12AL0000htSq", "z": 118.66}, "geometry": {"type": "Polygon", "coordinates": [[[408217.0, 5710271.0], [408223.0, 5710271.0], [408223.0, 5710272.0], [408227.0, 5710272.0], [408227.0, 5710274.0], [408229.0, 5710274.0], [408229.0, 5710275.44], [408232.41, 5710276.68], [408232.61, 5710276.72], [408235.92, 5710267.39], [408235.82, 5710267.36], [408234.0, 5710266.72], [408234.0, 5710268.0], [408232.0, 5710269.0], [408232.0, 5710271.0], [408228.0, 5710271.0], [408228.0, 5710270.0], [408225.0, 5710270.0], [408225.0, 5710269.0], [408222.0, 5710269.0], [408220.0, 5710267.0], [408217.0, 5710267.0], [408215.0, 5710269.0], [408215.0, 5710274.32], [408216.0, 5710274.68], [408216.0, 5710272.0], [408217.0, 5710271.0]]]}}, {"type": "Feature", "properties": {"id": "DENW12AL0000htSq", "z": 118.57}, "geometry": {"type": "Polygon", "coordinates": [[[408221.0, 5710264.0], [408223.0, 5710266.0], [408226.0, 5710266.0], [408226.0, 5710267.0], [408232.0, 5710267.0], [408232.0, 5710266.01], [408229.89, 5710265.26], [408229.86, 5710265.35], [408220.02, 5710261.42], [408219.56, 5710262.73], [408218.0, 5710262.17], [408218.0, 5710264.0], [408221.0, 5710264.0]]]}}, {"type": "Feature", "properties": {"id": "DENW12AL0000htSq", "z": 116.57}, "geometry": {"type": "Polygon", "coordinates": [[[408208.0, 5710246.0], [408213.0, 5710246.0], [408217.0, 5710249.0], [408219.47, 5710249.0], [408219.76, 5710248.19], [408217.45, 5710247.36], [408219.66, 5710241.14], [408211.67, 5710238.3], [408211.05, 5710240.04], [408209.79, 5710239.6], [408208.91, 5710242.09], [408210.17, 5710242.54], [408209.46, 5710244.54], [408207.41, 5710243.81], [408206.99, 5710245.0], [408208.0, 5710245.0], [408208.0, 5710246.0]]]}}, {"type": "Feature", "properties": {"id": "DENW12AL0000htSq", "z": 115.73}, "geometry": {"type": "Polygon", "coordinates": [[[408227.0, 5710274.0], [408227.0, 5710272.0], [408223.0, 5710272.0], [408223.0, 5710271.0], [408217.0, 5710271.0], [408216.0, 5710272.0], [408216.0, 5710274.68], [408226.85, 5710278.56], [408228.08, 5710275.11], [408229.0, 5710275.44], [408229.0, 5710274.0], [408227.0, 5710274.0]]]}}, {"type": "Feature", "properties": {"id": "DENW12AL0000huDS", "z": 121.72}, "geometry": {"type": "Polygon", "coordinates": [[[409164.0, 5710116.0], [409167.0, 5710116.0], [409167.0, 5710115.0], [409171.0, 5710115.0], [409172.0, 5710111.0], [409175.0, 5710111.0], [409175.0, 5710110.0], [409185.0, 5710110.0], [409186.0, 5710111.0], [409186.0, 5710113.32], [409197.06, 5710110.11], [409197.03, 5710110.01], [409197.16, 5710110.08], [409195.48, 5710104.89], [409191.65, 5710105.94], [409191.39, 5710105.14], [409187.87, 5710105.98], [409186.71, 5710103.26], [409184.37, 5710104.5], [409161.43, 5710113.21], [409162.95, 5710117.0], [409164.0, 5710117.0], [409164.0, 5710116.0]]]}}, {"type": "Feature", "properties": {"id": "DENW12AL0000huDS", "z": 118.46}, "geometry": {"type": "Polygon", "coordinates": [[[409185.0, 5710110.0], [409175.0, 5710110.0], [409175.0, 5710111.0], [409172.0, 5710111.0], [409171.0, 5710115.0], [409167.0, 5710115.0], [409167.0, 5710116.0], [409164.0, 5710116.0], [409164.0, 5710117.0], [409162.95, 5710117.0], [409164.02, 5710119.66], [409176.01, 5710116.12], [409176.16, 5710116.56], [409176.49, 5710117.59], [409183.91, 5710115.44], [409183.45, 5710114.06], [409186.0, 5710113.32], [409186.0, 5710111.0], [409185.0, 5710110.0]], [[409178.76, 5710111.08], [409178.56, 5710111.47], [409176.01, 5710116.12], [409178.76, 5710111.08]]]}}, {"type": "Feature", "properties": {"id": "DENW12AL0000huFf", "z": 121.41}, "geometry": {"type": "Polygon", "coordinates": [[[409246.0, 5710195.0], [409246.0, 5710191.0], [409245.0, 5710190.0], [409241.0, 5710190.0], [409241.0, 5710194.0], [409239.0, 5710196.0], [409239.0, 5710199.63], [409245.0, 5710199.96], [409245.0, 5710195.0], [409246.0, 5710195.0]]]}}, {"type": "Feature", "properties": {"id": "DENW12AL0000huFf", "z": 118.26}, "geometry": {"type": "Polygon", "coordinates": [[[409249.0, 5710185.0], [409246.0, 5710185.0], [409246.0, 5710183.0], [409248.0, 5710182.0], [409248.0, 5710180.62], [409245.96, 5710180.35], [409237.52, 5710179.24], [409236.82, 5710184.62], [409237.2, 5710184.77], [409236.61, 5710189.84], [409236.94, 5710189.89], [409236.3, 5710195.05], [409236.51, 5710195.07], [409236.15, 5710199.48], [409239.0, 5710199.63], [409239.0, 5710196.0], [409241.0, 5710194.0], [409241.0, 5710190.0], [409245.0, 5710190.0], [409246.0, 5710191.0], [409246.0, 5710195.0], [409245.0, 5710195.0], [409245.0, 5710199.96], [409248.22, 5710200.13], [409248.7, 5710196.92], [409249.51, 5710197.03], [409250.17, 5710191.84], [409250.83, 5710191.9], [409251.41, 5710187.47], [409250.0, 5710187.0], [409249.0, 5710185.0]]]}}, {"type": "Feature", "properties": {"id": "DENW12AL0000huFf", "z": 115.65}, "geometry": {"type": "Polygon", "coordinates": [[[409246.0, 5710183.0], [409246.0, 5710185.0], [409249.0, 5710185.0], [409250.0, 5710187.0], [409251.41, 5710187.47], [409251.5, 5710186.8], [409252.21, 5710186.83], [409252.94, 5710181.27], [409252.06, 5710181.16], [409251.63, 5710181.1], [409248.0, 5710180.62], [409248.0, 5710182.0], [409246.0, 5710183.0]]]}}, {"type": "Feature", "properties": {"id": "DENW12AL0000huQ1", "z": 125.06}, "geometry": {"type": "Polygon", "coordinates": [[[409132.0, 5710020.0], [409130.0, 5710019.0], [409130.0, 5710016.0], [409129.0, 5710016.0], [409129.0, 5710012.56], [409128.16, 5710012.94], [409113.45, 5710019.55], [409122.98, 5710030.01], [409130.86, 5710026.72], [409131.28, 5710026.55], [409133.0, 5710025.83], [409133.0, 5710022.0], [409132.0, 5710020.0]]]}}, {"type": "Feature", "properties": {"id": "DENW12AL0000huQ1", "z": 123.15}, "geometry": {"type": "Polygon", "coordinates": [[[409132.0, 5710016.0], [409132.0, 5710015.0], [409135.87, 5710015.0], [409136.25, 5710014.83], [409134.22, 5710010.21], [409133.85, 5710010.38], [409129.0, 5710012.56], [409129.0, 5710016.0], [409132.0, 5710016.0]]]}}, {"type": "Feature", "properties": {"id": "DENW12AL0000huQ1", "z": 120.72}, "geometry": {"type": "Polygon", "coordinates": [[[409132.0, 5710016.0], [409130.0, 5710016.0], [409130.0, 5710019.0], [409132.0, 5710020.0], [409133.0, 5710022.0], [409133.0, 5710025.83], [409138.13, 5710023.69], [409138.33, 5710023.59], [409138.23, 5710022.99], [409140.02, 5710022.3], [409139.65, 5710021.48], [409139.17, 5710020.42], [409138.5, 5710018.92], [409136.82, 5710019.53], [409136.28, 5710018.28], [409135.0, 5710015.38], [409135.87, 5710015.0], [409132.0, 5710015.0], [409132.0, 5710016.0]]]}}, {"type": "Feature", "properties": {"id": "DENW12AL0000huT3", "z": 120.11}, "geometry": {"type": "Polygon", "coordinates": [[[409171.0, 5710017.0], [409168.0, 5710018.0], [409167.0, 5710020.0], [409165.0, 5710021.0], [409164.24, 5710021.0], [409165.76, 5710024.0], [409167.0, 5710024.0], [409169.0, 5710023.0], [409170.0, 5710021.0], [409172.0, 5710021.0], [409173.0, 5710019.0], [409177.43, 5710019.0], [409174.82, 5710015.0], [409171.0, 5710015.0], [409171.0, 5710017.0]]]}}, {"type": "Feature", "properties": {"id": "DENW12AL0000huT3", "z": 117.87}, "geometry": {"type": "Polygon", "coordinates": [[[409167.0, 5710014.0], [409165.0, 5710014.0], [409163.0, 5710017.0], [409162.21, 5710017.0], [409164.24, 5710021.0], [409165.0, 5710021.0], [409167.0, 5710020.0], [409168.0, 5710018.0], [409171.0, 5710017.0], [409171.0, 5710015.0], [409174.82, 5710015.0], [409171.28, 5710009.57], [409170.0, 5710010.0], [409167.0, 5710014.0]]]}}, {"type": "Feature", "properties": {"id": "DENW12AL0000huT3", "z": 117.41}, "geometry": {"type": "Polygon", "coordinates": [[[409172.0, 5710021.0], [409170.0, 5710021.0], [409169.0, 5710023.0], [409167.0, 5710024.0], [409165.76, 5710024.0], [409167.59, 5710027.62], [409178.28, 5710020.3], [409177.43, 5710019.0], [409173.0, 5710019.0], [409172.0, 5710021.0]]]}}, {"type": "Feature", "properties": {"id": "DENW12AL0000huT3", "z": 108.79}, "geometry": {"type": "Polygon", "coordinates": [[[409165.0, 5710014.0], [409167.0, 5710014.0], [409170.0, 5710010.0], [409171.28, 5710009.57], [409171.05, 5710009.21], [409167.69, 5710004.07], [409159.6, 5710007.79], [409158.9, 5710006.87], [409157.35, 5710007.41], [409157.56, 5710007.81], [409158.88, 5710010.43], [409162.21, 5710017.0], [409163.0, 5710017.0], [409165.0, 5710014.0]]]}}, {"type": "Feature", "properties": {"id": "DENW12AL0000hues", "z": 105.97}, "geometry": {"type": "Polygon", "coordinates": [[[408975.0, 5710789.0], [408971.0, 5710789.0], [408971.0, 5710790.0], [408967.0, 5710790.0], [408967.0, 5710791.0], [408963.0, 5710791.0], [408963.0, 5710792.0], [408959.0, 5710792.0], [408959.0, 5710793.0], [408955.0, 5710793.0], [408955.0, 5710794.0], [408954.0, 5710794.0], [408954.0, 5710797.0], [408955.0, 5710798.0], [408959.0, 5710798.0], [408959.0, 5710797.0], [408964.0, 5710797.0], [408964.0, 5710796.0], [408967.0, 5710796.0], [408967.0, 5710795.0], [408972.0, 5710795.0], [408972.0, 5710794.0], [408979.49, 5710794.0], [408978.91, 5710791.55], [408980.34, 5710791.21], [408979.87, 5710789.27], [408978.46, 5710789.61], [408978.07, 5710788.0], [408975.0, 5710788.0], [408975.0, 5710789.0]]]}}, {"type": "Feature", "properties": {"id": "DENW12AL0000hues", "z": 103.89}, "geometry": {"type": "Polygon", "coordinates": [[[408972.0, 5710795.0], [408967.0, 5710795.0], [408967.0, 5710796.0], [408964.0, 5710796.0], [408964.0, 5710797.0], [408959.0, 5710797.0], [408959.0, 5710798.0], [408955.0, 5710798.0], [408954.0, 5710797.0], [408954.0, 5710794.0], [408953.65, 5710794.0], [408953.77, 5710794.5], [408951.9, 5710794.96], [408952.92, 5710799.16], [408954.77, 5710798.71], [408955.89, 5710803.31], [408964.28, 5710801.26], [408964.4, 5710801.74], [408968.19, 5710800.82], [408971.98, 5710799.9], [408971.85, 5710799.33], [408980.29, 5710797.3], [408979.49, 5710794.0], [408972.0, 5710794.0], [408972.0, 5710795.0]]]}}, {"type": "Feature", "properties": {"id": "DENW12AL0000hues", "z": 103.56}, "geometry": {"type": "Polygon", "coordinates": [[[408965.88, 5710785.0], [408966.11, 5710785.92], [408960.31, 5710787.34], [408960.43, 5710787.86], [408952.62, 5710789.77], [408953.65, 5710794.0], [408955.0, 5710794.0], [408955.0, 5710793.0], [408959.0, 5710793.0], [408959.0, 5710792.0], [408963.0, 5710792.0], [408963.0, 5710791.0], [408967.0, 5710791.0], [408967.0, 5710790.0], [408971.0, 5710790.0], [408971.0, 5710789.0], [408975.0, 5710789.0], [408975.0, 5710788.0], [408978.07, 5710788.0], [408977.08, 5710783.85], [408973.1, 5710784.8], [408973.0, 5710785.0], [408965.88, 5710785.0]]]}}, {"type": "Feature", "properties": {"id": "DENW12AL0000hues", "z": 103.08}, "geometry": {"type": "Polygon", "coordinates": [[[408967.0, 5710758.0], [408967.0, 5710755.0], [408963.0, 5710755.0], [408963.0, 5710760.0], [408965.0, 5710761.0], [408967.0, 5710758.0]]]}}, {"type": "Feature", "properties": {"id": "DENW12AL0000hues", "z": 101.04}, "geometry": {"type": "Polygon", "coordinates": [[[408962.0, 5710763.0], [408967.0, 5710763.0], [408969.0, 5710761.0], [408969.0, 5710758.0], [408971.0, 5710756.0], [408971.83, 5710755.72], [408971.74, 5710755.66], [408970.57, 5710749.46], [408957.11, 5710752.01], [408957.13, 5710752.04], [408957.1, 5710752.03], [408957.03, 5710752.41], [408956.98, 5710752.77], [408956.95, 5710753.12], [408956.94, 5710753.45], [408956.95, 5710753.78], [408956.97, 5710754.13], [408957.02, 5710754.49], [408957.09, 5710754.87], [408958.66, 5710754.55], [408957.1, 5710754.92], [408957.19, 5710755.3], [408957.3, 5710755.65], [408957.43, 5710755.97], [408957.56, 5710756.28], [408957.71, 5710756.57], [408957.88, 5710756.88], [408958.08, 5710757.19], [408958.31, 5710757.5], [408958.35, 5710757.46], [408958.33, 5710757.53], [408958.94, 5710757.4], [408959.84, 5710762.0], [408962.0, 5710762.0], [408962.0, 5710763.0]], [[408967.0, 5710755.0], [408967.0, 5710758.0], [408965.0, 5710761.0], [408963.0, 5710760.0], [408963.0, 5710755.0], [408967.0, 5710755.0]]]}}, {"type": "Feature", "properties": {"id": "DENW12AL0000hues", "z": 99.32}, "geometry": {"type": "Polygon", "coordinates": [[[408969.0, 5710758.0], [408969.0, 5710761.0], [408967.0, 5710763.0], [408962.0, 5710763.0], [408962.0, 5710762.0], [408959.84, 5710762.0], [408960.58, 5710765.78], [408961.18, 5710765.67], [408961.26, 5710766.0], [408964.0, 5710766.0], [408964.0, 5710765.0], [408967.61, 5710765.0], [408967.5, 5710764.53], [408971.59, 5710763.78], [408971.03, 5710760.76], [408971.4, 5710760.69], [408971.77, 5710760.62], [408972.13, 5710760.56], [408972.68, 5710760.46], [408973.57, 5710759.13], [408973.07, 5710756.57], [408971.83, 5710755.72], [408971.0, 5710756.0], [408969.0, 5710758.0]]]}}, {"type": "Feature", "properties": {"id": "DENW12AL0000hues", "z": 95.14}, "geometry": {"type": "Polygon", "coordinates": [[[408964.0, 5710766.0], [408961.26, 5710766.0], [408965.88, 5710785.0], [408973.0, 5710785.0], [408973.1, 5710784.8], [408972.37, 5710784.97], [408967.61, 5710765.0], [408964.0, 5710765.0], [408964.0, 5710766.0]]]}}, {"type": "Feature", "properties": {"id": "DENW12AL0000hutD", "z": 119.08}, "geometry": {"type": "Polygon", "coordinates": [[[409168.0, 5710180.0], [409168.0, 5710184.0], [409169.0, 5710184.0], [409169.0, 5710185.15], [409172.0, 5710184.11], [409172.0, 5710183.0], [409170.0, 5710181.0], [409170.0, 5710177.34], [409167.0, 5710178.04], [409167.0, 5710180.0], [409168.0, 5710180.0]]]}}, {"type": "Feature", "properties": {"id": "DENW12AL0000hutD", "z": 116.4}, "geometry": {"type": "Polygon", "coordinates": [[[409165.02, 5710186.53], [409169.0, 5710185.15], [409169.0, 5710184.0], [409168.0, 5710184.0], [409168.0, 5710180.0], [409167.0, 5710180.0], [409167.0, 5710178.04], [409165.0, 5710178.52], [409165.0, 5710186.46], [409165.02, 5710186.53]]]}}, {"type": "Feature", "properties": {"id": "DENW12AL0000hutD", "z": 115.64}, "geometry": {"type": "Polygon", "coordinates": [[[409172.0, 5710183.0], [409172.0, 5710184.11], [409176.36, 5710182.61], [409173.81, 5710176.43], [409170.0, 5710177.34], [409170.0, 5710181.0], [409172.0, 5710183.0]]]}}, {"type": "Feature", "properties": {"id": "DENW12AL0000hutD", "z": 113.25}, "geometry": {"type": "Polygon", "coordinates": [[[409162.48, 5710179.11], [409157.49, 5710180.92], [409154.16, 5710182.13], [409154.37, 5710182.82], [409156.08, 5710188.38], [409157.35, 5710188.93], [409164.94, 5710186.28], [409165.0, 5710186.46], [409165.0, 5710178.52], [409162.48, 5710179.11]]]}}, {"type": "Feature", "properties": {"id": "DENW12AL0000huuo", "z": 114.77}, "geometry": {"type": "Polygon", "coordinates": [[[409215.0, 5710320.0], [409203.0, 5710320.0], [409202.0, 5710321.0], [409202.0, 5710322.0], [409204.0, 5710325.0], [409217.07, 5710325.0], [409217.18, 5710321.0], [409215.0, 5710321.0], [409215.0, 5710320.0]]]}}, {"type": "Feature", "properties": {"id": "DENW12AL0000huuo", "z": 112.62}, "geometry": {"type": "Polygon", "coordinates": [[[409203.0, 5710320.0], [409215.0, 5710320.0], [409215.0, 5710321.0], [409217.18, 5710321.0], [409217.31, 5710316.5], [409213.27, 5710317.05], [409203.03, 5710318.45], [409202.88, 5710318.47], [409202.89, 5710318.55], [409202.0, 5710318.66], [409202.0, 5710321.0], [409203.0, 5710320.0]]]}}, {"type": "Feature", "properties": {"id": "DENW12AL0000huuo", "z": 112.34}, "geometry": {"type": "Polygon", "coordinates": [[[409202.0, 5710322.0], [409202.0, 5710326.0], [409203.0, 5710326.0], [409203.0, 5710327.91], [409203.42, 5710327.88], [409203.68, 5710327.86], [409213.5, 5710327.18], [409217.02, 5710326.94], [409217.07, 5710325.0], [409204.0, 5710325.0], [409202.0, 5710322.0]]]}}, {"type": "Feature", "properties": {"id": "DENW12AL0000huuo", "z": 107.68}, "geometry": {"type": "Polygon", "coordinates": [[[409202.0, 5710326.0], [409202.0, 5710318.66], [409187.2, 5710320.37], [409186.73, 5710320.42], [409187.32, 5710328.03], [409187.43, 5710329.43], [409197.57, 5710328.31], [409203.0, 5710327.91], [409203.0, 5710326.0], [409202.0, 5710326.0]]]}}, {"type": "Feature", "properties": {"id": "DENW12AL0000huwy", "z": 116.91}, "geometry": {"type": "Polygon", "coordinates": [[[409062.0, 5710239.0], [409064.0, 5710239.0], [409065.0, 5710237.0], [409069.0, 5710236.0], [409069.0, 5710235.0], [409071.73, 5710235.0], [409069.14, 5710230.11], [409065.35, 5710232.12], [409058.71, 5710235.64], [409059.83, 5710237.75], [409058.47, 5710238.47], [409059.81, 5710241.0], [409061.0, 5710241.0], [409062.0, 5710239.0]]]}}, {"type": "Feature", "properties": {"id": "DENW12AL0000huwy", "z": 116.66}, "geometry": {"type": "Polygon", "coordinates": [[[409066.0, 5710241.0], [409066.0, 5710243.64], [409066.75, 5710245.05], [409067.78, 5710247.0], [409069.0, 5710247.0], [409072.0, 5710245.0], [409072.0, 5710243.0], [409077.66, 5710243.0], [409076.11, 5710240.08], [409075.5, 5710238.94], [409074.17, 5710239.64], [409073.05, 5710237.53], [409072.0, 5710238.08], [409072.0, 5710241.0], [409066.0, 5710241.0]]]}}, {"type": "Feature", "properties": {"id": "DENW12AL0000huwy", "z": 115.01}, "geometry": {"type": "Polygon", "coordinates": [[[409069.0, 5710236.0], [409065.0, 5710237.0], [409064.0, 5710239.0], [409062.0, 5710239.0], [409061.0, 5710241.0], [409059.81, 5710241.0], [409060.78, 5710242.83], [409063.11, 5710241.6], [409064.43, 5710244.09], [409065.85, 5710243.34], [409066.0, 5710243.64], [409066.0, 5710241.0], [409072.0, 5710241.0], [409072.0, 5710238.08], [409071.37, 5710238.42], [409070.87, 5710237.48], [409072.57, 5710236.58], [409071.73, 5710235.0], [409069.0, 5710235.0], [409069.0, 5710236.0]]]}}, {"type": "Feature", "properties": {"id": "DENW12AL0000huwy", "z": 114.79}, "geometry": {"type": "Polygon", "coordinates": [[[409072.0, 5710245.0], [409069.0, 5710247.0], [409067.78, 5710247.0], [409068.47, 5710248.28], [409069.78, 5710247.58], [409070.24, 5710248.55], [409070.93, 5710248.18], [409075.1, 5710245.96], [409074.61, 5710245.02], [409077.82, 5710243.32], [409077.66, 5710243.0], [409072.0, 5710243.0], [409072.0, 5710245.0]]]}}, {"type": "Feature", "properties": {"id": "DENW12AL0000hvXW", "z": 100.37}, "geometry": {"type": "Polygon", "coordinates": [[[409644.0, 5711230.0], [409644.0, 5711220.04], [409643.8, 5711220.05], [409643.83, 5711220.93], [409643.47, 5711220.94], [409643.48, 5711221.42], [409640.89, 5711221.49], [409640.74, 5711217.26], [409630.0, 5711217.57], [409630.0, 5711218.0], [409630.0, 5711218.22], [409630.73, 5711218.2], [409630.96, 5711226.56], [409630.26, 5711226.57], [409630.27, 5711227.16], [409631.11, 5711227.14], [409631.34, 5711236.44], [409630.44, 5711236.46], [409630.45, 5711237.05], [409631.29, 5711237.03], [409631.5, 5711245.41], [409630.77, 5711245.42], [409630.79, 5711246.15], [409644.75, 5711245.8], [409644.73, 5711244.8], [409644.23, 5711244.81], [409644.01, 5711234.16], [409644.89, 5711234.15], [409644.87, 5711233.29], [409644.29, 5711233.31], [409644.23, 5711230.69], [409645.22, 5711230.66], [409645.0, 5711230.0], [409644.0, 5711230.0]]]}}, {"type": "Feature", "properties": {"id": "DENW12AL0000hvXW", "z": 96.28}, "geometry": {"type": "Polygon", "coordinates": [[[409645.0, 5711230.0], [409645.22, 5711230.66], [409653.0, 5711230.49], [409653.01, 5711230.83], [409653.55, 5711230.82], [409653.54, 5711230.36], [409662.37, 5711230.1], [409662.4, 5711231.23], [409669.68, 5711231.02], [409669.65, 5711229.93], [409679.96, 5711229.63], [409679.98, 5711230.31], [409680.79, 5711230.29], [409680.43, 5711219.13], [409679.63, 5711219.16], [409679.65, 5711219.6], [409671.52, 5711219.83], [409671.5, 5711219.1], [409670.91, 5711219.12], [409670.93, 5711219.8], [409662.17, 5711220.04], [409662.16, 5711219.53], [409661.5, 5711219.54], [409661.51, 5711220.03], [409653.16, 5711220.26], [409653.15, 5711219.76], [409652.67, 5711219.77], [409652.69, 5711220.48], [409644.37, 5711220.71], [409644.35, 5711220.03], [409644.0, 5711220.04], [409644.0, 5711230.0], [409645.0, 5711230.0]]]}}, {"type": "Feature", "properties": {"id": "DENW12AL0000hvtu", "z": 84.72}, "geometry": {"type": "Polygon", "coordinates": [[[409192.0, 5711938.0], [409192.0, 5711945.17], [409192.93, 5711945.16], [409192.93, 5711945.78], [409196.23, 5711945.77], [409196.23, 5711944.42], [409202.83, 5711944.4], [409202.78, 5711931.64], [409195.94, 5711931.66], [409195.94, 5711930.87], [409195.39, 5711930.87], [409195.4, 5711932.22], [409195.0, 5711932.22], [409195.0, 5711937.0], [409192.0, 5711938.0]]]}}, {"type": "Feature", "properties": {"id": "DENW12AL0000hvtu", "z": 82.3}, "geometry": {"type": "Polygon", "coordinates": [[[409195.0, 5711937.0], [409195.0, 5711932.22], [409186.23, 5711932.25], [409186.27, 5711945.19], [409192.0, 5711945.17], [409192.0, 5711938.0], [409195.0, 5711937.0]]]}}, {"type": "Feature", "properties": {"id": "UUID_12dc8c9f-7bcd-4ca5-9bd8-8f8bdb6fc4fe", "z": 112.2}, "geometry": {"type": "Polygon", "coordinates": [[[408474.0, 5710359.0], [408469.0, 5710359.0], [408468.0, 5710356.0], [408467.73, 5710356.0], [408466.95, 5710358.23], [408465.99, 5710357.9], [408461.92, 5710369.53], [408474.15, 5710373.8], [408478.02, 5710362.77], [408478.23, 5710362.17], [408477.25, 5710361.83], [408477.54, 5710361.0], [408475.0, 5710361.0], [408474.0, 5710359.0]]]}}, {"type": "Feature", "properties": {"id": "UUID_12dc8c9f-7bcd-4ca5-9bd8-8f8bdb6fc4fe", "z": 106.51}, "geometry": {"type": "Polygon", "coordinates": [[[408469.0, 5710359.0], [408474.0, 5710359.0], [408475.0, 5710361.0], [408477.54, 5710361.0], [408478.51, 5710358.24], [408468.22, 5710354.63], [408467.73, 5710356.0], [408468.0, 5710356.0], [408469.0, 5710359.0]]]}}, {"type": "Feature", "properties": {"id": "UUID_16f5f876-bd68-4696-95e1-51911f065f21", "z": 103.75}, "geometry": {"type": "Polygon", "coordinates": [[[409389.34, 5710040.76], [409383.49, 5710028.92], [409376.6, 5710014.98], [409374.7, 5710010.8], [409363.3, 5710013.21], [409362.98, 5710013.3], [409368.14, 5710044.59], [409369.12, 5710050.56], [409392.88, 5710047.92], [409389.34, 5710040.76]]]}}, {"type": "Feature", "properties": {"id": "UUID_533cc73a-8348-4ae0-976f-6d71b10c5169", "z": 128.99}, "geometry": {"type": "Polygon", "coordinates": [[[408748.0, 5710357.0], [408746.0, 5710356.0], [408743.0, 5710356.0], [408743.0, 5710353.0], [408736.0, 5710353.0], [408736.0, 5710351.0], [408742.0, 5710351.0], [408743.0, 5710349.0], [408730.0, 5710349.0], [408730.0, 5710353.0], [408727.0, 5710354.0], [408727.0, 5710358.0], [408726.0, 5710359.0], [408723.0, 5710359.0], [408723.0, 5710366.0], [408728.0, 5710366.0], [408729.0, 5710368.0], [408743.0, 5710368.0], [408743.0, 5710367.0], [408747.0, 5710367.0], [408749.0, 5710368.0], [408751.0, 5710371.0], [408755.71, 5710371.0], [408755.13, 5710359.0], [408749.0, 5710359.0], [408748.0, 5710357.0]]]}}, {"type": "Feature", "properties": {"id": "UUID_533cc73a-8348-4ae0-976f-6d71b10c5169", "z": 125.53}, "geometry": {"type": "Polygon", "coordinates": [[[408720.0, 5710376.0], [408726.0, 5710376.0], [408726.0, 5710377.0], [408730.0, 5710377.0], [408730.0, 5710376.0], [408734.0, 5710376.0], [408735.0, 5710378.0], [408743.0, 5710378.0], [408745.0, 5710375.0], [408750.0, 5710375.0], [408752.0, 5710371.0], [408751.0, 5710371.0], [408749.0, 5710368.0], [408747.0, 5710367.0], [408743.0, 5710367.0], [408743.0, 5710368.0], [408729.0, 5710368.0], [408728.0, 5710366.0], [408723.0, 5710366.0], [408723.0, 5710359.0], [408726.0, 5710359.0], [408727.0, 5710358.0], [408727.0, 5710354.0], [408730.0, 5710353.0], [408730.0, 5710349.0], [408743.0, 5710349.0], [408742.0, 5710351.0], [408736.0, 5710351.0], [408736.0, 5710353.0], [408743.0, 5710353.0], [408743.0, 5710356.0], [408746.0, 5710356.0], [408748.0, 5710357.0], [408749.0, 5710359.0], [408752.0, 5710359.0], [408750.0, 5710357.0], [408750.0, 5710345.0], [408749.0, 5710344.0], [408744.0, 5710344.0], [408742.0, 5710342.0], [408739.0, 5710342.0], [408739.0, 5710343.0], [408735.0, 5710343.0], [408733.0, 5710345.0], [408724.0, 5710345.0], [408724.0, 5710346.0], [408720.0, 5710346.0], [408719.0, 5710347.0], [408719.0, 5710353.0], [408716.34, 5710353.0], [408716.6, 5710358.23], [408717.54, 5710377.0], [408720.0, 5710377.0], [408720.0, 5710376.0]]]}}, {"type": "Feature", "properties": {"id": "UUID_533cc73a-8348-4ae0-976f-6d71b10c5169", "z": 111.63}, "geometry": {"type": "Polygon", "coordinates": [[[408719.0, 5710347.0], [408720.0, 5710346.0], [408724.0, 5710346.0], [408724.0, 5710345.0], [408719.0, 5710345.0], [408719.0, 5710346.0], [408715.99, 5710346.0], [408716.34, 5710353.0], [408719.0, 5710353.0], [408719.0, 5710347.0]]]}}, {"type": "Feature", "properties": {"id": "UUID_533cc73a-8348-4ae0-976f-6d71b10c5169", "z": 111.4}, "geometry": {"type": "Polygon", "coordinates": [[[408750.0, 5710345.0], [408750.0, 5710357.0], [408752.0, 5710359.0], [408755.13, 5710359.0], [408754.4, 5710344.0], [408749.0, 5710344.0], [408750.0, 5710345.0]]]}}, {"type": "Feature", "properties": {"id": "UUID_533cc73a-8348-4ae0-976f-6d71b10c5169", "z": 107.41}, "geometry": {"type": "Polygon", "coordinates": [[[408739.0, 5710341.0], [408739.0, 5710342.0], [408742.0, 5710342.0], [408744.0, 5710344.0], [408754.4, 5710344.0], [408754.09, 5710337.65], [408740.0, 5710338.34], [408740.0, 5710341.0], [408739.0, 5710341.0]]]}}, {"type": "Feature", "properties": {"id": "UUID_533cc73a-8348-4ae0-976f-6d71b10c5169", "z": 107.39}, "geometry": {"type": "Polygon", "coordinates": [[[408750.0, 5710375.0], [408745.0, 5710375.0], [408743.0, 5710378.0], [408735.0, 5710378.0], [408734.0, 5710376.0], [408730.0, 5710376.0], [408730.0, 5710377.0], [408726.0, 5710377.0], [408726.0, 5710376.0], [408720.0, 5710376.0], [408720.0, 5710377.0], [408717.54, 5710377.0], [408717.74, 5710381.06], [408739.8, 5710379.96], [408756.11, 5710379.14], [408755.87, 5710374.25], [408755.71, 5710371.0], [408752.0, 5710371.0], [408750.0, 5710375.0]]]}}, {"type": "Feature", "properties": {"id": "UUID_533cc73a-8348-4ae0-976f-6d71b10c5169", "z": 107.37}, "geometry": {"type": "Polygon", "coordinates": [[[408719.0, 5710345.0], [408720.0, 5710345.0], [408720.0, 5710343.0], [408724.0, 5710343.0], [408724.0, 5710342.0], [408731.0, 5710342.0], [408732.0, 5710341.0], [408732.0, 5710338.74], [408715.66, 5710339.55], [408715.99, 5710346.0], [408719.0, 5710346.0], [408719.0, 5710345.0]]]}}, {"type": "Feature", "properties": {"id": "UUID_533cc73a-8348-4ae0-976f-6d71b10c5169", "z": 102.84}, "geometry": {"type": "Polygon", "coordinates": [[[408731.0, 5710342.0], [408724.0, 5710342.0], [408724.0, 5710343.0], [408720.0, 5710343.0], [408720.0, 5710345.0], [408733.0, 5710345.0], [408735.0, 5710343.0], [408739.0, 5710343.0], [408739.0, 5710341.0], [408740.0, 5710341.0], [408740.0, 5710338.34], [408732.0, 5710338.74], [408732.0, 5710341.0], [408731.0, 5710342.0]]]}}, {"type": "Feature", "properties": {"id": "UUID_5e84fe78-5d75-4ff3-adb4-f2d0caf91e38", "z": 132.74}, "geometry": {"type": "Polygon", "coordinates": [[[408799.0, 5710386.0], [408799.0, 5710382.0], [408798.0, 5710381.0], [408795.0, 5710382.0], [408795.0, 5710388.0], [408797.0, 5710388.0], [408797.0, 5710390.27], [408800.0, 5710390.13], [408800.0, 5710386.0], [408799.0, 5710386.0]]]}}, {"type": "Feature", "properties": {"id": "UUID_5e84fe78-5d75-4ff3-adb4-f2d0caf91e38", "z": 128.98}, "geometry": {"type": "Polygon", "coordinates": [[[408772.0, 5710371.0], [408772.0, 5710381.0], [408779.0, 5710381.0], [408780.0, 5710377.0], [408783.0, 5710377.0], [408783.0, 5710376.0], [408791.0, 5710376.0], [408791.0, 5710371.0], [408792.0, 5710371.0], [408792.0, 5710363.0], [408790.0, 5710361.0], [408781.0, 5710361.0], [408781.0, 5710362.0], [408770.0, 5710362.0], [408768.0, 5710359.0], [408764.38, 5710359.0], [408764.92, 5710370.0], [408771.0, 5710370.0], [408772.0, 5710371.0]]]}}, {"type": "Feature", "properties": {"id": "UUID_5e84fe78-5d75-4ff3-adb4-f2d0caf91e38", "z": 127.38}, "geometry": {"type": "Polygon", "coordinates": [[[408779.0, 5710361.0], [408779.0, 5710358.0], [408778.0, 5710357.0], [408775.0, 5710357.0], [408775.0, 5710358.0], [408770.0, 5710358.0], [408770.0, 5710359.0], [408768.0, 5710359.0], [408770.0, 5710362.0], [408780.0, 5710362.0], [408779.0, 5710361.0]]]}}, {"type": "Feature", "properties": {"id": "UUID_5e84fe78-5d75-4ff3-adb4-f2d0caf91e38", "z": 125.47}, "geometry": {"type": "Polygon", "coordinates": [[[408775.0, 5710385.0], [408777.0, 5710387.0], [408784.0, 5710387.0], [408786.0, 5710386.0], [408787.0, 5710384.0], [408795.0, 5710384.0], [408795.0, 5710382.0], [408798.0, 5710381.0], [408799.0, 5710382.0], [408799.0, 5710383.0], [408800.0, 5710383.0], [408800.0, 5710378.0], [408799.0, 5710378.0], [408799.0, 5710375.0], [408800.0, 5710375.0], [408800.0, 5710369.0], [408799.0, 5710369.0], [408799.0, 5710360.0], [408798.0, 5710360.0], [408798.0, 5710354.0], [408797.0, 5710353.0], [408793.0, 5710353.0], [408793.0, 5710352.0], [408787.0, 5710352.0], [408785.0, 5710353.0], [408783.0, 5710351.0], [408776.0, 5710351.0], [408776.0, 5710352.0], [408775.0, 5710353.0], [408774.0, 5710353.0], [408774.0, 5710354.0], [408771.0, 5710354.0], [408768.0, 5710356.0], [408767.0, 5710359.0], [408770.0, 5710359.0], [408770.0, 5710358.0], [408775.0, 5710358.0], [408775.0, 5710357.0], [408778.0, 5710357.0], [408779.0, 5710358.0], [408779.0, 5710361.0], [408780.0, 5710362.0], [408781.0, 5710362.0], [408781.0, 5710361.0], [408790.0, 5710361.0], [408792.0, 5710363.0], [408792.0, 5710371.0], [408791.0, 5710371.0], [408791.0, 5710376.0], [408783.0, 5710376.0], [408783.0, 5710377.0], [408780.0, 5710377.0], [408779.0, 5710381.0], [408772.0, 5710381.0], [408772.0, 5710371.0], [408771.0, 5710370.0], [408767.0, 5710370.0], [408768.0, 5710373.0], [408769.0, 5710373.0], [408769.0, 5710384.0], [408770.0, 5710385.0], [408775.0, 5710385.0]]]}}, {"type": "Feature", "properties": {"id": "UUID_5e84fe78-5d75-4ff3-adb4-f2d0caf91e38", "z": 113.01}, "geometry": {"type": "Polygon", "coordinates": [[[408768.0, 5710375.0], [408768.0, 5710381.0], [408769.0, 5710381.0], [408769.0, 5710373.0], [408768.0, 5710373.0], [408767.0, 5710370.0], [408764.92, 5710370.0], [408765.1, 5710373.79], [408765.11, 5710374.0], [408767.0, 5710374.0], [408768.0, 5710375.0]]]}}, {"type": "Feature", "properties": {"id": "UUID_5e84fe78-5d75-4ff3-adb4-f2d0caf91e38", "z": 111.37}, "geometry": {"type": "Polygon", "coordinates": [[[408768.0, 5710356.0], [408771.0, 5710354.0], [408774.0, 5710354.0], [408774.0, 5710353.0], [408770.0, 5710353.0], [408768.0, 5710353.0], [408768.0, 5710351.0], [408763.99, 5710351.0], [408764.38, 5710359.0], [408767.0, 5710359.0], [408768.0, 5710356.0]]]}}, {"type": "Feature", "properties": {"id": "UUID_5e84fe78-5d75-4ff3-adb4-f2d0caf91e38", "z": 107.55}, "geometry": {"type": "Polygon", "coordinates": [[[408768.0, 5710353.0], [408770.0, 5710353.0], [408775.0, 5710353.0], [408776.0, 5710352.0], [408776.0, 5710350.0], [408776.0, 5710348.0], [408782.0, 5710348.0], [408784.0, 5710344.0], [408788.0, 5710344.0], [408790.0, 5710346.0], [408790.0, 5710348.0], [408792.0, 5710350.0], [408797.0, 5710350.0], [408797.0, 5710352.0], [408795.0, 5710353.0], [408797.0, 5710353.0], [408798.0, 5710354.0], [408798.0, 5710360.0], [408799.0, 5710360.0], [408799.0, 5710369.0], [408800.0, 5710369.0], [408800.0, 5710375.0], [408799.0, 5710375.0], [408799.0, 5710378.0], [408800.0, 5710378.0], [408800.0, 5710383.0], [408799.0, 5710383.0], [408799.0, 5710386.0], [408800.0, 5710386.0], [408800.0, 5710390.13], [408807.14, 5710389.79], [408806.76, 5710382.44], [408804.54, 5710338.76], [408801.06, 5710338.93], [408763.49, 5710340.77], [408763.99, 5710351.0], [408768.0, 5710351.0], [408768.0, 5710353.0]]]}}, {"type": "Feature", "properties": {"id": "UUID_5e84fe78-5d75-4ff3-adb4-f2d0caf91e38", "z": 107.4}, "geometry": {"type": "Polygon", "coordinates": [[[408795.0, 5710388.0], [408795.0, 5710384.0], [408787.0, 5710384.0], [408786.0, 5710386.0], [408784.0, 5710387.0], [408777.0, 5710387.0], [408775.0, 5710385.0], [408770.0, 5710385.0], [408769.0, 5710384.0], [408769.0, 5710381.0], [408768.0, 5710381.0], [408768.0, 5710375.0], [408767.0, 5710374.0], [408765.11, 5710374.0], [408765.98, 5710391.72], [408797.0, 5710390.27], [408797.0, 5710388.0], [408795.0, 5710388.0]]]}}, {"type": "Feature", "properties": {"id": "UUID_5e84fe78-5d75-4ff3-adb4-f2d0caf91e38", "z": 102.84}, "geometry": {"type": "Polygon", "coordinates": [[[408785.0, 5710353.0], [408787.0, 5710352.0], [408793.0, 5710352.0], [408793.0, 5710353.0], [408795.0, 5710353.0], [408797.0, 5710352.0], [408797.0, 5710350.0], [408792.0, 5710350.0], [408790.0, 5710348.0], [408790.0, 5710346.0], [408788.0, 5710344.0], [408784.0, 5710344.0], [408782.0, 5710348.0], [408776.0, 5710348.0], [408776.0, 5710350.0], [408776.0, 5710351.0], [408783.0, 5710351.0], [408785.0, 5710353.0]]]}}, {"type": "Feature", "properties": {"id": "UUID_5f5498eb-8ff1-4e37-8507-05b825dfefa3", "z": 123.85}, "geometry": {"type": "Polygon", "coordinates": [[[409755.0, 5710123.0], [409765.26, 5710123.0], [409765.38, 5710121.01], [409767.02, 5710121.1], [409766.83, 5710124.07], [409767.08, 5710124.08], [409771.0, 5710124.33], [409771.0, 5710117.0], [409772.0, 5710117.0], [409772.0, 5710106.0], [409770.0, 5710104.0], [409767.0, 5710105.0], [409767.0, 5710117.0], [409766.0, 5710118.0], [409756.0, 5710118.0], [409756.0, 5710117.0], [409738.42, 5710117.0], [409738.31, 5710118.84], [409738.13, 5710122.0], [409755.0, 5710122.0], [409755.0, 5710123.0]]]}}, {"type": "Feature", "properties": {"id": "UUID_5f5498eb-8ff1-4e37-8507-05b825dfefa3", "z": 123.8}, "geometry": {"type": "Polygon", "coordinates": [[[409759.0, 5710075.0], [409765.0, 5710075.0], [409766.0, 5710077.0], [409766.0, 5710095.0], [409765.0, 5710095.0], [409765.0, 5710100.0], [409766.0, 5710101.0], [409769.0, 5710101.0], [409770.0, 5710100.0], [409770.0, 5710092.0], [409771.0, 5710092.0], [409771.0, 5710076.0], [409772.0, 5710076.0], [409772.0, 5710071.0], [409771.0, 5710070.0], [409753.0, 5710070.0], [409753.0, 5710069.0], [409747.2, 5710069.0], [409746.9, 5710074.0], [409759.0, 5710074.0], [409759.0, 5710075.0]]]}}, {"type": "Feature", "properties": {"id": "UUID_5f5498eb-8ff1-4e37-8507-05b825dfefa3", "z": 121.6}, "geometry": {"type": "Polygon", "coordinates": [[[409755.0, 5710122.0], [409738.13, 5710122.0], [409737.97, 5710124.85], [409765.07, 5710126.42], [409765.26, 5710123.0], [409755.0, 5710123.0], [409755.0, 5710122.0]]]}}, {"type": "Feature", "properties": {"id": "UUID_5f5498eb-8ff1-4e37-8507-05b825dfefa3", "z": 120.99}, "geometry": {"type": "Polygon", "coordinates": [[[409756.0, 5710118.0], [409766.0, 5710118.0], [409767.0, 5710117.0], [409767.0, 5710105.0], [409770.0, 5710104.0], [409772.0, 5710106.0], [409772.0, 5710117.0], [409771.0, 5710117.0], [409771.0, 5710124.33], [409774.76, 5710124.56], [409775.91, 5710105.43], [409776.64, 5710105.26], [409777.23, 5710104.9], [409777.67, 5710104.36], [409777.93, 5710103.72], [409777.98, 5710103.02], [409777.81, 5710102.36], [409777.43, 5710101.77], [409776.89, 5710101.33], [409776.25, 5710101.07], [409773.78, 5710100.94], [409775.7, 5710067.4], [409770.38, 5710067.1], [409747.39, 5710065.81], [409747.2, 5710069.0], [409753.0, 5710069.0], [409753.0, 5710070.0], [409771.0, 5710070.0], [409772.0, 5710071.0], [409772.0, 5710076.0], [409771.0, 5710076.0], [409771.0, 5710092.0], [409770.0, 5710092.0], [409770.0, 5710100.0], [409769.0, 5710101.0], [409766.0, 5710101.0], [409765.0, 5710100.0], [409765.0, 5710095.0], [409766.0, 5710095.0], [409766.0, 5710077.0], [409765.0, 5710075.0], [409759.0, 5710075.0], [409759.0, 5710074.0], [409746.9, 5710074.0], [409746.82, 5710075.43], [409742.03, 5710075.14], [409741.87, 5710078.0], [409744.0, 5710078.0], [409744.0, 5710079.0], [409760.0, 5710079.0], [409761.0, 5710080.0], [409761.0, 5710097.0], [409760.0, 5710097.0], [409760.0, 5710105.0], [409763.0, 5710106.0], [409762.0, 5710108.0], [409762.0, 5710112.0], [409760.0, 5710112.0], [409759.0, 5710114.0], [409757.0, 5710114.0], [409757.0, 5710116.0], [409746.0, 5710116.0], [409747.0, 5710115.0], [409747.0, 5710112.0], [409738.73, 5710112.0], [409738.42, 5710117.0], [409756.0, 5710117.0], [409756.0, 5710118.0]]]}}, {"type": "Feature", "properties": {"id": "UUID_5f5498eb-8ff1-4e37-8507-05b825dfefa3", "z": 118.17}, "geometry": {"type": "Polygon", "coordinates": [[[409760.0, 5710104.0], [409760.0, 5710097.0], [409761.0, 5710097.0], [409761.0, 5710080.0], [409760.0, 5710079.0], [409744.0, 5710079.0], [409744.0, 5710078.0], [409741.87, 5710078.0], [409741.59, 5710083.06], [409742.18, 5710083.09], [409742.07, 5710084.89], [409751.22, 5710085.42], [409751.32, 5710083.6], [409757.12, 5710083.95], [409756.5, 5710095.18], [409756.0, 5710095.15], [409756.0, 5710104.0], [409760.0, 5710104.0]]]}}, {"type": "Feature", "properties": {"id": "UUID_5f5498eb-8ff1-4e37-8507-05b825dfefa3", "z": 117.98}, "geometry": {"type": "Polygon", "coordinates": [[[409747.0, 5710114.0], [409748.0, 5710114.0], [409748.0, 5710109.0], [409747.0, 5710107.0], [409742.69, 5710107.0], [409742.65, 5710107.55], [409738.97, 5710107.44], [409738.94, 5710108.6], [409738.73, 5710112.0], [409747.0, 5710112.0], [409747.0, 5710114.0]]]}}, {"type": "Feature", "properties": {"id": "UUID_5f5498eb-8ff1-4e37-8507-05b825dfefa3", "z": 115.66}, "geometry": {"type": "Polygon", "coordinates": [[[409753.0, 5710115.0], [409757.0, 5710115.0], [409757.0, 5710114.0], [409759.0, 5710114.0], [409760.0, 5710112.0], [409762.0, 5710112.0], [409762.0, 5710108.0], [409763.0, 5710106.0], [409760.0, 5710105.0], [409760.0, 5710104.0], [409757.0, 5710104.0], [409758.0, 5710106.0], [409758.0, 5710110.0], [409757.0, 5710111.0], [409749.0, 5710111.0], [409748.0, 5710110.0], [409748.0, 5710113.0], [409753.0, 5710113.0], [409753.0, 5710115.0]]]}}, {"type": "Feature", "properties": {"id": "UUID_5f5498eb-8ff1-4e37-8507-05b825dfefa3", "z": 112.94}, "geometry": {"type": "Polygon", "coordinates": [[[409748.0, 5710109.0], [409748.0, 5710110.0], [409749.0, 5710111.0], [409757.0, 5710111.0], [409758.0, 5710110.0], [409758.0, 5710106.0], [409757.0, 5710104.0], [409756.0, 5710104.0], [409756.0, 5710095.15], [409753.13, 5710094.98], [409750.38, 5710097.48], [409750.23, 5710099.89], [409742.71, 5710106.65], [409742.69, 5710107.0], [409747.0, 5710107.0], [409748.0, 5710109.0]]]}}, {"type": "Feature", "properties": {"id": "UUID_65e49fc4-f3dc-486a-b0e0-13a0e0143332", "z": 121.73}, "geometry": {"type": "Polygon", "coordinates": [[[409266.0, 5710370.0], [409266.0, 5710374.0], [409269.0, 5710374.0], [409269.0, 5710373.0], [409279.0, 5710373.0], [409279.0, 5710372.0], [409283.92, 5710372.0], [409283.33, 5710366.4], [409283.03, 5710363.53], [409265.0, 5710365.41], [409265.0, 5710370.0], [409266.0, 5710370.0]]]}}, {"type": "Feature", "properties": {"id": "UUID_65e49fc4-f3dc-486a-b0e0-13a0e0143332", "z": 118.51}, "geometry": {"type": "Polygon", "coordinates": [[[409256.0, 5710375.0], [409260.0, 5710375.0], [409260.0, 5710374.0], [409266.0, 5710374.0], [409266.0, 5710370.0], [409265.0, 5710370.0], [409265.0, 5710365.41], [409255.0, 5710366.46], [409255.0, 5710374.0], [409256.0, 5710375.0]]]}}, {"type": "Feature", "properties": {"id": "UUID_65e49fc4-f3dc-486a-b0e0-13a0e0143332", "z": 112.02}, "geometry": {"type": "Polygon", "coordinates": [[[409250.0, 5710375.0], [409256.0, 5710375.0], [409255.0, 5710374.0], [409255.0, 5710366.46], [409239.06, 5710368.12], [409239.88, 5710376.0], [409250.0, 5710376.0], [409250.0, 5710375.0]]]}}, {"type": "Feature", "properties": {"id": "UUID_65e49fc4-f3dc-486a-b0e0-13a0e0143332", "z": 108.38}, "geometry": {"type": "Polygon", "coordinates": [[[409279.0, 5710373.0], [409269.0, 5710373.0], [409269.0, 5710374.0], [409260.0, 5710374.0], [409260.0, 5710375.0], [409250.0, 5710375.0], [409250.0, 5710376.0], [409239.88, 5710376.0], [409239.92, 5710376.32], [409241.95, 5710395.81], [409250.0, 5710394.98], [409250.0, 5710390.0], [409249.0, 5710390.0], [409249.0, 5710387.0], [409250.0, 5710386.0], [409259.0, 5710386.0], [409261.0, 5710385.0], [409262.0, 5710387.0], [409265.0, 5710387.0], [409265.0, 5710384.0], [409273.0, 5710384.0], [409274.0, 5710385.0], [409274.0, 5710391.0], [409275.0, 5710391.0], [409275.0, 5710392.39], [409285.93, 5710391.26], [409283.92, 5710372.0], [409279.0, 5710372.0], [409279.0, 5710373.0]]]}}, {"type": "Feature", "properties": {"id": "UUID_65e49fc4-f3dc-486a-b0e0-13a0e0143332", "z": 106.05}, "geometry": {"type": "Polygon", "coordinates": [[[409274.0, 5710391.0], [409274.0, 5710385.0], [409273.0, 5710384.0], [409265.0, 5710384.0], [409265.0, 5710387.0], [409262.0, 5710387.0], [409261.0, 5710385.0], [409259.0, 5710386.0], [409250.0, 5710386.0], [409249.0, 5710387.0], [409249.0, 5710390.0], [409250.0, 5710390.0], [409250.0, 5710394.98], [409260.0, 5710393.95], [409260.0, 5710391.0], [409261.0, 5710390.0], [409268.0, 5710390.0], [409268.0, 5710393.12], [409273.57, 5710392.54], [409275.0, 5710392.39], [409275.0, 5710391.0], [409274.0, 5710391.0]]]}}, {"type": "Feature", "properties": {"id": "UUID_65e49fc4-f3dc-486a-b0e0-13a0e0143332", "z": 103.5}, "geometry": {"type": "Polygon", "coordinates": [[[409261.0, 5710390.0], [409260.0, 5710391.0], [409260.0, 5710393.95], [409266.51, 5710393.27], [409268.0, 5710393.12], [409268.0, 5710390.0], [409261.0, 5710390.0]]]}}, {"type": "Feature", "properties": {"id": "UUID_68e8e63b-1ff1-48c7-8485-0d876ac3ba9a", "z": 127.79}, "geometry": {"type": "Polygon", "coordinates": [[[409078.0, 5710033.0], [409083.0, 5710033.0], [409083.0, 5710032.0], [409087.0, 5710032.0], [409088.0, 5710029.0], [409084.0, 5710026.0], [409083.0, 5710022.0], [409080.0, 5710021.0], [409079.0, 5710017.0], [409076.0, 5710016.0], [409073.0, 5710008.0], [409071.0, 5710006.0], [409064.0, 5710006.0], [409064.0, 5710003.0], [409055.0, 5710003.0], [409055.0, 5710004.0], [409049.0, 5710004.0], [409049.0, 5710005.0], [409045.0, 5710005.0], [409043.0, 5710007.0], [409043.0, 5710013.0], [409044.0, 5710013.0], [409044.0, 5710016.0], [409045.0, 5710017.0], [409048.0, 5710017.0], [409052.0, 5710014.0], [409058.0, 5710014.0], [409058.0, 5710013.0], [409063.0, 5710013.0], [409065.0, 5710015.0], [409067.0, 5710015.0], [409067.0, 5710018.0], [409068.0, 5710018.0], [409068.0, 5710025.0], [409069.0, 5710025.0], [409069.0, 5710030.0], [409070.0, 5710030.0], [409070.0, 5710034.0], [409071.0, 5710034.0], [409071.0, 5710035.0], [409078.0, 5710035.0], [409078.0, 5710033.0]]]}}, {"type": "Feature", "properties": {"id": "UUID_68e8e63b-1ff1-48c7-8485-0d876ac3ba9a", "z": 125.87}, "geometry": {"type": "Polygon", "coordinates": [[[409076.0, 5710036.0], [409081.0, 5710036.0], [409081.0, 5710035.0], [409089.0, 5710035.0], [409089.0, 5710034.0], [409092.0, 5710034.0], [409093.0, 5710031.0], [409090.0, 5710029.0], [409090.0, 5710027.0], [409084.0, 5710022.0], [409084.0, 5710020.0], [409080.0, 5710017.0], [409080.0, 5710015.0], [409077.0, 5710013.0], [409077.0, 5710011.0], [409074.0, 5710009.0], [409074.0, 5710007.0], [409072.0, 5710005.0], [409068.0, 5710005.0], [409068.0, 5710006.0], [409071.0, 5710006.0], [409073.0, 5710008.0], [409076.0, 5710016.0], [409079.0, 5710017.0], [409080.0, 5710021.0], [409083.0, 5710022.0], [409084.0, 5710026.0], [409088.0, 5710029.0], [409087.0, 5710032.0], [409083.0, 5710032.0], [409083.0, 5710033.0], [409078.0, 5710033.0], [409078.0, 5710035.0], [409071.0, 5710035.0], [409071.0, 5710036.0], [409072.0, 5710037.0], [409076.0, 5710037.0], [409076.0, 5710036.0]]]}}, {"type": "Feature", "properties": {"id": "UUID_68e8e63b-1ff1-48c7-8485-0d876ac3ba9a", "z": 123.73}, "geometry": {"type": "Polygon", "coordinates": [[[409102.0, 5710036.0], [409102.0, 5710035.0], [409107.0, 5710035.0], [409107.0, 5710029.0], [409106.0, 5710029.0], [409102.0, 5710023.0], [409097.0, 5710023.0], [409095.0, 5710024.0], [409093.0, 5710022.0], [409093.0, 5710020.0], [409089.0, 5710017.0], [409089.0, 5710015.0], [409086.0, 5710014.0], [409084.0, 5710012.0], [409084.0, 5710010.0], [409082.0, 5710008.0], [409080.0, 5710008.0], [409076.0, 5710002.0], [409074.0, 5710001.0], [409063.0, 5710001.0], [409063.0, 5710002.0], [409058.0, 5710002.0], [409058.0, 5710003.0], [409064.0, 5710003.0], [409064.0, 5710006.0], [409068.0, 5710006.0], [409068.0, 5710005.0], [409072.0, 5710005.0], [409074.0, 5710007.0], [409074.0, 5710009.0], [409077.0, 5710011.0], [409077.0, 5710013.0], [409080.0, 5710015.0], [409080.0, 5710017.0], [409084.0, 5710020.0], [409084.0, 5710022.0], [409090.0, 5710027.0], [409090.0, 5710029.0], [409093.0, 5710031.0], [409092.0, 5710034.0], [409089.0, 5710034.0], [409089.0, 5710035.0], [409081.0, 5710035.0], [409081.0, 5710036.0], [409076.0, 5710036.0], [409076.0, 5710037.0], [409078.0, 5710037.0], [409078.0, 5710039.0], [409083.0, 5710039.0], [409083.0, 5710038.0], [409091.0, 5710038.0], [409091.0, 5710038.97], [409092.91, 5710037.79], [409096.42, 5710036.85], [409096.51, 5710036.98], [409097.0, 5710036.0], [409102.0, 5710036.0]]]}}, {"type": "Feature", "properties": {"id": "UUID_68e8e63b-1ff1-48c7-8485-0d876ac3ba9a", "z": 123.69}, "geometry": {"type": "Polygon", "coordinates": [[[409042.0, 5710017.0], [409045.0, 5710017.0], [409044.0, 5710016.0], [409044.0, 5710013.0], [409043.0, 5710013.0], [409043.0, 5710007.0], [409045.0, 5710005.0], [409043.0, 5710005.0], [409043.0, 5710006.0], [409040.0, 5710006.0], [409040.0, 5710007.0], [409038.68, 5710007.0], [409039.81, 5710012.85], [409040.51, 5710016.16], [409040.33, 5710016.2], [409040.66, 5710018.0], [409042.0, 5710018.0], [409042.0, 5710017.0]]]}}, {"type": "Feature", "properties": {"id": "UUID_68e8e63b-1ff1-48c7-8485-0d876ac3ba9a", "z": 121.28}, "geometry": {"type": "Polygon", "coordinates": [[[409083.0, 5710038.0], [409083.0, 5710039.0], [409078.0, 5710039.0], [409078.0, 5710041.0], [409079.0, 5710041.0], [409079.0, 5710043.99], [409082.78, 5710043.3], [409086.42, 5710041.79], [409087.37, 5710041.21], [409091.0, 5710038.97], [409091.0, 5710038.0], [409083.0, 5710038.0]]]}}, {"type": "Feature", "properties": {"id": "UUID_68e8e63b-1ff1-48c7-8485-0d876ac3ba9a", "z": 121.05}, "geometry": {"type": "Polygon", "coordinates": [[[409040.0, 5710006.0], [409043.0, 5710006.0], [409043.0, 5710005.0], [409049.0, 5710005.0], [409049.0, 5710004.0], [409055.0, 5710004.0], [409055.0, 5710003.0], [409058.0, 5710003.0], [409058.0, 5710002.0], [409063.0, 5710002.0], [409063.0, 5710001.0], [409074.0, 5710001.0], [409076.0, 5710002.0], [409080.0, 5710008.0], [409082.0, 5710008.0], [409084.0, 5710010.0], [409084.0, 5710012.0], [409086.0, 5710014.0], [409089.0, 5710015.0], [409089.0, 5710017.0], [409093.0, 5710020.0], [409093.0, 5710022.0], [409095.0, 5710024.0], [409097.0, 5710023.0], [409102.0, 5710023.0], [409106.0, 5710029.0], [409107.0, 5710029.0], [409107.0, 5710035.0], [409102.0, 5710035.0], [409102.0, 5710036.0], [409097.0, 5710036.0], [409096.51, 5710036.98], [409098.82, 5710040.37], [409100.11, 5710042.26], [409100.8, 5710041.73], [409102.36, 5710040.51], [409102.4, 5710040.48], [409104.38, 5710038.94], [409112.49, 5710032.72], [409101.2, 5710017.78], [409098.11, 5710019.75], [409095.97, 5710021.12], [409092.7, 5710016.97], [409092.1, 5710017.44], [409091.64, 5710016.85], [409089.69, 5710014.39], [409087.16, 5710011.18], [409086.52, 5710011.68], [409081.99, 5710005.93], [409081.6, 5710005.43], [409080.96, 5710005.92], [409075.99, 5709999.64], [409075.35, 5710000.15], [409073.38, 5709997.72], [409065.22, 5709999.32], [409064.87, 5709997.95], [409064.37, 5709998.02], [409055.3, 5709999.91], [409054.61, 5709996.28], [409052.05, 5709996.82], [409052.74, 5710000.44], [409042.43, 5710002.59], [409038.0, 5710003.51], [409038.68, 5710007.0], [409040.0, 5710007.0], [409040.0, 5710006.0]]]}}, {"type": "Feature", "properties": {"id": "UUID_68e8e63b-1ff1-48c7-8485-0d876ac3ba9a", "z": 118.09}, "geometry": {"type": "Polygon", "coordinates": [[[409078.0, 5710041.0], [409078.0, 5710037.0], [409072.0, 5710037.0], [409071.0, 5710036.0], [409071.0, 5710034.0], [409070.0, 5710034.0], [409070.0, 5710030.0], [409069.0, 5710030.0], [409069.0, 5710025.0], [409068.0, 5710025.0], [409068.0, 5710018.0], [409067.0, 5710018.0], [409067.0, 5710015.0], [409065.0, 5710015.0], [409063.0, 5710013.0], [409058.0, 5710013.0], [409058.0, 5710014.0], [409052.0, 5710014.0], [409048.0, 5710017.0], [409052.0, 5710017.0], [409053.0, 5710020.0], [409054.0, 5710020.0], [409054.0, 5710025.0], [409055.0, 5710025.0], [409055.0, 5710031.93], [409055.98, 5710031.71], [409063.78, 5710029.61], [409066.22, 5710038.08], [409066.6, 5710038.0], [409070.58, 5710037.12], [409071.26, 5710039.01], [409073.31, 5710038.56], [409075.33, 5710044.44], [409075.4, 5710044.65], [409079.0, 5710043.99], [409079.0, 5710041.0], [409078.0, 5710041.0]]]}}, {"type": "Feature", "properties": {"id": "UUID_68e8e63b-1ff1-48c7-8485-0d876ac3ba9a", "z": 113.93}, "geometry": {"type": "Polygon", "coordinates": [[[409054.0, 5710025.0], [409054.0, 5710020.0], [409053.0, 5710020.0], [409052.0, 5710017.0], [409042.0, 5710017.0], [409042.0, 5710018.0], [409040.66, 5710018.0], [409041.16, 5710020.72], [409041.17, 5710020.76], [409036.67, 5710021.74], [409034.45, 5710022.22], [409036.13, 5710030.64], [409037.02, 5710035.75], [409042.73, 5710034.43], [409049.52, 5710033.2], [409055.0, 5710031.93], [409055.0, 5710025.0], [409054.0, 5710025.0]]]}}, {"type": "Feature", "properties": {"id": "UUID_8cb176eb-857f-4663-b227-14fb99642cc0", "z": 118.02}, "geometry": {"type": "Polygon", "coordinates": [[[408612.0, 5710372.0], [408612.0, 5710369.0], [408613.0, 5710368.0], [408621.2, 5710368.0], [408620.92, 5710356.42], [408607.15, 5710356.76], [408607.48, 5710370.31], [408607.55, 5710373.0], [408611.0, 5710373.0], [408612.0, 5710372.0]]]}}, {"type": "Feature", "properties": {"id": "UUID_8cb176eb-857f-4663-b227-14fb99642cc0", "z": 112.53}, "geometry": {"type": "Polygon", "coordinates": [[[408612.0, 5710369.0], [408612.0, 5710372.0], [408611.0, 5710373.0], [408607.55, 5710373.0], [408607.86, 5710385.66], [408613.79, 5710385.51], [408621.63, 5710385.31], [408621.21, 5710368.06], [408621.2, 5710368.0], [408613.0, 5710368.0], [408612.0, 5710369.0]]]}}, {"type": "Feature", "properties": {"id": "UUID_ac1839d3-84f4-4d6f-ac93-d41f975dafe3", "z": 112.21}, "geometry": {"type": "Polygon", "coordinates": [[[408489.41, 5710379.13], [408494.83, 5710363.71], [408483.57, 5710359.75], [408478.15, 5710375.19], [408489.41, 5710379.13]]]}}, {"type": "Feature", "properties": {"id": "UUID_b5b44b0a-1727-496c-9510-7c13faca0a07", "z": 83.71}, "geometry": {"type": "Polygon", "coordinates": [[[408603.0, 5711550.0], [408602.0, 5711551.0], [408602.0, 5711553.3], [408603.47, 5711553.23], [408612.0, 5711551.95], [408612.0, 5711550.0], [408603.0, 5711550.0]]]}}, {"type": "Feature", "properties": {"id": "UUID_b5b44b0a-1727-496c-9510-7c13faca0a07", "z": 81.31}, "geometry": {"type": "Polygon", "coordinates": [[[408608.0, 5711546.0], [408608.0, 5711549.0], [408607.0, 5711550.0], [408612.0, 5711550.0], [408612.0, 5711551.95], [408612.58, 5711551.86], [408612.53, 5711550.97], [408618.6, 5711550.01], [408618.55, 5711549.35], [408618.38, 5711547.22], [408617.97, 5711541.97], [408617.97, 5711541.96], [408617.68, 5711538.3], [408607.12, 5711539.88], [408607.0, 5711539.9], [408607.0, 5711546.0], [408608.0, 5711546.0]]]}}, {"type": "Feature", "properties": {"id": "UUID_b5b44b0a-1727-496c-9510-7c13faca0a07", "z": 71.81}, "geometry": {"type": "Polygon", "coordinates": [[[408603.0, 5711550.0], [408607.0, 5711550.0], [408608.0, 5711549.0], [408608.0, 5711546.0], [408607.0, 5711546.0], [408607.0, 5711539.9], [408597.79, 5711541.27], [408597.86, 5711543.29], [408596.77, 5711543.45], [408596.82, 5711545.21], [408596.87, 5711546.78], [408597.99, 5711546.75], [408598.24, 5711553.48], [408602.0, 5711553.3], [408602.0, 5711551.0], [408603.0, 5711550.0]]]}}, {"type": "Feature", "properties": {"id": "UUID_e19217dc-be90-418c-bea8-803cce9c1172", "z": 88.68}, "geometry": {"type": "Polygon", "coordinates": [[[408962.0, 5711348.0], [408962.0, 5711339.0], [408960.0, 5711337.0], [408957.27, 5711337.0], [408957.78, 5711341.08], [408957.41, 5711341.12], [408957.51, 5711341.96], [408957.88, 5711341.92], [408958.7, 5711348.6], [408958.34, 5711348.65], [408958.38, 5711349.0], [408961.0, 5711349.0], [408962.0, 5711348.0]]]}}, {"type": "Feature", "properties": {"id": "UUID_e19217dc-be90-418c-bea8-803cce9c1172", "z": 81.23}, "geometry": {"type": "Polygon", "coordinates": [[[408962.0, 5711339.0], [408962.0, 5711348.0], [408961.0, 5711349.0], [408958.38, 5711349.0], [408958.44, 5711349.46], [408958.81, 5711349.41], [408959.61, 5711355.92], [408959.24, 5711355.96], [408959.36, 5711356.9], [408959.72, 5711356.85], [408960.58, 5711363.78], [408960.21, 5711363.83], [408960.32, 5711364.7], [408960.69, 5711364.65], [408961.53, 5711371.49], [408968.48, 5711370.63], [408968.53, 5711370.99], [408969.21, 5711370.91], [408969.17, 5711370.55], [408975.62, 5711369.75], [408975.67, 5711370.11], [408976.34, 5711370.03], [408976.29, 5711369.66], [408983.02, 5711368.83], [408983.06, 5711369.2], [408983.66, 5711369.12], [408983.62, 5711368.76], [408990.0, 5711367.97], [408990.0, 5711359.0], [408989.0, 5711359.0], [408989.0, 5711350.0], [408988.0, 5711350.0], [408988.0, 5711344.0], [408987.0, 5711344.0], [408987.0, 5711335.0], [408986.0, 5711335.0], [408986.0, 5711328.0], [408985.0, 5711328.0], [408985.0, 5711324.0], [408984.0, 5711323.0], [408978.0, 5711323.0], [408978.0, 5711324.0], [408971.0, 5711324.0], [408971.0, 5711325.0], [408963.0, 5711325.0], [408963.0, 5711326.0], [408955.91, 5711326.0], [408956.85, 5711333.58], [408956.48, 5711333.63], [408956.57, 5711334.33], [408956.94, 5711334.29], [408957.27, 5711337.0], [408960.0, 5711337.0], [408962.0, 5711339.0]]]}}, {"type": "Feature", "properties": {"id": "UUID_e19217dc-be90-418c-bea8-803cce9c1172", "z": 75.65}, "geometry": {"type": "Polygon", "coordinates": [[[408963.0, 5711325.0], [408971.0, 5711325.0], [408971.0, 5711324.0], [408978.0, 5711324.0], [408978.0, 5711323.0], [408984.0, 5711323.0], [408985.0, 5711324.0], [408985.0, 5711328.0], [408986.0, 5711328.0], [408986.0, 5711335.0], [408987.0, 5711335.0], [408987.0, 5711344.0], [408988.0, 5711344.0], [408988.0, 5711350.0], [408989.0, 5711350.0], [408989.0, 5711359.0], [408990.0, 5711359.0], [408990.0, 5711367.97], [408990.19, 5711367.95], [408990.23, 5711368.31], [408991.09, 5711368.2], [408991.05, 5711367.84], [409004.06, 5711366.23], [408998.79, 5711323.45], [408997.53, 5711313.29], [408954.99, 5711318.54], [408955.91, 5711326.0], [408963.0, 5711326.0], [408963.0, 5711325.0]]]}}, {"type": "Feature", "properties": {"id": "UUID_e9c27901-8acf-47ae-aee9-21e1f205ef31", "z": 129.41}, "geometry": {"type": "Polygon", "coordinates": [[[408755.71, 5710371.0], [408764.97, 5710371.0], [408764.38, 5710359.0], [408755.13, 5710359.0], [408755.71, 5710371.0]]]}}, {"type": "Feature", "properties": {"id": "UUID_e9c27901-8acf-47ae-aee9-21e1f205ef31", "z": 111.87}, "geometry": {"type": "Polygon", "coordinates": [[[408755.87, 5710374.25], [408765.1, 5710373.79], [408764.97, 5710371.0], [408755.71, 5710371.0], [408755.87, 5710374.25]]]}}, {"type": "Feature", "properties": {"id": "UUID_e9c27901-8acf-47ae-aee9-21e1f205ef31", "z": 111.39}, "geometry": {"type": "Polygon", "coordinates": [[[408757.0, 5710350.0], [408757.0, 5710345.0], [408756.0, 5710344.0], [408754.4, 5710344.0], [408754.98, 5710356.0], [408758.0, 5710356.0], [408758.0, 5710355.0], [408764.19, 5710355.0], [408763.99, 5710351.0], [408759.0, 5710351.0], [408757.0, 5710350.0]]]}}, {"type": "Feature", "properties": {"id": "UUID_e9c27901-8acf-47ae-aee9-21e1f205ef31", "z": 107.44}, "geometry": {"type": "Polygon", "coordinates": [[[408757.0, 5710345.0], [408757.0, 5710346.0], [408763.75, 5710346.0], [408763.49, 5710340.77], [408763.32, 5710337.19], [408754.09, 5710337.65], [408754.4, 5710344.0], [408756.0, 5710344.0], [408757.0, 5710345.0]]]}}, {"type": "Feature", "properties": {"id": "UUID_e9c27901-8acf-47ae-aee9-21e1f205ef31", "z": 102.84}, "geometry": {"type": "Polygon", "coordinates": [[[408758.0, 5710356.0], [408754.98, 5710356.0], [408755.13, 5710359.0], [408764.38, 5710359.0], [408764.19, 5710355.0], [408758.0, 5710355.0], [408758.0, 5710356.0]]]}}, {"type": "Feature", "properties": {"id": "UUID_e9c27901-8acf-47ae-aee9-21e1f205ef31", "z": 102.84}, "geometry": {"type": "Polygon", "coordinates": [[[408757.0, 5710350.0], [408759.0, 5710351.0], [408763.99, 5710351.0], [408763.75, 5710346.0], [408757.0, 5710346.0], [408757.0, 5710350.0]]]}}]}