{"type": "FeatureCollection", "attribution": "Geobasis NRW, dl-de/zero-2-0 (LoD2, DOM1)", "crs": {"type": "name", "properties": {"name": "urn:ogc:def:crs:EPSG::25832"}}, "features": [{"type": "Feature", "properties": {"id": "DENW12AL0000CeHm", "z": 122.96}, "geometry": {"type": "Polygon", "coordinates": [[[409416.0, 5709797.0], [409416.0, 5709795.22], [409414.65, 5709795.57], [409413.62, 5709795.82], [409413.64, 5709795.9], [409409.3, 5709797.02], [409404.18, 5709798.33], [409403.9, 5709798.4], [409405.8, 5709805.9], [409406.16, 5709805.81], [409406.21, 5709806.0], [409408.0, 5709806.0], [409408.0, 5709805.0], [409415.0, 5709805.0], [409415.0, 5709804.0], [409416.58, 5709804.0], [409416.38, 5709803.22], [409416.61, 5709803.16], [409417.0, 5709803.06], [409417.0, 5709797.0], [409416.0, 5709797.0]]]}}, {"type": "Feature", "properties": {"id": "DENW12AL0000CeHm", "z": 119.84}, "geometry": {"type": "Polygon", "coordinates": [[[409415.0, 5709805.0], [409408.0, 5709805.0], [409408.0, 5709806.0], [409406.21, 5709806.0], [409409.76, 5709819.47], [409412.81, 5709818.68], [409416.88, 5709817.63], [409418.0, 5709817.34], [409418.0, 5709816.0], [409417.0, 5709816.0], [409417.0, 5709812.0], [409416.0, 5709812.0], [409416.0, 5709808.0], [409417.49, 5709807.5], [409416.58, 5709804.0], [409415.0, 5709804.0], [409415.0, 5709805.0]]]}}, {"type": "Feature", "properties": {"id": "DENW12AL0000CeHm", "z": 118.13}, "geometry": {"type": "Polygon", "coordinates": [[[409416.0, 5709812.0], [409417.0, 5709812.0], [409417.0, 5709816.0], [409418.0, 5709816.0], [409418.0, 5709817.34], [409419.93, 5709816.84], [409417.49, 5709807.5], [409416.0, 5709808.0], [409416.0, 5709812.0]]]}}, {"type": "Feature", "properties": {"id": "DENW12AL0000CeHm", "z": 116.94}, "geometry": {"type": "Polygon", "coordinates": [[[409417.0, 5709797.0], [409417.0, 5709803.06], [409421.53, 5709801.92], [409419.6, 5709794.31], [409416.0, 5709795.22], [409416.0, 5709797.0], [409417.0, 5709797.0]]]}}, {"type": "Feature", "properties": {"id": "DENW12AL0000hpZK", "z": 136.65}, "geometry": {"type": "Polygon", "coordinates": [[[409437.0, 5709646.0], [409443.0, 5709644.0], [409443.0, 5709641.69], [409429.65, 5709640.52], [409429.63, 5709640.77], [409429.35, 5709644.0], [409435.0, 5709644.0], [409437.0, 5709646.0]]]}}, {"type": "Feature", "properties": {"id": "DENW12AL0000hpZK", "z": 136.31}, "geometry": {"type": "Polygon", "coordinates": [[[409507.0, 5709656.0], [409506.0, 5709654.0], [409501.0, 5709654.0], [409501.0, 5709653.0], [409498.0, 5709653.0], [409498.0, 5709652.0], [409488.0, 5709652.0], [409488.0, 5709651.0], [409481.0, 5709651.0], [409480.0, 5709652.0], [409480.0, 5709655.0], [409481.0, 5709656.0], [409491.0, 5709656.0], [409491.0, 5709657.0], [409506.0, 5709657.0], [409507.0, 5709656.0]]]}}, {"type": "Feature", "properties": {"id": "DENW12AL0000hpZK", "z": 134.88}, "geometry": {"type": "Polygon", "coordinates": [[[409479.0, 5709681.0], [409478.0, 5709679.0], [409471.0, 5709679.0], [409470.0, 5709680.0], [409471.0, 5709682.0], [409477.0, 5709682.0], [409479.0, 5709681.0]]]}}, {"type": "Feature", "properties": {"id": "DENW12AL0000hpZK", "z": 133.14}, "geometry": {"type": "Polygon", "coordinates": [[[409478.0, 5709660.0], [409482.0, 5709660.0], [409482.0, 5709661.0], [409483.76, 5709661.0], [409483.87, 5709659.78], [409505.02, 5709661.66], [409505.04, 5709661.46], [409509.09, 5709661.81], [409510.06, 5709648.9], [409507.49, 5709648.71], [409507.65, 5709646.66], [409506.43, 5709644.88], [409504.2, 5709644.67], [409503.0, 5709645.65], [409503.0, 5709648.0], [409501.0, 5709649.0], [409496.0, 5709649.0], [409496.0, 5709648.0], [409488.0, 5709648.0], [409488.0, 5709647.0], [409486.38, 5709647.0], [409486.21, 5709648.97], [409478.22, 5709648.3], [409477.0, 5709648.2], [409477.0, 5709659.0], [409478.0, 5709660.0]], [[409481.0, 5709656.0], [409480.0, 5709655.0], [409480.0, 5709652.0], [409481.0, 5709651.0], [409488.0, 5709651.0], [409488.0, 5709652.0], [409498.0, 5709652.0], [409498.0, 5709653.0], [409501.0, 5709653.0], [409501.0, 5709654.0], [409506.0, 5709654.0], [409507.0, 5709656.0], [409506.0, 5709657.0], [409491.0, 5709657.0], [409491.0, 5709656.0], [409481.0, 5709656.0]]]}}, {"type": "Feature", "properties": {"id": "DENW12AL0000hpZK", "z": 133.08}, "geometry": {"type": "Polygon", "coordinates": [[[409474.0, 5709695.0], [409474.0, 5709686.0], [409476.0, 5709685.0], [409479.0, 5709685.0], [409480.0, 5709684.0], [409480.0, 5709677.0], [409468.0, 5709677.0], [409468.0, 5709683.0], [409471.0, 5709685.0], [409471.0, 5709694.0], [409470.0, 5709694.0], [409470.0, 5709697.0], [409472.0, 5709698.0], [409474.0, 5709695.0]], [[409471.0, 5709679.0], [409478.0, 5709679.0], [409479.0, 5709681.0], [409477.0, 5709682.0], [409471.0, 5709682.0], [409470.0, 5709680.0], [409471.0, 5709679.0]]]}}, {"type": "Feature", "properties": {"id": "DENW12AL0000hpZK", "z": 130.94}, "geometry": {"type": "Polygon", "coordinates": [[[409468.0, 5709693.0], [409468.0, 5709700.27], [409469.53, 5709700.41], [409470.0, 5709699.0], [409474.0, 5709699.0], [409476.0, 5709697.0], [409476.0, 5709688.0], [409478.0, 5709688.0], [409480.0, 5709685.0], [409481.83, 5709685.0], [409482.56, 5709677.0], [409481.0, 5709677.0], [409481.0, 5709676.0], [409465.82, 5709676.0], [409464.91, 5709686.21], [409466.0, 5709686.31], [409465.57, 5709691.0], [409467.0, 5709691.0], [409468.0, 5709693.0]], [[409471.0, 5709694.0], [409471.0, 5709685.0], [409468.0, 5709683.0], [409468.0, 5709677.0], [409480.0, 5709677.0], [409480.0, 5709684.0], [409479.0, 5709685.0], [409476.0, 5709685.0], [409474.0, 5709686.0], [409474.0, 5709695.0], [409472.0, 5709698.0], [409470.0, 5709697.0], [409470.0, 5709694.0], [409471.0, 5709694.0]]]}}, {"type": "Feature", "properties": {"id": "DENW12AL0000hpZK", "z": 129.65}, "geometry": {"type": "Polygon", "coordinates": [[[409488.0, 5709648.0], [409496.0, 5709648.0], [409496.0, 5709649.0], [409501.0, 5709649.0], [409503.0, 5709648.0], [409503.0, 5709645.65], [409502.68, 5709645.91], [409486.58, 5709644.56], [409486.38, 5709647.0], [409488.0, 5709647.0], [409488.0, 5709648.0]]]}}, {"type": "Feature", "properties": {"id": "DENW12AL0000hpZK", "z": 129.26}, "geometry": {"type": "Polygon", "coordinates": [[[409478.0, 5709688.0], [409476.0, 5709688.0], [409476.0, 5709697.0], [409474.0, 5709699.0], [409470.0, 5709699.0], [409469.53, 5709700.41], [409471.14, 5709700.56], [409470.99, 5709702.22], [409473.97, 5709702.49], [409474.12, 5709700.83], [409478.49, 5709701.23], [409479.74, 5709687.56], [409481.58, 5709687.72], [409481.83, 5709685.0], [409480.0, 5709685.0], [409478.0, 5709688.0]]]}}, {"type": "Feature", "properties": {"id": "DENW12AL0000hpZK", "z": 129.2}, "geometry": {"type": "Polygon", "coordinates": [[[409467.0, 5709691.0], [409465.57, 5709691.0], [409464.76, 5709699.98], [409468.0, 5709700.27], [409468.0, 5709693.0], [409467.0, 5709691.0]]]}}, {"type": "Feature", "properties": {"id": "DENW12AL0000hpZK", "z": 128.9}, "geometry": {"type": "Polygon", "coordinates": [[[409437.0, 5709646.0], [409435.0, 5709644.0], [409429.35, 5709644.0], [409428.69, 5709651.83], [409427.98, 5709659.77], [409447.06, 5709661.49], [409446.93, 5709663.0], [409449.0, 5709663.0], [409449.0, 5709662.0], [409457.0, 5709662.0], [409457.0, 5709663.0], [409461.27, 5709663.0], [409461.29, 5709662.76], [409461.59, 5709659.44], [409462.0, 5709659.48], [409462.0, 5709652.0], [409463.0, 5709652.0], [409463.0, 5709647.0], [409465.0, 5709647.0], [409465.0, 5709646.63], [409462.73, 5709646.42], [409462.99, 5709643.44], [409443.0, 5709641.69], [409443.0, 5709644.0], [409437.0, 5709646.0]]]}}, {"type": "Feature", "properties": {"id": "DENW12AL0000hpZK", "z": 127.53}, "geometry": {"type": "Polygon", "coordinates": [[[409481.0, 5709677.0], [409482.56, 5709677.0], [409482.68, 5709675.67], [409482.46, 5709675.64], [409482.51, 5709675.0], [409480.0, 5709675.0], [409480.0, 5709674.0], [409470.0, 5709674.0], [409470.0, 5709673.0], [409466.0, 5709673.0], [409465.65, 5709674.04], [409466.0, 5709674.07], [409465.82, 5709676.0], [409481.0, 5709676.0], [409481.0, 5709677.0]]]}}, {"type": "Feature", "properties": {"id": "DENW12AL0000hpZK", "z": 124.7}, "geometry": {"type": "Polygon", "coordinates": [[[409463.0, 5709647.0], [409463.0, 5709652.0], [409462.0, 5709652.0], [409462.0, 5709659.48], [409464.23, 5709659.67], [409462.94, 5709673.81], [409465.65, 5709674.04], [409466.0, 5709673.0], [409470.0, 5709673.0], [409470.0, 5709674.0], [409480.0, 5709674.0], [409480.0, 5709675.0], [409482.51, 5709675.0], [409483.76, 5709661.0], [409482.0, 5709661.0], [409482.0, 5709660.0], [409478.0, 5709660.0], [409477.0, 5709659.0], [409477.0, 5709648.2], [409468.34, 5709647.47], [409468.39, 5709646.94], [409465.0, 5709646.63], [409465.0, 5709647.0], [409463.0, 5709647.0]]]}}, {"type": "Feature", "properties": {"id": "DENW12AL0000hpZK", "z": 120.96}, "geometry": {"type": "Polygon", "coordinates": [[[409457.0, 5709662.0], [409449.0, 5709662.0], [409449.0, 5709663.0], [409446.93, 5709663.0], [409446.76, 5709664.79], [409461.01, 5709666.03], [409461.27, 5709663.0], [409457.0, 5709663.0], [409457.0, 5709662.0]]]}}, {"type": "Feature", "properties": {"id": "DENW12AL0000hquE", "z": 132.02}, "geometry": {"type": "Polygon", "coordinates": [[[409472.0, 5709439.0], [409472.0, 5709435.67], [409471.4, 5709435.59], [409471.39, 5709435.63], [409468.92, 5709435.32], [409469.05, 5709434.33], [409467.85, 5709434.16], [409460.54, 5709433.17], [409460.4, 5709434.25], [409459.37, 5709442.35], [409459.66, 5709442.39], [409464.68, 5709443.03], [409464.67, 5709443.15], [409465.94, 5709443.3], [409468.7, 5709443.67], [409468.95, 5709443.7], [409468.94, 5709443.76], [409470.0, 5709443.91], [409470.0, 5709441.0], [409472.0, 5709439.0]]]}}, {"type": "Feature", "properties": {"id": "DENW12AL0000hquE", "z": 128.01}, "geometry": {"type": "Polygon", "coordinates": [[[409470.0, 5709441.0], [409470.0, 5709443.91], [409478.73, 5709445.1], [409478.75, 5709444.93], [409481.74, 5709445.26], [409482.18, 5709445.31], [409482.38, 5709443.67], [409481.93, 5709443.6], [409482.74, 5709437.05], [409479.87, 5709436.77], [409479.73, 5709436.76], [409479.74, 5709436.7], [409472.0, 5709435.67], [409472.0, 5709439.0], [409470.0, 5709441.0]]]}}, {"type": "Feature", "properties": {"id": "DENW12AL0000hqz6", "z": 144.76}, "geometry": {"type": "Polygon", "coordinates": [[[409397.0, 5708894.0], [409395.0, 5708892.0], [409392.0, 5708892.0], [409392.0, 5708893.0], [409389.0, 5708893.0], [409389.0, 5708892.0], [409383.0, 5708892.0], [409383.0, 5708893.0], [409382.0, 5708893.0], [409382.0, 5708896.0], [409384.0, 5708897.0], [409398.29, 5708897.0], [409398.31, 5708895.37], [409399.0, 5708895.38], [409399.0, 5708894.0], [409397.0, 5708894.0]]]}}, {"type": "Feature", "properties": {"id": "DENW12AL0000hqz6", "z": 143.11}, "geometry": {"type": "Polygon", "coordinates": [[[409382.0, 5708896.0], [409382.0, 5708899.0], [409387.0, 5708899.0], [409388.0, 5708901.0], [409389.0, 5708900.0], [409398.25, 5708900.0], [409398.29, 5708897.0], [409384.0, 5708897.0], [409382.0, 5708896.0]]]}}, {"type": "Feature", "properties": {"id": "DENW12AL0000hqz6", "z": 142.79}, "geometry": {"type": "Polygon", "coordinates": [[[409397.0, 5708891.0], [409383.0, 5708891.0], [409383.0, 5708892.0], [409389.0, 5708892.0], [409389.0, 5708893.0], [409392.0, 5708893.0], [409392.0, 5708892.0], [409395.0, 5708892.0], [409397.0, 5708894.0], [409398.0, 5708894.0], [409397.0, 5708891.0]]]}}, {"type": "Feature", "properties": {"id": "DENW12AL0000hqz6", "z": 141.37}, "geometry": {"type": "Polygon", "coordinates": [[[409388.0, 5708901.0], [409387.0, 5708899.0], [409381.78, 5708899.0], [409381.75, 5708901.08], [409382.78, 5708902.07], [409387.01, 5708902.12], [409397.22, 5708902.23], [409398.24, 5708901.25], [409398.25, 5708900.0], [409389.0, 5708900.0], [409388.0, 5708901.0]]]}}, {"type": "Feature", "properties": {"id": "DENW12AL0000hqz6", "z": 141.01}, "geometry": {"type": "Polygon", "coordinates": [[[409382.0, 5708893.0], [409383.0, 5708893.0], [409383.0, 5708891.0], [409397.0, 5708891.0], [409398.0, 5708894.0], [409399.0, 5708894.0], [409399.0, 5708895.38], [409399.82, 5708895.39], [409399.82, 5708895.38], [409399.86, 5708892.16], [409399.9, 5708889.31], [409398.93, 5708888.28], [409381.47, 5708888.1], [409380.46, 5708889.07], [409380.36, 5708898.25], [409381.79, 5708898.27], [409381.78, 5708899.0], [409382.0, 5708899.0], [409382.0, 5708893.0]]]}}, {"type": "Feature", "properties": {"id": "DENW12AL0000hrWc", "z": 137.43}, "geometry": {"type": "Polygon", "coordinates": [[[408064.0, 5709206.0], [408071.0, 5709206.0], [408071.0, 5709205.0], [408075.0, 5709205.0], [408076.0, 5709204.0], [408076.0, 5709201.63], [408063.0, 5709202.0], [408063.0, 5709205.0], [408064.0, 5709206.0]]]}}, {"type": "Feature", "properties": {"id": "DENW12AL0000hrWc", "z": 134.53}, "geometry": {"type": "Polygon", "coordinates": [[[408062.0, 5709206.0], [408062.0, 5709208.04], [408068.0, 5709207.87], [408068.0, 5709206.0], [408064.0, 5709206.0], [408063.0, 5709205.0], [408063.0, 5709202.0], [408061.0, 5709202.05], [408061.0, 5709206.0], [408062.0, 5709206.0]]]}}, {"type": "Feature", "properties": {"id": "DENW12AL0000hrWc", "z": 126.27}, "geometry": {"type": "Polygon", "coordinates": [[[408075.0, 5709205.0], [408071.0, 5709205.0], [408071.0, 5709206.0], [408068.0, 5709206.0], [408068.0, 5709207.87], [408081.21, 5709207.51], [408081.04, 5709201.49], [408076.0, 5709201.63], [408076.0, 5709204.0], [408075.0, 5709205.0]]]}}, {"type": "Feature", "properties": {"id": "DENW12AL0000hrWc", "z": 126.26}, "geometry": {"type": "Polygon", "coordinates": [[[408061.0, 5709206.0], [408061.0, 5709202.05], [408052.22, 5709202.3], [408052.56, 5709208.31], [408062.0, 5709208.04], [408062.0, 5709206.0], [408061.0, 5709206.0]]]}}, {"type": "Feature", "properties": {"id": "DENW12AL0000ht2A", "z": 122.36}, "geometry": {"type": "Polygon", "coordinates": [[[409274.0, 5709646.0], [409274.0, 5709657.0], [409275.0, 5709658.0], [409277.45, 5709658.0], [409277.42, 5709657.19], [409279.72, 5709657.13], [409279.41, 5709646.02], [409274.74, 5709646.15], [409274.73, 5709646.01], [409274.69, 5709645.81], [409274.64, 5709645.63], [409274.57, 5709645.46], [409274.48, 5709645.28], [409274.41, 5709645.16], [409274.88, 5709644.61], [409275.01, 5709644.73], [409275.5, 5709644.17], [409274.79, 5709643.55], [409274.36, 5709643.18], [409273.87, 5709643.77], [409274.01, 5709643.89], [409273.53, 5709644.39], [409273.44, 5709644.34], [409273.22, 5709644.24], [409273.01, 5709644.17], [409273.0, 5709644.17], [409273.0, 5709646.0], [409274.0, 5709646.0]]]}}, {"type": "Feature", "properties": {"id": "DENW12AL0000ht2A", "z": 122.06}, "geometry": {"type": "Polygon", "coordinates": [[[409272.0, 5709656.0], [409269.0, 5709655.0], [409268.0, 5709651.0], [409267.86, 5709651.07], [409267.9, 5709652.25], [409267.67, 5709652.26], [409267.34, 5709652.3], [409267.03, 5709652.38], [409266.76, 5709652.49], [409266.52, 5709652.61], [409266.31, 5709652.75], [409266.12, 5709652.89], [409265.96, 5709653.04], [409265.82, 5709653.2], [409265.67, 5709653.38], [409265.54, 5709653.59], [409265.41, 5709653.83], [409265.3, 5709654.11], [409265.22, 5709654.41], [409265.17, 5709654.74], [409265.17, 5709654.97], [409265.19, 5709655.28], [409265.25, 5709655.61], [409265.34, 5709655.91], [409265.46, 5709656.18], [409265.59, 5709656.41], [409265.74, 5709656.62], [409265.89, 5709656.79], [409266.04, 5709656.95], [409266.21, 5709657.09], [409266.4, 5709657.22], [409266.62, 5709657.35], [409266.86, 5709657.46], [409267.14, 5709657.56], [409267.44, 5709657.63], [409267.78, 5709657.66], [409268.09, 5709657.65], [409269.4, 5709657.59], [409269.45, 5709658.64], [409272.0, 5709658.0], [409272.0, 5709656.0]]]}}, {"type": "Feature", "properties": {"id": "DENW12AL0000ht2A", "z": 119.47}, "geometry": {"type": "Polygon", "coordinates": [[[409269.0, 5709655.0], [409272.0, 5709656.0], [409272.0, 5709658.0], [409269.45, 5709658.64], [409269.55, 5709660.64], [409275.96, 5709660.46], [409277.52, 5709660.42], [409277.45, 5709658.0], [409275.0, 5709658.0], [409274.0, 5709657.0], [409274.0, 5709646.0], [409273.0, 5709646.0], [409273.0, 5709644.17], [409272.82, 5709644.12], [409272.62, 5709644.09], [409272.39, 5709644.07], [409272.16, 5709644.08], [409272.06, 5709644.09], [409271.97, 5709644.1], [409271.73, 5709644.15], [409271.52, 5709644.22], [409271.33, 5709644.3], [409271.15, 5709644.39], [409270.96, 5709644.51], [409270.77, 5709644.65], [409270.71, 5709644.72], [409269.76, 5709643.72], [409260.9, 5709644.02], [409261.1, 5709650.0], [409267.82, 5709649.77], [409267.86, 5709651.07], [409268.0, 5709651.0], [409269.0, 5709655.0]]]}}, {"type": "Feature", "properties": {"id": "DENW12AL0000htfo", "z": 135.85}, "geometry": {"type": "Polygon", "coordinates": [[[408761.0, 5709657.0], [408761.0, 5709655.0], [408757.0, 5709655.0], [408752.0, 5709661.0], [408749.0, 5709662.0], [408749.0, 5709666.0], [408749.22, 5709666.43], [408763.0, 5709658.79], [408763.0, 5709657.0], [408761.0, 5709657.0]]]}}, {"type": "Feature", "properties": {"id": "DENW12AL0000htfo", "z": 132.74}, "geometry": {"type": "Polygon", "coordinates": [[[408752.0, 5709661.0], [408757.0, 5709655.0], [408761.0, 5709655.0], [408761.0, 5709657.0], [408763.0, 5709657.0], [408763.0, 5709658.79], [408765.65, 5709657.32], [408763.86, 5709654.07], [408763.79, 5709653.96], [408761.93, 5709650.6], [408749.0, 5709657.78], [408749.0, 5709662.0], [408752.0, 5709661.0]]]}}, {"type": "Feature", "properties": {"id": "DENW12AL0000htfo", "z": 124.78}, "geometry": {"type": "Polygon", "coordinates": [[[408749.0, 5709657.78], [408744.36, 5709660.36], [408746.26, 5709663.69], [408746.44, 5709663.99], [408745.04, 5709664.8], [408745.42, 5709665.48], [408746.83, 5709664.67], [408748.17, 5709667.02], [408749.22, 5709666.43], [408749.0, 5709666.0], [408749.0, 5709657.78]]]}}, {"type": "Feature", "properties": {"id": "DENW12AL00014aJc", "z": 137.8}, "geometry": {"type": "Polygon", "coordinates": [[[409449.77, 5708834.37], [409460.79, 5708834.54], [409460.93, 5708825.39], [409460.96, 5708820.51], [409449.98, 5708820.35], [409449.77, 5708834.37]]]}}, {"type": "Feature", "properties": {"id": "UUID_09794eab-b1bd-4b18-9d26-f5724cb8152c", "z": 136.74}, "geometry": {"type": "Polygon", "coordinates": [[[408204.0, 5709993.0], [408206.0, 5709993.0], [408208.0, 5709995.0], [408211.0, 5709994.0], [408211.0, 5709987.0], [408212.0, 5709987.0], [408212.0, 5709975.0], [408208.0, 5709975.0], [408208.0, 5709974.0], [408205.0, 5709974.0], [408205.0, 5709975.0], [408200.0, 5709975.0], [408199.0, 5709976.0], [408199.0, 5709992.0], [408200.0, 5709992.0], [408200.0, 5709996.73], [408202.0, 5709996.75], [408202.0, 5709995.0], [408204.0, 5709993.0]]]}}, {"type": "Feature", "properties": {"id": "UUID_09794eab-b1bd-4b18-9d26-f5724cb8152c", "z": 134.49}, "geometry": {"type": "Polygon", "coordinates": [[[408205.0, 5709975.0], [408205.0, 5709974.0], [408204.0, 5709974.0], [408204.0, 5709970.0], [408200.0, 5709970.0], [408199.0, 5709971.0], [408199.0, 5709976.0], [408200.0, 5709975.0], [408205.0, 5709975.0]]]}}, {"type": "Feature", "properties": {"id": "UUID_09794eab-b1bd-4b18-9d26-f5724cb8152c", "z": 131.89}, "geometry": {"type": "Polygon", "coordinates": [[[408211.0, 5709965.0], [408199.0, 5709965.0], [408199.0, 5709962.13], [408197.36, 5709962.11], [408194.33, 5709962.08], [408194.19, 5709975.1], [408194.12, 5709980.88], [408194.02, 5709989.77], [408193.95, 5709996.58], [408195.64, 5709996.6], [408195.85, 5709996.61], [408199.87, 5709996.66], [408199.87, 5709996.73], [408200.0, 5709996.73], [408200.0, 5709992.0], [408199.0, 5709992.0], [408199.0, 5709971.0], [408200.0, 5709970.0], [408204.0, 5709970.0], [408204.0, 5709974.0], [408208.0, 5709974.0], [408208.0, 5709975.0], [408212.0, 5709975.0], [408212.0, 5709987.0], [408211.0, 5709987.0], [408211.0, 5709994.0], [408208.0, 5709995.0], [408206.0, 5709993.0], [408204.0, 5709993.0], [408202.0, 5709995.0], [408202.0, 5709996.75], [408207.88, 5709996.8], [408207.88, 5709996.77], [408208.26, 5709996.78], [408215.81, 5709996.88], [408216.46, 5709996.89], [408216.5, 5709994.42], [408216.9, 5709962.33], [408212.52, 5709962.28], [408212.0, 5709962.27], [408212.0, 5709964.0], [408211.0, 5709965.0]]]}}, {"type": "Feature", "properties": {"id": "UUID_09794eab-b1bd-4b18-9d26-f5724cb8152c", "z": 122.16}, "geometry": {"type": "Polygon", "coordinates": [[[408211.0, 5709965.0], [408212.0, 5709964.0], [408212.0, 5709962.27], [408199.0, 5709962.13], [408199.0, 5709965.0], [408211.0, 5709965.0]]]}}, {"type": "Feature", "properties": {"id": "UUID_27d694f3-2aa7-4cce-9e61-e9203b006307", "z": 129.95}, "geometry": {"type": "Polygon", "coordinates": [[[408557.0, 5709881.0], [408552.78, 5709881.0], [408552.78, 5709883.53], [408552.78, 5709886.65], [408558.0, 5709886.69], [408558.0, 5709882.0], [408557.0, 5709881.0]]]}}, {"type": "Feature", "properties": {"id": "UUID_27d694f3-2aa7-4cce-9e61-e9203b006307", "z": 126.96}, "geometry": {"type": "Polygon", "coordinates": [[[408558.0, 5709882.0], [408558.0, 5709886.69], [408558.54, 5709886.69], [408564.99, 5709886.74], [408564.99, 5709886.73], [408564.99, 5709883.23], [408564.99, 5709878.13], [408564.99, 5709873.0], [408563.0, 5709873.0], [408563.0, 5709872.0], [408555.0, 5709872.0], [408555.0, 5709873.0], [408552.79, 5709873.0], [408552.79, 5709878.53], [408552.78, 5709878.53], [408552.78, 5709881.0], [408557.0, 5709881.0], [408558.0, 5709882.0]]]}}, {"type": "Feature", "properties": {"id": "UUID_27d694f3-2aa7-4cce-9e61-e9203b006307", "z": 121.76}, "geometry": {"type": "Polygon", "coordinates": [[[408555.0, 5709872.0], [408563.0, 5709872.0], [408563.0, 5709873.0], [408564.99, 5709873.0], [408564.99, 5709869.86], [408564.64, 5709869.86], [408561.44, 5709869.86], [408556.35, 5709869.86], [408553.16, 5709869.85], [408552.79, 5709869.85], [408552.79, 5709873.0], [408555.0, 5709873.0], [408555.0, 5709872.0]]]}}, {"type": "Feature", "properties": {"id": "UUID_36b1787e-0df9-43aa-9558-65019c0711b2", "z": 116.9}, "geometry": {"type": "Polygon", "coordinates": [[[409534.0, 5709926.0], [409531.0, 5709926.0], [409531.0, 5709925.0], [409527.0, 5709924.0], [409525.0, 5709921.0], [409520.0, 5709921.0], [409520.0, 5709922.1], [409524.97, 5709924.8], [409534.68, 5709930.08], [409535.81, 5709928.0], [409535.0, 5709928.0], [409534.0, 5709926.0]]]}}, {"type": "Feature", "properties": {"id": "UUID_36b1787e-0df9-43aa-9558-65019c0711b2", "z": 116.79}, "geometry": {"type": "Polygon", "coordinates": [[[409493.0, 5709905.0], [409493.0, 5709902.0], [409494.0, 5709902.0], [409494.0, 5709901.02], [409493.28, 5709900.63], [409489.34, 5709898.49], [409486.42, 5709903.84], [409499.0, 5709910.68], [409499.0, 5709907.0], [409493.0, 5709905.0]]]}}, {"type": "Feature", "properties": {"id": "UUID_36b1787e-0df9-43aa-9558-65019c0711b2", "z": 113.63}, "geometry": {"type": "Polygon", "coordinates": [[[409493.0, 5709902.0], [409493.0, 5709905.0], [409499.0, 5709907.0], [409499.0, 5709910.68], [409520.0, 5709922.1], [409520.0, 5709921.0], [409525.0, 5709921.0], [409527.0, 5709924.0], [409531.0, 5709925.0], [409531.0, 5709926.0], [409534.0, 5709926.0], [409535.0, 5709928.0], [409535.81, 5709928.0], [409537.59, 5709924.73], [409532.85, 5709922.15], [409494.0, 5709901.02], [409494.0, 5709902.0], [409493.0, 5709902.0]]]}}, {"type": "Feature", "properties": {"id": "UUID_4243c108-31d3-4c7b-b0f7-7ba1e61812e9", "z": 123.73}, "geometry": {"type": "Polygon", "coordinates": [[[409420.0, 5709923.0], [409417.0, 5709923.0], [409417.0, 5709924.0], [409414.0, 5709924.0], [409413.0, 5709925.0], [409413.0, 5709929.0], [409414.0, 5709929.0], [409414.0, 5709931.02], [409419.0, 5709929.0], [409419.0, 5709925.0], [409420.0, 5709923.0]]]}}, {"type": "Feature", "properties": {"id": "UUID_4243c108-31d3-4c7b-b0f7-7ba1e61812e9", "z": 121.86}, "geometry": {"type": "Polygon", "coordinates": [[[409414.0, 5709923.0], [409411.0, 5709923.0], [409410.0, 5709924.0], [409410.0, 5709928.0], [409413.0, 5709928.0], [409413.0, 5709925.0], [409414.0, 5709924.0], [409417.0, 5709924.0], [409417.0, 5709923.0], [409420.0, 5709923.0], [409419.0, 5709925.0], [409419.0, 5709929.0], [409423.72, 5709927.09], [409422.8, 5709924.82], [409421.89, 5709922.57], [409420.2, 5709918.4], [409417.41, 5709919.53], [409417.07, 5709918.69], [409416.0, 5709919.13], [409416.0, 5709921.0], [409414.0, 5709923.0]]]}}, {"type": "Feature", "properties": {"id": "UUID_4243c108-31d3-4c7b-b0f7-7ba1e61812e9", "z": 119.84}, "geometry": {"type": "Polygon", "coordinates": [[[409413.0, 5709919.0], [409413.0, 5709922.0], [409410.0, 5709922.0], [409408.0, 5709925.0], [409409.0, 5709925.0], [409409.0, 5709930.0], [409407.79, 5709930.0], [409409.01, 5709933.04], [409414.0, 5709931.02], [409414.0, 5709929.0], [409413.0, 5709929.0], [409413.0, 5709928.0], [409410.0, 5709928.0], [409410.0, 5709924.0], [409411.0, 5709923.0], [409414.0, 5709923.0], [409416.0, 5709921.0], [409416.0, 5709919.13], [409414.08, 5709919.91], [409412.8, 5709916.75], [409410.55, 5709917.66], [409411.0, 5709919.0], [409413.0, 5709919.0]]]}}, {"type": "Feature", "properties": {"id": "UUID_4243c108-31d3-4c7b-b0f7-7ba1e61812e9", "z": 116.33}, "geometry": {"type": "Polygon", "coordinates": [[[409409.0, 5709925.0], [409408.0, 5709925.0], [409410.0, 5709922.0], [409413.0, 5709922.0], [409413.0, 5709919.0], [409411.0, 5709919.0], [409410.55, 5709917.66], [409403.91, 5709920.36], [409407.79, 5709930.0], [409409.0, 5709930.0], [409409.0, 5709925.0]]]}}, {"type": "Feature", "properties": {"id": "UUID_b010e0c3-73e3-492c-9527-ffb828149a63", "z": 127.51}, "geometry": {"type": "Polygon", "coordinates": [[[409158.0, 5709747.0], [409161.0, 5709748.0], [409161.0, 5709751.0], [409162.0, 5709751.0], [409162.0, 5709754.0], [409163.0, 5709755.0], [409166.0, 5709755.0], [409166.0, 5709754.0], [409169.0, 5709754.0], [409170.0, 5709753.0], [409170.0, 5709749.0], [409169.0, 5709749.0], [409169.0, 5709745.0], [409168.0, 5709745.0], [409168.0, 5709742.0], [409167.0, 5709742.0], [409167.0, 5709739.0], [409166.0, 5709739.0], [409166.0, 5709736.0], [409165.0, 5709734.0], [409158.0, 5709734.0], [409156.0, 5709735.0], [409156.0, 5709740.0], [409157.0, 5709740.0], [409157.0, 5709744.0], [409156.0, 5709745.0], [409153.98, 5709745.0], [409154.95, 5709748.0], [409158.0, 5709748.0], [409158.0, 5709747.0]]]}}, {"type": "Feature", "properties": {"id": "UUID_b010e0c3-73e3-492c-9527-ffb828149a63", "z": 126.07}, "geometry": {"type": "Polygon", "coordinates": [[[409162.0, 5709707.0], [409162.0, 5709709.0], [409164.19, 5709709.0], [409161.32, 5709700.11], [409160.18, 5709700.48], [409160.06, 5709700.52], [409159.0, 5709700.86], [409159.0, 5709705.0], [409162.0, 5709707.0]]]}}, {"type": "Feature", "properties": {"id": "UUID_b010e0c3-73e3-492c-9527-ffb828149a63", "z": 125.4}, "geometry": {"type": "Polygon", "coordinates": [[[409169.0, 5709737.0], [409168.0, 5709737.0], [409168.0, 5709734.0], [409167.0, 5709734.0], [409166.0, 5709731.0], [409163.0, 5709731.0], [409163.0, 5709732.0], [409160.0, 5709732.0], [409160.0, 5709733.0], [409157.0, 5709733.0], [409157.0, 5709734.0], [409154.0, 5709735.0], [409154.0, 5709738.0], [409155.0, 5709738.0], [409155.0, 5709741.0], [409156.0, 5709741.0], [409155.0, 5709745.0], [409156.0, 5709745.0], [409157.0, 5709744.0], [409157.0, 5709740.0], [409156.0, 5709740.0], [409156.0, 5709735.0], [409158.0, 5709734.0], [409165.0, 5709734.0], [409166.0, 5709736.0], [409166.0, 5709739.0], [409167.0, 5709739.0], [409167.0, 5709742.0], [409168.0, 5709742.0], [409168.0, 5709745.0], [409169.0, 5709745.0], [409169.0, 5709749.0], [409170.0, 5709749.0], [409170.0, 5709753.0], [409169.0, 5709754.0], [409166.0, 5709754.0], [409166.0, 5709755.0], [409163.0, 5709755.0], [409162.0, 5709754.0], [409162.0, 5709751.0], [409161.0, 5709751.0], [409161.0, 5709748.0], [409158.0, 5709747.0], [409158.0, 5709748.0], [409154.95, 5709748.0], [409155.92, 5709751.0], [409159.0, 5709751.0], [409160.0, 5709753.0], [409160.0, 5709756.0], [409162.0, 5709758.0], [409165.0, 5709758.0], [409165.0, 5709757.0], [409168.0, 5709757.0], [409168.0, 5709756.0], [409171.0, 5709756.0], [409173.0, 5709755.0], [409173.0, 5709750.0], [409172.0, 5709750.0], [409172.0, 5709747.0], [409171.0, 5709747.0], [409171.0, 5709743.0], [409170.0, 5709743.0], [409170.0, 5709741.0], [409171.0, 5709741.0], [409171.0, 5709740.0], [409169.0, 5709740.0], [409169.0, 5709737.0]]]}}, {"type": "Feature", "properties": {"id": "UUID_b010e0c3-73e3-492c-9527-ffb828149a63", "z": 123.77}, "geometry": {"type": "Polygon", "coordinates": [[[409172.0, 5709747.0], [409172.0, 5709750.0], [409173.0, 5709750.0], [409173.0, 5709755.0], [409171.0, 5709756.0], [409168.0, 5709756.0], [409168.0, 5709757.0], [409165.0, 5709757.0], [409165.0, 5709758.0], [409162.0, 5709758.0], [409160.0, 5709756.0], [409160.0, 5709753.0], [409159.0, 5709751.0], [409155.92, 5709751.0], [409156.05, 5709751.39], [409156.33, 5709752.28], [409159.35, 5709761.61], [409159.69, 5709761.5], [409177.06, 5709755.88], [409173.21, 5709743.97], [409173.0, 5709743.34], [409173.0, 5709744.0], [409172.0, 5709744.0], [409172.0, 5709743.0], [409171.0, 5709743.0], [409171.0, 5709747.0], [409172.0, 5709747.0]]]}}, {"type": "Feature", "properties": {"id": "UUID_b010e0c3-73e3-492c-9527-ffb828149a63", "z": 123.48}, "geometry": {"type": "Polygon", "coordinates": [[[409166.0, 5709727.0], [409166.0, 5709728.0], [409163.0, 5709728.0], [409163.0, 5709729.0], [409159.0, 5709729.0], [409159.0, 5709730.0], [409156.0, 5709730.0], [409156.0, 5709731.0], [409152.0, 5709731.0], [409152.0, 5709732.0], [409149.77, 5709732.0], [409149.84, 5709732.22], [409149.95, 5709732.57], [409150.3, 5709732.46], [409150.6, 5709733.41], [409153.57, 5709742.57], [409153.23, 5709742.68], [409153.98, 5709745.0], [409155.0, 5709745.0], [409156.0, 5709741.0], [409155.0, 5709741.0], [409155.0, 5709738.0], [409154.0, 5709738.0], [409154.0, 5709735.0], [409157.0, 5709734.0], [409157.0, 5709733.0], [409160.0, 5709733.0], [409160.0, 5709732.0], [409163.0, 5709732.0], [409163.0, 5709731.0], [409166.0, 5709731.0], [409167.0, 5709734.0], [409168.0, 5709734.0], [409168.0, 5709737.0], [409169.0, 5709737.0], [409169.0, 5709740.0], [409171.0, 5709740.0], [409171.0, 5709739.0], [409171.6, 5709739.0], [409171.38, 5709738.32], [409174.27, 5709737.39], [409172.59, 5709732.2], [409172.38, 5709731.55], [409169.49, 5709732.48], [409167.98, 5709727.8], [409170.0, 5709727.15], [409170.0, 5709727.0], [409166.0, 5709727.0]]]}}, {"type": "Feature", "properties": {"id": "UUID_b010e0c3-73e3-492c-9527-ffb828149a63", "z": 121.06}, "geometry": {"type": "Polygon", "coordinates": [[[409153.0, 5709706.0], [409153.0, 5709710.0], [409155.0, 5709712.0], [409155.0, 5709715.0], [409156.0, 5709715.0], [409156.0, 5709718.0], [409157.0, 5709718.0], [409157.0, 5709721.0], [409158.0, 5709721.0], [409158.0, 5709725.0], [409159.0, 5709725.0], [409159.0, 5709729.0], [409163.0, 5709729.0], [409163.0, 5709728.0], [409166.0, 5709728.0], [409166.0, 5709727.0], [409170.0, 5709727.0], [409170.0, 5709727.15], [409170.06, 5709727.13], [409169.37, 5709725.0], [409167.0, 5709725.0], [409167.0, 5709722.0], [409166.0, 5709722.0], [409166.0, 5709719.0], [409165.0, 5709719.0], [409165.0, 5709716.0], [409164.0, 5709716.0], [409164.0, 5709713.0], [409165.34, 5709712.55], [409164.19, 5709709.0], [409162.0, 5709709.0], [409162.0, 5709707.0], [409159.0, 5709705.0], [409159.0, 5709700.86], [409152.0, 5709703.1], [409152.0, 5709706.0], [409153.0, 5709706.0]]]}}, {"type": "Feature", "properties": {"id": "UUID_b010e0c3-73e3-492c-9527-ffb828149a63", "z": 119.4}, "geometry": {"type": "Polygon", "coordinates": [[[409149.0, 5709708.0], [409149.0, 5709712.0], [409150.0, 5709712.0], [409150.0, 5709715.0], [409151.0, 5709715.0], [409151.0, 5709719.0], [409152.0, 5709719.0], [409152.0, 5709722.0], [409154.0, 5709724.0], [409154.0, 5709728.0], [409155.0, 5709730.0], [409154.0, 5709731.0], [409156.0, 5709731.0], [409156.0, 5709730.0], [409159.0, 5709730.0], [409159.0, 5709725.0], [409158.0, 5709725.0], [409158.0, 5709721.0], [409157.0, 5709721.0], [409157.0, 5709718.0], [409156.0, 5709718.0], [409156.0, 5709715.0], [409155.0, 5709715.0], [409155.0, 5709712.0], [409153.0, 5709710.0], [409153.0, 5709706.0], [409152.0, 5709706.0], [409152.0, 5709703.1], [409148.0, 5709704.39], [409148.0, 5709708.0], [409149.0, 5709708.0]]]}}, {"type": "Feature", "properties": {"id": "UUID_b010e0c3-73e3-492c-9527-ffb828149a63", "z": 119.31}, "geometry": {"type": "Polygon", "coordinates": [[[409164.0, 5709716.0], [409165.0, 5709716.0], [409165.0, 5709719.0], [409166.0, 5709719.0], [409166.0, 5709722.0], [409167.0, 5709722.0], [409167.0, 5709725.0], [409169.37, 5709725.0], [409169.06, 5709724.04], [409165.34, 5709712.55], [409164.0, 5709713.0], [409164.0, 5709716.0]]]}}, {"type": "Feature", "properties": {"id": "UUID_b010e0c3-73e3-492c-9527-ffb828149a63", "z": 113.89}, "geometry": {"type": "Polygon", "coordinates": [[[409125.0, 5709723.0], [409128.0, 5709723.0], [409128.0, 5709722.0], [409131.0, 5709722.0], [409131.0, 5709721.0], [409134.0, 5709721.0], [409134.0, 5709720.0], [409137.0, 5709720.0], [409137.0, 5709719.0], [409140.0, 5709719.0], [409140.0, 5709718.0], [409144.0, 5709718.0], [409144.0, 5709717.0], [409147.0, 5709717.0], [409147.0, 5709716.0], [409151.0, 5709716.0], [409151.0, 5709715.0], [409150.0, 5709715.0], [409150.0, 5709712.0], [409149.0, 5709712.0], [409149.0, 5709708.0], [409148.0, 5709708.0], [409148.0, 5709710.0], [409147.0, 5709711.0], [409143.0, 5709711.0], [409143.0, 5709712.0], [409139.0, 5709712.0], [409139.0, 5709713.0], [409136.0, 5709713.0], [409136.0, 5709714.0], [409133.0, 5709714.0], [409133.0, 5709715.0], [409130.0, 5709715.0], [409130.0, 5709716.0], [409127.0, 5709716.0], [409127.0, 5709717.0], [409124.0, 5709717.0], [409122.0, 5709719.0], [409119.27, 5709719.0], [409120.89, 5709724.0], [409125.0, 5709724.0], [409125.0, 5709723.0]]]}}, {"type": "Feature", "properties": {"id": "UUID_b010e0c3-73e3-492c-9527-ffb828149a63", "z": 112.25}, "geometry": {"type": "Polygon", "coordinates": [[[409124.0, 5709717.0], [409127.0, 5709717.0], [409127.0, 5709716.0], [409130.0, 5709716.0], [409130.0, 5709715.0], [409133.0, 5709715.0], [409133.0, 5709714.0], [409136.0, 5709714.0], [409136.0, 5709713.0], [409139.0, 5709713.0], [409139.0, 5709712.0], [409143.0, 5709712.0], [409143.0, 5709711.0], [409147.0, 5709711.0], [409148.0, 5709710.0], [409148.0, 5709704.39], [409147.56, 5709704.53], [409147.74, 5709705.1], [409123.6, 5709712.9], [409117.9, 5709714.74], [409118.13, 5709715.44], [409119.27, 5709719.0], [409122.0, 5709719.0], [409124.0, 5709717.0]]]}}, {"type": "Feature", "properties": {"id": "UUID_b010e0c3-73e3-492c-9527-ffb828149a63", "z": 111.54}, "geometry": {"type": "Polygon", "coordinates": [[[409128.0, 5709726.0], [409131.0, 5709726.0], [409131.0, 5709725.0], [409134.0, 5709725.0], [409134.0, 5709724.0], [409137.0, 5709724.0], [409137.0, 5709723.0], [409141.0, 5709723.0], [409143.0, 5709721.0], [409147.0, 5709721.0], [409147.0, 5709720.0], [409152.0, 5709720.0], [409152.0, 5709719.0], [409151.0, 5709719.0], [409151.0, 5709716.0], [409147.0, 5709716.0], [409147.0, 5709717.0], [409144.0, 5709717.0], [409144.0, 5709718.0], [409140.0, 5709718.0], [409140.0, 5709719.0], [409137.0, 5709719.0], [409137.0, 5709720.0], [409134.0, 5709720.0], [409134.0, 5709721.0], [409131.0, 5709721.0], [409131.0, 5709722.0], [409128.0, 5709722.0], [409128.0, 5709723.0], [409125.0, 5709723.0], [409125.0, 5709724.0], [409120.89, 5709724.0], [409121.94, 5709727.26], [409124.9, 5709726.3], [409125.13, 5709727.0], [409128.0, 5709727.0], [409128.0, 5709726.0]]]}}, {"type": "Feature", "properties": {"id": "UUID_b010e0c3-73e3-492c-9527-ffb828149a63", "z": 109.25}, "geometry": {"type": "Polygon", "coordinates": [[[409152.0, 5709731.0], [409154.0, 5709731.0], [409155.0, 5709730.0], [409154.0, 5709728.0], [409154.0, 5709724.0], [409152.0, 5709722.0], [409152.0, 5709720.0], [409147.0, 5709720.0], [409147.0, 5709721.0], [409143.0, 5709721.0], [409141.0, 5709723.0], [409137.0, 5709723.0], [409137.0, 5709724.0], [409134.0, 5709724.0], [409134.0, 5709725.0], [409131.0, 5709725.0], [409131.0, 5709726.0], [409128.0, 5709726.0], [409128.0, 5709727.0], [409125.13, 5709727.0], [409126.26, 5709730.51], [409131.04, 5709728.97], [409138.89, 5709726.43], [409147.11, 5709723.77], [409149.77, 5709732.0], [409152.0, 5709732.0], [409152.0, 5709731.0]]]}}, {"type": "Feature", "properties": {"id": "UUID_f3d016b9-f0d4-46ea-b45f-3f4fe6c28094", "z": 124.52}, "geometry": {"type": "Polygon", "coordinates": [[[409018.0, 5709917.0], [409013.0, 5709917.0], [409012.0, 5709916.0], [409013.0, 5709912.0], [409015.0, 5709911.0], [409015.0, 5709908.0], [409013.0, 5709906.0], [409010.0, 5709906.0], [409009.0, 5709908.0], [409007.0, 5709909.0], [409000.0, 5709909.0], [408998.0, 5709911.0], [408998.0, 5709914.64], [409004.47, 5709919.35], [409006.19, 5709920.6], [409005.6, 5709921.41], [409009.34, 5709924.13], [409009.95, 5709923.3], [409013.81, 5709926.11], [409013.22, 5709926.91], [409013.54, 5709927.14], [409023.51, 5709913.41], [409024.53, 5709912.0], [409020.0, 5709912.0], [409018.0, 5709917.0]]]}}, {"type": "Feature", "properties": {"id": "UUID_f3d016b9-f0d4-46ea-b45f-3f4fe6c28094", "z": 121.55}, "geometry": {"type": "Polygon", "coordinates": [[[409003.0, 5709909.0], [409007.0, 5709909.0], [409009.0, 5709908.0], [409010.0, 5709906.0], [409013.0, 5709906.0], [409015.0, 5709908.0], [409015.0, 5709911.0], [409013.0, 5709912.0], [409012.0, 5709916.0], [409013.0, 5709917.0], [409018.0, 5709917.0], [409020.0, 5709912.0], [409024.53, 5709912.0], [409025.36, 5709910.86], [409020.78, 5709907.54], [409019.69, 5709909.04], [409013.22, 5709904.35], [409012.05, 5709904.78], [409009.88, 5709903.15], [409004.0, 5709905.03], [409004.0, 5709908.0], [409003.0, 5709909.0]]]}}, {"type": "Feature", "properties": {"id": "UUID_f3d016b9-f0d4-46ea-b45f-3f4fe6c28094", "z": 119.12}, "geometry": {"type": "Polygon", "coordinates": [[[409000.0, 5709909.0], [409003.0, 5709909.0], [409004.0, 5709908.0], [409004.0, 5709905.03], [409002.01, 5709905.67], [409000.65, 5709907.55], [408999.29, 5709906.57], [408997.55, 5709907.1], [408994.12, 5709911.82], [408997.2, 5709914.05], [408998.0, 5709914.64], [408998.0, 5709911.0], [409000.0, 5709909.0]]]}}]}