{"type": "FeatureCollection", "attribution": "\u00a9 OpenStreetMap contributors (ODbL)", "crs": {"type": "name", "properties": {"name": "urn:ogc:def:crs:EPSG::25833"}}, "features": [{"type": "Feature", "properties": {"name": "P\u00f6ppelmannbr\u00fccke", "kind": "road", "structure": "arch", "deck": [130.36, 130.78, 132.17, 131.62, 131.62, 132.17, 130.78, 130.36], "axis": [[341717.7, 5678786.27], [341728.42, 5678783.44], [341830.31, 5678752.76], [341862.06, 5678744.02]], "line": [130.36, 130.44, 130.52, 130.6, 130.67, 130.74, 130.82, 130.89, 130.96, 131.02, 131.09, 131.15, 131.21, 131.27, 131.33, 131.39, 131.44, 131.49, 131.54, 131.59, 131.64, 131.69, 131.73, 131.78, 131.82, 131.86, 131.89, 131.93, 131.96, 132.0, 132.03, 132.05, 132.08, 132.11, 132.13, 132.15, 132.17, 132.19, 132.21, 132.22, 132.24, 132.25, 132.26, 132.27, 132.27, 132.28, 132.28, 132.28, 132.28, 132.28, 132.28, 132.27, 132.26, 132.26, 132.25, 132.23, 132.22, 132.2, 132.19, 132.17, 132.15, 132.12, 132.1, 132.07, 132.04, 132.02, 131.98, 131.95, 131.92, 131.88, 131.84, 131.8, 131.76, 131.72, 131.67, 131.63], "wikidata": "Q2120789"}, "geometry": {"type": "Polygon", "coordinates": [[[341719.11, 5678791.59], [341729.99, 5678788.71], [341831.86, 5678758.03], [341863.52, 5678749.33], [341860.6, 5678738.72], [341828.75, 5678747.48], [341726.85, 5678778.17], [341716.3, 5678780.96]]]}}, {"type": "Feature", "properties": {"name": null, "kind": "road", "structure": "beam", "deck": [131.31, 131.66, 132.02, 133.56, 134.23, 134.23, 134.23, 134.23, 133.56, 132.02, 131.66, 131.31], "axis": [[341757.05, 5678961.47], [341781.27, 5678960.58], [341853.17, 5678956.29], [341948.42, 5678952.8]], "line": [131.31, 131.37, 131.43, 131.49, 131.55, 131.61, 131.67, 131.73, 131.79, 131.85, 131.9, 131.96, 132.02, 132.07, 132.12, 132.18, 132.23, 132.28, 132.33, 132.38, 132.43, 132.48, 132.53, 132.58, 132.63, 132.67, 132.72, 132.76, 132.81, 132.85, 132.9, 132.94, 132.98, 133.02, 133.06, 133.1, 133.14, 133.18, 133.22, 133.25, 133.29, 133.32, 133.36, 133.39, 133.43, 133.46, 133.49, 133.52, 133.55, 133.58, 133.61, 133.64, 133.67, 133.7, 133.73, 133.75, 133.78, 133.8, 133.83, 133.85, 133.87, 133.89, 133.91, 133.93, 133.95, 133.97, 133.99, 134.01, 134.03, 134.04, 134.06, 134.07, 134.09, 134.1, 134.12, 134.13, 134.14, 134.15, 134.16, 134.17, 134.18, 134.19, 134.2, 134.2, 134.21, 134.21, 134.22, 134.22, 134.23, 134.23, 134.23, 134.23, 134.23, 134.23, 134.23, 134.23]}, "geometry": {"type": "Polygon", "coordinates": [[[341757.22, 5678966.97], [341768.76, 5678966.62], [341781.58, 5678966.07], [341853.43, 5678961.78], [341935.76, 5678958.77], [341948.62, 5678958.29], [341948.22, 5678947.3], [341935.36, 5678947.78], [341852.91, 5678950.8], [341780.95, 5678955.08], [341768.36, 5678955.62], [341756.88, 5678955.97]]]}}, {"type": "Feature", "properties": {"name": null, "kind": "rail", "structure": "arch", "deck": [158.47, 158.47, 158.47, 158.47, 158.47, 158.47], "axis": [[340161.24, 5678378.53], [340168.19, 5678374.69]], "line": [158.47, 158.47, 158.47, 158.47]}, "geometry": {"type": "Polygon", "coordinates": [[[340163.58, 5678382.37], [340166.22, 5678380.76], [340170.24, 5678378.69], [340166.14, 5678370.69], [340161.86, 5678372.88], [340158.9, 5678374.69]]]}}, {"type": "Feature", "properties": {"name": null, "kind": "rail", "structure": "", "deck": [158.74, 158.74, 158.74, 158.74, 158.74, 158.74], "axis": [[340300.89, 5678267.29], [340305.87, 5678261.31]], "line": [158.74, 158.74, 158.74, 158.74]}, "geometry": {"type": "Polygon", "coordinates": [[[340304.33, 5678270.19], [340306.35, 5678267.8], [340309.34, 5678264.17], [340302.4, 5678258.45], [340299.43, 5678262.04], [340297.45, 5678264.39]]]}}, {"type": "Feature", "properties": {"name": null, "kind": "path", "structure": "", "deck": [162.12, 162.03, 161.96, 161.96, 162.03, 162.12], "axis": [[341616.61, 5678098.97], [341618.65, 5678107.68]], "line": [162.12, 162.08, 162.05, 162.01, 161.98]}, "geometry": {"type": "Polygon", "coordinates": [[[341614.91, 5678099.37], [341616.06, 5678104.28], [341616.94, 5678108.08], [341620.35, 5678107.28], [341619.46, 5678103.49], [341618.31, 5678098.57]]]}}]}