{"type": "FeatureCollection", "attribution": "Quelle: GeoSN, dl-de/by-2-0", "crs": {"type": "name", "properties": {"name": "urn:ogc:def:crs:EPSG::25833"}}, "features": [{"type": "Feature", "properties": {}, "geometry": {"type": "LineString", "coordinates": [[342000.49, 5678557.26], [342001.46, 5678556.77], [342004.39, 5678554.42], [342012.42, 5678547.36], [342023.08, 5678533.69], [342027.55, 5678524.9], [342031.82, 5678513.18], [342034.9, 5678503.42], [342041.5, 5678479.25], [342045.5, 5678467.29], [342050.29, 5678455.58], [342055.69, 5678443.85], [342060.58, 5678435.06], [342073.7, 5678413.57], [342082.27, 5678397.95], [342085.17, 5678392.09], [342089.08, 5678382.32], [342094.47, 5678365.72], [342101.37, 5678329.59], [342101.13, 5678328.61], [342100.04, 5678327.64], [342060.63, 5678306.15], [342059.08, 5678304.76], [342058.61, 5678303.22], [342058.84, 5678301.27], [342064.9, 5678272.95], [342064.99, 5678271.0], [342068.31, 5678247.56], [342068.41, 5678245.61], [342070.26, 5678232.91], [342072.71, 5678213.38], [342072.76, 5678210.45], [342073.23, 5678207.52], [342073.25, 5678204.59], [342073.72, 5678201.66], [342073.73, 5678191.89], [342074.22, 5678187.99], [342074.23, 5678178.22], [342074.7, 5678175.29], [342074.71, 5678165.53], [342075.19, 5678161.62], [342075.21, 5678151.86], [342075.67, 5678148.93], [342075.68, 5678139.16], [342076.17, 5678135.25], [342076.17, 5678125.49], [342076.66, 5678121.58], [342076.61, 5678091.31], [342076.22, 5678089.36], [342075.64, 5678080.57], [342075.24, 5678078.61], [342074.66, 5678069.82], [342074.27, 5678067.87], [342073.68, 5678059.08], [342073.29, 5678057.13], [342073.19, 5678053.22], [342072.8, 5678051.27], [342072.74, 5678048.34], [342072.28, 5678045.41], [342072.22, 5678042.48], [342071.82, 5678040.53], [342071.77, 5678037.6], [342071.3, 5678034.67], [342071.24, 5678031.74], [342070.85, 5678029.79], [342070.79, 5678026.86], [342067.38, 5678000.49]]}}, {"type": "Feature", "properties": {}, "geometry": {"type": "LineString", "coordinates": [[342182.14, 5678000.49], [342159.53, 5678029.79], [342153.65, 5678038.57], [342147.22, 5678049.32], [342141.12, 5678062.01], [342136.85, 5678074.71], [342134.89, 5678085.45], [342133.84, 5678093.26], [342133.74, 5678098.14], [342133.35, 5678100.1], [342133.3, 5678108.89], [342132.81, 5678112.79], [342132.8, 5678129.39], [342132.33, 5678132.32], [342132.32, 5678148.93], [342131.84, 5678152.83], [342131.82, 5678163.57], [342131.36, 5678166.5], [342131.34, 5678170.41], [342130.87, 5678173.34], [342130.85, 5678177.25], [342130.38, 5678180.18], [342130.36, 5678184.08], [342129.9, 5678187.01], [342129.76, 5678190.92], [342128.95, 5678195.8], [342126.34, 5678217.29], [342121.54, 5678249.51], [342111.2, 5678313.96], [342107.87, 5678333.5], [342102.41, 5678361.82], [342100.67, 5678369.63], [342095.78, 5678384.28], [342091.06, 5678396.0], [342088.13, 5678401.86], [342080.05, 5678416.5], [342066.43, 5678438.96], [342062.04, 5678446.78], [342056.65, 5678458.5], [342051.55, 5678471.19], [342048.59, 5678479.98], [342042.23, 5678503.42], [342037.51, 5678518.07], [342033.9, 5678527.83], [342029.53, 5678536.62], [342023.93, 5678544.1], [342017.33, 5678552.25], [342014.32, 5678555.18], [342008.3, 5678560.28], [342003.42, 5678564.1], [342000.49, 5678565.96]]}}, {"type": "Feature", "properties": {}, "geometry": {"type": "LineString", "coordinates": [[342012.21, 5678828.18], [342010.98, 5678826.66], [342007.32, 5678823.11], [342004.39, 5678820.66], [342000.49, 5678818.23]]}}, {"type": "Feature", "properties": {}, "geometry": {"type": "LineString", "coordinates": [[342007.32, 5678830.04], [342006.35, 5678828.91], [342002.44, 5678825.46], [342000.49, 5678824.19]]}}, {"type": "Feature", "properties": {}, "geometry": {"type": "LineString", "coordinates": [[342000.49, 5678968.92], [342002.6, 5678972.17], [342010.77, 5678986.82], [342018.88, 5679000.49], [342034.67, 5679022.94], [342035.64, 5679024.05], [342036.62, 5679024.29], [342048.34, 5679015.63], [342050.02, 5679014.16], [342054.65, 5679008.3], [342061.4, 5678992.68], [342064.81, 5678986.82], [342066.89, 5678984.87], [342075.57, 5678979.0], [342076.08, 5678978.03], [342075.37, 5678977.05], [342073.98, 5678976.07], [342062.99, 5678968.88], [342055.18, 5678962.15], [342052.61, 5678959.47], [342046.88, 5678949.71], [342034.95, 5678920.41], [342032.63, 5678913.57], [342031.5, 5678909.67], [342015.37, 5678841.31], [342013.64, 5678837.4], [342010.68, 5678833.5]]}}, {"type": "Feature", "properties": {}, "geometry": {"type": "LineString", "coordinates": [[343362.79, 5679261.3], [343363.6, 5679262.21], [343363.62, 5679263.18], [343361.94, 5679271.97], [343360.84, 5679284.67], [343360.85, 5679287.6], [343361.32, 5679290.53], [343361.38, 5679296.39], [343361.77, 5679298.34], [343361.83, 5679304.2], [343362.29, 5679307.13], [343362.32, 5679312.01], [343362.78, 5679314.94], [343362.84, 5679324.71], [343363.28, 5679327.64], [343362.84, 5679330.57], [343362.78, 5679337.4], [343361.69, 5679343.26], [343358.97, 5679353.03], [343357.91, 5679355.94], [343354.32, 5679363.77], [343348.36, 5679372.56], [343344.24, 5679377.19], [343333.5, 5679387.69], [343320.8, 5679396.0], [343305.18, 5679403.8], [343272.95, 5679418.21], [343271.0, 5679419.39], [343270.32, 5679420.41], [343262.44, 5679451.66], [343255.0, 5679479.0], [343224.37, 5679604.0], [343192.51, 5679738.77], [343192.37, 5679745.61], [343191.9, 5679748.54], [343191.94, 5679754.39], [343192.38, 5679757.32], [343192.51, 5679770.02], [343192.02, 5679771.97], [343188.96, 5679776.52], [343184.31, 5679781.74], [343162.6, 5679800.51], [343142.09, 5679814.94], [343107.91, 5679837.76], [343103.79, 5679841.31], [343101.07, 5679845.39], [343100.1, 5679846.03], [343097.17, 5679846.12], [343096.19, 5679845.65], [343095.96, 5679845.21], [343096.22, 5679844.24], [343098.43, 5679840.33], [343101.07, 5679837.76], [343104.01, 5679835.45], [343128.42, 5679819.47], [343161.29, 5679795.41], [343176.27, 5679783.44], [343178.5, 5679780.76], [343184.22, 5679774.9], [343187.21, 5679770.02], [343187.5, 5679768.07], [343187.5, 5679761.23], [343187.01, 5679757.32], [343187.14, 5679739.75], [343218.51, 5679606.93], [343246.7, 5679491.7], [343251.09, 5679474.12], [343258.3, 5679447.75], [343263.67, 5679426.27], [343264.16, 5679423.21], [343263.18, 5679422.79], [343261.23, 5679423.43], [343225.1, 5679439.24], [343173.34, 5679464.6], [343126.46, 5679485.6], [343107.49, 5679496.58], [343102.05, 5679500.0], [343084.47, 5679513.18], [343076.66, 5679519.4], [343073.73, 5679521.75], [343065.92, 5679528.95], [343045.41, 5679543.91], [343037.6, 5679548.99], [343029.79, 5679553.46], [343010.25, 5679562.98], [343002.44, 5679566.16], [342989.75, 5679570.2], [342964.36, 5679575.56], [342956.54, 5679576.61], [342944.82, 5679577.68], [342942.87, 5679578.08], [342939.94, 5679578.17], [342937.99, 5679578.57], [342935.06, 5679578.66], [342928.22, 5679579.58], [342920.41, 5679580.13], [342918.46, 5679580.52], [342910.64, 5679581.07], [342907.71, 5679581.53], [342904.79, 5679581.59], [342902.83, 5679581.98], [342895.02, 5679582.53], [342887.21, 5679583.49], [342884.28, 5679583.54], [342882.32, 5679583.94], [342879.39, 5679584.0], [342871.58, 5679584.95], [342868.65, 5679585.01], [342861.82, 5679585.89], [342858.89, 5679585.95], [342855.96, 5679586.42], [342850.1, 5679586.44], [342847.17, 5679586.9], [342839.36, 5679586.93], [342836.43, 5679587.39], [342830.57, 5679587.39], [342827.64, 5679586.93], [342820.8, 5679586.91], [342817.87, 5679586.47], [342810.06, 5679586.42], [342807.13, 5679585.99], [342799.32, 5679585.93], [342796.39, 5679585.46], [342789.55, 5679585.4], [342787.6, 5679585.01], [342784.67, 5679584.91], [342782.71, 5679584.52], [342779.79, 5679584.43], [342777.83, 5679584.03], [342774.9, 5679583.94], [342772.95, 5679583.54], [342770.02, 5679583.45], [342766.11, 5679582.88], [342744.63, 5679578.98], [342739.75, 5679577.72], [342731.93, 5679574.92], [342716.31, 5679568.35], [342685.06, 5679552.49], [342665.53, 5679543.74], [342641.11, 5679533.78], [342629.39, 5679529.7], [342621.58, 5679527.11], [342610.84, 5679524.04], [342594.24, 5679520.15], [342591.31, 5679520.01], [342588.38, 5679519.54], [342584.47, 5679519.48], [342581.54, 5679519.04], [342575.68, 5679519.09], [342572.75, 5679519.53], [342564.94, 5679519.54], [342562.01, 5679520.01], [342560.06, 5679520.03], [342534.67, 5679523.97], [342500.49, 5679532.34], [342485.84, 5679536.86], [342479.98, 5679538.34], [342470.73, 5679542.48], [342421.39, 5679565.91], [342418.46, 5679566.77], [342408.69, 5679568.8], [342406.74, 5679568.89], [342404.79, 5679569.29], [342400.88, 5679569.35], [342397.95, 5679569.81], [342396.0, 5679569.82], [342393.07, 5679569.38], [342389.16, 5679569.32], [342384.28, 5679568.72], [342373.54, 5679566.49], [342361.42, 5679562.01], [342346.19, 5679552.89], [342336.76, 5679546.39], [342248.7, 5679468.26], [342214.36, 5679439.24], [342198.73, 5679426.89], [342192.16, 5679421.39], [342186.04, 5679415.28], [342183.11, 5679412.84], [342177.25, 5679406.99], [342174.7, 5679404.79], [342158.69, 5679386.39], [342143.42, 5679366.7], [342136.23, 5679355.7], [342134.28, 5679352.05], [342131.14, 5679345.21], [342127.53, 5679335.45], [342126.58, 5679332.52], [342123.58, 5679319.82], [342123.52, 5679316.89], [342123.06, 5679313.96], [342123.03, 5679310.06], [342122.57, 5679307.13], [342122.55, 5679303.22], [342122.08, 5679300.29], [342122.06, 5679296.39], [342121.59, 5679293.46], [342121.58, 5679246.58], [342121.1, 5679242.68], [342121.08, 5679235.84], [342120.62, 5679232.91], [342120.6, 5679230.96], [342120.13, 5679228.03], [342119.5, 5679220.21], [342115.19, 5679190.92], [342112.06, 5679175.29], [342109.61, 5679165.53], [342105.68, 5679153.81], [342099.12, 5679138.15], [342098.14, 5679137.41], [342097.17, 5679137.52], [342087.4, 5679141.89], [342086.21, 5679143.07], [342086.52, 5679145.02], [342096.91, 5679173.34], [342097.12, 5679176.27], [342095.78, 5679183.11], [342095.21, 5679184.21], [342088.38, 5679192.49], [342077.38, 5679199.71], [342071.78, 5679203.04], [342055.18, 5679207.89], [342054.2, 5679207.91], [342053.69, 5679207.52], [342052.52, 5679205.57], [342033.82, 5679161.62], [342032.71, 5679160.93], [342026.86, 5679163.17], [342009.28, 5679170.61], [342008.3, 5679170.83], [342007.32, 5679170.72], [342006.35, 5679169.95], [342006.04, 5679169.43], [342005.95, 5679168.46], [342006.35, 5679167.48], [342007.82, 5679166.5], [342015.14, 5679162.84], [342023.93, 5679158.97], [342062.23, 5679143.07], [342063.7, 5679142.09], [342063.68, 5679141.11], [342063.12, 5679140.14], [342059.69, 5679135.25], [342049.1, 5679109.86], [342020.3, 5679033.69], [342019.15, 5679029.79], [342019.45, 5679028.81], [342021.0, 5679027.53], [342021.97, 5679027.51], [342022.95, 5679027.99], [342023.63, 5679028.81], [342024.62, 5679030.76], [342052.52, 5679104.98], [342063.48, 5679131.35], [342065.67, 5679135.25], [342067.87, 5679137.91], [342070.8, 5679139.64], [342074.71, 5679140.58], [342076.66, 5679140.58], [342082.52, 5679138.58], [342095.21, 5679132.97], [342096.01, 5679132.32], [342096.2, 5679131.35], [342089.84, 5679116.7], [342085.94, 5679108.89], [342075.92, 5679090.33], [342073.73, 5679086.68], [342059.57, 5679065.92], [342031.6, 5679030.76], [342013.05, 5679004.39], [342004.91, 5678990.72], [342001.46, 5678984.46], [342000.49, 5678983.26]]}}, {"type": "Feature", "properties": {}, "geometry": {"type": "LineString", "coordinates": [[342000.49, 5679595.07], [342006.35, 5679592.69], [342016.11, 5679589.61], [342026.86, 5679587.92], [342028.81, 5679588.39], [342031.9, 5679590.33], [342034.67, 5679593.6], [342036.37, 5679596.19], [342044.43, 5679611.82], [342054.9, 5679634.28], [342070.22, 5679671.39], [342084.56, 5679709.47], [342112.09, 5679774.9], [342132.82, 5679821.78], [342160.64, 5679881.35], [342173.34, 5679909.15], [342183.84, 5679930.18], [342187.01, 5679934.24], [342188.96, 5679936.28], [342191.89, 5679938.81], [342192.56, 5679939.94], [342192.68, 5679940.92], [342191.89, 5679942.82], [342189.26, 5679946.78], [342188.37, 5679947.75], [342171.39, 5679961.07], [342161.62, 5679966.92], [342147.95, 5679972.59]]}}, {"type": "Feature", "properties": {}, "geometry": {"type": "LineString", "coordinates": [[342145.6, 5679968.26], [342153.81, 5679964.63], [342159.67, 5679962.37], [342168.46, 5679957.03], [342185.06, 5679943.98], [342186.42, 5679941.89], [342186.42, 5679940.92], [342184.08, 5679938.63], [342179.72, 5679933.11], [342169.43, 5679912.6], [342147.45, 5679864.75], [342128.21, 5679823.73], [342107.91, 5679777.82], [342080.35, 5679712.4], [342064.85, 5679671.39], [342051.48, 5679639.16], [342048.06, 5679631.35], [342039.8, 5679613.77], [342034.91, 5679604.0], [342031.71, 5679598.14], [342030.27, 5679596.19], [342028.54, 5679594.24], [342027.83, 5679593.66], [342026.86, 5679593.31], [342023.93, 5679593.39], [342017.09, 5679594.49], [342008.3, 5679597.26], [342001.46, 5679600.3], [342000.49, 5679600.54]]}}, {"type": "Feature", "properties": {}, "geometry": {"type": "LineString", "coordinates": [[342000.49, 5679855.12], [342009.28, 5679858.16], [342014.87, 5679861.82], [342016.01, 5679862.79], [342023.57, 5679871.58], [342035.51, 5679887.21], [342038.12, 5679890.14], [342038.57, 5679890.38], [342039.55, 5679890.21], [342045.41, 5679885.65], [342046.39, 5679885.32], [342047.36, 5679885.42], [342048.34, 5679886.02], [342050.54, 5679888.18], [342053.68, 5679892.09], [342056.61, 5679896.97], [342060.54, 5679904.79], [342066.81, 5679919.43], [342068.76, 5679924.32], [342069.27, 5679926.27], [342069.19, 5679927.25], [342068.85, 5679927.99], [342067.87, 5679928.86], [342066.89, 5679929.09], [342065.92, 5679928.79], [342064.94, 5679927.83], [342056.85, 5679908.69], [342052.49, 5679899.9], [342048.96, 5679894.04], [342047.36, 5679892.35], [342046.39, 5679891.72], [342045.41, 5679891.95], [342022.95, 5679909.66], [342013.18, 5679915.99], [342000.49, 5679922.99]]}}, {"type": "Feature", "properties": {}, "geometry": {"type": "LineString", "coordinates": [[342000.49, 5679917.3], [342013.18, 5679910.13], [342019.04, 5679906.25], [342032.71, 5679895.64], [342033.45, 5679895.02], [342034.06, 5679894.04], [342033.78, 5679893.07], [342024.06, 5679880.37], [342018.69, 5679873.54], [342012.89, 5679866.7], [342007.32, 5679862.83], [342002.44, 5679860.93], [342000.49, 5679860.4]]}}, {"type": "Feature", "properties": {}, "geometry": {"type": "LineString", "coordinates": [[342142.09, 5679970.18], [342141.11, 5679970.05], [342139.16, 5679970.62], [342112.79, 5679979.9], [342104.98, 5679983.31], [342098.14, 5679985.71], [342089.36, 5679987.26], [342077.64, 5679987.29], [342074.71, 5679986.83], [342070.8, 5679986.81], [342067.87, 5679986.34], [342059.08, 5679985.83], [342056.15, 5679985.36], [342053.22, 5679985.3], [342051.27, 5679984.91], [342047.36, 5679984.85], [342044.43, 5679984.39], [342040.53, 5679984.36], [342037.6, 5679983.9], [342026.86, 5679983.93], [342021.97, 5679985.85], [342017.43, 5679988.77], [342011.23, 5679995.44], [342007.81, 5679999.51]]}}, {"type": "Feature", "properties": {}, "geometry": {"type": "LineString", "coordinates": [[342143.83, 5679974.12], [342142.09, 5679975.01], [342115.72, 5679984.16], [342107.91, 5679987.51], [342101.07, 5679989.99], [342099.12, 5679990.6], [342090.33, 5679992.14], [342074.71, 5679992.14], [342072.75, 5679991.74], [342068.85, 5679991.65], [342066.89, 5679991.26], [342057.13, 5679990.68], [342055.18, 5679990.28], [342051.27, 5679990.19], [342049.32, 5679989.79], [342045.41, 5679989.74], [342042.48, 5679989.27], [342038.57, 5679989.21], [342036.62, 5679988.82], [342027.83, 5679988.9], [342023.93, 5679990.48], [342021.0, 5679992.46], [342017.09, 5679996.42], [342014.65, 5679999.51]]}}, {"type": "Feature", "properties": {}, "geometry": {"type": "LineString", "coordinates": [[342015.23, 5678831.54], [342018.07, 5678835.04], [342020.52, 5678840.33], [342021.0, 5678840.92], [342021.97, 5678841.27], [342028.81, 5678841.32], [342031.74, 5678841.78], [342038.57, 5678841.81], [342041.5, 5678842.27], [342048.34, 5678842.3], [342051.27, 5678842.76], [342055.18, 5678842.9], [342060.06, 5678844.0], [342062.01, 5678844.73], [342067.87, 5678847.68], [342078.19, 5678854.0], [342085.45, 5678857.91], [342088.38, 5678859.29], [342094.24, 5678861.53], [342100.1, 5678862.75], [342103.03, 5678862.8], [342105.96, 5678863.27], [342119.63, 5678863.33], [342126.46, 5678864.39], [342132.32, 5678866.3], [342143.07, 5678871.83], [342160.64, 5678881.84], [342163.57, 5678883.21], [342167.48, 5678884.23], [342173.34, 5678884.23], [342184.08, 5678882.2], [342271.0, 5678861.46], [342282.71, 5678859.91], [342285.64, 5678859.82], [342287.6, 5678859.42], [342291.5, 5678859.36], [342294.43, 5678858.9], [342304.2, 5678858.84], [342307.13, 5678858.4], [342314.94, 5678858.45], [342316.89, 5678858.98], [342317.72, 5678859.86], [342317.83, 5678861.82], [342317.41, 5678862.79], [342316.89, 5678863.12], [342310.06, 5678863.33], [342307.13, 5678863.77], [342295.41, 5678863.82], [342293.46, 5678864.21], [342289.55, 5678864.31], [342287.6, 5678864.7], [342283.69, 5678864.79], [342272.95, 5678866.26], [342267.09, 5678867.43], [342185.06, 5678887.08], [342175.29, 5678889.03], [342169.43, 5678889.47], [342163.57, 5678888.54], [342160.18, 5678887.21], [342134.28, 5678872.81], [342131.35, 5678871.37], [342126.46, 5678869.55], [342122.56, 5678868.78], [342118.65, 5678868.61], [342116.7, 5678868.21], [342101.07, 5678868.12], [342092.29, 5678866.12], [342084.47, 5678863.04], [342075.68, 5678858.37], [342064.94, 5678851.81], [342060.06, 5678849.4], [342057.13, 5678848.4], [342053.22, 5678847.7], [342048.34, 5678847.61], [342046.39, 5678847.21], [342038.57, 5678847.12], [342036.62, 5678846.73], [342028.81, 5678846.63], [342025.88, 5678846.19], [342022.95, 5678846.37], [342022.2, 5678847.17], [342023.07, 5678852.05], [342036.74, 5678909.67], [342039.15, 5678917.48], [342051.55, 5678947.75], [342057.13, 5678957.05], [342065.92, 5678964.84], [342082.52, 5678975.78], [342083.5, 5678976.79], [342083.92, 5678978.03], [342083.81, 5678979.0], [342082.52, 5678980.46], [342070.09, 5678988.77], [342068.98, 5678989.75], [342065.55, 5678995.61], [342059.29, 5679010.25], [342058.24, 5679012.21], [342054.9, 5679016.11], [342051.98, 5679019.04], [342040.55, 5679027.83], [342039.71, 5679028.81], [342039.89, 5679029.79], [342041.28, 5679031.74], [342065.43, 5679062.01], [342079.42, 5679082.52], [342081.54, 5679086.0], [342091.31, 5679104.05], [342096.19, 5679113.77], [342104.0, 5679131.36], [342111.73, 5679149.9], [342115.8, 5679161.62], [342119.02, 5679174.32], [342122.51, 5679191.89], [342126.42, 5679219.24], [342126.97, 5679226.07], [342127.43, 5679229.0], [342127.45, 5679230.96], [342127.92, 5679233.89], [342127.98, 5679239.75], [342128.42, 5679242.68], [342128.42, 5679290.53], [342128.86, 5679293.46], [342128.95, 5679298.34], [342129.35, 5679300.29], [342129.44, 5679305.18], [342129.83, 5679307.13], [342129.93, 5679312.01], [342130.33, 5679313.96], [342130.5, 5679318.85], [342133.42, 5679330.57], [342135.66, 5679337.4], [342137.49, 5679342.29], [342141.12, 5679350.1], [342149.28, 5679362.79], [342160.42, 5679377.44], [342164.55, 5679382.49], [342177.98, 5679397.95], [342185.81, 5679405.76], [342187.99, 5679407.5], [342194.82, 5679414.28], [342196.78, 5679415.8], [342199.71, 5679418.68], [342218.26, 5679433.38], [342252.6, 5679462.4], [342297.36, 5679502.17], [342299.32, 5679503.69], [342306.15, 5679509.98], [342312.01, 5679514.92], [342318.85, 5679521.21], [342333.5, 5679533.96], [342340.67, 5679540.53], [342350.1, 5679547.03], [342364.75, 5679555.79], [342375.49, 5679559.65], [342386.23, 5679561.97], [342389.16, 5679562.06], [342391.11, 5679562.45], [342396.97, 5679562.62], [342401.86, 5679562.49], [342404.79, 5679562.02], [342407.71, 5679561.89], [342417.48, 5679559.8], [342419.43, 5679559.08], [342435.06, 5679551.75], [342473.14, 5679533.63], [342474.12, 5679532.37], [342478.75, 5679519.04], [342482.71, 5679501.46], [342487.55, 5679490.72], [342488.77, 5679489.06], [342490.72, 5679487.52], [342494.63, 5679483.67], [342496.58, 5679482.15], [342507.08, 5679472.17], [342513.8, 5679464.36], [342518.06, 5679456.54], [342519.26, 5679451.66], [342518.92, 5679447.75], [342518.64, 5679446.78], [342516.33, 5679439.94], [342515.5, 5679437.99], [342514.84, 5679437.01], [342512.21, 5679434.81], [342504.39, 5679427.03], [342493.65, 5679417.7], [342490.72, 5679414.82], [342479.98, 5679405.49], [342473.14, 5679399.2], [342429.2, 5679362.52], [342419.71, 5679353.03], [342408.34, 5679338.38], [342399.9, 5679328.28], [342397.3, 5679324.71], [342387.21, 5679307.13], [342385.34, 5679303.22], [342384.04, 5679299.32], [342382.45, 5679293.46], [342378.95, 5679272.95], [342378.86, 5679265.14], [342378.42, 5679262.21], [342378.54, 5679259.28], [342385.66, 5679236.82], [342392.17, 5679219.24], [342398.03, 5679201.66], [342404.1, 5679178.22], [342420.5, 5679131.35], [342421.7, 5679128.42], [342422.36, 5679127.5], [342423.34, 5679127.52], [342425.29, 5679128.45], [342426.17, 5679129.39], [342426.15, 5679130.37], [342408.69, 5679180.42], [342402.91, 5679202.64], [342396.08, 5679223.14], [342391.36, 5679235.84], [342384.04, 5679258.3], [342383.61, 5679260.25], [342383.92, 5679271.97], [342387.82, 5679294.43], [342390.23, 5679302.25], [342391.6, 5679305.18], [342402.69, 5679323.73], [342410.78, 5679333.5], [342424.59, 5679351.07], [342434.08, 5679360.08], [342465.33, 5679386.09], [342482.91, 5679401.15], [342485.84, 5679404.03], [342487.79, 5679405.54], [342508.3, 5679424.04], [342510.25, 5679425.57], [342518.79, 5679434.08], [342520.23, 5679436.04], [342523.8, 5679446.78], [342524.37, 5679450.68], [342524.29, 5679452.64], [342522.67, 5679458.5], [342518.52, 5679466.31], [342510.25, 5679476.24], [342503.42, 5679482.64], [342501.46, 5679484.16], [342497.56, 5679488.04], [342494.63, 5679490.48], [342491.73, 5679493.65], [342487.43, 5679503.42], [342484.25, 5679518.07], [342480.72, 5679528.81], [342480.26, 5679530.76], [342480.96, 5679531.64], [342483.89, 5679531.13], [342498.54, 5679526.62], [342532.71, 5679518.19], [342558.11, 5679514.21], [342561.04, 5679514.11], [342562.99, 5679513.72], [342568.85, 5679513.66], [342571.78, 5679513.19], [342582.52, 5679513.18], [342595.21, 5679514.21], [342612.79, 5679518.32], [342622.56, 5679521.11], [342644.04, 5679528.41], [342669.43, 5679538.85], [342688.96, 5679547.65], [342691.89, 5679549.32], [342720.21, 5679563.47], [342733.89, 5679569.25], [342741.7, 5679572.01], [342747.56, 5679573.49], [342768.07, 5679577.1], [342771.97, 5679577.59], [342774.9, 5679577.68], [342776.86, 5679578.08], [342779.79, 5679578.17], [342781.74, 5679578.57], [342784.67, 5679578.66], [342786.62, 5679579.05], [342789.55, 5679579.11], [342792.48, 5679579.58], [342799.32, 5679579.6], [342802.25, 5679580.07], [342810.06, 5679580.09], [342812.99, 5679580.56], [342819.82, 5679580.57], [342822.75, 5679581.01], [342830.57, 5679581.06], [342833.5, 5679581.45], [342836.43, 5679581.06], [342844.24, 5679581.01], [342847.17, 5679580.57], [342854.0, 5679580.56], [342856.93, 5679580.09], [342864.75, 5679579.58], [342872.56, 5679578.62], [342880.37, 5679578.08], [342882.32, 5679577.68], [342891.11, 5679577.1], [342897.95, 5679576.22], [342900.88, 5679576.16], [342908.69, 5679575.21], [342916.5, 5679574.66], [342918.46, 5679574.27], [342921.39, 5679574.21], [342924.32, 5679573.74], [342927.25, 5679573.68], [342934.08, 5679572.8], [342937.01, 5679572.74], [342941.89, 5679572.22], [342947.75, 5679571.34], [342963.38, 5679569.7], [342986.82, 5679564.82], [343000.49, 5679560.46], [343005.37, 5679558.51], [343024.85, 5679549.32], [343032.71, 5679544.89], [343037.6, 5679541.83], [343044.43, 5679537.25], [343057.13, 5679527.97], [343062.99, 5679523.57], [343068.69, 5679518.07], [343080.9, 5679508.3], [343100.1, 5679494.01], [343121.58, 5679481.47], [343132.32, 5679476.35], [343172.36, 5679458.49], [343224.12, 5679433.11], [343257.32, 5679418.67], [343265.14, 5679415.04], [343266.11, 5679414.06], [343266.55, 5679412.6], [343266.65, 5679409.67], [343267.04, 5679407.71], [343267.14, 5679404.79], [343267.53, 5679402.83], [343268.19, 5679395.02], [343268.96, 5679393.07], [343270.02, 5679392.13], [343271.97, 5679391.61], [343275.88, 5679391.55], [343277.83, 5679391.16], [343282.71, 5679391.07], [343284.67, 5679390.67], [343289.55, 5679390.58], [343291.5, 5679390.18], [343296.39, 5679390.09], [343299.32, 5679389.65], [343308.11, 5679389.66], [343311.04, 5679390.13], [343314.94, 5679390.15], [343317.87, 5679390.47], [343321.78, 5679388.34], [343329.59, 5679383.03], [343335.69, 5679377.44], [343342.99, 5679369.63], [343348.47, 5679361.82], [343350.09, 5679358.89], [343353.6, 5679350.1], [343355.71, 5679342.29], [343356.89, 5679336.43], [343356.78, 5679322.75], [343355.96, 5679321.91], [343346.19, 5679318.96], [343338.38, 5679317.43], [343335.45, 5679317.37], [343332.52, 5679316.9], [343328.61, 5679316.85], [343326.66, 5679316.45], [343321.78, 5679316.36], [343319.82, 5679315.96], [343313.96, 5679315.8], [343304.2, 5679317.51], [343283.69, 5679321.65], [343282.71, 5679321.72], [343281.74, 5679321.47], [343280.76, 5679320.8], [343280.35, 5679319.82], [343280.34, 5679318.85], [343280.69, 5679317.87], [343281.74, 5679317.02], [343283.69, 5679316.45], [343304.2, 5679312.39], [343305.4, 5679312.01], [343305.64, 5679311.04], [343274.67, 5679283.69], [343271.0, 5679280.05], [343270.57, 5679278.81], [343270.68, 5679277.83], [343271.45, 5679276.86], [343271.97, 5679276.54], [343273.93, 5679276.54], [343274.9, 5679277.13], [343306.15, 5679304.9], [343309.08, 5679307.1], [343313.96, 5679310.18], [343316.89, 5679310.99], [343321.78, 5679311.08], [343323.73, 5679311.48], [343327.64, 5679311.54], [343330.57, 5679312.0], [343334.47, 5679312.02], [343339.36, 5679312.55], [343347.17, 5679314.08], [343354.0, 5679316.15], [343355.96, 5679316.28], [343356.32, 5679315.92], [343356.44, 5679314.94], [343356.44, 5679310.06], [343356.0, 5679307.13], [343355.95, 5679301.27], [343355.48, 5679298.34], [343355.42, 5679292.48], [343355.03, 5679290.53], [343354.98, 5679281.74], [343355.42, 5679278.81], [343355.48, 5679275.88], [343355.95, 5679272.95], [343356.08, 5679270.02], [343357.67, 5679262.21], [343358.47, 5679260.25]]}}, {"type": "Feature", "properties": {}, "geometry": {"type": "LineString", "coordinates": [[342072.32, 5678000.49], [342075.64, 5678024.9], [342075.69, 5678027.83], [342076.16, 5678030.76], [342076.22, 5678033.69], [342076.61, 5678035.64], [342077.2, 5678044.43], [342077.59, 5678046.39], [342078.17, 5678055.18], [342078.57, 5678057.13], [342078.66, 5678061.04], [342079.05, 5678062.99], [342079.64, 5678071.78], [342080.03, 5678073.73], [342080.61, 5678082.52], [342081.01, 5678084.47], [342081.07, 5678087.4], [342081.53, 5678090.33], [342081.53, 5678125.49], [342081.07, 5678128.42], [342081.05, 5678138.18], [342080.57, 5678142.09], [342080.56, 5678151.86], [342080.09, 5678154.79], [342080.07, 5678165.53], [342079.6, 5678168.46], [342079.59, 5678178.22], [342079.1, 5678182.13], [342079.09, 5678191.89], [342078.62, 5678194.82], [342078.57, 5678203.61], [342078.17, 5678205.57], [342077.63, 5678214.36], [342069.78, 5678273.93], [342064.08, 5678301.27], [342064.49, 5678302.25], [342064.94, 5678302.65], [342067.87, 5678304.44], [342092.34, 5678317.87], [342097.17, 5678320.36], [342098.14, 5678320.44], [342098.98, 5678318.85], [342104.05, 5678279.79], [342110.79, 5678236.82], [342116.69, 5678193.85], [342116.74, 5678190.92], [342117.14, 5678188.96], [342117.2, 5678186.04], [342117.67, 5678183.11], [342117.69, 5678180.18], [342118.15, 5678177.25], [342118.21, 5678174.32], [342118.61, 5678172.36], [342118.7, 5678165.53], [342119.14, 5678162.6], [342119.15, 5678152.83], [342119.62, 5678149.9], [342119.63, 5678111.82], [342120.1, 5678107.91], [342120.17, 5678096.19], [342120.56, 5678094.24], [342120.73, 5678091.31], [342122.69, 5678079.59], [342130.62, 5678053.22], [342132.61, 5678047.36], [342140.14, 5678034.25], [342143.34, 5678029.79], [342166.5, 5678003.58], [342168.94, 5678000.49]]}}, {"type": "Feature", "properties": {}, "geometry": {"type": "LineString", "coordinates": [[343280.92, 5679193.85], [343279.79, 5679193.23], [343278.81, 5679193.23], [343277.83, 5679193.74], [343277.03, 5679194.82], [343276.92, 5679195.8], [343277.25, 5679196.78], [343278.81, 5679198.89], [343289.55, 5679211.16], [343291.5, 5679213.11], [343299.32, 5679219.38], [343312.99, 5679230.03], [343315.92, 5679232.22], [343317.19, 5679232.91]]}}, {"type": "Feature", "properties": {}, "geometry": {"type": "LineString", "coordinates": [[343281.74, 5679194.58], [343293.18, 5679207.52]]}}, {"type": "Feature", "properties": {}, "geometry": {"type": "LineString", "coordinates": [[343321.1, 5679229.98], [343324.71, 5679231.7], [343358.89, 5679250.24], [343359.86, 5679250.69], [343360.84, 5679250.82], [343362.02, 5679249.51], [343364.67, 5679243.65], [343364.65, 5679242.68], [343363.76, 5679241.7], [343350.1, 5679231.09], [343342.29, 5679224.34], [343340.11, 5679222.17], [343328.94, 5679206.54], [343328.05, 5679204.59], [343328.11, 5679203.61], [343328.61, 5679202.62], [343329.59, 5679201.98], [343330.57, 5679201.85], [343332.14, 5679202.64], [343344.24, 5679219.37], [343356.93, 5679230.12], [343365.72, 5679236.95], [343366.7, 5679237.57], [343367.68, 5679237.79], [343368.8, 5679236.82], [343381.7, 5679217.29], [343387.48, 5679210.45], [343391.11, 5679206.82], [343395.02, 5679203.48], [343403.81, 5679197.3], [343411.62, 5679192.41], [343469.24, 5679157.74], [343492.68, 5679144.99], [343505.37, 5679137.74]]}}, {"type": "Feature", "properties": {}, "geometry": {"type": "LineString", "coordinates": [[343507.32, 5679143.14], [343506.29, 5679144.04], [343496.58, 5679149.65], [343471.19, 5679163.6], [343417.48, 5679195.83], [343408.69, 5679201.33], [343398.28, 5679208.5], [343390.41, 5679216.31], [343385.61, 5679222.17], [343370.86, 5679244.63], [343366.22, 5679254.39], [343364.76, 5679258.3]]}}, {"type": "Feature", "properties": {}, "geometry": {"type": "LineString", "coordinates": [[343509.28, 5679135.74], [343532.71, 5679124.92], [343558.11, 5679116.82], [343579.59, 5679111.69], [343581.83, 5679110.84], [343582.17, 5679109.86], [343581.64, 5679106.93], [343582.16, 5679102.05], [343582.64, 5679100.1], [343584.47, 5679095.23], [343587.4, 5679089.36], [343589.76, 5679083.5], [343600.01, 5679056.15], [343603.75, 5679045.41], [343612.56, 5679010.25], [343615.81, 5678999.51], [343634.06, 5678953.61], [343635.5, 5678950.68], [343643.07, 5678937.26], [343645.37, 5678934.08], [343652.83, 5678925.13], [343663.57, 5678914.33], [343675.29, 5678906.77], [343698.73, 5678893.09], [343704.59, 5678889.92], [343707.52, 5678888.92], [343713.38, 5678887.45], [343722.17, 5678885.79], [343727.05, 5678885.76], [343728.59, 5678886.23]]}}, {"type": "Feature", "properties": {}, "geometry": {"type": "LineString", "coordinates": [[343610.84, 5679111.06], [343608.89, 5679111.78], [343597.17, 5679113.9], [343583.5, 5679116.82], [343561.04, 5679122.2], [343555.18, 5679123.94], [343534.67, 5679130.65], [343511.23, 5679141.29]]}}, {"type": "Feature", "properties": {}, "geometry": {"type": "LineString", "coordinates": [[343999.51, 5678402.38], [343997.56, 5678401.34], [343945.8, 5678368.81], [343916.03, 5678348.14], [343914.55, 5678346.92], [343907.99, 5678340.33], [343903.81, 5678334.78], [343902.83, 5678334.11], [343901.86, 5678334.35], [343896.0, 5678337.61], [343888.18, 5678339.35], [343876.46, 5678339.35], [343872.56, 5678338.87], [343860.84, 5678338.85], [343857.91, 5678338.39], [343824.71, 5678338.38], [343813.96, 5678339.89], [343805.18, 5678341.92], [343798.34, 5678344.97], [343761.23, 5678363.28], [343758.3, 5678364.99], [343747.07, 5678370.61], [343745.55, 5678371.58], [343745.47, 5678372.56], [343747.56, 5678374.73], [343751.46, 5678377.93], [343780.76, 5678397.13], [343804.2, 5678410.06], [343805.31, 5678411.62], [343805.31, 5678412.6], [343804.2, 5678414.12], [343803.22, 5678414.48], [343801.27, 5678414.06], [343778.81, 5678401.83], [343749.04, 5678382.32], [343740.72, 5678375.28], [343739.75, 5678374.74], [343738.77, 5678374.82], [343737.79, 5678375.24], [343661.62, 5678413.33], [343637.21, 5678427.0], [343632.32, 5678429.44], [343612.79, 5678438.72], [343601.07, 5678444.58], [343598.14, 5678445.81], [343585.45, 5678452.14], [343582.52, 5678453.37], [343569.82, 5678459.72], [343566.89, 5678460.94], [343509.28, 5678489.01], [343506.35, 5678490.24], [343494.63, 5678496.12], [343479.0, 5678505.4], [343448.73, 5678524.39], [343403.81, 5678551.73], [343309.08, 5678608.43], [343269.04, 5678632.65], [343146.97, 5678708.47], [343141.11, 5678711.91], [343123.54, 5678720.43], [343109.86, 5678724.98], [343090.33, 5678730.1], [343071.78, 5678735.59], [343066.89, 5678736.69], [343058.11, 5678738.23], [343046.39, 5678739.26], [343029.79, 5678739.26], [343025.88, 5678738.77], [343012.21, 5678738.77], [343008.3, 5678738.28], [342998.54, 5678738.28], [342995.61, 5678737.84], [342984.86, 5678737.75], [342982.91, 5678737.35], [342977.05, 5678737.26], [342975.1, 5678736.86], [342970.21, 5678736.81], [342967.29, 5678736.34], [342963.38, 5678736.32], [342960.45, 5678735.85], [342958.5, 5678735.83], [342955.57, 5678735.36], [342948.73, 5678734.82], [342930.18, 5678732.43], [342927.25, 5678732.37], [342925.29, 5678731.98], [342919.43, 5678731.89], [342917.48, 5678731.49], [342911.62, 5678731.43], [342908.69, 5678730.97], [342902.83, 5678730.91], [342900.88, 5678730.52], [342895.02, 5678730.46], [342892.09, 5678729.99], [342890.14, 5678729.93], [342864.75, 5678726.31], [342845.21, 5678720.78], [342827.64, 5678714.96], [342799.32, 5678707.65], [342795.41, 5678707.04], [342792.48, 5678706.98], [342790.53, 5678706.59], [342787.6, 5678706.53], [342783.69, 5678706.05], [342771.0, 5678706.07], [342767.09, 5678706.59], [342764.16, 5678707.28], [342757.32, 5678710.13], [342748.9, 5678716.31], [342729.0, 5678740.88], [342728.03, 5678741.77], [342727.05, 5678742.02], [342725.1, 5678741.6], [342724.12, 5678742.14], [342723.89, 5678742.68], [342725.13, 5678744.63], [342725.01, 5678745.61], [342718.48, 5678754.39], [342715.33, 5678757.08], [342711.43, 5678760.88], [342701.66, 5678768.21], [342656.74, 5678799.48], [342601.07, 5678836.1], [342574.71, 5678852.7], [342550.29, 5678867.34], [342549.32, 5678867.75], [342547.36, 5678867.69], [342546.39, 5678868.14], [342536.62, 5678873.99], [342531.74, 5678876.44], [342530.76, 5678876.62], [342529.79, 5678876.19], [342527.71, 5678874.51], [342527.4, 5678873.54], [342528.37, 5678872.56], [342547.36, 5678863.25], [342571.78, 5678848.6], [342597.17, 5678832.68], [342659.66, 5678791.5], [342698.73, 5678764.16], [342709.47, 5678756.08], [342715.06, 5678750.49], [342720.21, 5678743.65], [342722.82, 5678740.72], [342728.87, 5678732.91], [342743.93, 5678714.36], [342745.61, 5678712.65], [342755.16, 5678705.57], [342760.25, 5678703.4], [342763.18, 5678702.28], [342766.11, 5678701.71], [342769.04, 5678701.22], [342772.95, 5678701.12], [342775.88, 5678700.68], [342780.76, 5678700.69], [342783.69, 5678701.16], [342786.62, 5678701.22], [342788.57, 5678701.61], [342797.36, 5678702.2], [342812.01, 5678705.68], [342828.61, 5678710.08], [342847.17, 5678716.19], [342862.79, 5678720.59], [342869.63, 5678722.12], [342871.58, 5678722.21], [342891.11, 5678725.05], [342894.04, 5678725.11], [342896.97, 5678725.57], [342902.83, 5678725.6], [342905.76, 5678726.06], [342911.62, 5678726.12], [342913.57, 5678726.51], [342919.43, 5678726.61], [342921.39, 5678727.01], [342927.25, 5678727.1], [342945.8, 5678729.44], [342952.64, 5678730.03], [342954.59, 5678730.42], [342957.52, 5678730.52], [342959.47, 5678730.91], [342962.4, 5678731.0], [342964.36, 5678731.4], [342969.24, 5678731.46], [342972.17, 5678731.92], [342977.05, 5678731.98], [342979.0, 5678732.37], [342984.86, 5678732.43], [342987.79, 5678732.9], [342998.54, 5678732.92], [343001.46, 5678733.39], [343012.21, 5678733.41], [343015.14, 5678733.88], [343030.76, 5678733.9], [343033.69, 5678734.36], [343044.43, 5678734.37], [343047.36, 5678733.93], [343052.25, 5678733.84], [343060.06, 5678732.86], [343068.85, 5678731.19], [343087.4, 5678725.7], [343107.91, 5678720.3], [343122.54, 5678715.33], [343126.46, 5678713.62], [343141.11, 5678706.21], [343269.04, 5678626.8], [343318.85, 5678596.71], [343395.02, 5678551.24], [343446.78, 5678519.69], [343476.07, 5678501.3], [343492.68, 5678491.46], [343562.99, 5678457.27], [343565.92, 5678456.05], [343578.61, 5678449.71], [343581.54, 5678448.48], [343593.26, 5678442.63], [343596.19, 5678441.4], [343609.86, 5678434.58], [343628.42, 5678425.78], [343636.23, 5678421.85], [343660.64, 5678408.2], [343758.3, 5678359.38], [343761.23, 5678357.67], [343772.95, 5678351.81], [343775.88, 5678350.58], [343794.43, 5678341.31], [343803.22, 5678337.2], [343812.01, 5678335.09], [343827.64, 5678333.01], [343841.31, 5678333.01], [343845.21, 5678333.5], [343861.82, 5678333.51], [343864.75, 5678333.97], [343876.46, 5678334.0], [343879.39, 5678334.46], [343887.21, 5678334.46], [343895.02, 5678332.64], [343899.58, 5678329.59], [343899.73, 5678328.61], [343899.25, 5678327.64], [343889.32, 5678310.06], [343887.34, 5678307.13], [343873.67, 5678289.55], [343869.9, 5678285.64], [343867.43, 5678282.71], [343854.0, 5678269.29], [343851.07, 5678266.84], [343845.38, 5678261.23], [343828.61, 5678247.91], [343785.64, 5678215.19], [343757.32, 5678197.1], [343709.47, 5678163.43], [343687.01, 5678148.43], [343654.79, 5678123.67], [343646.97, 5678116.0], [343645.02, 5678114.38], [343631.35, 5678098.14], [343618.98, 5678080.57], [343606.96, 5678061.04], [343589.82, 5678029.79], [343574.25, 5678002.44], [343573.39, 5678000.49]]}}, {"type": "Feature", "properties": {}, "geometry": {"type": "LineString", "coordinates": [[343999.51, 5678396.52], [343947.75, 5678364.1], [343919.43, 5678344.38], [343918.46, 5678343.5], [343911.38, 5678336.43], [343909.04, 5678333.5], [343905.6, 5678328.61], [343894.02, 5678308.11], [343892.09, 5678305.18], [343876.19, 5678284.67], [343851.8, 5678260.25], [343847.17, 5678256.21], [343824.71, 5678238.63], [343789.55, 5678211.78], [343759.28, 5678192.38], [343716.31, 5678162.11], [343690.92, 5678145.16], [343659.03, 5678120.61], [343655.76, 5678117.46], [343653.81, 5678115.94], [343646.97, 5678109.05], [343636.09, 5678096.19], [343623.54, 5678078.36], [343611.09, 5678058.11], [343594.48, 5678027.83], [343578.97, 5678000.49]]}}, {"type": "Feature", "properties": {}, "geometry": {"type": "LineString", "coordinates": [[343728.59, 5678890.14], [343727.05, 5678890.6], [343724.12, 5678890.64], [343717.29, 5678891.73], [343706.54, 5678894.54], [343703.61, 5678896.02], [343680.18, 5678909.7], [343666.5, 5678918.32], [343659.45, 5678925.29], [343647.82, 5678938.96], [343640.65, 5678951.66], [343638.27, 5678956.54], [343620.4, 5679001.46], [343616.95, 5679013.18], [343608.97, 5679045.41], [343603.92, 5679060.06], [343593.96, 5679086.43], [343591.52, 5679092.29], [343588.3, 5679099.12], [343586.96, 5679104.0], [343586.98, 5679107.91], [343587.4, 5679109.03], [343588.38, 5679109.48], [343589.36, 5679109.4], [343608.89, 5679105.74]]}}, {"type": "Feature", "properties": {}, "geometry": {"type": "LineString", "coordinates": [[343975.01, 5679190.92], [343974.1, 5679189.94], [343949.71, 5679173.01], [343896.24, 5679137.21], [343878.42, 5679126.72], [343856.93, 5679115.73], [343842.29, 5679109.65], [343826.66, 5679104.61], [343812.01, 5679100.71], [343799.32, 5679097.9], [343792.48, 5679096.73], [343782.71, 5679095.26], [343770.02, 5679093.76], [343767.09, 5679093.74], [343764.16, 5679093.27], [343755.37, 5679093.25], [343752.44, 5679092.79], [343724.12, 5679092.78], [343721.19, 5679093.22], [343711.43, 5679093.26], [343708.5, 5679093.7], [343702.64, 5679093.8], [343700.68, 5679094.19], [343695.8, 5679094.24], [343692.87, 5679094.68], [343687.99, 5679094.74], [343669.43, 5679097.12], [343667.48, 5679097.18], [343641.11, 5679100.46], [343638.18, 5679100.63], [343614.75, 5679104.63]]}}, {"type": "Feature", "properties": {}, "geometry": {"type": "LineString", "coordinates": [[343614.75, 5679110.71], [343639.16, 5679106.57], [343642.09, 5679106.4], [343647.95, 5679105.52], [343649.9, 5679105.46], [343689.94, 5679100.6], [343694.82, 5679100.57], [343697.75, 5679100.11], [343702.64, 5679100.09], [343705.57, 5679099.62], [343710.45, 5679099.6], [343713.38, 5679099.13], [343729.0, 5679099.11], [343731.93, 5679098.65], [343748.54, 5679098.63], [343751.46, 5679099.08], [343760.25, 5679099.12], [343763.18, 5679099.56], [343769.04, 5679099.66], [343774.9, 5679100.54], [343785.64, 5679101.69], [343797.36, 5679103.64], [343811.04, 5679106.69], [343818.85, 5679108.65], [343829.59, 5679111.74], [343843.26, 5679116.49], [343857.91, 5679122.8], [343878.42, 5679133.55], [343894.29, 5679143.07], [343944.82, 5679176.92], [343970.59, 5679194.82]]}}, {"type": "Feature", "properties": {}, "geometry": {"type": "LineString", "coordinates": [[343731.93, 5678886.38], [343733.89, 5678886.28], [343734.86, 5678886.52], [343738.77, 5678888.7], [343742.68, 5678891.87], [343749.51, 5678898.7], [343751.25, 5678900.88], [343758.05, 5678907.71], [343761.45, 5678911.62], [343776.99, 5678930.18], [343788.57, 5678946.03], [343789.55, 5678947.16], [343790.53, 5678947.21], [343791.98, 5678944.82], [343796.63, 5678934.08], [343798.86, 5678930.18], [343804.36, 5678921.39], [343813.96, 5678908.03], [343818.12, 5678902.83], [343824.95, 5678896.0], [343827.39, 5678893.07], [343839.08, 5678881.35], [343880.73, 5678825.68], [343892.34, 5678812.01], [343895.02, 5678809.36], [343898.93, 5678806.48], [343908.44, 5678802.25], [343916.5, 5678796.39], [343945.8, 5678776.04], [343954.59, 5678770.54], [343959.47, 5678767.61], [343963.38, 5678765.6], [343966.31, 5678763.65], [343966.64, 5678763.18], [343966.51, 5678762.21], [343961.19, 5678752.44], [343959.76, 5678749.51], [343959.52, 5678748.54], [343959.52, 5678745.61], [343960.21, 5678742.68], [343960.97, 5678740.72], [343964.22, 5678735.84], [343968.97, 5678730.96], [343970.49, 5678729.0], [343980.25, 5678719.24], [343985.03, 5678715.33], [343988.77, 5678711.7], [343991.45, 5678709.47], [343996.85, 5678702.64], [343999.51, 5678699.84]]}}, {"type": "Feature", "properties": {}, "geometry": {"type": "LineString", "coordinates": [[343999.51, 5678978.7], [343988.77, 5678985.84], [343986.82, 5678986.89], [343979.98, 5678989.01], [343963.38, 5678991.69], [343959.47, 5678991.65], [343956.54, 5678991.16], [343953.61, 5678990.25], [343947.75, 5678990.22], [343944.82, 5678989.76], [343941.89, 5678989.7], [343939.94, 5678989.31], [343928.22, 5678989.27], [343925.29, 5678989.74], [343921.39, 5678989.76], [343912.6, 5678990.71], [343908.69, 5678990.77], [343906.74, 5678991.16], [343903.81, 5678991.22], [343886.23, 5678993.15], [343879.39, 5678993.17], [343875.49, 5678993.65], [343863.77, 5678993.64], [343860.84, 5678993.18], [343853.03, 5678993.12], [343851.07, 5678992.72], [343848.14, 5678992.55], [343836.43, 5678990.6], [343825.93, 5678987.79], [343816.89, 5678984.77], [343813.96, 5678983.61], [343808.11, 5678980.71], [343804.2, 5678977.75], [343798.59, 5678972.17], [343797.04, 5678970.21], [343792.81, 5678963.38], [343788.54, 5678954.59], [343772.19, 5678932.13], [343753.17, 5678909.67], [343737.53, 5678894.04], [343733.89, 5678891.64], [343732.37, 5678891.11]]}}, {"type": "Feature", "properties": {}, "geometry": {"type": "LineString", "coordinates": [[343857.61, 5679999.51], [343854.98, 5679979.0], [343854.98, 5679961.43], [343854.49, 5679957.52], [343854.48, 5679931.15], [343854.01, 5679928.22], [343853.99, 5679896.97], [343853.53, 5679894.04], [343853.51, 5679868.65], [343853.07, 5679865.72], [343853.02, 5679858.89], [343852.55, 5679855.96], [343852.53, 5679850.1], [343852.06, 5679847.17], [343852.01, 5679840.33], [343851.61, 5679838.38], [343851.55, 5679831.54], [343851.08, 5679828.61], [343851.06, 5679822.75], [343850.6, 5679819.82], [343850.58, 5679813.96], [343850.14, 5679811.04], [343850.09, 5679804.2], [343849.62, 5679801.27], [343849.6, 5679795.41], [343849.13, 5679792.48], [343849.08, 5679786.62], [343845.75, 5679760.25], [343845.17, 5679753.42], [343844.77, 5679751.46], [343844.71, 5679748.54], [343844.25, 5679745.61], [343844.19, 5679742.68], [343843.8, 5679740.72], [343843.7, 5679736.82], [343843.31, 5679734.86], [343843.25, 5679729.0], [343842.79, 5679726.07], [343842.76, 5679720.21], [343842.3, 5679717.29], [343842.29, 5679702.64], [343842.76, 5679698.73], [343842.79, 5679694.82], [343843.25, 5679691.89], [343843.27, 5679687.99], [343844.19, 5679682.13], [343844.28, 5679680.18], [343859.33, 5679582.52], [343859.24, 5679580.57], [343856.2, 5679574.71], [343854.33, 5679571.78], [343848.28, 5679563.96], [343847.17, 5679562.85], [343836.43, 5679554.45], [343818.85, 5679547.16], [343802.25, 5679543.5], [343800.29, 5679543.45], [343797.36, 5679542.98], [343794.43, 5679542.92], [343792.48, 5679542.53], [343789.55, 5679542.47], [343785.64, 5679541.99], [343768.07, 5679541.99], [343764.16, 5679542.48], [343747.56, 5679542.43], [343742.68, 5679540.73], [343741.7, 5679540.07], [343737.34, 5679534.67], [343734.87, 5679529.79], [343734.14, 5679527.83], [343731.08, 5679513.18], [343730.96, 5679503.42], [343730.47, 5679499.51], [343730.52, 5679488.77], [343740.35, 5679446.78], [343752.85, 5679407.71], [343755.66, 5679399.9], [343761.23, 5679394.32], [343763.18, 5679392.79], [343772.24, 5679384.28], [343775.88, 5679381.68], [343788.59, 5679374.51], [343806.15, 5679369.39], [343809.08, 5679368.78], [343858.89, 5679361.34], [343876.46, 5679361.33], [343880.37, 5679360.84], [343895.02, 5679360.97], [343911.62, 5679365.0], [343919.43, 5679367.95], [343921.39, 5679369.01], [343937.72, 5679382.32], [343950.68, 5679394.75], [343952.64, 5679396.27], [343958.5, 5679402.07], [343960.45, 5679403.59], [343965.33, 5679408.44], [343968.26, 5679410.89], [343986.82, 5679429.45], [343989.04, 5679432.13], [343994.85, 5679437.99], [343996.36, 5679439.94], [343999.51, 5679442.88]]}}, {"type": "Feature", "properties": {}, "geometry": {"type": "LineString", "coordinates": [[343999.51, 5679787.6], [343991.7, 5679787.59], [343988.77, 5679787.12], [343978.03, 5679787.1], [343975.1, 5679786.63], [343964.36, 5679786.61], [343961.43, 5679786.15], [343950.68, 5679786.12], [343947.75, 5679785.65], [343937.01, 5679785.63], [343934.08, 5679785.17], [343926.27, 5679785.17], [343923.34, 5679785.63], [343915.53, 5679785.65], [343911.62, 5679786.13], [343903.81, 5679786.15], [343900.88, 5679786.61], [343893.07, 5679786.63], [343890.14, 5679787.1], [343882.32, 5679787.11], [343878.42, 5679787.6], [343870.61, 5679787.61], [343867.68, 5679788.07], [343858.89, 5679788.13], [343854.98, 5679788.73], [343854.16, 5679789.55], [343854.06, 5679790.53], [343854.49, 5679793.46], [343854.54, 5679799.32], [343854.98, 5679802.25], [343854.99, 5679808.11], [343855.46, 5679811.04], [343855.52, 5679817.87], [343855.91, 5679819.82], [343856.0, 5679826.66], [343856.4, 5679828.61], [343856.46, 5679835.45], [343856.92, 5679838.38], [343856.98, 5679845.21], [343857.37, 5679847.17], [343857.47, 5679854.0], [343857.86, 5679855.96], [343857.92, 5679862.79], [343858.39, 5679865.72], [343858.4, 5679885.25], [343858.89, 5679889.16], [343858.9, 5679920.41], [343859.37, 5679924.32], [343859.39, 5679950.68], [343859.85, 5679953.61], [343859.86, 5679978.03], [343862.75, 5679999.51]]}}, {"type": "Feature", "properties": {}, "geometry": {"type": "LineString", "coordinates": [[343999.51, 5679207.82], [343978.09, 5679192.87]]}}, {"type": "Feature", "properties": {}, "geometry": {"type": "LineString", "coordinates": [[343999.51, 5678459.93], [343997.56, 5678461.21], [343992.68, 5678465.58], [343987.79, 5678470.46], [343984.86, 5678472.9], [343965.08, 5678492.68], [343961.67, 5678495.61], [343950.96, 5678506.35], [343941.68, 5678517.09], [343929.2, 5678533.69], [343910.48, 5678562.01], [343909.46, 5678563.96], [343907.97, 5678567.87], [343907.71, 5678571.78], [343907.97, 5678574.71], [343910.68, 5678582.52], [343929.53, 5678613.77], [343935.9, 5678623.54], [343938.26, 5678626.46], [343941.89, 5678630.1], [343945.8, 5678633.44], [343958.5, 5678642.85], [343961.43, 5678645.63], [343963.05, 5678647.95], [343964.08, 5678649.9], [343970.25, 5678664.55], [343974.96, 5678671.39], [343978.03, 5678675.04], [343981.93, 5678678.84], [343992.25, 5678685.06], [343999.51, 5678689.1]]}}, {"type": "Feature", "properties": {}, "geometry": {"type": "LineString", "coordinates": [[343999.51, 5678683.24], [343994.63, 5678680.64], [343985.84, 5678675.43], [343982.18, 5678672.36], [343979.01, 5678668.46], [343974.94, 5678662.6], [343968.26, 5678646.97], [343965.06, 5678642.09], [343962.4, 5678639.51], [343947.75, 5678628.56], [343940.7, 5678621.58], [343933.62, 5678610.84], [343915.37, 5678580.57], [343914.55, 5678578.84], [343912.85, 5678573.73], [343912.6, 5678571.78], [343912.72, 5678569.82], [343913.33, 5678567.87], [343914.07, 5678565.92], [343915.2, 5678563.96], [343933.94, 5678535.64], [343945.66, 5678520.02], [343953.37, 5678511.23], [343976.81, 5678487.79], [343979.98, 5678485.11], [343993.65, 5678471.44], [343998.54, 5678467.07], [343999.51, 5678466.49]]}}, {"type": "Feature", "properties": {}, "geometry": {"type": "LineString", "coordinates": [[343999.51, 5678707.65], [343996.31, 5678711.43], [343990.72, 5678717.04], [343981.93, 5678724.37], [343979.71, 5678727.05], [343969.02, 5678737.79], [343965.33, 5678743.27], [343964.41, 5678746.58], [343964.85, 5678748.54], [343969.49, 5678757.32], [343971.19, 5678760.16], [343972.17, 5678760.95], [343974.12, 5678760.66], [343981.93, 5678757.93], [343999.51, 5678753.47]]}}, {"type": "Feature", "properties": {}, "geometry": {"type": "LineString", "coordinates": [[343999.51, 5678758.62], [343984.86, 5678762.32], [343973.14, 5678766.2], [343961.43, 5678772.22], [343947.75, 5678780.76], [343920.41, 5678799.81], [343911.62, 5678806.26], [343900.88, 5678822.82], [343897.74, 5678830.57], [343896.6, 5678834.47], [343896.12, 5678836.43], [343895.52, 5678841.31], [343896.04, 5678848.14], [343896.61, 5678851.07], [343898.53, 5678856.93], [343904.76, 5678867.68], [343906.1, 5678870.61], [343906.09, 5678871.58], [343905.6, 5678872.56], [343904.79, 5678873.19], [343903.81, 5678873.43], [343902.83, 5678873.2], [343901.97, 5678872.56], [343901.22, 5678871.58], [343894.29, 5678859.86], [343893.47, 5678857.91], [343891.72, 5678852.05], [343891.12, 5678849.12], [343891.1, 5678847.17], [343890.64, 5678844.24], [343890.63, 5678840.33], [343891.37, 5678834.47], [343893.16, 5678828.61], [343896.0, 5678821.59], [343900.03, 5678814.94], [343901.45, 5678812.01], [343900.88, 5678811.56], [343899.9, 5678811.99], [343897.28, 5678813.96], [343883.3, 5678830.57], [343843.88, 5678883.3], [343840.09, 5678887.21], [343837.65, 5678890.14], [343822.75, 5678905.05], [343815.29, 5678914.55], [343806.48, 5678927.25], [343801.79, 5678935.06], [343795.2, 5678949.71], [343794.0, 5678952.64], [343793.88, 5678953.61], [343796.9, 5678960.45], [343801.13, 5678967.29], [343805.42, 5678972.17], [343810.06, 5678976.04], [343815.93, 5678979.0], [343827.64, 5678983.36], [343837.4, 5678985.71], [343850.1, 5678988.23], [343857.91, 5678988.28], [343861.82, 5678988.77], [343869.63, 5678988.82], [343871.58, 5678989.2], [343876.46, 5678988.29], [343884.28, 5678988.23], [343886.23, 5678987.84], [343890.14, 5678987.75], [343896.97, 5678986.86], [343899.9, 5678986.77], [343901.86, 5678986.38], [343904.79, 5678986.32], [343907.71, 5678985.85], [343910.64, 5678985.83], [343913.57, 5678985.36], [343917.48, 5678985.3], [343919.43, 5678984.91], [343923.34, 5678984.85], [343926.27, 5678984.39], [343940.92, 5678984.39], [343943.85, 5678984.85], [343951.66, 5678985.4], [343960.45, 5678986.77], [343962.4, 5678986.81], [343978.03, 5678984.33], [343980.96, 5678983.63], [343984.86, 5678982.3], [343999.51, 5678972.53]]}}, {"type": "Feature", "properties": {}, "geometry": {"type": "LineString", "coordinates": [[343999.51, 5679532.18], [343986.82, 5679528.93], [343971.19, 5679526.01], [343951.66, 5679524.6], [343927.25, 5679526.9], [343908.69, 5679531.99], [343886.23, 5679540.81], [343878.42, 5679544.22], [343873.54, 5679546.72], [343869.63, 5679549.59], [343866.7, 5679552.52], [343865.73, 5679554.2], [343862.04, 5679569.82], [343861.73, 5679570.8], [343860.84, 5679571.96], [343859.86, 5679571.11], [343858.53, 5679568.85], [343852.05, 5679560.81], [343850.1, 5679558.86], [343840.33, 5679551.02], [343838.38, 5679549.81], [343834.47, 5679548.13], [343819.82, 5679542.25], [343803.22, 5679538.62], [343801.27, 5679538.53], [343799.32, 5679538.13], [343796.39, 5679538.07], [343793.46, 5679537.61], [343791.5, 5679537.59], [343788.57, 5679537.12], [343762.21, 5679537.11], [343758.3, 5679537.59], [343749.51, 5679537.59], [343748.54, 5679537.47], [343745.61, 5679536.5], [343744.43, 5679535.64], [343741.54, 5679531.74], [343739.06, 5679526.86], [343738.53, 5679524.9], [343735.85, 5679511.23], [343735.84, 5679499.51], [343735.35, 5679494.63], [343735.35, 5679490.72], [343735.6, 5679488.77], [343745.23, 5679447.75], [343759.8, 5679402.83], [343761.23, 5679401.13], [343763.89, 5679398.93], [343772.95, 5679390.41], [343776.86, 5679387.07], [343781.32, 5679384.28], [343790.53, 5679379.18], [343807.13, 5679374.28], [343810.06, 5679373.66], [343859.86, 5679366.22], [343884.28, 5679366.2], [343887.21, 5679365.73], [343894.04, 5679365.85], [343910.64, 5679369.88], [343916.5, 5679372.16], [343919.09, 5679373.54], [343932.29, 5679384.28], [343937.99, 5679389.41], [343942.87, 5679394.29], [343945.8, 5679396.73], [343950.68, 5679401.58], [343952.64, 5679403.1], [343958.5, 5679408.91], [343960.45, 5679410.43], [343988.04, 5679437.99], [343995.85, 5679446.78], [343999.51, 5679450.19]]}}, {"type": "Feature", "properties": {}, "geometry": {"type": "LineString", "coordinates": [[343999.51, 5679707.66], [343997.56, 5679706.7], [343993.65, 5679704.13], [343989.75, 5679701.91], [343986.82, 5679700.6], [343932.13, 5679686.15], [343924.32, 5679684.21], [343898.93, 5679679.25], [343873.54, 5679675.73], [343854.98, 5679672.32], [343852.05, 5679671.7], [343851.45, 5679671.39], [343850.96, 5679670.41], [343851.2, 5679667.48], [343860.79, 5679605.96], [343864.38, 5679581.54], [343870.12, 5679557.13], [343870.61, 5679555.78], [343871.58, 5679554.58], [343874.51, 5679552.11], [343876.46, 5679550.81], [343880.37, 5679548.83], [343891.11, 5679544.22], [343908.69, 5679537.2], [343928.22, 5679531.78], [343930.18, 5679531.73], [343933.11, 5679531.26], [343936.04, 5679531.2], [343937.99, 5679530.81], [343940.92, 5679530.75], [343948.73, 5679529.8], [343956.54, 5679529.83], [343958.5, 5679530.23], [343962.4, 5679530.29], [343965.33, 5679530.75], [343969.24, 5679530.77], [343985.84, 5679533.82], [343999.51, 5679537.29]]}}, {"type": "Feature", "properties": {}, "geometry": {"type": "LineString", "coordinates": [[343999.51, 5679716.33], [343997.56, 5679713.0], [343996.58, 5679711.95], [343988.77, 5679707.06], [343984.86, 5679705.2], [343927.25, 5679690.06], [343923.34, 5679689.09], [343900.88, 5679684.7], [343872.56, 5679680.62], [343852.05, 5679676.8], [343851.07, 5679676.73], [343850.1, 5679677.04], [343849.66, 5679678.22], [343848.15, 5679689.94], [343848.13, 5679693.85], [343847.67, 5679696.78], [343847.64, 5679700.68], [343847.18, 5679703.61], [343847.17, 5679714.36], [343847.61, 5679717.29], [343847.7, 5679724.12], [343848.1, 5679726.07], [343848.19, 5679732.91], [343848.58, 5679734.86], [343848.65, 5679738.77], [343849.11, 5679741.7], [343849.17, 5679744.63], [343849.56, 5679746.58], [343849.62, 5679749.51], [343851.55, 5679765.14], [343851.61, 5679767.09], [343852.98, 5679776.86], [343853.15, 5679779.79], [343853.69, 5679782.71], [343854.0, 5679783.2], [343854.98, 5679783.49], [343856.93, 5679783.22], [343864.75, 5679783.19], [343867.68, 5679782.73], [343875.49, 5679782.71], [343879.39, 5679782.23], [343887.21, 5679782.21], [343890.14, 5679781.75], [343897.95, 5679781.74], [343900.88, 5679781.3], [343908.69, 5679781.25], [343912.6, 5679780.76], [343920.41, 5679780.75], [343924.32, 5679780.27], [343937.01, 5679780.28], [343940.92, 5679780.76], [343950.68, 5679780.76], [343954.59, 5679781.25], [343964.36, 5679781.25], [343968.26, 5679781.74], [343978.03, 5679781.74], [343981.93, 5679782.22], [343991.7, 5679782.23], [343994.63, 5679782.67], [343999.51, 5679782.71]]}}, {"type": "Feature", "properties": {}, "geometry": {"type": "LineString", "coordinates": [[343999.51, 5679827.15], [343991.7, 5679827.14], [343988.77, 5679826.67], [343980.96, 5679826.65], [343978.03, 5679826.18], [343970.21, 5679826.16], [343967.29, 5679825.69], [343959.47, 5679825.64], [343956.54, 5679825.2], [343941.89, 5679825.18], [343938.96, 5679824.72], [343923.34, 5679824.7], [343919.43, 5679824.22], [343913.57, 5679824.39], [343912.6, 5679825.09], [343911.82, 5679826.66], [343912.05, 5679827.64], [343913.57, 5679828.93], [343918.46, 5679829.54], [343934.08, 5679829.6], [343937.01, 5679830.07], [343952.64, 5679830.09], [343955.57, 5679830.56], [343964.36, 5679830.57], [343968.26, 5679831.05], [343975.1, 5679831.06], [343979.0, 5679831.54], [343985.84, 5679831.54], [343989.75, 5679832.03], [343996.58, 5679832.04], [343999.51, 5679832.51]]}}]}