{"type": "FeatureCollection", "attribution": "\u00a9 OpenStreetMap contributors (ODbL)", "crs": {"type": "name", "properties": {"name": "urn:ogc:def:crs:EPSG::25833"}}, "features": [{"type": "Feature", "properties": {"h": 5.0}, "geometry": {"type": "Point", "coordinates": [342014.8, 5678560.6]}}, {"type": "Feature", "properties": {"h": 5.0}, "geometry": {"type": "Point", "coordinates": [342033.6, 5678535.3]}}, {"type": "Feature", "properties": {"h": 5.0}, "geometry": {"type": "Point", "coordinates": [342043.0, 5678505.5]}}, {"type": "Feature", "properties": {"h": 5.0}, "geometry": {"type": "Point", "coordinates": [342055.3, 5678465.5]}}, {"type": "Feature", "properties": {"h": 5.0}, "geometry": {"type": "Point", "coordinates": [342071.2, 5678434.4]}}, {"type": "Feature", "properties": {"h": 5.0}, "geometry": {"type": "Point", "coordinates": [342096.6, 5678390.4]}}, {"type": "Feature", "properties": {"h": 5.0}, "geometry": {"type": "Point", "coordinates": [342108.1, 5678339.8]}}, {"type": "Feature", "properties": {"h": 5.0}, "geometry": {"type": "Point", "coordinates": [342108.2, 5678235.6]}}]}