{"type": "FeatureCollection", "attribution": "Quelle: GeoSN, dl-de/by-2-0", "crs": {"type": "name", "properties": {"name": "urn:ogc:def:crs:EPSG::25833"}}, "features": [{"type": "Feature", "properties": {"kind": "statue", "source": "dlm", "name": "Kriegsdenkmal"}, "geometry": {"type": "Point", "coordinates": [343901.86, 5678822.42]}}, {"type": "Feature", "properties": {"kind": "statue", "source": "dlm", "name": "Kriegsdenkmal", "relief": {"west": 343917.0, "north": 5678825.0, "cols": 4, "rows": 5, "dm": [0, 0, 0, 0, 0, 0, 13, 0, 0, 12, 28, 0, 0, 0, 10, 0, 0, 0, 0, 0]}}, "geometry": {"type": "Point", "coordinates": [343919.21, 5678823.58]}}, {"type": "Feature", "properties": {"kind": "stone", "source": "dlm", "name": "Grenzstein"}, "geometry": {"type": "Point", "coordinates": [342108.3, 5678626.4]}}, {"type": "Feature", "properties": {"kind": "stone", "source": "dlm", "name": "Grenzstein"}, "geometry": {"type": "Point", "coordinates": [342248.59, 5678495.62]}}, {"type": "Feature", "properties": {"kind": "stone", "source": "dlm", "name": "Grenzstein"}, "geometry": {"type": "Point", "coordinates": [342267.26, 5678143.21]}}, {"type": "Feature", "properties": {"kind": "stone", "source": "dlm"}, "geometry": {"type": "Point", "coordinates": [342507.33, 5678020.6]}}]}