{"type": "FeatureCollection", "crs": {"type": "name", "properties": {"name": "urn:ogc:def:crs:EPSG::25833"}}, "features": [{"type": "Feature", "properties": {}, "geometry": {"type": "Polygon", "coordinates": [[[340378.67, 5678008.54], [340398.84, 5678010.6], [340398.48, 5678019.31], [340388.08, 5678018.19], [340386.11, 5678037.98], [340390.04, 5678038.4], [340381.62, 5678090.47], [340392.89, 5678092.04], [340398.68, 5678092.84], [340413.9, 5678012.07], [340428.43, 5678013.52], [340430.32, 5678000.0], [340379.15, 5678000.0], [340378.67, 5678008.54]]]}}]}