{"type": "FeatureCollection", "attribution": "Quelle: GeoSN, dl-de/by-2-0 (LoD2, DOM1)", "crs": {"type": "name", "properties": {"name": "urn:ogc:def:crs:EPSG::25833"}}, "features": [{"type": "Feature", "properties": {"id": "DESNATPU1000BNnr", "z": 152.65}, "geometry": {"type": "Polygon", "coordinates": [[[341623.0, 5678499.0], [341628.0, 5678499.0], [341629.0, 5678498.0], [341629.0, 5678492.0], [341627.0, 5678490.0], [341624.0, 5678490.0], [341623.0, 5678492.0], [341620.0, 5678492.0], [341620.0, 5678493.0], [341620.0, 5678497.0], [341619.0, 5678498.0], [341620.0, 5678498.0], [341621.0, 5678500.0], [341623.0, 5678499.0]]]}}, {"type": "Feature", "properties": {"id": "DESNATPU1000BNnr", "z": 150.99}, "geometry": {"type": "Polygon", "coordinates": [[[341612.0, 5678503.0], [341617.0, 5678503.0], [341618.0, 5678505.0], [341621.0, 5678505.0], [341622.0, 5678503.0], [341624.0, 5678502.0], [341627.0, 5678502.0], [341628.0, 5678505.0], [341629.0, 5678505.0], [341629.0, 5678508.0], [341630.0, 5678508.0], [341630.0, 5678512.0], [341632.0, 5678512.0], [341632.0, 5678514.0], [341634.0, 5678514.0], [341634.0, 5678517.0], [341636.0, 5678519.0], [341636.0, 5678523.0], [341637.0, 5678523.0], [341637.0, 5678526.0], [341639.0, 5678526.0], [341641.0, 5678532.0], [341642.0, 5678532.0], [341642.0, 5678536.0], [341639.0, 5678537.0], [341639.0, 5678538.0], [341636.0, 5678538.0], [341636.0, 5678539.0], [341632.0, 5678539.0], [341632.0, 5678541.0], [341627.0, 5678541.0], [341627.0, 5678543.0], [341624.0, 5678543.0], [341616.0, 5678548.0], [341613.0, 5678548.0], [341613.0, 5678549.0], [341610.0, 5678549.0], [341608.0, 5678550.0], [341607.0, 5678552.0], [341604.0, 5678553.0], [341604.0, 5678555.0], [341607.0, 5678557.0], [341611.0, 5678554.0], [341614.0, 5678554.0], [341614.0, 5678553.0], [341627.0, 5678553.0], [341628.0, 5678554.0], [341628.0, 5678555.02], [341630.0, 5678554.15], [341630.0, 5678553.0], [341628.0, 5678552.0], [341629.0, 5678549.0], [341632.0, 5678549.0], [341634.0, 5678548.0], [341635.0, 5678546.0], [341637.0, 5678546.0], [341637.0, 5678544.0], [341641.0, 5678543.0], [341641.0, 5678542.0], [341646.0, 5678542.0], [341646.0, 5678545.0], [341650.0, 5678545.0], [341651.0, 5678542.0], [341648.0, 5678542.0], [341647.0, 5678539.0], [341646.0, 5678539.0], [341646.0, 5678536.0], [341643.0, 5678532.0], [341643.0, 5678529.0], [341640.0, 5678525.0], [341640.0, 5678522.0], [341639.0, 5678522.0], [341639.0, 5678518.0], [341638.0, 5678518.0], [341638.0, 5678515.0], [341637.0, 5678513.0], [341635.0, 5678513.0], [341634.0, 5678509.0], [341633.0, 5678509.0], [341633.0, 5678506.0], [341632.0, 5678506.0], [341632.0, 5678495.0], [341633.0, 5678494.0], [341635.25, 5678494.0], [341632.18, 5678487.0], [341630.0, 5678487.0], [341630.0, 5678486.0], [341627.0, 5678486.0], [341627.0, 5678485.0], [341624.0, 5678485.0], [341624.0, 5678483.0], [341622.0, 5678483.0], [341620.0, 5678477.0], [341619.0, 5678477.0], [341619.0, 5678474.0], [341618.0, 5678474.0], [341618.0, 5678470.0], [341616.0, 5678470.0], [341616.0, 5678467.0], [341615.0, 5678467.0], [341615.0, 5678463.0], [341613.0, 5678463.0], [341612.0, 5678461.0], [341612.0, 5678458.0], [341611.0, 5678458.0], [341611.0, 5678454.0], [341610.0, 5678454.0], [341610.0, 5678451.0], [341609.0, 5678451.0], [341609.0, 5678445.0], [341611.0, 5678445.0], [341612.0, 5678443.0], [341613.12, 5678442.63], [341612.4, 5678441.0], [341610.0, 5678441.0], [341610.0, 5678442.0], [341607.0, 5678442.0], [341607.0, 5678443.0], [341604.0, 5678445.0], [341604.0, 5678449.0], [341601.0, 5678450.0], [341598.0, 5678454.0], [341595.0, 5678454.0], [341591.0, 5678457.0], [341588.0, 5678457.0], [341588.0, 5678458.0], [341584.0, 5678458.0], [341584.0, 5678460.0], [341581.0, 5678460.0], [341577.0, 5678463.0], [341574.0, 5678463.0], [341570.0, 5678466.0], [341567.0, 5678466.0], [341567.0, 5678471.0], [341570.0, 5678471.0], [341576.0, 5678467.0], [341579.0, 5678467.0], [341579.0, 5678466.0], [341584.0, 5678466.0], [341584.0, 5678464.0], [341587.0, 5678464.0], [341588.0, 5678462.0], [341590.0, 5678461.0], [341593.0, 5678461.0], [341595.0, 5678459.0], [341599.0, 5678459.0], [341599.0, 5678457.0], [341602.0, 5678457.0], [341604.0, 5678455.0], [341608.0, 5678455.0], [341608.0, 5678457.0], [341611.0, 5678461.0], [341611.0, 5678464.0], [341614.0, 5678468.0], [341614.0, 5678471.0], [341615.0, 5678471.0], [341615.0, 5678475.0], [341617.0, 5678475.0], [341618.0, 5678477.0], [341618.0, 5678480.0], [341619.0, 5678482.0], [341620.0, 5678482.0], [341621.0, 5678484.0], [341621.0, 5678487.0], [341622.0, 5678487.0], [341622.0, 5678490.0], [341620.0, 5678491.0], [341620.0, 5678492.0], [341623.0, 5678492.0], [341624.0, 5678490.0], [341627.0, 5678490.0], [341629.0, 5678492.0], [341629.0, 5678498.0], [341628.0, 5678499.0], [341623.0, 5678499.0], [341621.0, 5678500.0], [341620.0, 5678498.0], [341616.0, 5678498.0], [341614.0, 5678499.0], [341610.0, 5678499.0], [341610.0, 5678500.0], [341609.08, 5678500.0], [341610.83, 5678504.0], [341612.0, 5678504.0], [341612.0, 5678503.0]]]}}, {"type": "Feature", "properties": {"id": "DESNATPU1000BNnr", "z": 149.19}, "geometry": {"type": "Polygon", "coordinates": [[[341619.0, 5678544.0], [341616.0, 5678544.0], [341615.0, 5678547.0], [341613.0, 5678548.0], [341616.0, 5678548.0], [341624.0, 5678543.0], [341627.0, 5678543.0], [341627.0, 5678541.0], [341632.0, 5678541.0], [341632.0, 5678539.0], [341636.0, 5678539.0], [341636.0, 5678538.0], [341639.0, 5678538.0], [341639.0, 5678537.0], [341642.0, 5678536.0], [341642.0, 5678532.0], [341641.0, 5678532.0], [341639.0, 5678526.0], [341637.0, 5678526.0], [341637.0, 5678523.0], [341636.0, 5678523.0], [341636.0, 5678519.0], [341634.0, 5678517.0], [341634.0, 5678514.0], [341632.0, 5678514.0], [341632.0, 5678512.0], [341631.0, 5678512.0], [341631.0, 5678517.0], [341633.0, 5678519.0], [341633.0, 5678522.0], [341636.0, 5678526.0], [341636.0, 5678529.0], [341638.0, 5678531.0], [341638.0, 5678537.0], [341635.0, 5678537.0], [341635.0, 5678538.0], [341631.0, 5678538.0], [341629.0, 5678540.0], [341623.0, 5678540.0], [341622.57, 5678538.71], [341620.0, 5678539.84], [341620.0, 5678543.0], [341619.0, 5678544.0]]]}}, {"type": "Feature", "properties": {"id": "DESNATPU1000BNnr", "z": 149.16}, "geometry": {"type": "Polygon", "coordinates": [[[341625.0, 5678481.0], [341624.0, 5678481.0], [341624.0, 5678478.0], [341623.0, 5678478.0], [341622.0, 5678474.0], [341620.0, 5678474.0], [341619.0, 5678472.0], [341619.0, 5678469.0], [341618.0, 5678469.0], [341618.0, 5678465.0], [341616.0, 5678465.0], [341616.0, 5678462.0], [341615.0, 5678462.0], [341615.0, 5678458.0], [341613.0, 5678458.0], [341613.0, 5678456.0], [341611.0, 5678456.0], [341611.0, 5678458.0], [341612.0, 5678458.0], [341612.0, 5678461.0], [341613.0, 5678463.0], [341615.0, 5678463.0], [341615.0, 5678467.0], [341616.0, 5678467.0], [341616.0, 5678470.0], [341618.0, 5678470.0], [341618.0, 5678474.0], [341619.0, 5678474.0], [341619.0, 5678477.0], [341620.0, 5678477.0], [341622.0, 5678483.0], [341624.0, 5678483.0], [341624.0, 5678485.0], [341625.0, 5678485.0], [341625.0, 5678481.0]]]}}, {"type": "Feature", "properties": {"id": "DESNATPU1000BNnr", "z": 149.15}, "geometry": {"type": "Polygon", "coordinates": [[[341653.0, 5678539.0], [341649.0, 5678539.0], [341649.0, 5678536.0], [341648.0, 5678536.0], [341648.0, 5678533.0], [341645.0, 5678529.0], [341645.0, 5678526.0], [341644.0, 5678526.0], [341643.0, 5678522.0], [341641.0, 5678522.0], [341640.0, 5678520.0], [341640.0, 5678517.0], [341639.0, 5678517.0], [341639.0, 5678513.0], [341637.0, 5678513.0], [341638.0, 5678515.0], [341638.0, 5678518.0], [341639.0, 5678518.0], [341639.0, 5678522.0], [341640.0, 5678522.0], [341640.0, 5678525.0], [341643.0, 5678529.0], [341643.0, 5678532.0], [341646.0, 5678536.0], [341646.0, 5678539.0], [341647.0, 5678539.0], [341648.0, 5678542.0], [341651.0, 5678542.0], [341650.0, 5678545.0], [341646.0, 5678545.0], [341646.0, 5678542.0], [341641.0, 5678542.0], [341641.0, 5678543.0], [341637.0, 5678544.0], [341637.0, 5678546.0], [341635.0, 5678546.0], [341634.0, 5678548.0], [341632.0, 5678549.0], [341629.0, 5678549.0], [341628.0, 5678552.0], [341630.0, 5678553.0], [341630.0, 5678551.0], [341633.0, 5678551.0], [341636.0, 5678549.0], [341636.0, 5678547.0], [341640.0, 5678547.0], [341642.0, 5678546.0], [341642.0, 5678544.0], [341644.0, 5678544.0], [341645.0, 5678546.0], [341651.0, 5678546.0], [341653.0, 5678545.0], [341654.0, 5678543.0], [341656.94, 5678543.0], [341655.98, 5678540.78], [341654.77, 5678538.0], [341653.0, 5678538.0], [341653.0, 5678539.0]]]}}, {"type": "Feature", "properties": {"id": "DESNATPU1000BNnr", "z": 149.02}, "geometry": {"type": "Polygon", "coordinates": [[[341603.0, 5678557.0], [341604.0, 5678559.0], [341609.0, 5678559.0], [341609.0, 5678561.09], [341611.0, 5678560.21], [341611.0, 5678558.0], [341614.0, 5678557.0], [341614.0, 5678556.0], [341622.0, 5678556.0], [341622.0, 5678555.0], [341626.0, 5678555.0], [341626.0, 5678555.89], [341628.0, 5678555.02], [341628.0, 5678554.0], [341627.0, 5678553.0], [341614.0, 5678553.0], [341614.0, 5678554.0], [341611.0, 5678554.0], [341607.0, 5678557.0], [341604.0, 5678555.0], [341604.0, 5678553.0], [341607.0, 5678552.0], [341608.0, 5678550.0], [341610.0, 5678549.0], [341613.0, 5678549.0], [341613.0, 5678548.0], [341608.0, 5678548.0], [341606.0, 5678550.0], [341601.0, 5678550.0], [341600.0, 5678551.0], [341600.0, 5678555.0], [341598.78, 5678555.0], [341600.09, 5678558.0], [341601.0, 5678558.0], [341603.0, 5678557.0]]]}}, {"type": "Feature", "properties": {"id": "DESNATPU1000BNnr", "z": 148.93}, "geometry": {"type": "Polygon", "coordinates": [[[341596.0, 5678463.0], [341598.0, 5678461.0], [341600.0, 5678461.0], [341600.0, 5678459.0], [341606.0, 5678459.0], [341608.0, 5678464.0], [341609.0, 5678464.0], [341609.0, 5678467.0], [341612.0, 5678471.0], [341612.0, 5678474.0], [341614.0, 5678476.0], [341614.0, 5678478.0], [341617.0, 5678478.0], [341617.0, 5678482.0], [341619.0, 5678482.0], [341618.0, 5678480.0], [341618.0, 5678477.0], [341617.0, 5678475.0], [341615.0, 5678475.0], [341615.0, 5678471.0], [341614.0, 5678471.0], [341614.0, 5678468.0], [341611.0, 5678464.0], [341611.0, 5678461.0], [341608.0, 5678457.0], [341608.0, 5678455.0], [341604.0, 5678455.0], [341602.0, 5678457.0], [341599.0, 5678457.0], [341599.0, 5678459.0], [341595.0, 5678459.0], [341593.0, 5678461.0], [341590.0, 5678461.0], [341588.0, 5678462.0], [341587.0, 5678464.0], [341584.0, 5678464.0], [341584.0, 5678466.0], [341579.0, 5678466.0], [341579.0, 5678467.0], [341576.0, 5678467.0], [341570.0, 5678471.0], [341567.0, 5678471.0], [341567.0, 5678466.0], [341570.0, 5678466.0], [341574.0, 5678463.0], [341577.0, 5678463.0], [341581.0, 5678460.0], [341584.0, 5678460.0], [341584.0, 5678458.0], [341588.0, 5678458.0], [341588.0, 5678457.0], [341591.0, 5678457.0], [341595.0, 5678454.0], [341598.0, 5678454.0], [341601.0, 5678450.0], [341604.0, 5678449.0], [341604.0, 5678445.0], [341607.0, 5678443.0], [341607.0, 5678442.0], [341610.0, 5678442.0], [341610.0, 5678441.0], [341612.4, 5678441.0], [341611.28, 5678438.48], [341610.8, 5678437.4], [341600.0, 5678442.25], [341600.0, 5678448.0], [341598.0, 5678448.0], [341595.0, 5678452.0], [341592.0, 5678452.0], [341588.0, 5678455.0], [341585.0, 5678455.0], [341583.0, 5678456.0], [341583.0, 5678458.0], [341579.0, 5678458.0], [341579.0, 5678459.0], [341576.0, 5678459.0], [341572.0, 5678462.0], [341569.0, 5678462.0], [341569.0, 5678463.0], [341566.0, 5678463.0], [341566.0, 5678461.14], [341559.54, 5678464.12], [341559.16, 5678464.34], [341562.95, 5678473.0], [341572.0, 5678473.0], [341572.0, 5678471.0], [341574.0, 5678470.0], [341577.0, 5678470.0], [341577.0, 5678468.0], [341582.0, 5678468.0], [341582.0, 5678467.0], [341588.0, 5678467.0], [341588.0, 5678468.18], [341591.0, 5678466.87], [341591.0, 5678463.0], [341596.0, 5678463.0]]]}}, {"type": "Feature", "properties": {"id": "DESNATPU1000BNnr", "z": 148.84}, "geometry": {"type": "Polygon", "coordinates": [[[341632.0, 5678495.0], [341632.0, 5678506.0], [341633.0, 5678506.0], [341633.0, 5678509.0], [341634.0, 5678509.0], [341635.0, 5678513.0], [341637.0, 5678513.0], [341636.0, 5678511.0], [341636.0, 5678508.0], [341635.0, 5678508.0], [341635.0, 5678504.0], [341634.0, 5678504.0], [341634.0, 5678500.0], [341635.0, 5678500.0], [341635.0, 5678497.0], [341636.37, 5678496.54], [341635.25, 5678494.0], [341633.0, 5678494.0], [341632.0, 5678495.0]]]}}, {"type": "Feature", "properties": {"id": "DESNATPU1000BNnr", "z": 148.73, "surface": {"x": 341605.0, "y": 5678502.0, "res": 1.0, "cols": 19, "rows": 26, "dz": [-72, -63, -97, -78, -59, -41, -22, 100, 147, 203, 258, 315, 371, 317, 361, 399, 427, 447, 460, -83, -74, -65, -85, -66, -48, 26, 79, 124, 180, 240, 297, 353, 316, 362, 409, 447, 464, 444, -95, -86, -77, -68, -74, -55, 7, 58, 100, 157, 222, 279, 295, 316, 362, 408, 454, 444, 459, -106, -97, -88, -79, -75, -61, -12, 37, 77, 134, 204, 261, 286, 316, 362, 408, 417, 453, 474, -134, -114, -101, -88, -83, -71, -42, 21, 70, 129, 187, 230, 277, 315, 362, 384, 420, 456, 488, -165, -151, -138, -111, -103, -92, -68, -15, 41, 101, 164, 219, 280, 326, 351, 387, 424, 460, 496, -195, -182, -168, -151, -137, -126, -103, -51, 9, 72, 140, 209, 284, 335, 358, 391, 425, 507, 541, -225, -212, -198, -180, -167, -158, -133, -78, -13, 61, 135, 212, 285, 332, 355, 392, 432, 466, 500, -256, -242, -229, -203, -188, -171, -146, -88, -14, 60, 126, 199, 259, 307, 340, 357, 391, 425, 459, -286, -226, -212, -197, -183, -173, -148, -94, -27, 37, 92, 158, 212, 255, 291, 320, 350, 384, 418, -233, -220, -207, -195, -182, -174, -155, -119, -67, -7, 42, 88, 132, 168, 187, 213, 193, 213, 201, -232, -220, -208, -195, -183, -178, -167, -147, -120, -83, -36, 9, 48, 81, 105, 109, 129, 145, 159, -236, -225, -213, -201, -189, -183, -176, -165, -155, -141, -110, -53, -3, 22, 40, 76, 89, 103, 117, -237, -231, -219, -206, -210, -195, -197, -196, -171, -163, -150, -113, -54, 3, 13, 30, 60, 74, 87, -235, -233, -224, -237, -222, -207, -218, -231, -208, -207, -195, -158, -23, -4, 0, 8, 19, 35, 50, -233, -230, -260, -249, -234, -219, -291, -268, -245, -250, -240, -79, -44, -9, -6, -3, 16, 17, 32, -231, -260, -258, -253, -244, -231, -327, -305, -282, -294, -300, -237, -174, -20, -12, -8, 17, 43, 14, -260, -258, -255, -250, -242, -231, -344, -336, -236, -226, -326, -263, -201, -179, -21, -12, 37, 85, 134, -259, -256, -253, -248, -240, -345, -248, -247, -239, -230, -221, -211, -208, -194, -33, 34, 11, 59, 108, -257, -255, -251, -246, -216, -216, -216, -251, -242, -233, -224, -215, -211, -199, -40, 39, 117, 33, 82, -256, -253, -216, -216, -216, -216, -216, -216, -216, -231, -223, -215, -208, -188, -44, 35, 113, 192, 261, -216, -216, -216, -216, -216, -216, -216, -216, -216, -216, -216, -216, -210, -205, -47, 31, 110, 188, 234, -216, -216, -216, -216, -216, -216, -216, -216, -216, -216, -216, -216, -216, -216, -216, 27, 106, 172, 202, -216, -216, -216, -216, -216, -216, -216, -216, -216, -216, -216, -216, -216, -216, -216, -216, 87, 137, 172, -216, -216, -216, -216, -216, -216, -216, -216, -216, -216, -216, -216, -216, -216, -216, -216, -216, 109, 145, -216, -216, -216, -216, -216, -216, -216, -216, -216, -216, -216, -216, -216, -216, -216, -216, -216, -216, 122]}}, "geometry": {"type": "Polygon", "coordinates": [[[341610.0, 5678499.0], [341614.0, 5678499.0], [341616.0, 5678498.0], [341619.0, 5678498.0], [341620.0, 5678497.0], [341620.0, 5678493.0], [341620.0, 5678491.0], [341622.0, 5678490.0], [341622.0, 5678487.0], [341621.0, 5678487.0], [341621.0, 5678484.0], [341620.0, 5678482.0], [341617.0, 5678482.0], [341617.0, 5678478.0], [341615.0, 5678478.0], [341616.0, 5678480.0], [341616.0, 5678483.0], [341618.0, 5678485.0], [341618.0, 5678489.0], [341616.0, 5678489.0], [341614.64, 5678487.64], [341608.51, 5678490.32], [341610.11, 5678493.97], [341607.03, 5678495.33], [341609.08, 5678500.0], [341610.0, 5678500.0], [341610.0, 5678499.0]]]}}, {"type": "Feature", "properties": {"id": "DESNATPU1000BNnr", "z": 147.29}, "geometry": {"type": "Polygon", "coordinates": [[[341611.0, 5678445.0], [341609.0, 5678445.0], [341609.0, 5678451.0], [341610.0, 5678451.0], [341610.0, 5678454.0], [341611.0, 5678454.0], [341611.0, 5678456.0], [341613.0, 5678456.0], [341613.0, 5678458.0], [341615.0, 5678458.0], [341615.0, 5678462.0], [341616.0, 5678462.0], [341616.0, 5678465.0], [341618.0, 5678465.0], [341618.0, 5678469.0], [341619.0, 5678469.0], [341619.0, 5678472.0], [341620.0, 5678474.0], [341622.0, 5678474.0], [341623.0, 5678478.0], [341624.0, 5678478.0], [341624.0, 5678481.0], [341625.0, 5678481.0], [341625.0, 5678485.0], [341627.0, 5678485.0], [341627.0, 5678486.0], [341630.0, 5678486.0], [341630.0, 5678487.0], [341632.18, 5678487.0], [341629.61, 5678481.16], [341627.28, 5678482.18], [341611.6, 5678446.73], [341614.4, 5678445.49], [341613.12, 5678442.63], [341612.0, 5678443.0], [341611.0, 5678445.0]]]}}, {"type": "Feature", "properties": {"id": "DESNATPU1000BNnr", "z": 147.23}, "geometry": {"type": "Polygon", "coordinates": [[[341629.0, 5678540.0], [341631.0, 5678538.0], [341635.0, 5678538.0], [341635.0, 5678537.0], [341638.0, 5678537.0], [341638.0, 5678531.0], [341636.0, 5678529.0], [341636.0, 5678526.0], [341633.0, 5678522.0], [341633.0, 5678519.0], [341631.0, 5678517.0], [341631.0, 5678512.0], [341630.0, 5678512.0], [341630.0, 5678508.0], [341629.0, 5678508.0], [341629.0, 5678505.0], [341628.0, 5678505.0], [341627.0, 5678502.0], [341624.0, 5678502.0], [341622.0, 5678503.0], [341621.0, 5678505.0], [341618.0, 5678505.0], [341617.0, 5678503.0], [341612.0, 5678503.0], [341612.0, 5678504.0], [341610.83, 5678504.0], [341612.44, 5678507.66], [341615.57, 5678506.28], [341617.11, 5678509.8], [341624.59, 5678506.53], [341636.16, 5678532.95], [341631.98, 5678534.78], [341631.9, 5678534.6], [341622.57, 5678538.71], [341623.0, 5678540.0], [341629.0, 5678540.0]]]}}, {"type": "Feature", "properties": {"id": "DESNATPU1000BNnr", "z": 147.15}, "geometry": {"type": "Polygon", "coordinates": [[[341635.0, 5678500.0], [341634.0, 5678500.0], [341634.0, 5678504.0], [341635.0, 5678504.0], [341635.0, 5678508.0], [341636.0, 5678508.0], [341636.0, 5678511.0], [341637.0, 5678513.0], [341639.0, 5678513.0], [341639.0, 5678517.0], [341640.0, 5678517.0], [341640.0, 5678520.0], [341641.0, 5678522.0], [341643.0, 5678522.0], [341644.0, 5678526.0], [341645.0, 5678526.0], [341645.0, 5678529.0], [341648.0, 5678533.0], [341648.0, 5678536.0], [341649.0, 5678536.0], [341649.0, 5678539.0], [341653.0, 5678539.0], [341653.0, 5678538.0], [341654.77, 5678538.0], [341653.95, 5678536.11], [341651.25, 5678537.29], [341635.68, 5678501.65], [341638.14, 5678500.57], [341636.37, 5678496.54], [341635.0, 5678497.0], [341635.0, 5678500.0]]]}}, {"type": "Feature", "properties": {"id": "DESNATPU1000BNnr", "z": 147.06}, "geometry": {"type": "Polygon", "coordinates": [[[341653.0, 5678545.0], [341651.0, 5678546.0], [341645.0, 5678546.0], [341644.0, 5678544.0], [341642.0, 5678544.0], [341642.0, 5678546.0], [341640.0, 5678547.0], [341636.0, 5678547.0], [341636.0, 5678549.0], [341633.0, 5678551.0], [341630.0, 5678551.0], [341630.0, 5678554.15], [341638.77, 5678550.35], [341638.29, 5678549.23], [341642.47, 5678547.42], [341643.69, 5678550.22], [341657.48, 5678544.24], [341656.94, 5678543.0], [341654.0, 5678543.0], [341653.0, 5678545.0]]]}}, {"type": "Feature", "properties": {"id": "DESNATPU1000BNnr", "z": 146.98}, "geometry": {"type": "Polygon", "coordinates": [[[341604.0, 5678546.0], [341603.0, 5678548.0], [341601.0, 5678549.0], [341598.0, 5678549.0], [341598.0, 5678550.0], [341597.04, 5678550.0], [341597.09, 5678550.11], [341596.72, 5678550.26], [341598.78, 5678555.0], [341600.0, 5678555.0], [341600.0, 5678551.0], [341601.0, 5678550.0], [341606.0, 5678550.0], [341608.0, 5678548.0], [341613.0, 5678548.0], [341615.0, 5678547.0], [341616.0, 5678544.0], [341619.0, 5678544.0], [341620.0, 5678543.0], [341620.0, 5678539.84], [341610.9, 5678543.84], [341610.98, 5678544.04], [341608.0, 5678545.35], [341608.0, 5678546.0], [341604.0, 5678546.0]]]}}, {"type": "Feature", "properties": {"id": "DESNATPU1000BNnr", "z": 146.98}, "geometry": {"type": "Polygon", "coordinates": [[[341604.0, 5678559.0], [341603.0, 5678557.0], [341601.0, 5678558.0], [341600.09, 5678558.0], [341602.65, 5678563.89], [341609.0, 5678561.09], [341609.0, 5678559.0], [341604.0, 5678559.0]]]}}, {"type": "Feature", "properties": {"id": "DESNATPU1000BNnr", "z": 146.86}, "geometry": {"type": "Polygon", "coordinates": [[[341569.0, 5678463.0], [341569.0, 5678462.0], [341572.0, 5678462.0], [341576.0, 5678459.0], [341579.0, 5678459.0], [341579.0, 5678458.0], [341583.0, 5678458.0], [341583.0, 5678456.0], [341585.0, 5678455.0], [341588.0, 5678455.0], [341592.0, 5678452.0], [341595.0, 5678452.0], [341598.0, 5678448.0], [341600.0, 5678448.0], [341600.0, 5678442.25], [341597.1, 5678443.55], [341597.52, 5678444.49], [341598.28, 5678446.17], [341592.88, 5678448.61], [341593.34, 5678449.59], [341569.84, 5678460.32], [341569.47, 5678459.54], [341569.23, 5678459.65], [341566.0, 5678461.14], [341566.0, 5678463.0], [341569.0, 5678463.0]]]}}, {"type": "Feature", "properties": {"id": "DESNATPU1000BNnr", "z": 146.78}, "geometry": {"type": "Polygon", "coordinates": [[[341582.0, 5678467.0], [341582.0, 5678468.0], [341577.0, 5678468.0], [341577.0, 5678470.0], [341574.0, 5678470.0], [341572.0, 5678471.0], [341572.0, 5678473.0], [341562.95, 5678473.0], [341565.13, 5678477.99], [341565.4, 5678477.84], [341565.91, 5678479.0], [341567.0, 5678479.0], [341568.0, 5678476.0], [341570.0, 5678475.0], [341574.0, 5678475.0], [341574.0, 5678474.0], [341575.54, 5678474.0], [341575.31, 5678473.48], [341579.28, 5678471.74], [341579.38, 5678471.96], [341588.0, 5678468.18], [341588.0, 5678467.0], [341582.0, 5678467.0]]]}}, {"type": "Feature", "properties": {"id": "DESNATPU1000BNnr", "z": 146.75}, "geometry": {"type": "Polygon", "coordinates": [[[341622.0, 5678555.0], [341622.0, 5678556.0], [341614.0, 5678556.0], [341614.0, 5678557.0], [341611.0, 5678558.0], [341611.0, 5678560.21], [341616.99, 5678557.57], [341617.08, 5678557.77], [341617.8, 5678559.44], [341626.0, 5678555.89], [341626.0, 5678555.0], [341622.0, 5678555.0]]]}}, {"type": "Feature", "properties": {"id": "DESNATPU1000BNnr", "z": 146.72}, "geometry": {"type": "Polygon", "coordinates": [[[341618.0, 5678489.0], [341618.0, 5678485.0], [341616.0, 5678483.0], [341616.0, 5678480.0], [341615.0, 5678478.0], [341614.0, 5678478.0], [341614.0, 5678476.0], [341612.0, 5678474.0], [341612.0, 5678471.0], [341609.0, 5678467.0], [341609.0, 5678464.0], [341608.0, 5678464.0], [341606.0, 5678459.0], [341600.0, 5678459.0], [341600.0, 5678461.0], [341598.0, 5678461.0], [341596.0, 5678463.0], [341591.0, 5678463.0], [341591.0, 5678466.87], [341600.6, 5678462.66], [341600.52, 5678462.46], [341604.61, 5678460.66], [341616.15, 5678486.98], [341614.64, 5678487.64], [341616.0, 5678489.0], [341618.0, 5678489.0]]]}}, {"type": "Feature", "properties": {"id": "DESNATPU1000BNnr", "z": 145.22, "surface": {"x": 341577.0, "y": 5678518.0, "res": 1.0, "cols": 18, "rows": 16, "dz": [-33, -15, 16, 36, 51, 67, 83, 98, 121, 130, 140, 149, 159, 168, 149, 149, 148, 148, -54, -31, 4, 39, 49, 65, 81, 82, 97, 129, 139, 149, 158, 146, 148, 148, 148, 193, -74, -43, -8, 27, 62, 63, 79, 84, 101, 127, 138, 148, 143, 144, 146, 147, 199, 185, -157, -101, -20, 15, 50, 62, 73, 86, 105, 128, 138, 140, 141, 142, 144, 183, 180, 172, -196, -140, -84, -28, 35, 58, 77, 94, 113, 131, 137, 136, 129, 122, 155, 152, 148, 145, -236, -180, -124, -68, 2, 47, 78, 104, 125, 135, 133, 126, 118, 118, 123, 120, 117, 113, -365, -234, -170, -107, -74, 1, 67, 107, 127, 131, 123, 109, 97, 91, 92, 88, 85, 82, -381, -315, -248, -214, -113, -45, 33, 93, 115, 116, 100, 83, 74, 72, 71, 57, 53, 50, -397, -331, -264, -233, -147, -57, 23, 74, 90, 83, 51, 34, 30, 30, 29, 29, 22, 18, -385, -321, -258, -218, -139, -60, 4, 43, 51, 27, -16, -41, -21, -7, -2, 3, 9, 14, -383, -320, -256, -195, -140, -80, -33, 0, -1, -36, -95, -116, -112, -116, -64, -59, -54, -47, -382, -287, -234, -182, -148, -101, -71, -57, -67, -111, -154, -170, -171, -174, -177, -121, -116, -100, -297, -256, -216, -175, -149, -117, -98, -98, -119, -159, -186, -195, -218, -226, -229, -232, -233, -140, -302, -261, -221, -180, -144, -124, -115, -123, -147, -180, -202, -229, -261, -284, -282, -284, -275, -259, -306, -266, -225, -181, -152, -141, -135, -138, -151, -211, -237, -264, -290, -327, -350, -327, -306, -289, -304, -271, -219, -190, -160, -158, -140, -152, -164, -242, -272, -299, -325, -352, -381, -371, -327, -311]}}, "geometry": {"type": "Polygon", "coordinates": [[[341588.0, 5678504.0], [341581.0, 5678504.0], [341580.0, 5678505.0], [341580.0, 5678508.0], [341579.06, 5678509.88], [341579.08, 5678509.92], [341579.29, 5678509.77], [341582.0, 5678516.0], [341583.0, 5678516.0], [341583.0, 5678515.0], [341589.0, 5678515.0], [341589.0, 5678512.0], [341592.13, 5678512.0], [341589.24, 5678505.41], [341589.44, 5678505.32], [341589.3, 5678505.0], [341588.0, 5678505.0], [341588.0, 5678504.0]]]}}, {"type": "Feature", "properties": {"id": "DESNATPU1000BNnr", "z": 144.1}, "geometry": {"type": "Polygon", "coordinates": [[[341592.0, 5678528.0], [341592.0, 5678531.0], [341595.0, 5678535.0], [341595.0, 5678538.0], [341599.0, 5678544.0], [341599.0, 5678549.0], [341601.0, 5678549.0], [341603.0, 5678548.0], [341604.0, 5678546.0], [341603.0, 5678546.0], [341602.0, 5678543.0], [341601.0, 5678543.0], [341601.0, 5678540.0], [341598.0, 5678536.0], [341598.0, 5678533.0], [341594.0, 5678527.0], [341594.0, 5678524.0], [341591.0, 5678520.0], [341591.0, 5678513.0], [341592.29, 5678512.36], [341592.13, 5678512.0], [341589.0, 5678512.0], [341589.0, 5678515.0], [341583.0, 5678515.0], [341583.0, 5678516.0], [341582.0, 5678516.0], [341582.87, 5678518.0], [341586.0, 5678518.0], [341592.0, 5678528.0]]]}}, {"type": "Feature", "properties": {"id": "DESNATPU1000BNnr", "z": 142.75}, "geometry": {"type": "Polygon", "coordinates": [[[341574.0, 5678475.0], [341570.0, 5678475.0], [341568.0, 5678476.0], [341567.0, 5678479.0], [341565.91, 5678479.0], [341577.64, 5678505.94], [341577.4, 5678506.03], [341579.06, 5678509.88], [341580.0, 5678508.0], [341580.0, 5678505.0], [341581.0, 5678504.0], [341588.0, 5678504.0], [341588.0, 5678505.0], [341589.3, 5678505.0], [341587.72, 5678501.39], [341587.56, 5678501.47], [341575.54, 5678474.0], [341574.0, 5678474.0], [341574.0, 5678475.0]]]}}, {"type": "Feature", "properties": {"id": "DESNATPU1000BNnr", "z": 142.4}, "geometry": {"type": "Polygon", "coordinates": [[[341591.0, 5678520.0], [341594.0, 5678524.0], [341594.0, 5678527.0], [341598.0, 5678533.0], [341598.0, 5678536.0], [341601.0, 5678540.0], [341601.0, 5678543.0], [341602.0, 5678543.0], [341603.0, 5678546.0], [341608.0, 5678546.0], [341608.0, 5678545.35], [341606.95, 5678545.81], [341594.68, 5678517.81], [341595.01, 5678517.66], [341593.83, 5678514.98], [341593.5, 5678515.12], [341592.29, 5678512.36], [341591.0, 5678513.0], [341591.0, 5678520.0]]]}}, {"type": "Feature", "properties": {"id": "DESNATPU1000BNnr", "z": 142.3}, "geometry": {"type": "Polygon", "coordinates": [[[341598.0, 5678549.0], [341599.0, 5678549.0], [341599.0, 5678544.0], [341595.0, 5678538.0], [341595.0, 5678535.0], [341592.0, 5678531.0], [341592.0, 5678528.0], [341586.0, 5678518.0], [341582.87, 5678518.0], [341583.02, 5678518.34], [341582.89, 5678518.55], [341584.54, 5678522.44], [341584.8, 5678522.27], [341597.04, 5678550.0], [341598.0, 5678550.0], [341598.0, 5678549.0]]]}}, {"type": "Feature", "properties": {"id": "DESNATPU1000CskP", "z": 143.11}, "geometry": {"type": "Polygon", "coordinates": [[[341330.0, 5678150.0], [341332.0, 5678156.0], [341333.0, 5678156.0], [341333.0, 5678159.0], [341334.0, 5678159.0], [341334.0, 5678159.94], [341338.0, 5678157.85], [341338.0, 5678157.0], [341335.0, 5678155.0], [341334.0, 5678151.0], [341332.0, 5678150.0], [341331.0, 5678148.0], [341331.0, 5678144.57], [341328.0, 5678146.25], [341328.0, 5678149.0], [341330.0, 5678150.0]]]}}, {"type": "Feature", "properties": {"id": "DESNATPU1000CskP", "z": 141.24}, "geometry": {"type": "Polygon", "coordinates": [[[341333.0, 5678159.0], [341333.0, 5678156.0], [341332.0, 5678156.0], [341330.0, 5678150.0], [341328.0, 5678149.0], [341328.0, 5678146.25], [341323.25, 5678148.91], [341330.69, 5678161.67], [341334.0, 5678159.94], [341334.0, 5678159.0], [341333.0, 5678159.0]]]}}, {"type": "Feature", "properties": {"id": "DESNATPU1000CskP", "z": 140.51}, "geometry": {"type": "Polygon", "coordinates": [[[341332.0, 5678150.0], [341334.0, 5678151.0], [341335.0, 5678155.0], [341338.0, 5678157.0], [341338.0, 5678157.85], [341340.14, 5678156.73], [341341.3, 5678156.12], [341335.85, 5678146.3], [341338.0, 5678145.13], [341338.0, 5678143.0], [341337.0, 5678143.0], [341336.55, 5678141.64], [341332.17, 5678143.92], [341331.0, 5678144.57], [341331.0, 5678148.0], [341332.0, 5678150.0]]]}}, {"type": "Feature", "properties": {"id": "DESNATPU1000CskP", "z": 134.09}, "geometry": {"type": "Polygon", "coordinates": [[[341338.0, 5678143.0], [341338.0, 5678145.13], [341346.71, 5678140.41], [341344.82, 5678137.32], [341336.55, 5678141.64], [341337.0, 5678143.0], [341338.0, 5678143.0]]]}}, {"type": "Feature", "properties": {"id": "DESNATPU1000E7Fy", "z": 166.81}, "geometry": {"type": "Polygon", "coordinates": [[[341781.0, 5679578.0], [341781.0, 5679582.0], [341782.0, 5679582.0], [341784.0, 5679585.0], [341786.0, 5679586.0], [341789.0, 5679586.0], [341790.0, 5679585.0], [341790.0, 5679581.17], [341784.72, 5679577.0], [341782.0, 5679577.0], [341781.0, 5679578.0]]]}}, {"type": "Feature", "properties": {"id": "DESNATPU1000E7Fy", "z": 163.92}, "geometry": {"type": "Polygon", "coordinates": [[[341788.0, 5679586.0], [341786.0, 5679586.0], [341784.0, 5679585.0], [341782.0, 5679582.0], [341781.0, 5679582.0], [341781.0, 5679578.0], [341782.0, 5679577.0], [341784.72, 5679577.0], [341780.97, 5679574.03], [341778.85, 5679576.51], [341775.57, 5679580.34], [341787.0, 5679589.46], [341787.0, 5679587.0], [341788.0, 5679586.0]]]}}, {"type": "Feature", "properties": {"id": "DESNATPU1000E7Fy", "z": 160.19}, "geometry": {"type": "Polygon", "coordinates": [[[341789.0, 5679586.0], [341788.0, 5679586.0], [341787.0, 5679587.0], [341787.0, 5679589.46], [341789.94, 5679591.81], [341793.04, 5679587.72], [341795.07, 5679585.04], [341793.48, 5679583.83], [341794.2, 5679582.87], [341790.97, 5679580.41], [341790.25, 5679581.37], [341790.0, 5679581.17], [341790.0, 5679585.0], [341789.0, 5679586.0]]]}}, {"type": "Feature", "properties": {"id": "DESNATPU1000FfG3", "z": 138.93}, "geometry": {"type": "Polygon", "coordinates": [[[341246.0, 5678257.0], [341249.0, 5678257.0], [341251.0, 5678255.0], [341253.0, 5678255.0], [341254.0, 5678253.0], [341256.0, 5678253.0], [341256.0, 5678251.73], [341254.91, 5678252.15], [341251.74, 5678245.17], [341242.53, 5678249.93], [341245.72, 5678256.0], [341246.0, 5678256.0], [341246.0, 5678257.0]]]}}, {"type": "Feature", "properties": {"id": "DESNATPU1000FfG3", "z": 132.96}, "geometry": {"type": "Polygon", "coordinates": [[[341254.0, 5678253.0], [341253.0, 5678255.0], [341251.0, 5678255.0], [341249.0, 5678257.0], [341246.0, 5678257.0], [341246.0, 5678256.0], [341245.72, 5678256.0], [341245.86, 5678256.28], [341242.37, 5678258.18], [341244.91, 5678263.6], [341245.65, 5678265.22], [341257.31, 5678259.91], [341260.32, 5678258.55], [341261.0, 5678259.85], [341261.0, 5678259.83], [341256.98, 5678251.36], [341256.0, 5678251.73], [341256.0, 5678253.0], [341254.0, 5678253.0]]]}}, {"type": "Feature", "properties": {"id": "DESNATPU1000GLaM", "z": 167.44}, "geometry": {"type": "Polygon", "coordinates": [[[341148.0, 5679224.0], [341151.0, 5679224.0], [341151.0, 5679218.0], [341150.0, 5679218.0], [341147.96, 5679214.6], [341142.61, 5679217.0], [341146.2, 5679225.0], [341148.0, 5679225.0], [341148.0, 5679224.0]]]}}, {"type": "Feature", "properties": {"id": "DESNATPU1000GLaM", "z": 164.32}, "geometry": {"type": "Polygon", "coordinates": [[[341151.0, 5679218.0], [341151.0, 5679222.0], [341153.0, 5679222.0], [341153.0, 5679212.35], [341148.66, 5679214.29], [341147.96, 5679214.6], [341150.0, 5679218.0], [341151.0, 5679218.0]]]}}, {"type": "Feature", "properties": {"id": "DESNATPU1000GLaM", "z": 160.8}, "geometry": {"type": "Polygon", "coordinates": [[[341154.0, 5679216.0], [341153.0, 5679216.0], [341153.0, 5679222.0], [341151.0, 5679222.0], [341151.0, 5679224.0], [341148.0, 5679224.0], [341148.0, 5679225.0], [341146.2, 5679225.0], [341149.19, 5679231.67], [341160.0, 5679226.81], [341160.0, 5679225.0], [341161.0, 5679225.0], [341161.0, 5679222.0], [341160.0, 5679222.0], [341160.0, 5679219.95], [341158.73, 5679220.52], [341158.05, 5679219.0], [341154.0, 5679219.0], [341154.0, 5679216.0]]]}}, {"type": "Feature", "properties": {"id": "DESNATPU1000GLaM", "z": 158.95}, "geometry": {"type": "Polygon", "coordinates": [[[341161.0, 5679222.0], [341161.0, 5679225.0], [341160.0, 5679225.0], [341160.0, 5679226.81], [341169.73, 5679222.44], [341167.16, 5679216.73], [341160.0, 5679219.95], [341160.0, 5679222.0], [341161.0, 5679222.0]]]}}, {"type": "Feature", "properties": {"id": "DESNATPU1000GaPa", "z": 161.79}, "geometry": {"type": "Polygon", "coordinates": [[[340836.0, 5678013.0], [340837.0, 5678015.0], [340839.0, 5678015.0], [340840.0, 5678018.0], [340841.33, 5678018.0], [340843.51, 5678015.0], [340842.0, 5678015.0], [340840.0, 5678013.0], [340839.0, 5678010.0], [340836.0, 5678010.0], [340834.0, 5678008.0], [340832.92, 5678008.0], [340830.0, 5678012.0], [340834.0, 5678012.0], [340836.0, 5678013.0]]]}}, {"type": "Feature", "properties": {"id": "DESNATPU1000GaPa", "z": 158.55}, "geometry": {"type": "Polygon", "coordinates": [[[340839.0, 5678015.0], [340837.0, 5678015.0], [340836.0, 5678013.0], [340834.0, 5678012.0], [340830.0, 5678012.0], [340828.94, 5678013.45], [340829.54, 5678016.55], [340832.68, 5678016.9], [340835.58, 5678019.01], [340834.72, 5678020.19], [340837.99, 5678022.58], [340841.33, 5678018.0], [340840.0, 5678018.0], [340839.0, 5678015.0]]]}}, {"type": "Feature", "properties": {"id": "DESNATPU1000GaPa", "z": 158.23}, "geometry": {"type": "Polygon", "coordinates": [[[340836.0, 5678010.0], [340839.0, 5678010.0], [340840.0, 5678013.0], [340842.0, 5678015.0], [340843.51, 5678015.0], [340846.73, 5678010.59], [340843.52, 5678008.25], [340842.6, 5678009.51], [340835.56, 5678004.38], [340832.92, 5678008.0], [340834.0, 5678008.0], [340836.0, 5678010.0]]]}}, {"type": "Feature", "properties": {"id": "DESNATPU1000IJVE", "z": 168.28}, "geometry": {"type": "Polygon", "coordinates": [[[340517.0, 5678908.0], [340521.0, 5678908.0], [340523.0, 5678906.0], [340523.0, 5678904.0], [340518.0, 5678904.0], [340518.0, 5678903.0], [340512.3, 5678903.0], [340512.07, 5678904.88], [340511.81, 5678907.0], [340517.0, 5678907.0], [340517.0, 5678908.0]]]}}, {"type": "Feature", "properties": {"id": "DESNATPU1000IJVE", "z": 166.1}, "geometry": {"type": "Polygon", "coordinates": [[[340518.0, 5678904.0], [340523.0, 5678904.0], [340523.0, 5678906.0], [340521.0, 5678908.0], [340517.0, 5678908.0], [340517.0, 5678907.0], [340511.81, 5678907.0], [340511.54, 5678909.29], [340522.97, 5678910.69], [340523.31, 5678907.87], [340524.0, 5678907.95], [340524.0, 5678906.0], [340525.0, 5678906.0], [340525.0, 5678901.0], [340524.0, 5678901.0], [340524.0, 5678900.0], [340522.0, 5678899.0], [340512.78, 5678899.0], [340512.3, 5678903.0], [340518.0, 5678903.0], [340518.0, 5678904.0]]]}}, {"type": "Feature", "properties": {"id": "DESNATPU1000IJVE", "z": 162.98}, "geometry": {"type": "Polygon", "coordinates": [[[340518.0, 5678893.96], [340513.46, 5678893.41], [340512.78, 5678899.0], [340518.0, 5678899.0], [340518.0, 5678893.96]]]}}, {"type": "Feature", "properties": {"id": "DESNATPU1000IJVE", "z": 161.73}, "geometry": {"type": "Polygon", "coordinates": [[[340525.0, 5678901.0], [340525.0, 5678906.0], [340524.0, 5678906.0], [340524.0, 5678907.95], [340528.92, 5678908.55], [340529.11, 5678906.95], [340530.51, 5678895.48], [340524.0, 5678894.69], [340524.0, 5678901.0], [340525.0, 5678901.0]]]}}, {"type": "Feature", "properties": {"id": "DESNATPU1000JRUG", "z": 140.07}, "geometry": {"type": "Polygon", "coordinates": [[[341240.0, 5678615.0], [341231.0, 5678615.0], [341231.0, 5678618.0], [341230.11, 5678618.0], [341233.81, 5678626.93], [341241.0, 5678623.85], [341241.0, 5678617.0], [341240.0, 5678615.0]]]}}, {"type": "Feature", "properties": {"id": "DESNATPU1000JRUG", "z": 138.44}, "geometry": {"type": "Polygon", "coordinates": [[[341231.0, 5678615.0], [341240.0, 5678615.0], [341241.0, 5678617.0], [341241.0, 5678623.85], [341245.0, 5678622.14], [341245.0, 5678621.0], [341243.0, 5678621.0], [341242.0, 5678619.0], [341242.0, 5678616.0], [341241.0, 5678616.0], [341241.0, 5678613.0], [341239.0, 5678612.0], [341238.52, 5678610.57], [341228.7, 5678614.61], [341230.11, 5678618.0], [341231.0, 5678618.0], [341231.0, 5678615.0]]]}}, {"type": "Feature", "properties": {"id": "DESNATPU1000JRUG", "z": 133.91}, "geometry": {"type": "Polygon", "coordinates": [[[341241.0, 5678613.0], [341241.0, 5678616.0], [341242.0, 5678616.0], [341242.0, 5678619.0], [341243.0, 5678621.0], [341245.0, 5678621.0], [341245.0, 5678622.14], [341248.46, 5678620.66], [341254.33, 5678618.1], [341249.76, 5678605.94], [341238.52, 5678610.57], [341239.0, 5678612.0], [341241.0, 5678613.0]]]}}, {"type": "Feature", "properties": {"id": "UUID_65c5f297-1e73-4727-9a2d-9cfda1b1a75b", "z": 150.99}, "geometry": {"type": "Polygon", "coordinates": [[[341432.0, 5679377.0], [341437.09, 5679377.0], [341436.3, 5679370.36], [341432.17, 5679371.0], [341428.05, 5679371.63], [341429.17, 5679378.0], [341432.0, 5679378.0], [341432.0, 5679377.0]]]}}, {"type": "Feature", "properties": {"id": "UUID_65c5f297-1e73-4727-9a2d-9cfda1b1a75b", "z": 149.46}, "geometry": {"type": "Polygon", "coordinates": [[[341432.0, 5679378.0], [341429.17, 5679378.0], [341429.71, 5679381.0], [341431.0, 5679381.0], [341431.0, 5679380.0], [341437.44, 5679380.0], [341437.09, 5679377.0], [341432.0, 5679377.0], [341432.0, 5679378.0]]]}}, {"type": "Feature", "properties": {"id": "UUID_65c5f297-1e73-4727-9a2d-9cfda1b1a75b", "z": 145.99}, "geometry": {"type": "Polygon", "coordinates": [[[341431.0, 5679381.0], [341429.71, 5679381.0], [341429.79, 5679381.47], [341429.48, 5679381.64], [341431.98, 5679385.69], [341435.51, 5679391.4], [341441.67, 5679388.41], [341437.59, 5679381.23], [341437.44, 5679380.0], [341431.0, 5679380.0], [341431.0, 5679381.0]]]}}, {"type": "Feature", "properties": {"id": "UUID_9583cfac-0187-4255-ae7d-9e906debee1c", "z": 142.88}, "geometry": {"type": "Polygon", "coordinates": [[[341451.0, 5678215.0], [341451.0, 5678218.0], [341452.0, 5678218.0], [341452.0, 5678217.0], [341454.0, 5678217.0], [341454.0, 5678214.0], [341453.0, 5678214.0], [341453.0, 5678210.0], [341452.0, 5678210.0], [341452.0, 5678207.76], [341450.0, 5678208.33], [341450.0, 5678215.0], [341451.0, 5678215.0]]]}}, {"type": "Feature", "properties": {"id": "UUID_9583cfac-0187-4255-ae7d-9e906debee1c", "z": 141.26}, "geometry": {"type": "Polygon", "coordinates": [[[341453.0, 5678210.0], [341453.0, 5678214.0], [341454.0, 5678214.0], [341454.0, 5678217.0], [341457.33, 5678217.0], [341455.17, 5678208.1], [341454.89, 5678206.93], [341452.0, 5678207.76], [341452.0, 5678210.0], [341453.0, 5678210.0]]]}}, {"type": "Feature", "properties": {"id": "UUID_9583cfac-0187-4255-ae7d-9e906debee1c", "z": 140.72}, "geometry": {"type": "Polygon", "coordinates": [[[341446.0, 5678218.0], [341451.0, 5678218.0], [341451.0, 5678215.0], [341450.0, 5678215.0], [341450.0, 5678208.33], [341445.8, 5678209.54], [341445.0, 5678209.77], [341445.0, 5678217.0], [341446.0, 5678218.0]]]}}, {"type": "Feature", "properties": {"id": "UUID_9583cfac-0187-4255-ae7d-9e906debee1c", "z": 138.07}, "geometry": {"type": "Polygon", "coordinates": [[[341452.0, 5678218.0], [341448.0, 5678218.0], [341449.0, 5678219.0], [341449.0, 5678220.0], [341450.0, 5678220.0], [341450.0, 5678227.0], [341451.0, 5678227.0], [341451.0, 5678230.0], [341452.0, 5678230.0], [341452.0, 5678232.89], [341460.65, 5678230.75], [341457.33, 5678217.0], [341452.0, 5678217.0], [341452.0, 5678218.0]]]}}, {"type": "Feature", "properties": {"id": "UUID_9583cfac-0187-4255-ae7d-9e906debee1c", "z": 134.69}, "geometry": {"type": "Polygon", "coordinates": [[[341447.0, 5678228.0], [341450.0, 5678228.0], [341451.0, 5678229.0], [341451.0, 5678227.0], [341450.0, 5678227.0], [341450.0, 5678220.0], [341449.0, 5678220.0], [341449.0, 5678222.0], [341447.0, 5678222.0], [341445.0, 5678219.0], [341442.84, 5678219.0], [341443.95, 5678222.85], [341445.72, 5678229.0], [341447.0, 5678229.0], [341447.0, 5678228.0]]]}}, {"type": "Feature", "properties": {"id": "UUID_9583cfac-0187-4255-ae7d-9e906debee1c", "z": 131.41}, "geometry": {"type": "Polygon", "coordinates": [[[341451.0, 5678230.0], [341451.0, 5678229.0], [341450.0, 5678228.0], [341447.0, 5678228.0], [341447.0, 5678229.0], [341445.72, 5678229.0], [341447.18, 5678234.08], [341452.0, 5678232.89], [341452.0, 5678230.0], [341451.0, 5678230.0]]]}}, {"type": "Feature", "properties": {"id": "UUID_a661baf7-7d58-4d02-aa5c-e3461c6dc016", "z": 170.22}, "geometry": {"type": "Polygon", "coordinates": [[[341232.0, 5679265.0], [341220.94, 5679265.0], [341221.17, 5679269.0], [341230.0, 5679269.0], [341230.0, 5679268.0], [341234.96, 5679268.0], [341234.73, 5679264.0], [341232.0, 5679264.0], [341232.0, 5679265.0]]]}}, {"type": "Feature", "properties": {"id": "UUID_a661baf7-7d58-4d02-aa5c-e3461c6dc016", "z": 168.53}, "geometry": {"type": "Polygon", "coordinates": [[[341230.0, 5679269.0], [341221.17, 5679269.0], [341221.33, 5679271.88], [341235.13, 5679271.1], [341234.96, 5679268.0], [341230.0, 5679268.0], [341230.0, 5679269.0]]]}}, {"type": "Feature", "properties": {"id": "UUID_a661baf7-7d58-4d02-aa5c-e3461c6dc016", "z": 168.44}, "geometry": {"type": "Polygon", "coordinates": [[[341226.0, 5679263.0], [341220.83, 5679263.0], [341220.9, 5679264.24], [341220.94, 5679265.0], [341232.0, 5679265.0], [341232.0, 5679264.0], [341234.73, 5679264.0], [341234.62, 5679262.0], [341226.0, 5679262.0], [341226.0, 5679263.0]]]}}, {"type": "Feature", "properties": {"id": "UUID_a661baf7-7d58-4d02-aa5c-e3461c6dc016", "z": 162.56}, "geometry": {"type": "Polygon", "coordinates": [[[341226.0, 5679262.0], [341234.62, 5679262.0], [341234.12, 5679252.89], [341226.28, 5679253.33], [341220.3, 5679253.67], [341220.83, 5679263.0], [341226.0, 5679263.0], [341226.0, 5679262.0]]]}}, {"type": "Feature", "properties": {"id": "UUID_adb6c04f-b36b-4008-9b84-806bc3725182", "z": 157.24}, "geometry": {"type": "Polygon", "coordinates": [[[340379.22, 5678756.45], [340378.78, 5678744.16], [340367.16, 5678744.58], [340367.0, 5678744.58], [340367.0, 5678756.89], [340379.22, 5678756.45]]]}}, {"type": "Feature", "properties": {"id": "UUID_adb6c04f-b36b-4008-9b84-806bc3725182", "z": 154.1}, "geometry": {"type": "Polygon", "coordinates": [[[340354.91, 5678745.02], [340355.35, 5678757.31], [340366.71, 5678756.9], [340367.0, 5678756.89], [340367.0, 5678744.58], [340354.91, 5678745.02]]]}}]}