{"type": "FeatureCollection", "attribution": "Quelle: GeoSN, dl-de/by-2-0 (LoD2, DOM1)", "crs": {"type": "name", "properties": {"name": "urn:ogc:def:crs:EPSG::25833"}}, "features": [{"type": "Feature", "properties": {"id": "UUID_576b8853-247c-422b-bb0c-9e50e5cc7b77", "z": 207.49}, "geometry": {"type": "Polygon", "coordinates": [[[343919.0, 5678841.0], [343919.0, 5678846.0], [343921.0, 5678848.0], [343925.0, 5678848.0], [343927.0, 5678846.0], [343927.0, 5678840.28], [343926.31, 5678839.88], [343921.01, 5678840.25], [343920.91, 5678838.79], [343920.0, 5678838.86], [343920.0, 5678841.0], [343919.0, 5678841.0]], [[343921.0, 5678843.0], [343922.0, 5678843.0], [343922.0, 5678842.0], [343924.0, 5678842.0], [343924.0, 5678845.0], [343922.0, 5678845.0], [343922.0, 5678844.0], [343921.0, 5678844.0], [343921.0, 5678843.0]]]}}, {"type": "Feature", "properties": {"id": "UUID_576b8853-247c-422b-bb0c-9e50e5cc7b77", "z": 201.12}, "geometry": {"type": "Polygon", "coordinates": [[[343928.0, 5678849.0], [343928.0, 5678846.0], [343931.0, 5678846.0], [343932.0, 5678845.0], [343931.0, 5678843.0], [343927.0, 5678843.0], [343927.0, 5678846.0], [343925.0, 5678848.0], [343921.0, 5678848.0], [343919.0, 5678846.0], [343919.0, 5678842.0], [343917.0, 5678844.0], [343905.0, 5678844.0], [343904.0, 5678845.0], [343904.0, 5678848.0], [343905.0, 5678849.0], [343909.0, 5678849.0], [343909.0, 5678848.0], [343919.0, 5678848.0], [343920.0, 5678849.0], [343920.0, 5678851.0], [343926.0, 5678851.0], [343928.0, 5678849.0]]]}}, {"type": "Feature", "properties": {"id": "UUID_576b8853-247c-422b-bb0c-9e50e5cc7b77", "z": 198.32}, "geometry": {"type": "Polygon", "coordinates": [[[343912.0, 5678841.0], [343912.0, 5678842.0], [343909.0, 5678842.0], [343909.0, 5678843.0], [343904.0, 5678843.0], [343903.0, 5678844.0], [343903.0, 5678850.0], [343920.0, 5678850.0], [343920.0, 5678849.0], [343919.0, 5678848.0], [343909.0, 5678848.0], [343909.0, 5678849.0], [343905.0, 5678849.0], [343904.0, 5678848.0], [343904.0, 5678845.0], [343905.0, 5678844.0], [343917.0, 5678844.0], [343919.0, 5678842.0], [343919.0, 5678841.0], [343920.0, 5678841.0], [343920.0, 5678838.86], [343917.0, 5678839.06], [343917.0, 5678841.0], [343912.0, 5678841.0]]]}}, {"type": "Feature", "properties": {"id": "UUID_576b8853-247c-422b-bb0c-9e50e5cc7b77", "z": 197.71}, "geometry": {"type": "Polygon", "coordinates": [[[343931.0, 5678843.0], [343932.0, 5678845.0], [343931.0, 5678846.0], [343928.0, 5678846.0], [343928.0, 5678849.0], [343926.0, 5678851.0], [343920.0, 5678851.0], [343923.0, 5678853.0], [343923.63, 5678854.25], [343929.0, 5678853.85], [343929.0, 5678849.0], [343932.88, 5678849.0], [343934.03, 5678847.28], [343935.0, 5678847.62], [343935.0, 5678846.87], [343934.26, 5678846.61], [343933.96, 5678842.3], [343934.22, 5678842.11], [343934.0, 5678842.0], [343934.0, 5678841.31], [343933.45, 5678841.71], [343930.61, 5678840.41], [343930.76, 5678838.7], [343929.98, 5678838.63], [343929.82, 5678840.34], [343927.37, 5678840.5], [343927.0, 5678840.28], [343927.0, 5678843.0], [343931.0, 5678843.0]]]}}, {"type": "Feature", "properties": {"id": "UUID_576b8853-247c-422b-bb0c-9e50e5cc7b77", "z": 195.32}, "geometry": {"type": "Polygon", "coordinates": [[[343914.0, 5678852.0], [343914.0, 5678851.0], [343920.0, 5678851.0], [343920.0, 5678850.0], [343903.0, 5678850.0], [343903.0, 5678844.0], [343904.0, 5678843.0], [343909.0, 5678843.0], [343909.0, 5678842.0], [343912.0, 5678842.0], [343912.0, 5678841.0], [343917.0, 5678841.0], [343917.0, 5678839.06], [343913.97, 5678839.27], [343913.82, 5678837.09], [343910.0, 5678837.36], [343910.12, 5678839.2], [343900.54, 5678839.87], [343901.51, 5678853.82], [343910.4, 5678853.2], [343911.0, 5678852.0], [343914.0, 5678852.0]]]}}, {"type": "Feature", "properties": {"id": "UUID_576b8853-247c-422b-bb0c-9e50e5cc7b77", "z": 193.61}, "geometry": {"type": "Polygon", "coordinates": [[[343920.0, 5678851.0], [343914.0, 5678851.0], [343914.0, 5678852.0], [343911.0, 5678852.0], [343910.4, 5678853.2], [343910.77, 5678853.18], [343910.93, 5678855.37], [343915.23, 5678855.07], [343915.06, 5678852.75], [343919.18, 5678852.46], [343919.49, 5678856.77], [343921.77, 5678856.61], [343921.61, 5678854.4], [343923.63, 5678854.25], [343923.0, 5678853.0], [343920.0, 5678851.0]]]}}, {"type": "Feature", "properties": {"id": "UUID_576b8853-247c-422b-bb0c-9e50e5cc7b77", "z": 191.61}, "geometry": {"type": "Polygon", "coordinates": [[[343929.0, 5678853.85], [343932.87, 5678853.57], [343932.57, 5678849.47], [343932.88, 5678849.0], [343929.0, 5678849.0], [343929.0, 5678853.85]]]}}, {"type": "Feature", "properties": {"id": "UUID_f51d4ba2-f265-4d97-8b65-b6f1d82ed737", "z": 158.91}, "geometry": {"type": "Polygon", "coordinates": [[[343673.0, 5679059.0], [343673.0, 5679057.0], [343677.0, 5679057.0], [343679.0, 5679056.0], [343680.0, 5679059.0], [343682.0, 5679059.0], [343682.0, 5679060.07], [343696.21, 5679055.09], [343687.79, 5679039.53], [343687.06, 5679040.0], [343688.0, 5679040.0], [343688.0, 5679041.0], [343686.0, 5679041.0], [343686.0, 5679040.68], [343676.68, 5679046.67], [343677.8, 5679048.02], [343678.85, 5679047.64], [343679.86, 5679050.39], [343679.79, 5679050.41], [343679.85, 5679050.48], [343675.41, 5679053.02], [343673.98, 5679052.07], [343670.81, 5679052.55], [343669.22, 5679054.61], [343669.48, 5679056.0], [343670.0, 5679056.0], [343670.0, 5679059.0], [343673.0, 5679059.0]]]}}, {"type": "Feature", "properties": {"id": "UUID_f51d4ba2-f265-4d97-8b65-b6f1d82ed737", "z": 158.26}, "geometry": {"type": "Polygon", "coordinates": [[[343655.0, 5679047.0], [343655.0, 5679048.0], [343656.0, 5679048.0], [343656.0, 5679049.0], [343657.0, 5679049.0], [343657.0, 5679050.0], [343658.0, 5679050.0], [343658.0, 5679051.94], [343669.06, 5679039.05], [343670.49, 5679040.32], [343672.39, 5679040.48], [343682.71, 5679029.85], [343676.52, 5679022.07], [343673.35, 5679025.88], [343668.74, 5679030.48], [343666.68, 5679028.89], [343652.65, 5679046.55], [343654.0, 5679047.0], [343655.0, 5679047.0]]]}}, {"type": "Feature", "properties": {"id": "UUID_f51d4ba2-f265-4d97-8b65-b6f1d82ed737", "z": 157.11}, "geometry": {"type": "Polygon", "coordinates": [[[343645.72, 5679055.28], [343645.25, 5679055.88], [343649.26, 5679062.12], [343650.92, 5679064.71], [343650.96, 5679064.77], [343655.57, 5679067.63], [343660.49, 5679067.63], [343665.12, 5679066.0], [343665.0, 5679066.0], [343665.0, 5679065.0], [343664.0, 5679065.0], [343664.0, 5679062.0], [343666.0, 5679062.0], [343666.0, 5679061.0], [343669.0, 5679061.0], [343669.0, 5679063.0], [343670.0, 5679063.0], [343670.0, 5679064.0], [343669.0, 5679064.0], [343669.0, 5679064.64], [343673.67, 5679063.0], [343673.0, 5679063.0], [343673.0, 5679062.0], [343672.0, 5679062.0], [343672.0, 5679060.0], [343675.0, 5679060.0], [343675.0, 5679059.0], [343676.0, 5679059.0], [343676.0, 5679060.0], [343677.0, 5679060.0], [343677.0, 5679061.83], [343682.0, 5679060.07], [343682.0, 5679059.0], [343680.0, 5679059.0], [343679.0, 5679056.0], [343677.0, 5679057.0], [343673.0, 5679057.0], [343673.0, 5679059.0], [343670.0, 5679059.0], [343670.0, 5679056.0], [343669.48, 5679056.0], [343669.55, 5679056.37], [343669.69, 5679057.15], [343658.26, 5679061.75], [343653.66, 5679056.99], [343654.51, 5679056.0], [343654.0, 5679056.0], [343654.0, 5679055.0], [343653.0, 5679055.0], [343653.0, 5679054.0], [343652.0, 5679054.0], [343652.0, 5679053.0], [343651.0, 5679053.0], [343651.0, 5679052.0], [343650.0, 5679052.0], [343650.0, 5679050.5], [343649.6, 5679050.4], [343645.72, 5679055.28]]]}}]}