{"type": "FeatureCollection", "attribution": "\u00a9 OpenStreetMap contributors (ODbL); tower heights: Quelle: GeoSN, dl-de/by-2-0", "crs": {"type": "name", "properties": {"name": "urn:ogc:def:crs:EPSG::25833"}}, "features": [{"type": "Feature", "properties": {"k": "bell", "h": 45.1, "size": "medium", "name": "Frauenkirche"}, "geometry": {"type": "Point", "coordinates": [341272.2, 5678147.52]}}, {"type": "Feature", "properties": {"k": "bell", "h": 40.1, "size": "medium", "name": "Klosterkirche St. Augustin"}, "geometry": {"type": "Point", "coordinates": [341573.46, 5678420.15]}}]}