{"type": "FeatureCollection", "attribution": "\u00a9 OpenStreetMap contributors (ODbL)", "crs": {"type": "name", "properties": {"name": "urn:ogc:def:crs:EPSG::25833"}}, "features": [{"type": "Feature", "properties": {"w": 2.5, "n": 9, "z": [138.54, 139.94]}, "geometry": {"type": "LineString", "coordinates": [[341474.27, 5679278.3], [341471.75, 5679281.84]]}}, {"type": "Feature", "properties": {"w": 2.5, "n": 7, "z": [142.66, 143.78]}, "geometry": {"type": "LineString", "coordinates": [[341464.63, 5679295.5], [341463.26, 5679297.9]]}}, {"type": "Feature", "properties": {"w": 2.5, "n": 3, "z": [133.12, 133.61]}, "geometry": {"type": "LineString", "coordinates": [[341005.08, 5678646.72], [340987.58, 5678647.54]]}}, {"type": "Feature", "properties": {"w": 2.5, "n": 24, "z": [146.25, 150.13]}, "geometry": {"type": "LineString", "coordinates": [[340170.84, 5678781.68], [340176.02, 5678790.86]]}}, {"type": "Feature", "properties": {"w": 2.5, "n": 11, "z": [129.34, 131.12]}, "geometry": {"type": "LineString", "coordinates": [[341090.56, 5678042.59], [341083.62, 5678039.29]]}}, {"type": "Feature", "properties": {"w": 2.5, "n": 40, "z": [141.15, 147.51]}, "geometry": {"type": "LineString", "coordinates": [[341589.41, 5679341.08], [341589.42, 5679334.2], [341591.1, 5679333.42], [341599.58, 5679335.88]]}}, {"type": "Feature", "properties": {"w": 2.5, "n": 22, "z": [131.94, 135.48]}, "geometry": {"type": "LineString", "coordinates": [[341006.88, 5678168.73], [340986.01, 5678156.54]]}}, {"type": "Feature", "properties": {"w": 2.5, "n": 7, "z": [168.05, 169.73]}, "geometry": {"type": "LineString", "coordinates": [[341478.84, 5679944.01], [341465.65, 5679945.05]]}}, {"type": "Feature", "properties": {"w": 2.5, "n": 12, "z": [152.85, 154.84]}, "geometry": {"type": "LineString", "coordinates": [[340333.06, 5678382.83], [340326.92, 5678375.55]]}}, {"type": "Feature", "properties": {"w": 2.5, "n": 18, "z": [153.33, 156.28]}, "geometry": {"type": "LineString", "coordinates": [[340341.61, 5678371.75], [340349.94, 5678376.21]]}}, {"type": "Feature", "properties": {"w": 2.5, "n": 23, "z": [124.36, 128.12]}, "geometry": {"type": "LineString", "coordinates": [[341747.54, 5678854.09], [341734.96, 5678872.88]]}}, {"type": "Feature", "properties": {"w": 2.5, "n": 14, "z": [142.44, 144.7]}, "geometry": {"type": "LineString", "coordinates": [[341949.3, 5678733.78], [341962.45, 5678734.27]]}}]}