{"type": "FeatureCollection", "attribution": "\u00a9 OpenStreetMap contributors (ODbL)", "crs": {"type": "name", "properties": {"name": "urn:ogc:def:crs:EPSG::25833"}}, "features": [{"type": "Feature", "properties": {"kind": "building", "z": 128.47, "h": 9.5}, "geometry": {"type": "Polygon", "coordinates": [[[342008.71, 5679172.43], [342017.92, 5679168.18], [342026.98, 5679187.66], [342017.79, 5679191.93], [342008.71, 5679172.43]]]}}, {"type": "Feature", "properties": {"kind": "building", "z": 130.03, "h": 5.3, "name": "T\u00fcmmler Laden- und Messebau"}, "geometry": {"type": "Polygon", "coordinates": [[[342002.67, 5679061.63], [342018.74, 5679098.76], [342006.63, 5679103.97], [341990.57, 5679066.84], [342002.67, 5679061.63]]]}}, {"type": "Feature", "properties": {"kind": "building", "z": 152.6, "h": 4.7}, "geometry": {"type": "Polygon", "coordinates": [[[341996.8, 5679926.77], [342007.42, 5679921.61], [342012.04, 5679930.55], [342001.42, 5679935.89], [341996.8, 5679926.77]]]}}, {"type": "Feature", "properties": {"kind": "building", "z": 133.13, "h": 2.7}, "geometry": {"type": "Polygon", "coordinates": [[[343205.67, 5679430.12], [343208.48, 5679428.73], [343207.19, 5679426.9], [343208.0, 5679426.33], [343203.41, 5679417.94], [343198.01, 5679415.22], [343205.67, 5679430.12]]]}}, {"type": "Feature", "properties": {"kind": "building", "z": 130.24, "h": 11.0}, "geometry": {"type": "Polygon", "coordinates": [[[342005.8, 5679037.19], [342010.33, 5679048.4], [342008.54, 5679049.12], [342009.82, 5679052.2], [342011.55, 5679051.48], [342012.61, 5679054.12], [342019.16, 5679051.47], [342016.74, 5679045.42], [342019.5, 5679044.33], [342015.04, 5679033.45], [342016.01, 5679032.98], [342012.91, 5679025.39], [342011.94, 5679025.76], [342007.48, 5679014.77], [341998.24, 5679018.61], [342002.63, 5679029.5], [342001.73, 5679029.97], [342004.83, 5679037.55], [342005.8, 5679037.19]]]}}, {"type": "Feature", "properties": {"kind": "building", "z": 174.58, "h": 8.5}, "geometry": {"type": "Polygon", "coordinates": [[[342050.99, 5678001.03], [342052.13, 5678009.88], [342061.38, 5678008.68], [342060.25, 5677999.84], [342050.99, 5678001.03]]]}}, {"type": "Feature", "properties": {"kind": "building", "z": 143.92, "h": 5.7}, "geometry": {"type": "Polygon", "coordinates": [[[343981.43, 5679606.24], [343988.09, 5679607.96], [343986.24, 5679615.05], [343979.58, 5679613.33], [343981.43, 5679606.24]]]}}, {"type": "Feature", "properties": {"kind": "building", "z": 124.86, "h": 14.3}, "geometry": {"type": "Polygon", "coordinates": [[[343739.07, 5679262.74], [343737.14, 5679255.16], [343748.89, 5679252.19], [343750.81, 5679259.77], [343739.07, 5679262.74]]]}}, {"type": "Feature", "properties": {"kind": "building", "z": 147.46, "h": 5.5}, "geometry": {"type": "Polygon", "coordinates": [[[342397.06, 5679498.19], [342402.24, 5679503.78], [342395.94, 5679509.58], [342390.77, 5679503.99], [342397.06, 5679498.19]]]}}, {"type": "Feature", "properties": {"kind": "building", "z": 146.95, "h": 12.3}, "geometry": {"type": "Polygon", "coordinates": [[[343970.39, 5679666.69], [343965.39, 5679665.58], [343962.84, 5679677.07], [343967.85, 5679678.16], [343970.39, 5679666.69]]]}}, {"type": "Feature", "properties": {"kind": "building", "z": 134.6, "h": 8.5}, "geometry": {"type": "Polygon", "coordinates": [[[343225.04, 5679377.78], [343230.36, 5679379.75], [343231.55, 5679376.56], [343232.41, 5679376.87], [343233.76, 5679373.25], [343227.57, 5679370.97], [343225.04, 5679377.78]]]}}, {"type": "Feature", "properties": {"kind": "building", "z": 194.16, "h": 7.0}, "geometry": {"type": "Polygon", "coordinates": [[[343982.71, 5678420.73], [343973.79, 5678414.77], [343977.26, 5678409.54], [343981.05, 5678412.1], [343985.52, 5678405.4], [343990.66, 5678408.91], [343982.71, 5678420.73]]]}}, {"type": "Feature", "properties": {"kind": "building", "z": 192.69, "h": 7.6}, "geometry": {"type": "Polygon", "coordinates": [[[343992.02, 5678448.94], [343998.99, 5678441.49], [344005.54, 5678447.75], [343998.36, 5678455.31], [343992.02, 5678448.94]]]}}, {"type": "Feature", "properties": {"kind": "building", "z": 134.18, "h": 4.7}, "geometry": {"type": "Polygon", "coordinates": [[[343265.9, 5679347.19], [343267.18, 5679341.03], [343275.83, 5679342.88], [343274.48, 5679349.04], [343265.9, 5679347.19]]]}}, {"type": "Feature", "properties": {"kind": "relief", "z": 198.03, "h": 18.3, "of": "UUID_576b8853-247c-422b-bb0c-9e50e5cc7b77", "grid": {"x": 343904.0, "y": 5678853.0, "res": 1.0, "cols": 29, "rows": 13, "z": [-1.0, -1.0, -1.0, -1.0, -1.0, -1.0, -1.0, -1.0, -1.0, -1.0, -1.0, -1.0, -1.0, -1.0, -1.0, -1.0, 1.4, 1.4, -1.0, -1.0, -1.0, -1.0, -1.0, -1.0, -1.0, -1.0, -1.0, -1.0, -1.0, -1.0, -1.0, -1.0, -1.0, -1.0, -1.0, -1.0, -1.0, -1.0, -1.0, -1.0, -1.0, -1.0, -1.0, -1.0, 1.4, 1.4, 1.4, 1.4, -1.0, -1.0, -1.0, -1.0, -1.0, -1.0, -1.0, -1.0, -1.0, -1.0, -1.0, -1.0, -1.0, -1.0, -1.0, -1.0, -1.0, -1.0, -1.0, -1.0, -1.0, -1.0, -1.0, -1.0, -1.0, -1.0, 1.5, 1.5, 1.5, 1.5, 1.5, -1.0, -1.0, -1.0, -1.0, -1.0, -1.0, -1.0, -1.0, -1.0, -1.0, -1.0, -1.0, -1.0, -1.0, -1.0, -1.0, -1.0, -1.0, -1.0, -1.0, -1.0, -1.0, -1.0, -1.0, 2.0, 2.0, 2.0, 2.0, 2.0, 1.9, 1.9, -1.0, -1.0, -1.0, -1.0, -1.0, -1.0, -1.0, 2.3, 2.2, 2.1, 1.9, 1.8, 1.7, 1.6, 1.5, -1.0, -1.0, -1.0, -1.0, -1.0, -1.0, 2.4, 3.0, 3.2, 3.3, 3.2, 3.0, 2.7, 2.5, 2.1, -1.0, -1.0, -1.0, -1.0, -1.0, 2.6, 3.3, 3.3, 3.2, 3.1, 3.0, 2.9, 2.8, 2.7, 2.7, 2.6, 2.6, 2.4, 2.3, 2.4, 3.0, 5.2, 7.6, 7.9, 7.8, 7.1, 4.3, 3.4, -1.0, -1.0, -1.0, -1.0, -1.0, -1.0, 2.8, 4.1, 4.3, 4.3, 4.2, 4.1, 4.0, 4.0, 3.9, 3.8, 3.7, 3.7, 3.5, 3.5, 3.7, 5.1, 8.1, 9.3, 10.2, 10.0, 9.4, 8.0, 4.5, 3.3, 2.5, 2.3, 2.2, 1.6, -1.0, 2.8, 3.4, 3.6, 3.8, 3.8, 3.9, 4.0, 4.1, 4.2, 4.3, 4.4, 4.4, 4.4, 4.5, 5.0, 8.0, 9.6, 11.6, 12.7, 12.7, 11.7, 9.5, 7.9, 4.4, 3.8, 3.6, 3.5, 2.7, 1.7, -1.0, 2.4, 2.6, 2.7, 2.7, 2.7, 2.8, 3.0, 3.1, 3.2, 3.3, 3.4, 3.6, 3.9, 4.7, 8.6, 10.9, 13.4, 16.2, 16.3, 13.3, 11.2, 8.7, 5.5, 4.8, 4.6, 4.4, 3.1, 1.7, -1.0, -1.0, -1.0, -1.0, -1.0, 1.6, 1.6, 1.8, 1.9, 2.1, 2.2, 2.3, 2.5, 3.0, 5.4, 8.8, 11.4, 12.7, 18.0, 18.3, 14.8, 11.5, 8.8, 5.8, 3.7, 3.5, 3.4, 2.7, 1.5, -1.0, -1.0, -1.0, -1.0, -1.0, -1.0, -1.0, -1.0, -1.0, -1.0, -1.0, -1.0, -1.0, -1.0, 5.4, 8.9, 11.3, 13.1, 16.4, 16.4, 13.3, 11.2, 8.7, 3.5, 2.5, 2.3, 2.2, 1.6, -1.0, -1.0, -1.0, -1.0, -1.0, -1.0, -1.0, -1.0, -1.0, -1.0, -1.0, -1.0, -1.0, -1.0, -1.0, -1.0, 8.8, 10.0, 11.8, 12.8, 12.9, 11.6, 9.9, 8.6, -1.0, -1.0, -1.0, -1.0, -1.0, -1.0, -1.0, -1.0, -1.0, -1.0, -1.0, -1.0, -1.0, -1.0, -1.0, -1.0, -1.0, -1.0, -1.0, -1.0, -1.0, -1.0, 9.2, 10.0, 10.6, 10.4, 9.7, 7.8, -1.0, -1.0, -1.0, -1.0, -1.0, -1.0, -1.0], "floor": [0.0, 0.0, 0.0, 0.0, 0.0, 0.0, 0.0, 0.0, 0.0, 0.0, 0.0, 0.0, 0.0, 0.0, 0.0, 0.0, -0.3, -0.3, 0.0, 0.0, 0.0, 0.0, 0.0, 0.0, 0.0, 0.0, 0.0, 0.0, 0.0, 0.0, 0.0, 0.0, 0.0, 0.0, 0.0, 0.0, 0.0, 0.0, 0.0, 0.0, 0.0, 0.0, 0.0, 0.0, -0.3, -0.3, -0.3, -0.3, 0.0, 0.0, 0.0, 0.0, 0.0, 0.0, 0.0, 0.0, 0.0, 0.0, 0.0, 0.0, 0.0, 0.0, 0.0, 0.0, 0.0, 0.0, 0.0, 0.0, 0.0, 0.0, 0.0, 0.0, 0.0, 0.0, -0.3, -0.3, -0.3, -0.3, -0.3, 0.0, 0.0, 0.0, 0.0, 0.0, 0.0, 0.0, 0.0, 0.0, 0.0, 0.0, 0.0, 0.0, 0.0, 0.0, 0.0, 0.0, 0.0, 0.0, 0.0, 0.0, 0.0, 0.0, 0.0, -0.3, -0.3, -0.3, -0.3, -0.3, -0.3, -0.3, 0.0, 0.0, 0.0, 0.0, 0.0, 0.0, 0.0, -0.3, -0.3, -0.3, -0.3, -0.3, -0.3, -0.3, -0.3, 0.0, 0.0, 0.0, 0.0, 0.0, 0.0, -0.3, -0.3, -0.3, -0.3, -0.3, -0.3, -0.3, -0.3, -0.3, 0.0, 0.0, 0.0, 0.0, 0.0, -0.3, -0.3, -0.3, -0.3, -0.3, -0.3, -0.3, -0.3, -0.3, -0.3, -0.3, -0.3, -0.3, -0.3, -0.3, -0.3, -0.3, -0.3, -0.3, -0.3, -0.3, -0.3, -0.3, 0.0, 0.0, 0.0, 0.0, 0.0, 0.0, -0.3, -0.3, -0.3, -0.3, -0.3, -0.3, -0.3, -0.3, -0.3, -0.3, -0.3, -0.3, -0.3, -0.3, -0.3, -0.3, -0.3, -0.3, -0.3, -0.3, -0.3, -0.3, -0.3, -0.3, -0.3, -0.3, -0.3, -0.3, 0.0, -0.3, -0.3, -0.3, -0.3, -0.3, -0.3, -0.3, -0.3, -0.3, -0.3, -0.3, -0.3, -0.3, -0.3, -0.3, -0.3, -0.3, -0.3, -0.3, -0.3, -0.3, -0.3, -0.3, -0.3, -0.3, -0.3, -0.3, -0.3, -0.3, 0.0, -0.3, -0.3, -0.3, -0.3, -0.3, -0.3, -0.3, -0.3, -0.3, -0.3, -0.3, -0.3, -0.3, -0.3, -0.3, -0.3, -0.3, -0.3, -0.3, -0.3, -0.3, -0.3, -0.3, -0.3, -0.3, -0.3, -0.3, -0.3, 0.0, 0.0, 0.0, 0.0, 0.0, -0.3, -0.3, -0.3, -0.3, -0.3, -0.3, -0.3, -0.3, -0.3, -0.3, -0.3, -0.3, -0.3, -0.3, -0.3, -0.3, -0.3, -0.3, -0.3, -0.3, -0.3, -0.3, -0.3, -0.3, 0.0, 0.0, 0.0, 0.0, 0.0, 0.0, 0.0, 0.0, 0.0, 0.0, 0.0, 0.0, 0.0, 0.0, -0.3, -0.3, -0.3, -0.3, -0.3, -0.3, -0.3, -0.3, -0.3, -0.3, -0.3, -0.3, -0.3, -0.3, 0.0, 0.0, 0.0, 0.0, 0.0, 0.0, 0.0, 0.0, 0.0, 0.0, 0.0, 0.0, 0.0, 0.0, 0.0, 0.0, -0.3, -0.3, -0.3, -0.3, -0.3, -0.3, -0.3, -0.3, 0.0, 0.0, 0.0, 0.0, 0.0, 0.0, 0.0, 0.0, 0.0, 0.0, 0.0, 0.0, 0.0, 0.0, 0.0, 0.0, 0.0, 0.0, 0.0, 0.0, 0.0, 0.0, -0.3, -0.3, -0.3, -0.3, -0.3, -0.3, 0.0, 0.0, 0.0, 0.0, 0.0, 0.0, 0.0]}}, "geometry": {"type": "Polygon", "coordinates": [[[343920.0, 5678853.0], [343920.0, 5678852.0], [343919.0, 5678852.0], [343919.0, 5678851.0], [343920.0, 5678851.0], [343920.0, 5678849.0], [343919.0, 5678849.0], [343919.0, 5678848.0], [343913.0, 5678848.0], [343913.0, 5678849.0], [343905.0, 5678849.0], [343905.0, 5678848.0], [343904.0, 5678848.0], [343904.0, 5678845.0], [343905.0, 5678845.0], [343905.0, 5678844.0], [343909.0, 5678844.0], [343909.0, 5678843.0], [343918.0, 5678843.0], [343918.0, 5678842.0], [343919.0, 5678842.0], [343920.0, 5678840.0], [343926.0, 5678840.0], [343927.0, 5678842.0], [343932.0, 5678842.0], [343932.0, 5678843.0], [343933.0, 5678843.0], [343933.0, 5678846.0], [343932.0, 5678846.0], [343932.0, 5678847.0], [343927.0, 5678847.0], [343927.0, 5678848.0], [343928.0, 5678848.0], [343927.0, 5678850.0], [343925.0, 5678850.0], [343925.0, 5678851.0], [343923.0, 5678851.0], [343922.0, 5678853.0], [343920.0, 5678853.0]]]}}]}