{"type": "FeatureCollection", "attribution": "Stra\u00dfenverkehrsz\u00e4hlung 2021 \u00a9 Freistaat Sachsen, LASuV (dl-de/by-2-0)", "crs": {"type": "name", "properties": {"name": "urn:ogc:def:crs:EPSG::25833"}}, "features": [{"type": "Feature", "properties": {"t": 10479, "f": 5240, "b": 5239, "sp": 1, "hf": 0.046, "hb": 0.046, "y": 2021, "m": "census", "n": "B 107"}, "geometry": {"type": "LineString", "coordinates": [[341522.35, 5678992.66], [341523.61, 5679011.5], [341523.34, 5679054.99], [341523.57, 5679088.0], [341522.8, 5679119.1], [341524.07, 5679209.14], [341525.92, 5679245.3], [341527.26, 5679259.91], [341531.0, 5679278.72], [341536.72, 5679295.76], [341542.07, 5679308.54], [341549.66, 5679321.79], [341562.18, 5679337.07], [341584.06, 5679358.84], [341596.68, 5679372.08], [341606.66, 5679384.49], [341616.71, 5679398.56], [341624.32, 5679412.0], [341633.27, 5679431.33], [341642.7, 5679457.32], [341646.82, 5679471.64], [341649.31, 5679482.69], [341650.05, 5679491.58], [341648.63, 5679502.41], [341647.05, 5679509.16], [341645.11, 5679516.12], [341642.13, 5679523.94], [341627.17, 5679550.45], [341618.02, 5679567.69], [341579.56, 5679635.09], [341572.88, 5679648.92], [341565.42, 5679666.32], [341556.78, 5679691.21], [341541.97, 5679737.88], [341532.98, 5679768.16], [341506.26, 5679855.44], [341493.13, 5679897.41], [341479.74, 5679942.54], [341461.92, 5680000.0]]}}, {"type": "Feature", "properties": {"t": 11727, "f": 5864, "b": 5863, "sp": 1, "hf": 0.069, "hb": 0.069, "y": 2021, "m": "census", "n": "B 107"}, "geometry": {"type": "LineString", "coordinates": [[341218.57, 5678820.76], [341223.23, 5678822.59], [341244.56, 5678823.73], [341266.9, 5678823.44], [341287.89, 5678824.22], [341312.08, 5678824.11], [341429.55, 5678822.81], [341487.93, 5678820.47], [341502.01, 5678818.78], [341513.62, 5678819.34], [341517.59, 5678822.3], [341520.22, 5678826.22], [341520.95, 5678838.58], [341521.07, 5678884.78], [341522.62, 5678958.73], [341522.35, 5678992.66]]}}, {"type": "Feature", "properties": {"t": 9651, "f": 4826, "b": 4825, "sp": 1, "hf": 0.061, "hb": 0.061, "y": 2021, "m": "census", "n": "B 107"}, "geometry": {"type": "LineString", "coordinates": [[340971.88, 5678225.61], [341025.98, 5678218.84], [341039.36, 5678218.12], [341043.6, 5678219.75], [341046.18, 5678222.05], [341050.95, 5678234.49], [341075.76, 5678370.79], [341086.97, 5678435.43], [341096.4, 5678482.92], [341102.63, 5678502.25], [341185.57, 5678731.34], [341198.37, 5678768.15], [341205.29, 5678790.85], [341213.25, 5678814.22], [341218.57, 5678820.76]]}}, {"type": "Feature", "properties": {"t": 1754, "f": 877, "b": 877, "sp": 1, "hf": 0.07, "hb": 0.07, "y": 2021, "m": "census", "n": "S 11"}, "geometry": {"type": "LineString", "coordinates": [[341973.72, 5678945.85], [341979.1, 5678949.55], [341987.38, 5678956.28], [341989.54, 5678958.55], [341994.0, 5678964.87], [342000.0, 5678975.79]]}}, {"type": "Feature", "properties": {"t": 2721, "f": 1361, "b": 1360, "sp": 1, "hf": 0.069, "hb": 0.069, "y": 2021, "m": "census", "n": "S 38"}, "geometry": {"type": "LineString", "coordinates": [[341973.72, 5678945.85], [341976.11, 5678941.19], [341976.35, 5678938.83], [341976.04, 5678936.5], [341973.43, 5678930.32], [341966.65, 5678916.52], [341962.9, 5678906.78], [341960.57, 5678898.84], [341958.93, 5678891.64], [341957.65, 5678881.46], [341957.61, 5678871.12], [341960.86, 5678841.66], [341961.01, 5678795.39], [341963.09, 5678743.36], [341962.22, 5678732.62], [341960.51, 5678726.43], [341956.38, 5678717.86], [341950.96, 5678710.65], [341933.94, 5678693.49], [341929.82, 5678688.81], [341925.47, 5678682.93], [341922.81, 5678678.54], [341919.41, 5678671.74], [341916.76, 5678663.86], [341915.76, 5678658.81], [341915.18, 5678649.44], [341915.93, 5678642.8], [341916.84, 5678638.9], [341918.09, 5678634.34], [341920.61, 5678627.8], [341922.58, 5678624.1], [341926.97, 5678617.51], [341932.63, 5678610.25], [341936.25, 5678606.51], [341953.86, 5678592.26], [341969.59, 5678581.73], [341995.39, 5678565.43], [342000.0, 5678562.01]]}}, {"type": "Feature", "properties": {"t": 6600, "f": 3300, "b": 3300, "sp": 1, "hf": 0.042, "hb": 0.042, "y": 2021, "m": "census", "n": "S 11"}, "geometry": {"type": "LineString", "coordinates": [[340291.22, 5678000.0], [340340.29, 5678004.97], [340472.69, 5678017.08], [340579.63, 5678027.97], [340616.17, 5678032.52], [340640.68, 5678038.18], [340649.31, 5678040.91], [340663.93, 5678046.11], [340672.72, 5678050.06], [340683.72, 5678056.76], [340804.42, 5678141.56], [340835.43, 5678164.59], [340873.51, 5678192.29], [340900.72, 5678210.99], [340912.13, 5678218.01], [340923.89, 5678222.72], [340930.56, 5678224.42], [340936.0, 5678225.39], [340948.8, 5678226.49], [340956.6, 5678226.61], [340971.88, 5678225.61]]}}, {"type": "Feature", "properties": {"t": 7060, "f": 3530, "b": 3530, "sp": 1, "hf": 0.056, "hb": 0.056, "y": 2021, "m": "census", "n": "S 11"}, "geometry": {"type": "LineString", "coordinates": [[341973.72, 5678945.85], [341968.94, 5678949.69], [341961.73, 5678952.24], [341954.9, 5678953.64], [341948.74, 5678954.46], [341863.89, 5678956.51], [341809.55, 5678958.59], [341723.52, 5678962.8], [341703.84, 5678964.01], [341688.54, 5678965.99], [341676.38, 5678968.74], [341657.67, 5678975.53], [341634.76, 5678984.36], [341612.79, 5678989.94], [341594.97, 5678992.32], [341576.81, 5678993.26], [341523.35, 5678992.67]]}}, {"type": "Feature", "properties": {"t": 4408, "f": 2204, "b": 2204, "sp": 1, "hf": 0.069, "hb": 0.069, "y": 2021, "m": "census", "n": "B 107"}, "geometry": {"type": "LineString", "coordinates": [[341028.84, 5678000.0], [341000.92, 5678088.49], [340996.02, 5678109.05], [340990.18, 5678136.58], [340985.68, 5678159.6], [340975.4, 5678202.82], [340974.01, 5678213.98], [340971.88, 5678225.61]]}}]}