{"type": "FeatureCollection", "attribution": "\u00a9 OpenStreetMap contributors (ODbL)", "crs": {"type": "name", "properties": {"name": "urn:ogc:def:crs:EPSG::25833"}}, "features": [{"type": "Feature", "properties": {"kind": "city_wall", "h": 6.0}, "geometry": {"type": "LineString", "coordinates": [[341372.19, 5678000.0], [341387.82, 5678011.2], [341399.24, 5678020.58], [341413.31, 5678031.97], [341424.76, 5678044.6], [341433.89, 5678055.74], [341439.6, 5678067.87], [341448.67, 5678090.02], [341463.13, 5678120.12], [341475.55, 5678134.8], [341486.96, 5678157.46], [341486.95, 5678161.48], [341484.56, 5678164.22], [341493.59, 5678183.97], [341502.17, 5678208.97], [341518.86, 5678248.51], [341539.54, 5678293.62], [341565.0, 5678362.0], [341566.16, 5678363.47], [341567.13, 5678365.16], [341567.12, 5678366.86], [341567.35, 5678368.44]]}}, {"type": "Feature", "properties": {"kind": "wall", "h": 1.5}, "geometry": {"type": "LineString", "coordinates": [[341335.17, 5678007.36], [341342.65, 5678000.0]]}}, {"type": "Feature", "properties": {"kind": "city_wall", "h": 6.0}, "geometry": {"type": "LineString", "coordinates": [[341674.61, 5678664.38], [341675.27, 5678665.78], [341679.08, 5678673.77], [341677.47, 5678675.52], [341681.78, 5678684.41], [341683.04, 5678684.34], [341683.88, 5678686.01], [341682.95, 5678687.49], [341683.63, 5678696.04]]}}, {"type": "Feature", "properties": {"kind": "wall", "h": 1.5}, "geometry": {"type": "LineString", "coordinates": [[341421.4, 5678671.52], [341410.88, 5678675.16]]}}, {"type": "Feature", "properties": {"kind": "city_wall", "h": 6.0}, "geometry": {"type": "LineString", "coordinates": [[341706.05, 5678743.6], [341707.72, 5678749.29], [341710.28, 5678748.44], [341716.54, 5678746.65]]}}, {"type": "Feature", "properties": {"kind": "wall", "h": 1.5}, "geometry": {"type": "LineString", "coordinates": [[341657.97, 5678760.42], [341660.11, 5678765.69], [341684.71, 5678757.66]]}}, {"type": "Feature", "properties": {"kind": "wall", "h": 0.6}, "geometry": {"type": "LineString", "coordinates": [[341462.04, 5678608.95], [341462.13, 5678609.68], [341462.04, 5678610.42], [341461.76, 5678611.09], [341461.33, 5678611.7], [341460.76, 5678612.17], [341460.09, 5678612.48], [341459.36, 5678612.62], [341458.62, 5678612.57], [341457.92, 5678612.34], [341457.29, 5678611.95], [341456.78, 5678611.4], [341456.43, 5678610.76], [341456.25, 5678610.04], [341456.25, 5678609.31], [341456.43, 5678608.59], [341456.79, 5678607.94], [341457.3, 5678607.4], [341457.93, 5678607.01], [341458.63, 5678606.78], [341459.37, 5678606.74], [341460.1, 5678606.87], [341460.76, 5678607.2], [341461.34, 5678607.67], [341461.77, 5678608.26], [341462.04, 5678608.95]]}}, {"type": "Feature", "properties": {"kind": "city_wall", "h": 3.0}, "geometry": {"type": "LineString", "coordinates": [[341775.03, 5679241.07], [341772.05, 5679242.35], [341769.57, 5679243.45], [341750.83, 5679270.49]]}}, {"type": "Feature", "properties": {"kind": "city_wall", "h": 3.0}, "geometry": {"type": "LineString", "coordinates": [[341756.47, 5678969.48], [341761.1, 5678974.0], [341763.73, 5678976.68], [341771.86, 5678976.64], [341778.04, 5679033.84], [341770.86, 5679058.73], [341731.72, 5679061.97], [341734.94, 5679102.82], [341735.07, 5679104.4], [341738.69, 5679111.54], [341744.31, 5679117.25], [341751.68, 5679120.64], [341764.25, 5679123.65], [341778.02, 5679128.65], [341783.38, 5679136.42], [341790.3, 5679195.93], [341794.08, 5679224.11], [341775.03, 5679241.07]]}}, {"type": "Feature", "properties": {"kind": "city_wall", "h": 3.0}, "geometry": {"type": "LineString", "coordinates": [[341699.1, 5678799.03], [341701.44, 5678809.7], [341705.05, 5678822.24], [341710.45, 5678840.76], [341719.85, 5678872.14], [341724.64, 5678886.75], [341727.9, 5678895.37], [341728.52, 5678896.83], [341729.8, 5678899.82], [341732.41, 5678903.76], [341735.82, 5678907.6], [341745.41, 5678916.21], [341749.35, 5678920.41], [341752.82, 5678926.12], [341754.87, 5678930.26], [341757.48, 5678942.27], [341759.08, 5678954.55]]}}, {"type": "Feature", "properties": {"kind": "city_wall", "h": 6.0}, "geometry": {"type": "LineString", "coordinates": [[341573.9, 5678390.56], [341574.97, 5678391.38], [341575.02, 5678392.9], [341574.87, 5678394.07], [341573.93, 5678395.13], [341572.6, 5678395.96], [341572.21, 5678402.86], [341572.41, 5678404.06], [341575.35, 5678409.54]]}}, {"type": "Feature", "properties": {"kind": "wall", "h": 1.5}, "geometry": {"type": "LineString", "coordinates": [[341404.53, 5678392.73], [341415.93, 5678385.62]]}}, {"type": "Feature", "properties": {"kind": "wall", "h": 1.5}, "geometry": {"type": "LineString", "coordinates": [[341417.39, 5678402.55], [341426.46, 5678396.45]]}}, {"type": "Feature", "properties": {"kind": "wall", "h": 1.5}, "geometry": {"type": "LineString", "coordinates": [[341455.93, 5678412.22], [341450.89, 5678406.17]]}}, {"type": "Feature", "properties": {"kind": "wall", "h": 1.5}, "geometry": {"type": "LineString", "coordinates": [[341417.71, 5678416.14], [341420.79, 5678414.13], [341443.75, 5678397.24], [341440.07, 5678392.51]]}}, {"type": "Feature", "properties": {"kind": "wall", "h": 1.5}, "geometry": {"type": "LineString", "coordinates": [[341432.07, 5678420.83], [341438.4, 5678417.8], [341434.87, 5678409.74], [341438.09, 5678407.83]]}}, {"type": "Feature", "properties": {"kind": "city_wall", "h": 6.0}, "geometry": {"type": "LineString", "coordinates": [[341591.54, 5678421.48], [341600.92, 5678441.11]]}}, {"type": "Feature", "properties": {"kind": "city_wall", "h": 6.0}, "geometry": {"type": "LineString", "coordinates": [[341630.82, 5678554.9], [341648.86, 5678598.07]]}}, {"type": "Feature", "properties": {"kind": "wall", "h": 1.5}, "geometry": {"type": "LineString", "coordinates": [[341304.43, 5679953.02], [341299.52, 5679956.9], [341286.45, 5679967.23]]}}, {"type": "Feature", "properties": {"kind": "wall", "h": 1.5}, "geometry": {"type": "LineString", "coordinates": [[341295.67, 5679950.32], [341301.85, 5679943.25]]}}, {"type": "Feature", "properties": {"kind": "embankment", "h": 2.5}, "geometry": {"type": "LineString", "coordinates": [[341918.78, 5678839.84], [341909.8, 5678837.49], [341901.34, 5678832.01], [341892.36, 5678821.4], [341887.71, 5678809.61], [341884.52, 5678793.85]]}}, {"type": "Feature", "properties": {"kind": "city_wall", "h": 6.0}, "geometry": {"type": "LineString", "coordinates": [[341717.85, 5678746.29], [341726.0, 5678777.96]]}}, {"type": "Feature", "properties": {"kind": "wall", "h": 1.5}, "geometry": {"type": "LineString", "coordinates": [[341707.72, 5678749.29], [341686.91, 5678757.09]]}}, {"type": "Feature", "properties": {"kind": "wall", "h": 1.5}, "geometry": {"type": "LineString", "coordinates": [[340748.7, 5678025.99], [340766.69, 5678000.0]]}}, {"type": "Feature", "properties": {"kind": "wall", "h": 1.5}, "geometry": {"type": "LineString", "coordinates": [[341365.57, 5678045.62], [341377.66, 5678037.87]]}}, {"type": "Feature", "properties": {"kind": "wall", "h": 1.5}, "geometry": {"type": "LineString", "coordinates": [[341247.55, 5678411.24], [341245.02, 5678405.55], [341241.94, 5678398.62]]}}, {"type": "Feature", "properties": {"kind": "embankment", "h": 2.5}, "geometry": {"type": "LineString", "coordinates": [[341712.02, 5678937.6], [341713.67, 5678939.15], [341724.37, 5678940.56], [341738.21, 5678939.98]]}}, {"type": "Feature", "properties": {"kind": "wall", "h": 1.5}, "geometry": {"type": "LineString", "coordinates": [[341860.46, 5678741.27], [341863.81, 5678738.77], [341867.62, 5678735.61], [341869.54, 5678733.77], [341870.07, 5678732.25]]}}, {"type": "Feature", "properties": {"kind": "wall", "h": 1.5}, "geometry": {"type": "LineString", "coordinates": [[341695.81, 5678787.12], [341722.31, 5678779.14], [341713.57, 5678748.23]]}}, {"type": "Feature", "properties": {"kind": "wall", "h": 1.5}, "geometry": {"type": "LineString", "coordinates": [[341948.59, 5678731.05], [341948.22, 5678729.38], [341949.22, 5678726.1], [341948.13, 5678724.26], [341944.64, 5678721.54], [341942.13, 5678721.73]]}}, {"type": "Feature", "properties": {"kind": "wall", "h": 1.5}, "geometry": {"type": "LineString", "coordinates": [[341670.44, 5678749.95], [341683.1, 5678746.21], [341694.16, 5678743.37], [341695.2, 5678746.56], [341682.03, 5678749.37], [341681.85, 5678748.52], [341670.89, 5678752.12], [341670.44, 5678749.95]]}}, {"type": "Feature", "properties": {"kind": "wall", "h": 1.5}, "geometry": {"type": "LineString", "coordinates": [[341676.4, 5678698.37], [341676.6, 5678700.0], [341675.24, 5678700.21], [341675.75, 5678701.88], [341675.11, 5678702.02], [341661.14, 5678705.13], [341660.8, 5678703.3], [341669.22, 5678701.28], [341676.4, 5678698.37]]}}, {"type": "Feature", "properties": {"kind": "fence", "type": "rail", "h": 1.0}, "geometry": {"type": "LineString", "coordinates": [[340412.18, 5678000.0], [340412.23, 5678003.42]]}}, {"type": "Feature", "properties": {"kind": "fence", "type": "railing", "h": 1.2}, "geometry": {"type": "LineString", "coordinates": [[341285.06, 5680000.0], [341261.15, 5679967.55], [341257.59, 5679962.72], [341247.35, 5679948.82], [341239.6, 5679938.29], [341237.21, 5679935.04]]}}, {"type": "Feature", "properties": {"kind": "fence", "type": "railing", "h": 1.2}, "geometry": {"type": "LineString", "coordinates": [[341338.65, 5680000.0], [341339.15, 5679999.63]]}}, {"type": "Feature", "properties": {"kind": "fence", "type": "railing", "h": 1.2}, "geometry": {"type": "LineString", "coordinates": [[341347.58, 5679995.69], [341364.78, 5679997.99], [341364.18, 5680000.0]]}}, {"type": "Feature", "properties": {"kind": "fence", "type": "railing", "h": 1.2}, "geometry": {"type": "LineString", "coordinates": [[341339.04, 5680000.0], [341339.15, 5679999.63], [341340.87, 5679994.2]]}}, {"type": "Feature", "properties": {"kind": "fence", "type": "railing", "h": 1.2}, "geometry": {"type": "LineString", "coordinates": [[341370.97, 5679974.37], [341363.97, 5679972.44], [341332.99, 5679963.91], [341325.11, 5679969.45], [341313.2, 5679977.83]]}}, {"type": "Feature", "properties": {"kind": "fence", "type": "railing", "h": 1.2}, "geometry": {"type": "LineString", "coordinates": [[341325.11, 5679969.45], [341340.33, 5679992.96]]}}, {"type": "Feature", "properties": {"kind": "fence", "type": "railing", "h": 1.2}, "geometry": {"type": "LineString", "coordinates": [[341325.11, 5679969.45], [341319.04, 5679960.62], [341315.62, 5679955.74]]}}, {"type": "Feature", "properties": {"kind": "fence", "type": "railing", "h": 1.2}, "geometry": {"type": "LineString", "coordinates": [[341332.99, 5679963.91], [341337.63, 5679946.06], [341339.16, 5679940.21], [341340.58, 5679934.71], [341345.92, 5679914.19]]}}, {"type": "Feature", "properties": {"kind": "fence", "type": "railing", "h": 1.2}, "geometry": {"type": "LineString", "coordinates": [[341345.92, 5679914.19], [341379.25, 5679923.68], [341382.54, 5679929.16], [341380.76, 5679936.06], [341375.19, 5679957.72], [341373.74, 5679957.55], [341372.97, 5679961.08], [341372.75, 5679962.09], [341373.86, 5679963.34], [341370.97, 5679974.37], [341364.78, 5679997.99]]}}, {"type": "Feature", "properties": {"kind": "fence", "type": "railing", "h": 1.2}, "geometry": {"type": "LineString", "coordinates": [[341291.78, 5679943.63], [341281.67, 5679923.88], [341272.34, 5679906.28]]}}, {"type": "Feature", "properties": {"kind": "fence", "type": "railing", "h": 1.2}, "geometry": {"type": "LineString", "coordinates": [[341237.21, 5679935.04], [341234.75, 5679931.27], [341235.85, 5679926.41], [341272.34, 5679906.28]]}}, {"type": "Feature", "properties": {"kind": "fence", "type": "railing", "h": 1.2}, "geometry": {"type": "LineString", "coordinates": [[341247.35, 5679948.82], [341281.67, 5679923.88]]}}, {"type": "Feature", "properties": {"kind": "fence", "type": "railing", "h": 1.2}, "geometry": {"type": "LineString", "coordinates": [[341274.97, 5679957.68], [341261.15, 5679967.55]]}}, {"type": "Feature", "properties": {"kind": "fence", "type": "railing", "h": 1.2}, "geometry": {"type": "LineString", "coordinates": [[341272.34, 5679906.28], [341290.83, 5679896.75], [341300.61, 5679891.7], [341302.14, 5679890.91], [341315.61, 5679883.96], [341321.4, 5679885.27], [341333.03, 5679909.83], [341323.98, 5679919.64], [341313.32, 5679931.21], [341305.21, 5679940.01]]}}, {"type": "Feature", "properties": {"kind": "fence", "type": "railing", "h": 1.2}, "geometry": {"type": "LineString", "coordinates": [[341333.03, 5679909.83], [341336.13, 5679911.58], [341336.6, 5679912.98], [341340.97, 5679914.12], [341341.65, 5679913.25], [341345.92, 5679914.19]]}}, {"type": "Feature", "properties": {"kind": "fence", "type": "railing", "h": 1.2}, "geometry": {"type": "LineString", "coordinates": [[341293.43, 5679979.1], [341296.12, 5679977.16], [341298.46, 5679975.47], [341319.04, 5679960.62]]}}, {"type": "Feature", "properties": {"kind": "fence", "type": "railing", "h": 1.2}, "geometry": {"type": "LineString", "coordinates": [[341369.48, 5680000.0], [341372.84, 5679988.52], [341378.18, 5679967.56], [341379.55, 5679961.73], [341380.9, 5679961.59], [341382.5, 5679955.75], [341381.42, 5679954.24], [341387.86, 5679930.78], [341393.1, 5679927.3], [341428.68, 5679937.41]]}}, {"type": "Feature", "properties": {"kind": "fence", "type": "railing", "h": 1.2}, "geometry": {"type": "LineString", "coordinates": [[341274.67, 5680000.0], [341269.4, 5679992.7], [341265.55, 5679991.76], [341254.52, 5680000.0]]}}, {"type": "Feature", "properties": {"kind": "fence", "type": "railing", "h": 1.2}, "geometry": {"type": "LineString", "coordinates": [[341243.99, 5680000.0], [341261.88, 5679986.76], [341262.84, 5679983.56], [341253.13, 5679970.22], [341251.61, 5679968.13], [341243.22, 5679956.63], [341232.01, 5679941.24], [341227.5, 5679940.49], [341204.1, 5679960.54], [341191.05, 5679971.72], [341177.72, 5679983.14], [341165.06, 5679993.99], [341157.83, 5680000.0]]}}, {"type": "Feature", "properties": {"kind": "fence", "type": "railing", "h": 1.2}, "geometry": {"type": "LineString", "coordinates": [[341232.45, 5680000.0], [341225.8, 5679990.75], [341221.95, 5679985.39], [341204.1, 5679960.54]]}}, {"type": "Feature", "properties": {"kind": "fence", "type": "railing", "h": 1.2}, "geometry": {"type": "LineString", "coordinates": [[341253.13, 5679970.22], [341225.8, 5679990.75]]}}, {"type": "Feature", "properties": {"kind": "fence", "type": "railing", "h": 1.2}, "geometry": {"type": "LineString", "coordinates": [[341169.49, 5680000.0], [341165.06, 5679993.99]]}}, {"type": "Feature", "properties": {"kind": "fence", "type": "railing", "h": 1.2}, "geometry": {"type": "LineString", "coordinates": [[341190.29, 5680000.0], [341177.72, 5679983.14]]}}, {"type": "Feature", "properties": {"kind": "fence", "type": "railing", "h": 1.2}, "geometry": {"type": "LineString", "coordinates": [[341212.0, 5680000.0], [341209.24, 5679996.23], [341191.05, 5679971.72]]}}, {"type": "Feature", "properties": {"kind": "fence", "type": "railing", "h": 1.2}, "geometry": {"type": "LineString", "coordinates": [[340811.15, 5679320.46], [340795.01, 5679325.63], [340790.31, 5679325.21], [340783.02, 5679322.74], [340778.3, 5679319.94], [340777.06, 5679316.62], [340779.34, 5679303.78], [340781.48, 5679300.36], [340788.99, 5679294.61], [340790.67, 5679291.38], [340794.62, 5679282.85], [340798.96, 5679277.94]]}}, {"type": "Feature", "properties": {"kind": "fence", "type": "railing", "h": 1.2}, "geometry": {"type": "LineString", "coordinates": [[341214.56, 5679537.09], [341252.05, 5679541.92]]}}, {"type": "Feature", "properties": {"kind": "fence", "type": "railing", "h": 1.2}, "geometry": {"type": "LineString", "coordinates": [[341214.56, 5679537.09], [341263.57, 5679673.67]]}}, {"type": "Feature", "properties": {"kind": "fence", "type": "railing", "h": 1.2}, "geometry": {"type": "LineString", "coordinates": [[341263.41, 5679675.48], [341140.09, 5679736.11]]}}, {"type": "Feature", "properties": {"kind": "fence", "type": "railing", "h": 1.2}, "geometry": {"type": "LineString", "coordinates": [[341139.44, 5679733.45], [341188.36, 5679709.15], [341142.2, 5679583.72], [341098.67, 5679606.01]]}}, {"type": "Feature", "properties": {"kind": "fence", "type": "railing", "h": 1.2}, "geometry": {"type": "LineString", "coordinates": [[341144.77, 5679582.77], [341171.59, 5679570.6], [341217.45, 5679694.2], [341190.92, 5679707.84], [341144.77, 5679582.77]]}}, {"type": "Feature", "properties": {"kind": "fence", "type": "railing", "h": 1.2}, "geometry": {"type": "LineString", "coordinates": [[341174.02, 5679569.17], [341185.96, 5679563.62], [341179.78, 5679547.67], [341194.28, 5679541.05], [341205.07, 5679569.85], [341211.65, 5679587.41], [341246.43, 5679680.22], [341233.19, 5679686.56], [341219.39, 5679693.15], [341208.08, 5679662.23], [341185.11, 5679599.48], [341178.99, 5679582.75], [341174.02, 5679569.17]]}}, {"type": "Feature", "properties": {"kind": "fence", "type": "railing", "h": 1.2}, "geometry": {"type": "LineString", "coordinates": [[341199.84, 5679548.65], [341214.01, 5679543.15], [341260.54, 5679672.76], [341248.62, 5679678.93], [341199.84, 5679548.65]]}}, {"type": "Feature", "properties": {"kind": "fence", "type": "railing", "h": 1.2}, "geometry": {"type": "LineString", "coordinates": [[341156.55, 5679508.1], [341165.96, 5679530.73], [341172.58, 5679546.65], [341185.87, 5679540.36], [341196.58, 5679535.3], [341195.94, 5679521.76]]}}, {"type": "Feature", "properties": {"kind": "fence", "type": "railing", "h": 1.2}, "geometry": {"type": "LineString", "coordinates": [[341185.87, 5679540.36], [341181.38, 5679527.18], [341177.33, 5679515.3]]}}, {"type": "Feature", "properties": {"kind": "fence", "type": "railing", "h": 1.2}, "geometry": {"type": "LineString", "coordinates": [[341165.96, 5679530.73], [341181.38, 5679527.18]]}}, {"type": "Feature", "properties": {"kind": "fence", "type": "railing", "h": 1.2}, "geometry": {"type": "LineString", "coordinates": [[341185.11, 5679599.48], [341197.92, 5679593.66], [341211.65, 5679587.41]]}}, {"type": "Feature", "properties": {"kind": "fence", "type": "railing", "h": 1.2}, "geometry": {"type": "LineString", "coordinates": [[341178.99, 5679582.75], [341205.07, 5679569.85]]}}, {"type": "Feature", "properties": {"kind": "fence", "type": "railing", "h": 1.2}, "geometry": {"type": "LineString", "coordinates": [[341197.92, 5679593.66], [341221.56, 5679655.91], [341233.19, 5679686.56]]}}, {"type": "Feature", "properties": {"kind": "fence", "type": "railing", "h": 1.2}, "geometry": {"type": "LineString", "coordinates": [[341208.08, 5679662.23], [341221.56, 5679655.91]]}}, {"type": "Feature", "properties": {"kind": "fence", "type": "railing", "h": 1.2}, "geometry": {"type": "LineString", "coordinates": [[340051.22, 5678540.81], [340050.25, 5678527.16], [340018.68, 5678530.21], [340016.72, 5678530.41]]}}, {"type": "Feature", "properties": {"kind": "fence", "type": "railing", "h": 1.2}, "geometry": {"type": "LineString", "coordinates": [[341195.43, 5679782.58], [341206.31, 5679804.83], [341215.96, 5679824.57], [341225.78, 5679844.66], [341235.81, 5679865.17], [341246.23, 5679886.47], [341257.17, 5679908.86]]}}, {"type": "Feature", "properties": {"kind": "fence", "type": "railing", "h": 1.2}, "geometry": {"type": "LineString", "coordinates": [[341223.38, 5679898.71], [341246.23, 5679886.47], [341276.14, 5679870.44]]}}, {"type": "Feature", "properties": {"kind": "fence", "type": "railing", "h": 1.2}, "geometry": {"type": "LineString", "coordinates": [[341235.81, 5679865.17], [341251.04, 5679856.45]]}}, {"type": "Feature", "properties": {"kind": "fence", "type": "railing", "h": 1.2}, "geometry": {"type": "LineString", "coordinates": [[341191.83, 5679862.78], [341225.78, 5679844.66], [341258.23, 5679826.74]]}}, {"type": "Feature", "properties": {"kind": "fence", "type": "railing", "h": 1.2}, "geometry": {"type": "LineString", "coordinates": [[341183.55, 5679842.39], [341194.51, 5679836.37], [341199.24, 5679833.77], [341215.96, 5679824.57], [341237.35, 5679813.34], [341250.31, 5679806.53]]}}, {"type": "Feature", "properties": {"kind": "fence", "type": "railing", "h": 1.2}, "geometry": {"type": "LineString", "coordinates": [[341206.31, 5679804.83], [341225.0, 5679794.89], [341242.01, 5679785.84]]}}, {"type": "Feature", "properties": {"kind": "fence", "type": "railing", "h": 1.2}, "geometry": {"type": "LineString", "coordinates": [[341195.43, 5679782.58], [341205.92, 5679776.89], [341211.64, 5679773.46]]}}, {"type": "Feature", "properties": {"kind": "fence", "type": "railing", "h": 1.2}, "geometry": {"type": "LineString", "coordinates": [[341275.78, 5679727.01], [341244.28, 5679739.28], [341242.75, 5679739.87], [341228.89, 5679745.28]]}}, {"type": "Feature", "properties": {"kind": "fence", "type": "railing", "h": 1.2}, "geometry": {"type": "LineString", "coordinates": [[341240.67, 5679768.92], [341278.87, 5679752.85]]}}, {"type": "Feature", "properties": {"kind": "fence", "type": "railing", "h": 1.2}, "geometry": {"type": "LineString", "coordinates": [[341278.87, 5679752.85], [341284.9, 5679782.78], [341274.13, 5679787.27], [341252.66, 5679796.2]]}}, {"type": "Feature", "properties": {"kind": "fence", "type": "railing", "h": 1.2}, "geometry": {"type": "LineString", "coordinates": [[341262.53, 5679821.32], [341270.37, 5679818.17], [341292.32, 5679809.38], [341300.43, 5679832.72], [341286.48, 5679837.86]]}}, {"type": "Feature", "properties": {"kind": "fence", "type": "railing", "h": 1.2}, "geometry": {"type": "LineString", "coordinates": [[341281.0, 5679867.27], [341309.27, 5679854.94], [341319.66, 5679874.43], [341309.74, 5679880.67], [341292.73, 5679889.67], [341290.86, 5679889.3], [341289.32, 5679888.03], [341281.0, 5679867.27]]}}, {"type": "Feature", "properties": {"kind": "fence", "type": "railing", "h": 1.2}, "geometry": {"type": "LineString", "coordinates": [[341160.23, 5679800.99], [341174.5, 5679793.62], [341183.4, 5679789.01], [341175.46, 5679771.63], [341167.32, 5679753.82], [341148.6, 5679763.18], [341147.25, 5679765.0], [341147.04, 5679767.62], [341150.54, 5679777.51]]}}, {"type": "Feature", "properties": {"kind": "fence", "type": "railing", "h": 1.2}, "geometry": {"type": "LineString", "coordinates": [[341166.6, 5679776.62], [341175.46, 5679771.63]]}}, {"type": "Feature", "properties": {"kind": "fence", "type": "railing", "h": 1.2}, "geometry": {"type": "LineString", "coordinates": [[341197.96, 5679760.36], [341205.92, 5679776.89]]}}, {"type": "Feature", "properties": {"kind": "fence", "type": "railing", "h": 1.2}, "geometry": {"type": "LineString", "coordinates": [[341194.12, 5679752.31], [341189.35, 5679742.39], [341210.76, 5679731.64], [341213.28, 5679731.37], [341215.76, 5679732.78], [341217.51, 5679734.98], [341226.94, 5679753.78], [341231.49, 5679762.86], [341226.46, 5679765.5], [341219.75, 5679769.03]]}}, {"type": "Feature", "properties": {"kind": "fence", "type": "railing", "h": 1.2}, "geometry": {"type": "LineString", "coordinates": [[341219.78, 5679727.92], [341219.73, 5679725.11], [341220.64, 5679723.05], [341221.77, 5679721.46], [341246.37, 5679709.29], [341274.43, 5679709.71], [341275.78, 5679727.01]]}}, {"type": "Feature", "properties": {"kind": "fence", "type": "railing", "h": 1.2}, "geometry": {"type": "LineString", "coordinates": [[341314.14, 5679745.21], [341277.94, 5679745.45], [341278.87, 5679752.85]]}}, {"type": "Feature", "properties": {"kind": "fence", "type": "railing", "h": 1.2}, "geometry": {"type": "LineString", "coordinates": [[341277.94, 5679745.45], [341275.78, 5679727.01]]}}, {"type": "Feature", "properties": {"kind": "fence", "type": "railing", "h": 1.2}, "geometry": {"type": "LineString", "coordinates": [[341292.32, 5679809.38], [341292.03, 5679808.53], [341286.65, 5679791.02], [341284.9, 5679782.78]]}}, {"type": "Feature", "properties": {"kind": "fence", "type": "railing", "h": 1.2}, "geometry": {"type": "LineString", "coordinates": [[341337.63, 5679108.61], [341320.66, 5679096.69]]}}, {"type": "Feature", "properties": {"kind": "fence", "type": "railing", "h": 1.2}, "geometry": {"type": "LineString", "coordinates": [[341713.05, 5678955.34], [341740.05, 5678954.24], [341739.47, 5678945.59], [341739.18, 5678943.52], [341712.24, 5678944.79], [341712.44, 5678946.67], [341712.65, 5678949.61], [341713.05, 5678955.34]]}}, {"type": "Feature", "properties": {"kind": "fence", "type": "railing", "h": 1.2}, "geometry": {"type": "LineString", "coordinates": [[341948.59, 5678731.05], [341950.74, 5678731.12], [341951.97, 5678731.02], [341952.67, 5678729.3], [341949.77, 5678722.06], [341942.16, 5678711.16], [341931.6, 5678702.11], [341930.55, 5678704.7], [341932.26, 5678709.64], [341937.13, 5678719.8], [341939.01, 5678723.76], [341940.02, 5678727.17], [341940.24, 5678730.02]]}}, {"type": "Feature", "properties": {"kind": "fence", "type": "railing", "h": 1.2}, "geometry": {"type": "LineString", "coordinates": [[341881.63, 5678733.25], [341882.03, 5678731.55], [341884.95, 5678730.81], [341889.31, 5678732.15], [341898.76, 5678738.05], [341915.98, 5678746.35], [341920.7, 5678745.86], [341925.32, 5678743.77], [341932.55, 5678739.92], [341936.23, 5678739.09], [341937.82, 5678740.01]]}}, {"type": "Feature", "properties": {"kind": "fence", "type": "railing", "h": 1.2}, "geometry": {"type": "LineString", "coordinates": [[341640.88, 5679266.63], [341640.59, 5679262.8], [341646.34, 5679262.28], [341647.21, 5679269.18]]}}, {"type": "Feature", "properties": {"kind": "fence", "type": "railing", "h": 1.2}, "geometry": {"type": "LineString", "coordinates": [[341862.96, 5678748.6], [341865.97, 5678748.33], [341869.24, 5678749.07], [341872.56, 5678753.31], [341873.21, 5678757.37], [341874.97, 5678766.2], [341875.73, 5678774.09], [341876.29, 5678783.93], [341876.57, 5678788.59]]}}, {"type": "Feature", "properties": {"kind": "fence", "type": "railing", "h": 1.2}, "geometry": {"type": "LineString", "coordinates": [[341881.01, 5678759.66], [341884.08, 5678766.24], [341884.88, 5678775.5], [341886.84, 5678788.59], [341889.25, 5678803.38], [341891.77, 5678813.48], [341895.08, 5678821.62]]}}, {"type": "Feature", "properties": {"kind": "fence", "type": "railing", "h": 1.2}, "geometry": {"type": "LineString", "coordinates": [[340902.42, 5679420.81], [340925.73, 5679378.06], [340943.99, 5679360.8], [340978.22, 5679340.92], [341007.56, 5679323.0], [341051.52, 5679298.04], [341108.53, 5679268.33], [341103.57, 5679240.29], [341101.59, 5679207.94], [341121.84, 5679198.02], [341093.04, 5679134.58], [341069.93, 5679145.13], [341071.43, 5679147.29], [341019.91, 5679173.54], [340920.71, 5679230.6], [340853.4, 5679293.0], [340853.97, 5679305.58], [340856.02, 5679329.86], [340857.68, 5679340.91], [340864.46, 5679359.73], [340880.24, 5679385.03], [340902.42, 5679420.81]]}}, {"type": "Feature", "properties": {"kind": "fence", "type": "railing", "h": 1.2}, "geometry": {"type": "LineString", "coordinates": [[340593.07, 5679479.85], [340819.27, 5679413.17], [340833.33, 5679409.03], [340831.62, 5679376.05], [340820.87, 5679320.48], [340780.56, 5679333.43], [340776.87, 5679334.17], [340774.53, 5679320.56], [340764.33, 5679320.19], [340740.14, 5679344.87], [340724.1, 5679354.43], [340722.97, 5679350.42], [340663.15, 5679371.12], [340636.16, 5679394.95], [340641.76, 5679413.98], [340643.55, 5679420.04], [340650.13, 5679439.94], [340633.36, 5679444.18], [340628.04, 5679433.57], [340618.64, 5679436.94], [340595.88, 5679469.91], [340590.94, 5679474.87], [340593.07, 5679479.85]]}}, {"type": "Feature", "properties": {"kind": "fence", "type": "railing", "h": 1.2}, "geometry": {"type": "LineString", "coordinates": [[340948.51, 5679706.93], [341016.29, 5679598.22], [341050.38, 5679605.87], [341079.59, 5679556.46], [340989.07, 5679504.11], [340942.44, 5679473.01], [340910.6, 5679441.09], [340886.64, 5679402.21], [340883.64, 5679448.18], [340894.9, 5679486.97], [340860.72, 5679544.83], [340856.53, 5679588.61], [340866.04, 5679593.18], [340858.33, 5679678.28], [340856.38, 5679684.15], [340849.56, 5679701.03], [340840.89, 5679724.37], [340834.95, 5679745.54], [340826.67, 5679759.62], [340813.92, 5679783.91], [340803.95, 5679805.01], [340793.3, 5679832.0], [340867.23, 5679859.63], [340884.22, 5679821.93], [340905.03, 5679788.2], [340924.33, 5679793.37], [340906.34, 5679755.61], [340917.45, 5679759.0], [340934.24, 5679728.98], [340948.51, 5679706.93]]}}, {"type": "Feature", "properties": {"kind": "fence", "type": "railing", "h": 1.2}, "geometry": {"type": "LineString", "coordinates": [[340000.0, 5678955.67], [340009.96, 5678987.61], [340019.88, 5678999.97], [340029.3, 5679009.87], [340038.39, 5679022.12], [340041.03, 5679031.56], [340039.42, 5679037.53], [340035.38, 5679040.68], [340003.08, 5679050.37], [340000.0, 5679051.59]]}}, {"type": "Feature", "properties": {"kind": "fence", "type": "railing", "h": 1.2}, "geometry": {"type": "LineString", "coordinates": [[340143.19, 5679494.1], [340148.4, 5679591.0], [340173.19, 5679587.27], [340174.37, 5679584.99], [340169.19, 5679492.56], [340165.99, 5679490.61], [340143.19, 5679494.1]]}}, {"type": "Feature", "properties": {"kind": "fence", "type": "railing", "h": 1.2}, "geometry": {"type": "LineString", "coordinates": [[340000.0, 5679554.23], [340002.55, 5679598.7], [340003.4, 5679610.56], [340043.75, 5679606.52], [340039.26, 5679538.77], [340055.5, 5679537.54], [340053.55, 5679503.63], [340000.0, 5679508.73]]}}, {"type": "Feature", "properties": {"kind": "fence", "type": "railing", "h": 1.2}, "geometry": {"type": "LineString", "coordinates": [[340000.0, 5679505.44], [340006.87, 5679504.77], [340004.57, 5679477.51], [340000.0, 5679478.19]]}}, {"type": "Feature", "properties": {"kind": "fence", "type": "railing", "h": 1.2}, "geometry": {"type": "LineString", "coordinates": [[340025.21, 5679399.09], [340034.57, 5679465.45], [340066.51, 5679461.5], [340066.74, 5679463.81], [340105.24, 5679458.48], [340149.16, 5679452.4], [340165.84, 5679450.09], [340151.21, 5679352.77], [340150.78, 5679347.97], [340052.49, 5679367.27], [340057.04, 5679394.58], [340025.21, 5679399.09]]}}, {"type": "Feature", "properties": {"kind": "fence", "type": "railing", "h": 1.2}, "geometry": {"type": "LineString", "coordinates": [[341145.13, 5679756.62], [341140.09, 5679736.11], [341139.44, 5679733.45], [341127.61, 5679681.3], [341106.47, 5679622.07], [341098.67, 5679606.01], [341097.17, 5679602.92], [341140.39, 5679579.72], [341171.54, 5679567.01], [341166.42, 5679554.9], [341146.88, 5679509.8], [341145.24, 5679506.03], [341144.3, 5679503.85], [341156.55, 5679508.1], [341177.33, 5679515.3], [341195.94, 5679521.76], [341202.86, 5679524.16], [341272.44, 5679430.33], [341314.56, 5679453.32], [341296.85, 5679482.26], [341292.15, 5679494.45], [341272.81, 5679489.63], [341268.45, 5679500.96], [341261.57, 5679499.7], [341252.21, 5679539.34], [341252.05, 5679541.92], [341249.24, 5679588.77], [341266.05, 5679617.21], [341267.64, 5679642.32], [341264.8, 5679659.28], [341263.57, 5679673.67], [341263.41, 5679675.48], [341259.83, 5679699.58], [341225.04, 5679716.54], [341145.13, 5679756.62]]}}, {"type": "Feature", "properties": {"kind": "fence", "type": "railing", "h": 1.2}, "geometry": {"type": "LineString", "coordinates": [[340413.88, 5679428.39], [340438.71, 5679418.76], [340449.09, 5679444.39], [340472.5, 5679434.52], [340479.73, 5679468.17], [340436.35, 5679487.92], [340413.88, 5679428.39]]}}, {"type": "Feature", "properties": {"kind": "gate", "w": 1.2, "on": "wall"}, "geometry": {"type": "Point", "coordinates": [341572.41, 5678404.06]}}, {"type": "Feature", "properties": {"kind": "gate", "w": 1.2, "on": "wall"}, "geometry": {"type": "Point", "coordinates": [341761.1, 5678974.0]}}, {"type": "Feature", "properties": {"kind": "gate", "w": 1.2, "on": "wall"}, "geometry": {"type": "Point", "coordinates": [341772.05, 5679242.35]}}, {"type": "Feature", "properties": {"kind": "gate", "w": 1.2, "on": "wall"}, "geometry": {"type": "Point", "coordinates": [341675.27, 5678665.78]}}, {"type": "Feature", "properties": {"kind": "gate", "w": 1.2, "on": "wall"}, "geometry": {"type": "Point", "coordinates": [341728.52, 5678896.83]}}, {"type": "Feature", "properties": {"kind": "gate", "w": 1.2, "on": "wall"}, "geometry": {"type": "Point", "coordinates": [341734.94, 5679102.82]}}, {"type": "Feature", "properties": {"kind": "gate", "w": 1.2, "on": "wall"}, "geometry": {"type": "Point", "coordinates": [341710.28, 5678748.44]}}, {"type": "Feature", "properties": {"kind": "gate", "w": 1.2, "on": "wall"}, "geometry": {"type": "Point", "coordinates": [341245.02, 5678405.55]}}]}