{"type": "FeatureCollection", "attribution": "\u00a9 OpenStreetMap contributors (ODbL)", "crs": {"type": "name", "properties": {"name": "urn:ogc:def:crs:EPSG::25833"}}, "features": [{"type": "Feature", "properties": {"kind": "wall", "h": 1.5}, "geometry": {"type": "LineString", "coordinates": [[343725.01, 5679031.73], [343723.94, 5679017.0], [343740.34, 5679014.07]]}}, {"type": "Feature", "properties": {"kind": "wall", "h": 1.5}, "geometry": {"type": "LineString", "coordinates": [[343737.65, 5678997.67], [343723.64, 5678998.55], [343723.87, 5679003.21], [343724.05, 5679011.57], [343737.93, 5679009.0], [343737.65, 5678997.67]]}}, {"type": "Feature", "properties": {"kind": "wall", "h": 1.5}, "geometry": {"type": "LineString", "coordinates": [[343705.2, 5679035.51], [343725.01, 5679031.73], [343747.59, 5679028.21]]}}, {"type": "Feature", "properties": {"kind": "wall", "h": 1.5}, "geometry": {"type": "LineString", "coordinates": [[343747.09, 5679021.28], [343745.83, 5679012.85], [343743.65, 5679013.41]]}}, {"type": "Feature", "properties": {"kind": "wall", "h": 1.5}, "geometry": {"type": "LineString", "coordinates": [[343718.9, 5679550.21], [343705.66, 5679554.2], [343697.7, 5679558.22], [343699.01, 5679561.31], [343682.54, 5679568.61], [343681.61, 5679565.63], [343669.32, 5679573.05], [343658.41, 5679579.66]]}}, {"type": "Feature", "properties": {"kind": "embankment", "h": 2.5}, "geometry": {"type": "LineString", "coordinates": [[342151.27, 5679335.05], [342148.47, 5679321.45], [342152.78, 5679307.11], [342153.64, 5679292.1], [342151.43, 5679280.32], [342140.4, 5679264.88]]}}, {"type": "Feature", "properties": {"kind": "wall", "h": 1.5}, "geometry": {"type": "LineString", "coordinates": [[343746.98, 5678885.27], [343722.97, 5678883.59], [343720.63, 5678883.42]]}}, {"type": "Feature", "properties": {"kind": "fence", "type": "railing", "h": 1.2}, "geometry": {"type": "LineString", "coordinates": [[343704.44, 5679047.61], [343703.17, 5679054.17], [343709.27, 5679056.55]]}}, {"type": "Feature", "properties": {"kind": "gate", "w": 1.2, "on": "wall"}, "geometry": {"type": "Point", "coordinates": [343722.97, 5678883.59]}}]}