{"type": "FeatureCollection", "attribution": "\u00a9 OpenStreetMap contributors (ODbL)", "crs": {"type": "name", "properties": {"name": "urn:ogc:def:crs:EPSG::25833"}}, "features": [{"type": "Feature", "properties": {"k": "colony"}, "geometry": {"type": "Polygon", "coordinates": [[[416195.74, 5654082.89], [416202.61, 5654093.59], [416226.51, 5654078.89], [416215.47, 5654063.62], [416242.64, 5654030.76], [416263.98, 5654055.92], [416288.34, 5654040.29], [416349.38, 5654000.0], [416145.8, 5654000.0], [416195.74, 5654082.89]]]}}, {"type": "Feature", "properties": {"k": "colony"}, "geometry": {"type": "Polygon", "coordinates": [[[416324.99, 5654203.86], [416320.44, 5654196.6], [416344.46, 5654180.52], [416334.04, 5654165.75], [416335.73, 5654158.32], [416340.4, 5654137.69], [416343.09, 5654125.84], [416343.79, 5654122.73], [416344.1, 5654121.38], [416348.07, 5654105.22], [416340.3, 5654092.89], [416339.32, 5654091.16], [416341.35, 5654086.13], [416331.75, 5654070.81], [416308.08, 5654086.0], [416305.29, 5654081.21], [416277.92, 5654099.16], [416277.59, 5654117.17], [416273.75, 5654129.81], [416269.24, 5654138.94], [416317.04, 5654208.97], [416324.99, 5654203.86]]]}}, {"type": "Feature", "properties": {"k": "colony"}, "geometry": {"type": "Polygon", "coordinates": [[[416610.89, 5655430.2], [416619.83, 5655429.36], [416628.04, 5655430.15], [416632.31, 5655431.81], [416642.39, 5655440.74], [416682.28, 5655476.04], [416697.53, 5655489.54], [416749.3, 5655420.92], [416740.29, 5655411.91], [416697.7, 5655369.36], [416671.82, 5655343.5], [416645.29, 5655377.69], [416605.5, 5655425.53], [416610.89, 5655430.2]]]}}, {"type": "Feature", "properties": {"k": "colony"}, "geometry": {"type": "Polygon", "coordinates": [[[417703.76, 5654838.08], [417585.15, 5654939.58], [417610.34, 5654958.86], [417561.2, 5655014.97], [417517.26, 5655069.53], [417583.28, 5655106.96], [417612.52, 5655130.77], [417618.3, 5655135.48], [417638.15, 5655089.62], [417668.4, 5655107.34], [417683.57, 5655083.51], [417660.52, 5655070.56], [417692.79, 5655009.46], [417681.75, 5655005.07], [417708.43, 5654972.0], [417693.61, 5654960.38], [417673.74, 5654943.62], [417686.51, 5654924.99], [417715.98, 5654882.72], [417726.59, 5654891.17], [417743.78, 5654871.17], [417703.76, 5654838.08]]]}}, {"type": "Feature", "properties": {"k": "colony"}, "geometry": {"type": "Polygon", "coordinates": [[[416125.65, 5654000.0], [416000.0, 5654000.0], [416000.0, 5654088.69], [416036.61, 5654081.17], [416095.39, 5654057.39], [416088.2, 5654037.73], [416133.32, 5654012.72], [416125.65, 5654000.0]]]}}, {"type": "Feature", "properties": {"k": "colony"}, "geometry": {"type": "Polygon", "coordinates": [[[416088.2, 5654037.73], [416095.39, 5654057.39], [416135.31, 5654147.09], [416156.59, 5654136.44], [416188.23, 5654121.81], [416191.98, 5654107.96], [416188.19, 5654101.76], [416143.45, 5654029.17], [416133.32, 5654012.72], [416088.2, 5654037.73]]]}}, {"type": "Feature", "properties": {"k": "colony"}, "geometry": {"type": "Polygon", "coordinates": [[[417669.05, 5654027.99], [417640.42, 5654064.36], [417654.36, 5654075.06], [417657.05, 5654071.82], [417659.66, 5654073.98], [417660.25, 5654074.47], [417665.32, 5654068.84], [417682.16, 5654048.53], [417686.11, 5654046.87], [417718.8, 5654005.01], [417722.71, 5654000.0], [417687.45, 5654000.0], [417666.98, 5654026.17], [417669.05, 5654027.99]]]}}, {"type": "Feature", "properties": {"k": "colony"}, "geometry": {"type": "Polygon", "coordinates": [[[417368.65, 5655341.76], [417442.28, 5655395.83], [417464.1, 5655410.82], [417479.13, 5655390.01], [417502.98, 5655357.38], [417520.0, 5655334.08], [417488.45, 5655314.46], [417455.59, 5655294.46], [417418.2, 5655270.2], [417410.63, 5655281.49], [417368.65, 5655341.76]]]}}, {"type": "Feature", "properties": {"k": "colony"}, "geometry": {"type": "Polygon", "coordinates": [[[416370.35, 5654289.55], [416375.92, 5654291.18], [416399.44, 5654196.72], [416370.55, 5654189.88], [416365.03, 5654182.45], [416320.71, 5654213.87], [416370.35, 5654289.55]]]}}, {"type": "Feature", "properties": {"k": "colony"}, "geometry": {"type": "Polygon", "coordinates": [[[416350.65, 5654105.48], [416381.4, 5654113.19], [416390.51, 5654073.92], [416388.1, 5654065.88], [416385.89, 5654062.51], [416349.37, 5654086.54], [416341.63, 5654091.62], [416350.65, 5654105.48]]]}}, {"type": "Feature", "properties": {"k": "colony"}, "geometry": {"type": "Polygon", "coordinates": [[[416395.99, 5654070.62], [416402.09, 5654074.36], [416430.34, 5654080.73], [416444.62, 5654027.28], [416440.47, 5654023.84], [416388.79, 5654060.79], [416395.99, 5654070.62]]]}}, {"type": "Feature", "properties": {"k": "colony"}, "geometry": {"type": "Polygon", "coordinates": [[[416394.71, 5654115.98], [416397.12, 5654106.34], [416421.74, 5654112.17], [416429.58, 5654083.04], [416417.39, 5654080.19], [416413.99, 5654093.53], [416389.67, 5654087.92], [416383.91, 5654113.39], [416394.71, 5654115.98]]]}}, {"type": "Feature", "properties": {"k": "vineyard"}, "geometry": {"type": "Polygon", "coordinates": [[[417893.21, 5655322.0], [417888.06, 5655349.64], [417878.79, 5655403.84], [417887.99, 5655405.28], [417892.45, 5655401.36], [417896.66, 5655403.93], [417905.4, 5655409.07], [417920.07, 5655408.76], [417926.88, 5655401.76], [417947.84, 5655399.74], [417984.93, 5655391.65], [418000.0, 5655368.79], [418000.0, 5655348.04], [417976.85, 5655341.64], [417975.47, 5655323.98], [417987.73, 5655292.64], [418000.0, 5655273.38], [418000.0, 5655192.38], [417998.92, 5655191.64], [417974.39, 5655177.58], [417965.95, 5655191.79], [417949.04, 5655181.24], [417936.62, 5655201.56], [417934.19, 5655207.92], [417930.29, 5655210.28], [417925.84, 5655209.95], [417924.83, 5655213.05], [417925.11, 5655214.19], [417925.5, 5655215.57], [417922.99, 5655216.37], [417919.0, 5655230.52], [417917.3, 5655240.67], [417914.57, 5655260.42], [417907.68, 5655278.01], [417900.42, 5655292.54], [417896.14, 5655304.66], [417893.21, 5655322.0]]]}}, {"type": "Feature", "properties": {"k": "row"}, "geometry": {"type": "LineString", "coordinates": [[418000.0, 5655368.2], [417992.28, 5655380.5]]}}, {"type": "Feature", "properties": {"k": "row"}, "geometry": {"type": "LineString", "coordinates": [[418000.0, 5655364.82], [417982.87, 5655392.09]]}}, {"type": "Feature", "properties": {"k": "row"}, "geometry": {"type": "LineString", "coordinates": [[418000.0, 5655361.43], [417980.41, 5655392.63]]}}, {"type": "Feature", "properties": {"k": "row"}, "geometry": {"type": "LineString", "coordinates": [[418000.0, 5655358.05], [417977.95, 5655393.17]]}}, {"type": "Feature", "properties": {"k": "row"}, "geometry": {"type": "LineString", "coordinates": [[418000.0, 5655354.67], [417975.48, 5655393.71]]}}, {"type": "Feature", "properties": {"k": "row"}, "geometry": {"type": "LineString", "coordinates": [[418000.0, 5655351.28], [417973.02, 5655394.25]]}}, {"type": "Feature", "properties": {"k": "row"}, "geometry": {"type": "LineString", "coordinates": [[417999.92, 5655348.02], [417970.56, 5655394.78]]}}, {"type": "Feature", "properties": {"k": "row"}, "geometry": {"type": "LineString", "coordinates": [[417998.11, 5655347.52], [417968.09, 5655395.32]]}}, {"type": "Feature", "properties": {"k": "row"}, "geometry": {"type": "LineString", "coordinates": [[417996.3, 5655347.02], [417965.63, 5655395.86]]}}, {"type": "Feature", "properties": {"k": "row"}, "geometry": {"type": "LineString", "coordinates": [[417994.49, 5655346.52], [417963.17, 5655396.4]]}}, {"type": "Feature", "properties": {"k": "row"}, "geometry": {"type": "LineString", "coordinates": [[417992.68, 5655346.02], [417960.7, 5655396.93]]}}, {"type": "Feature", "properties": {"k": "row"}, "geometry": {"type": "LineString", "coordinates": [[417990.87, 5655345.52], [417958.24, 5655397.47]]}}, {"type": "Feature", "properties": {"k": "row"}, "geometry": {"type": "LineString", "coordinates": [[417989.06, 5655345.02], [417955.78, 5655398.01]]}}, {"type": "Feature", "properties": {"k": "row"}, "geometry": {"type": "LineString", "coordinates": [[417987.24, 5655344.52], [417953.31, 5655398.55]]}}, {"type": "Feature", "properties": {"k": "row"}, "geometry": {"type": "LineString", "coordinates": [[417985.43, 5655344.01], [417950.85, 5655399.08]]}}, {"type": "Feature", "properties": {"k": "row"}, "geometry": {"type": "LineString", "coordinates": [[417983.62, 5655343.51], [417948.39, 5655399.62]]}}, {"type": "Feature", "properties": {"k": "row"}, "geometry": {"type": "LineString", "coordinates": [[417981.81, 5655343.01], [417946.08, 5655399.91]]}}, {"type": "Feature", "properties": {"k": "row"}, "geometry": {"type": "LineString", "coordinates": [[417980.0, 5655342.51], [417943.82, 5655400.13]]}}, {"type": "Feature", "properties": {"k": "row"}, "geometry": {"type": "LineString", "coordinates": [[417978.19, 5655342.01], [417941.56, 5655400.35]]}}, {"type": "Feature", "properties": {"k": "row"}, "geometry": {"type": "LineString", "coordinates": [[417976.79, 5655340.86], [417939.29, 5655400.56]]}}, {"type": "Feature", "properties": {"k": "row"}, "geometry": {"type": "LineString", "coordinates": [[417976.55, 5655337.85], [417937.03, 5655400.78]]}}, {"type": "Feature", "properties": {"k": "row"}, "geometry": {"type": "LineString", "coordinates": [[417976.32, 5655334.84], [417934.77, 5655401.0]]}}, {"type": "Feature", "properties": {"k": "row"}, "geometry": {"type": "LineString", "coordinates": [[417976.08, 5655331.83], [417932.51, 5655401.21]]}}, {"type": "Feature", "properties": {"k": "row"}, "geometry": {"type": "LineString", "coordinates": [[417975.85, 5655328.82], [417930.25, 5655401.43]]}}, {"type": "Feature", "properties": {"k": "row"}, "geometry": {"type": "LineString", "coordinates": [[417975.61, 5655325.8], [417927.99, 5655401.65]]}}, {"type": "Feature", "properties": {"k": "row"}, "geometry": {"type": "LineString", "coordinates": [[417976.86, 5655320.44], [417923.82, 5655404.9]]}}, {"type": "Feature", "properties": {"k": "row"}, "geometry": {"type": "LineString", "coordinates": [[417980.37, 5655311.47], [417919.26, 5655408.78]]}}, {"type": "Feature", "properties": {"k": "row"}, "geometry": {"type": "LineString", "coordinates": [[417983.88, 5655302.5], [417917.1, 5655408.82]]}}, {"type": "Feature", "properties": {"k": "row"}, "geometry": {"type": "LineString", "coordinates": [[417987.39, 5655293.52], [417914.95, 5655408.87]]}}, {"type": "Feature", "properties": {"k": "row"}, "geometry": {"type": "LineString", "coordinates": [[418000.0, 5655270.05], [417912.8, 5655408.91]]}}, {"type": "Feature", "properties": {"k": "row"}, "geometry": {"type": "LineString", "coordinates": [[418000.0, 5655266.66], [417910.64, 5655408.96]]}}, {"type": "Feature", "properties": {"k": "row"}, "geometry": {"type": "LineString", "coordinates": [[418000.0, 5655263.28], [417908.49, 5655409.01]]}}, {"type": "Feature", "properties": {"k": "row"}, "geometry": {"type": "LineString", "coordinates": [[418000.0, 5655259.9], [417906.33, 5655409.05]]}}, {"type": "Feature", "properties": {"k": "row"}, "geometry": {"type": "LineString", "coordinates": [[418000.0, 5655256.51], [417904.52, 5655408.55]]}}, {"type": "Feature", "properties": {"k": "row"}, "geometry": {"type": "LineString", "coordinates": [[418000.0, 5655253.13], [417902.97, 5655407.64]]}}, {"type": "Feature", "properties": {"k": "row"}, "geometry": {"type": "LineString", "coordinates": [[418000.0, 5655249.74], [417901.42, 5655406.73]]}}, {"type": "Feature", "properties": {"k": "row"}, "geometry": {"type": "LineString", "coordinates": [[418000.0, 5655246.36], [417899.86, 5655405.81]]}}, {"type": "Feature", "properties": {"k": "row"}, "geometry": {"type": "LineString", "coordinates": [[418000.0, 5655242.97], [417898.31, 5655404.9]]}}, {"type": "Feature", "properties": {"k": "row"}, "geometry": {"type": "LineString", "coordinates": [[418000.0, 5655239.59], [417896.76, 5655403.99]]}}, {"type": "Feature", "properties": {"k": "row"}, "geometry": {"type": "LineString", "coordinates": [[418000.0, 5655236.2], [417895.22, 5655403.05]]}}, {"type": "Feature", "properties": {"k": "row"}, "geometry": {"type": "LineString", "coordinates": [[418000.0, 5655232.82], [417893.69, 5655402.11]]}}, {"type": "Feature", "properties": {"k": "row"}, "geometry": {"type": "LineString", "coordinates": [[418000.0, 5655229.43], [417891.53, 5655402.17]]}}, {"type": "Feature", "properties": {"k": "row"}, "geometry": {"type": "LineString", "coordinates": [[418000.0, 5655226.05], [417887.5, 5655405.2]]}}, {"type": "Feature", "properties": {"k": "row"}, "geometry": {"type": "LineString", "coordinates": [[418000.0, 5655222.66], [417885.56, 5655404.9]]}}, {"type": "Feature", "properties": {"k": "row"}, "geometry": {"type": "LineString", "coordinates": [[418000.0, 5655219.28], [417883.62, 5655404.6]]}}, {"type": "Feature", "properties": {"k": "row"}, "geometry": {"type": "LineString", "coordinates": [[418000.0, 5655215.89], [417881.69, 5655404.29]]}}, {"type": "Feature", "properties": {"k": "row"}, "geometry": {"type": "LineString", "coordinates": [[418000.0, 5655212.51], [417879.75, 5655403.99]]}}, {"type": "Feature", "properties": {"k": "row"}, "geometry": {"type": "LineString", "coordinates": [[418000.0, 5655209.13], [417879.19, 5655401.5]]}}, {"type": "Feature", "properties": {"k": "row"}, "geometry": {"type": "LineString", "coordinates": [[418000.0, 5655205.74], [417879.99, 5655396.85]]}}, {"type": "Feature", "properties": {"k": "row"}, "geometry": {"type": "LineString", "coordinates": [[418000.0, 5655202.36], [417880.78, 5655392.2]]}}, {"type": "Feature", "properties": {"k": "row"}, "geometry": {"type": "LineString", "coordinates": [[418000.0, 5655198.97], [417881.58, 5655387.55]]}}, {"type": "Feature", "properties": {"k": "row"}, "geometry": {"type": "LineString", "coordinates": [[418000.0, 5655195.59], [417882.37, 5655382.9]]}}, {"type": "Feature", "properties": {"k": "row"}, "geometry": {"type": "LineString", "coordinates": [[417999.92, 5655192.32], [417883.17, 5655378.25]]}}, {"type": "Feature", "properties": {"k": "row"}, "geometry": {"type": "LineString", "coordinates": [[417998.41, 5655191.34], [417883.96, 5655373.6]]}}, {"type": "Feature", "properties": {"k": "row"}, "geometry": {"type": "LineString", "coordinates": [[417996.85, 5655190.45], [417884.76, 5655368.95]]}}, {"type": "Feature", "properties": {"k": "row"}, "geometry": {"type": "LineString", "coordinates": [[417995.29, 5655189.55], [417885.55, 5655364.3]]}}, {"type": "Feature", "properties": {"k": "row"}, "geometry": {"type": "LineString", "coordinates": [[417993.72, 5655188.66], [417886.35, 5655359.65]]}}, {"type": "Feature", "properties": {"k": "row"}, "geometry": {"type": "LineString", "coordinates": [[417992.16, 5655187.76], [417887.14, 5655354.99]]}}, {"type": "Feature", "properties": {"k": "row"}, "geometry": {"type": "LineString", "coordinates": [[417990.6, 5655186.87], [417887.94, 5655350.34]]}}, {"type": "Feature", "properties": {"k": "row"}, "geometry": {"type": "LineString", "coordinates": [[417989.04, 5655185.97], [417888.82, 5655345.56]]}}, {"type": "Feature", "properties": {"k": "row"}, "geometry": {"type": "LineString", "coordinates": [[417987.47, 5655185.07], [417889.71, 5655340.75]]}}, {"type": "Feature", "properties": {"k": "row"}, "geometry": {"type": "LineString", "coordinates": [[417985.91, 5655184.18], [417890.61, 5655335.93]]}}, {"type": "Feature", "properties": {"k": "row"}, "geometry": {"type": "LineString", "coordinates": [[417984.35, 5655183.28], [417891.51, 5655331.12]]}}, {"type": "Feature", "properties": {"k": "row"}, "geometry": {"type": "LineString", "coordinates": [[417982.78, 5655182.39], [417892.4, 5655326.31]]}}, {"type": "Feature", "properties": {"k": "row"}, "geometry": {"type": "LineString", "coordinates": [[417981.22, 5655181.49], [417893.29, 5655321.52]]}}, {"type": "Feature", "properties": {"k": "row"}, "geometry": {"type": "LineString", "coordinates": [[417979.66, 5655180.6], [417894.07, 5655316.88]]}}, {"type": "Feature", "properties": {"k": "row"}, "geometry": {"type": "LineString", "coordinates": [[417978.09, 5655179.7], [417894.86, 5655312.25]]}}, {"type": "Feature", "properties": {"k": "row"}, "geometry": {"type": "LineString", "coordinates": [[417976.53, 5655178.8], [417895.64, 5655307.61]]}}, {"type": "Feature", "properties": {"k": "row"}, "geometry": {"type": "LineString", "coordinates": [[417974.97, 5655177.91], [417897.13, 5655301.86]]}}, {"type": "Feature", "properties": {"k": "row"}, "geometry": {"type": "LineString", "coordinates": [[417964.64, 5655190.97], [417899.85, 5655294.14]]}}, {"type": "Feature", "properties": {"k": "row"}, "geometry": {"type": "LineString", "coordinates": [[417963.11, 5655190.02], [417906.99, 5655279.39]]}}, {"type": "Feature", "properties": {"k": "row"}, "geometry": {"type": "LineString", "coordinates": [[417961.58, 5655189.07], [417910.91, 5655269.76]]}}, {"type": "Feature", "properties": {"k": "row"}, "geometry": {"type": "LineString", "coordinates": [[417960.06, 5655188.12], [417914.43, 5655260.77]]}}, {"type": "Feature", "properties": {"k": "row"}, "geometry": {"type": "LineString", "coordinates": [[417958.53, 5655187.16], [417915.14, 5655256.25]]}}, {"type": "Feature", "properties": {"k": "row"}, "geometry": {"type": "LineString", "coordinates": [[417957.0, 5655186.21], [417915.74, 5655251.91]]}}, {"type": "Feature", "properties": {"k": "row"}, "geometry": {"type": "LineString", "coordinates": [[417955.48, 5655185.26], [417916.34, 5655247.57]]}}, {"type": "Feature", "properties": {"k": "row"}, "geometry": {"type": "LineString", "coordinates": [[417953.95, 5655184.3], [417916.94, 5655243.23]]}}, {"type": "Feature", "properties": {"k": "row"}, "geometry": {"type": "LineString", "coordinates": [[417952.42, 5655183.35], [417917.61, 5655238.78]]}}, {"type": "Feature", "properties": {"k": "row"}, "geometry": {"type": "LineString", "coordinates": [[417950.9, 5655182.4], [417918.39, 5655234.16]]}}, {"type": "Feature", "properties": {"k": "row"}, "geometry": {"type": "LineString", "coordinates": [[417949.37, 5655181.44], [417936.43, 5655202.04]]}}, {"type": "Feature", "properties": {"k": "row"}, "geometry": {"type": "LineString", "coordinates": [[417931.85, 5655209.34], [417919.37, 5655229.21]]}}, {"type": "Feature", "properties": {"k": "row"}, "geometry": {"type": "LineString", "coordinates": [[417929.19, 5655210.2], [417921.1, 5655223.07]]}}, {"type": "Feature", "properties": {"k": "row"}, "geometry": {"type": "LineString", "coordinates": [[417927.16, 5655210.05], [417924.95, 5655213.55]]}}]}