{"type": "FeatureCollection", "attribution": "\u00a9 OpenStreetMap contributors (ODbL)", "crs": {"type": "name", "properties": {"name": "urn:ogc:def:crs:EPSG::25833"}}, "features": [{"type": "Feature", "properties": {"k": "colony"}, "geometry": {"type": "Polygon", "coordinates": [[[408825.51, 5656070.62], [408887.09, 5656066.93], [408908.97, 5656070.29], [408911.09, 5656068.53], [408917.35, 5656048.91], [408917.91, 5656047.14], [408933.83, 5656000.0], [408837.01, 5656000.0], [408776.05, 5656035.53], [408743.02, 5656054.84], [408732.3, 5656061.1], [408729.87, 5656062.6], [408727.88, 5656064.27], [408726.75, 5656066.46], [408756.67, 5656080.14], [408825.51, 5656070.62]]]}}, {"type": "Feature", "properties": {"k": "colony"}, "geometry": {"type": "Polygon", "coordinates": [[[409070.85, 5656122.24], [409057.25, 5656159.67], [409137.29, 5656209.78], [409143.5, 5656214.62], [409146.75, 5656217.16], [409149.46, 5656212.74], [409166.4, 5656136.62], [409178.43, 5656083.91], [409182.08, 5656065.0], [409184.14, 5656051.96], [409184.83, 5656046.26], [409185.59, 5656037.27], [409186.12, 5656021.17], [409186.81, 5656009.59], [409187.36, 5656000.78], [409187.46, 5656000.0], [409115.76, 5656000.0], [409070.85, 5656122.24]]]}}, {"type": "Feature", "properties": {"k": "colony"}, "geometry": {"type": "Polygon", "coordinates": [[[408035.74, 5656541.61], [408000.0, 5656528.05], [408000.0, 5656684.71], [408002.06, 5656684.62], [408035.74, 5656541.61]]]}}, {"type": "Feature", "properties": {"k": "colony"}, "geometry": {"type": "Polygon", "coordinates": [[[408010.38, 5656254.41], [408000.0, 5656242.5], [408000.0, 5656343.78], [408010.38, 5656254.41]]]}}, {"type": "Feature", "properties": {"k": "colony"}, "geometry": {"type": "Polygon", "coordinates": [[[408026.11, 5657184.27], [408062.41, 5657163.33], [408060.99, 5657158.1], [408054.1, 5657152.5], [408055.27, 5657144.4], [408043.13, 5657143.23], [408032.1, 5657143.04], [408021.63, 5657144.85], [408003.39, 5657156.1], [408000.0, 5657158.25], [408000.0, 5657200.46], [408026.11, 5657184.27]]]}}, {"type": "Feature", "properties": {"k": "colony"}, "geometry": {"type": "Polygon", "coordinates": [[[408078.55, 5657495.37], [408080.76, 5657497.57], [408084.72, 5657499.8], [408106.79, 5657494.09], [408100.72, 5657472.93], [408150.46, 5657456.37], [408147.39, 5657446.83], [408169.14, 5657440.08], [408158.46, 5657398.61], [408115.73, 5657409.68], [408124.11, 5657363.81], [408148.56, 5657357.9], [408137.54, 5657314.04], [408165.6, 5657306.96], [408163.0, 5657293.87], [408163.26, 5657291.29], [408149.24, 5657233.65], [408088.46, 5657258.11], [408086.12, 5657259.17], [408086.35, 5657262.14], [408087.85, 5657281.39], [408085.53, 5657315.91], [408093.89, 5657312.74], [408096.42, 5657319.23], [408090.84, 5657324.63], [408055.92, 5657491.53], [408078.55, 5657495.37]]]}}, {"type": "Feature", "properties": {"k": "colony"}, "geometry": {"type": "Polygon", "coordinates": [[[409184.86, 5656309.11], [409180.61, 5656311.07], [409169.0, 5656326.72], [409164.33, 5656333.02], [409145.72, 5656353.93], [409119.92, 5656375.7], [409103.22, 5656387.54], [409088.73, 5656396.54], [409095.76, 5656402.0], [409098.48, 5656410.07], [409093.01, 5656411.91], [409095.05, 5656418.08], [409099.09, 5656416.76], [409101.59, 5656424.3], [409114.31, 5656420.84], [409109.52, 5656405.47], [409274.28, 5656358.09], [409278.85, 5656373.78], [409326.98, 5656360.15], [409259.18, 5656335.98], [409213.47, 5656318.51], [409189.88, 5656309.49], [409184.86, 5656309.11]]]}}, {"type": "Feature", "properties": {"k": "colony"}, "geometry": {"type": "Polygon", "coordinates": [[[408000.03, 5656758.27], [408002.88, 5656767.39], [408020.26, 5656763.56], [408015.8, 5656748.14], [408007.31, 5656718.77], [408000.0, 5656722.96], [408000.0, 5656758.17], [408000.03, 5656758.27]]]}}, {"type": "Feature", "properties": {"k": "colony"}, "geometry": {"type": "Polygon", "coordinates": [[[408189.46, 5656977.88], [408207.62, 5656987.61], [408203.91, 5656994.51], [408225.57, 5657007.14], [408223.33, 5657010.55], [408234.71, 5657018.48], [408295.16, 5656942.54], [408278.75, 5656933.28], [408316.86, 5656875.09], [408254.43, 5656843.01], [408238.94, 5656839.51], [408223.56, 5656886.56], [408199.56, 5656947.69], [408185.38, 5656975.5], [408189.46, 5656977.88]]]}}, {"type": "Feature", "properties": {"k": "colony"}, "geometry": {"type": "Polygon", "coordinates": [[[408395.25, 5656388.7], [408337.31, 5656419.16], [408313.1, 5656439.95], [408288.61, 5656460.55], [408286.85, 5656462.29], [408281.59, 5656467.51], [408272.04, 5656484.77], [408262.69, 5656513.25], [408250.53, 5656567.82], [408235.57, 5656630.65], [408248.07, 5656635.0], [408263.23, 5656616.8], [408282.61, 5656598.36], [408301.75, 5656583.02], [408323.21, 5656569.43], [408348.55, 5656556.67], [408372.67, 5656548.76], [408647.6, 5656469.21], [408675.92, 5656461.01], [408495.27, 5656296.3], [408479.0, 5656315.02], [408445.69, 5656350.56], [408408.49, 5656380.8], [408395.25, 5656388.7]]]}}, {"type": "Feature", "properties": {"k": "colony"}, "geometry": {"type": "Polygon", "coordinates": [[[409668.78, 5656411.72], [409731.46, 5656412.2], [409734.5, 5656411.92], [409774.0, 5656408.06], [409772.16, 5656390.61], [409774.73, 5656388.43], [409785.02, 5656370.27], [409795.01, 5656360.44], [409766.49, 5656327.25], [409635.89, 5656358.59], [409668.78, 5656411.72]]]}}, {"type": "Feature", "properties": {"k": "colony"}, "geometry": {"type": "Polygon", "coordinates": [[[409621.16, 5656366.48], [409580.67, 5656295.67], [409566.97, 5656300.4], [409571.71, 5656310.0], [409553.44, 5656319.03], [409561.79, 5656336.43], [409540.32, 5656346.49], [409551.76, 5656380.33], [409523.29, 5656389.91], [409583.84, 5656402.52], [409640.19, 5656408.04], [409621.16, 5656366.48]]]}}, {"type": "Feature", "properties": {"k": "colony"}, "geometry": {"type": "Polygon", "coordinates": [[[408666.52, 5656107.5], [408649.54, 5656125.0], [408662.23, 5656133.28], [408658.79, 5656138.72], [408656.44, 5656141.53], [408657.88, 5656142.91], [408645.01, 5656157.42], [408643.19, 5656159.64], [408665.67, 5656171.27], [408704.07, 5656191.83], [408766.08, 5656224.37], [408808.05, 5656246.69], [408851.14, 5656269.01], [408880.83, 5656186.33], [408820.01, 5656162.68], [408795.84, 5656153.32], [408685.46, 5656110.47], [408685.07, 5656110.32], [408678.55, 5656105.44], [408673.77, 5656103.69], [408666.52, 5656107.5]]]}}, {"type": "Feature", "properties": {"k": "colony"}, "geometry": {"type": "Polygon", "coordinates": [[[408756.67, 5656080.14], [408788.27, 5656094.12], [408928.73, 5656149.2], [408944.48, 5656100.67], [408929.54, 5656090.1], [408908.07, 5656074.9], [408908.76, 5656071.52], [408908.97, 5656070.29], [408887.09, 5656066.93], [408825.51, 5656070.62], [408756.67, 5656080.14]]]}}, {"type": "Feature", "properties": {"k": "colony"}, "geometry": {"type": "Polygon", "coordinates": [[[408042.06, 5657306.64], [408059.68, 5657309.04], [408062.34, 5657294.56], [408062.85, 5657271.68], [408031.79, 5657290.51], [408042.06, 5657306.64]]]}}, {"type": "Feature", "properties": {"k": "colony"}, "geometry": {"type": "Polygon", "coordinates": [[[409488.28, 5656496.28], [409483.26, 5656450.44], [409487.47, 5656432.3], [409494.06, 5656434.06], [409502.29, 5656404.8], [409467.17, 5656396.54], [409460.96, 5656398.36], [409459.92, 5656397.94], [409456.55, 5656396.57], [409454.17, 5656394.12], [409429.3, 5656390.98], [409422.93, 5656392.96], [409420.82, 5656397.2], [409422.26, 5656404.03], [409422.29, 5656428.15], [409420.83, 5656442.66], [409425.26, 5656480.87], [409428.65, 5656486.62], [409437.69, 5656486.9], [409451.64, 5656488.63], [409461.99, 5656492.69], [409468.5, 5656499.12], [409488.28, 5656496.28]]]}}, {"type": "Feature", "properties": {"k": "colony"}, "geometry": {"type": "Polygon", "coordinates": [[[409028.25, 5656244.95], [408981.74, 5656372.4], [409007.95, 5656364.75], [409022.98, 5656359.38], [409050.63, 5656345.51], [409062.49, 5656336.94], [409066.68, 5656333.9], [409093.95, 5656306.22], [409100.13, 5656296.94], [409102.49, 5656286.67], [409101.11, 5656274.87], [409100.61, 5656273.32], [409099.27, 5656271.67], [409098.04, 5656271.62], [409049.94, 5656252.7], [409049.44, 5656252.53], [409048.88, 5656252.29], [409028.47, 5656244.35], [409028.25, 5656244.95]]]}}, {"type": "Feature", "properties": {"k": "colony"}, "geometry": {"type": "Polygon", "coordinates": [[[409043.25, 5656196.4], [409124.51, 5656228.3], [409133.57, 5656226.24], [409128.6, 5656213.92], [409110.92, 5656199.78], [409054.98, 5656165.41], [409043.25, 5656196.4]]]}}, {"type": "Feature", "properties": {"k": "colony"}, "geometry": {"type": "Polygon", "coordinates": [[[409017.04, 5656000.52], [409023.97, 5656002.77], [409013.32, 5656090.3], [409041.96, 5656100.49], [409055.48, 5656110.14], [409053.13, 5656116.06], [409070.85, 5656122.24], [409115.76, 5656000.0], [409017.22, 5656000.0], [409017.04, 5656000.52]]]}}, {"type": "Feature", "properties": {"k": "colony"}, "geometry": {"type": "Polygon", "coordinates": [[[408560.81, 5656220.47], [408519.85, 5656267.43], [408633.43, 5656370.71], [408674.85, 5656324.78], [408560.81, 5656220.47]]]}}, {"type": "Feature", "properties": {"k": "colony"}, "geometry": {"type": "Polygon", "coordinates": [[[408851.14, 5656269.01], [408842.28, 5656295.24], [408808.86, 5656416.33], [408811.93, 5656418.29], [408828.06, 5656413.99], [408859.58, 5656405.6], [408949.09, 5656381.77], [408934.89, 5656336.96], [408965.9, 5656328.27], [408978.27, 5656373.55], [408981.74, 5656372.4], [409028.25, 5656244.95], [409028.47, 5656244.35], [409002.9, 5656234.3], [409002.24, 5656234.07], [409001.76, 5656233.89], [408960.67, 5656217.7], [408959.29, 5656217.19], [408898.71, 5656193.44], [408898.11, 5656193.22], [408897.15, 5656192.87], [408880.83, 5656186.33], [408851.14, 5656269.01]]]}}, {"type": "Feature", "properties": {"k": "colony"}, "geometry": {"type": "Polygon", "coordinates": [[[408519.14, 5656268.26], [408496.55, 5656294.9], [408679.14, 5656459.89], [408786.95, 5656427.7], [408674.85, 5656324.78], [408633.43, 5656370.71], [408519.85, 5656267.43], [408519.14, 5656268.26]]]}}, {"type": "Feature", "properties": {"k": "colony"}, "geometry": {"type": "Polygon", "coordinates": [[[408808.05, 5656246.69], [408766.08, 5656224.37], [408674.85, 5656324.78], [408786.95, 5656427.7], [408803.7, 5656422.95], [408806.08, 5656416.48], [408808.86, 5656416.33], [408842.28, 5656295.24], [408851.14, 5656269.01], [408808.05, 5656246.69]]]}}, {"type": "Feature", "properties": {"k": "colony"}, "geometry": {"type": "Polygon", "coordinates": [[[408704.07, 5656191.83], [408665.67, 5656171.27], [408643.19, 5656159.64], [408635.36, 5656155.48], [408634.17, 5656157.44], [408624.33, 5656152.31], [408586.91, 5656191.31], [408560.81, 5656220.47], [408674.85, 5656324.78], [408766.08, 5656224.37], [408704.07, 5656191.83]]]}}, {"type": "Feature", "properties": {"k": "colony"}, "geometry": {"type": "Polygon", "coordinates": [[[409232.16, 5656243.14], [409223.44, 5656275.48], [409249.79, 5656286.37], [409270.17, 5656235.8], [409263.85, 5656226.88], [409272.73, 5656190.69], [409286.4, 5656177.29], [409336.4, 5656183.42], [409338.42, 5656160.99], [409342.24, 5656128.75], [409340.07, 5656128.27], [409341.01, 5656121.82], [409341.89, 5656118.12], [409349.06, 5656043.28], [409422.9, 5656049.0], [409426.79, 5656032.86], [409426.21, 5656020.97], [409444.02, 5656019.88], [409443.17, 5656000.0], [409278.21, 5656000.0], [409223.49, 5656240.19], [409232.16, 5656243.14]]]}}, {"type": "Feature", "properties": {"k": "colony"}, "geometry": {"type": "Polygon", "coordinates": [[[408013.59, 5656233.76], [408015.25, 5656223.93], [408013.94, 5656214.88], [408011.73, 5656208.06], [408000.0, 5656192.92], [408000.0, 5656242.5], [408010.38, 5656254.41], [408013.59, 5656233.76]]]}}, {"type": "Feature", "properties": {"k": "colony"}, "geometry": {"type": "Polygon", "coordinates": [[[408032.23, 5656413.06], [408041.19, 5656414.18], [408041.84, 5656408.17], [408074.51, 5656411.69], [408076.15, 5656402.76], [408080.09, 5656403.18], [408082.98, 5656386.15], [408088.83, 5656379.26], [408090.45, 5656369.28], [408098.09, 5656370.53], [408100.55, 5656356.93], [408064.34, 5656350.4], [408067.92, 5656326.09], [408047.29, 5656321.72], [408046.18, 5656327.47], [408042.42, 5656346.86], [408010.55, 5656341.07], [408002.06, 5656409.88], [408032.23, 5656413.06]]]}}, {"type": "Feature", "properties": {"k": "colony"}, "geometry": {"type": "Polygon", "coordinates": [[[409842.28, 5657565.7], [409970.87, 5657556.16], [409970.17, 5657532.41], [409976.24, 5657532.05], [409966.36, 5657513.73], [409954.14, 5657496.98], [409948.05, 5657496.52], [409871.26, 5657496.31], [409831.59, 5657500.34], [409842.28, 5657565.7]]]}}, {"type": "Feature", "properties": {"k": "colony"}, "geometry": {"type": "Polygon", "coordinates": [[[408004.49, 5656183.95], [408017.58, 5656197.17], [408024.37, 5656212.16], [408025.78, 5656214.94], [408027.11, 5656193.09], [408000.0, 5656160.79], [408000.0, 5656180.87], [408004.49, 5656183.95]]]}}, {"type": "Feature", "properties": {"k": "colony"}, "geometry": {"type": "Polygon", "coordinates": [[[409610.54, 5656883.0], [409615.06, 5656897.0], [409631.41, 5656891.57], [409644.93, 5656932.24], [409732.32, 5656883.55], [409805.67, 5656842.85], [409832.86, 5656828.1], [409820.94, 5656802.31], [409826.22, 5656799.65], [409818.48, 5656785.44], [409803.28, 5656756.86], [409791.16, 5656734.03], [409766.84, 5656741.65], [409746.24, 5656750.47], [409734.29, 5656757.25], [409655.95, 5656812.27], [409600.86, 5656829.25], [409613.7, 5656866.94], [409605.97, 5656869.35], [409610.54, 5656883.0]]]}}]}