{"type": "FeatureCollection", "attribution": "\u00a9 OpenStreetMap contributors (ODbL)", "crs": {"type": "name", "properties": {"name": "urn:ogc:def:crs:EPSG::25833"}}, "features": [{"type": "Feature", "properties": {"k": "colony"}, "geometry": {"type": "Polygon", "coordinates": [[[413099.14, 5657820.95], [413105.17, 5657833.87], [413123.74, 5657850.45], [413138.28, 5657860.16], [413157.93, 5657865.62], [413193.58, 5657882.48], [413209.02, 5657874.8], [413195.79, 5657845.1], [413188.98, 5657800.23], [413200.28, 5657794.92], [413229.94, 5657782.23], [413255.02, 5657740.83], [413230.22, 5657739.14], [413217.86, 5657727.56], [413204.59, 5657740.84], [413190.27, 5657747.68], [413175.34, 5657754.21], [413155.98, 5657759.89], [413133.92, 5657769.15], [413118.88, 5657776.53], [413111.84, 5657779.7], [413100.76, 5657790.59], [413098.28, 5657806.0], [413099.14, 5657820.95]]]}}, {"type": "Feature", "properties": {"k": "colony"}, "geometry": {"type": "Polygon", "coordinates": [[[413990.45, 5657893.77], [413950.77, 5657905.86], [413947.3, 5657907.02], [413944.83, 5657909.06], [413943.0, 5657915.38], [413941.04, 5657922.08], [413936.38, 5657938.05], [413939.84, 5657938.58], [413983.43, 5657937.89], [413993.41, 5657925.98], [414000.0, 5657920.96], [414000.0, 5657889.66], [413990.45, 5657893.77]]]}}, {"type": "Feature", "properties": {"k": "orchard"}, "geometry": {"type": "Polygon", "coordinates": [[[412790.84, 5657455.81], [412793.48, 5657457.33], [412795.72, 5657453.48], [412796.85, 5657451.56], [412793.55, 5657449.67], [412790.25, 5657455.48], [412790.84, 5657455.81]]]}}, {"type": "Feature", "properties": {"k": "orchard"}, "geometry": {"type": "Polygon", "coordinates": [[[413111.69, 5657424.2], [413119.63, 5657412.0], [413107.85, 5657404.37], [413099.92, 5657416.57], [413111.69, 5657424.2]]]}}, {"type": "Feature", "properties": {"k": "orchard"}, "geometry": {"type": "Polygon", "coordinates": [[[413104.27, 5657402.16], [413092.77, 5657394.75], [413084.89, 5657406.89], [413096.39, 5657414.32], [413104.27, 5657402.16]]]}}, {"type": "Feature", "properties": {"k": "tree", "h": 4.5, "d": 4.0, "src": "grid"}, "geometry": {"type": "Point", "coordinates": [413094.6, 5657404.5]}}]}