{"type": "FeatureCollection", "attribution": "\u00a9 OpenStreetMap contributors (ODbL)", "crs": {"type": "name", "properties": {"name": "urn:ogc:def:crs:EPSG::25833"}}, "features": [{"type": "Feature", "properties": {"k": "colony"}, "geometry": {"type": "Polygon", "coordinates": [[[411982.52, 5658854.43], [411979.06, 5658847.91], [411951.53, 5658861.87], [411947.15, 5658864.1], [411938.49, 5658868.47], [411909.99, 5658882.89], [411906.38, 5658873.42], [411904.83, 5658874.18], [411901.03, 5658875.95], [411898.82, 5658876.99], [411886.7, 5658882.71], [411867.46, 5658891.81], [411866.81, 5658892.12], [411851.25, 5658899.48], [411856.46, 5658910.1], [411861.69, 5658922.13], [411864.63, 5658921.69], [411871.35, 5658936.0], [411868.09, 5658937.72], [411871.29, 5658944.3], [411872.84, 5658947.51], [411880.66, 5658943.76], [411885.07, 5658941.63], [411891.08, 5658938.88], [411892.07, 5658946.54], [411892.94, 5658994.64], [411894.32, 5658994.72], [411894.29, 5658997.02], [411894.28, 5658998.19], [411894.29, 5659000.85], [411893.1, 5659133.91], [411891.6, 5659133.94], [411897.32, 5659211.33], [411890.97, 5659212.5], [411773.14, 5659234.21], [411773.54, 5659247.62], [411773.56, 5659248.27], [411774.56, 5659281.27], [411812.36, 5659274.66], [411874.95, 5659263.47], [411920.95, 5659255.75], [411924.73, 5659252.44], [411929.96, 5659253.31], [411932.88, 5659253.7], [411981.42, 5659226.23], [412000.0, 5659215.14], [412000.0, 5658886.4], [411982.52, 5658854.43]]]}}, {"type": "Feature", "properties": {"k": "colony"}, "geometry": {"type": "Polygon", "coordinates": [[[411262.14, 5658890.09], [411241.65, 5658880.69], [411235.73, 5658868.65], [411232.99, 5658863.05], [411233.87, 5658860.37], [411228.89, 5658859.26], [411190.11, 5658917.53], [411175.73, 5658938.24], [411201.48, 5658941.54], [411206.75, 5658932.07], [411223.3, 5658934.35], [411246.73, 5658937.59], [411249.04, 5658920.17], [411252.68, 5658911.22], [411262.14, 5658890.09]]]}}, {"type": "Feature", "properties": {"k": "colony"}, "geometry": {"type": "Polygon", "coordinates": [[[410860.38, 5658847.24], [410854.55, 5658852.12], [410880.66, 5658881.15], [410889.29, 5658872.74], [410898.79, 5658882.53], [410902.92, 5658886.79], [410931.2, 5658860.95], [410915.77, 5658842.74], [410930.81, 5658829.25], [410924.39, 5658821.82], [410946.02, 5658804.0], [410928.75, 5658784.77], [410947.89, 5658766.7], [410939.36, 5658757.41], [410941.1, 5658755.9], [410941.85, 5658755.24], [410944.68, 5658758.82], [410966.93, 5658741.42], [410965.73, 5658722.91], [410959.45, 5658722.83], [410978.36, 5658703.24], [410986.56, 5658703.63], [410987.79, 5658698.65], [410986.69, 5658689.33], [410943.9, 5658663.91], [410922.49, 5658690.89], [410889.94, 5658674.03], [410859.95, 5658651.68], [410855.44, 5658655.81], [410842.93, 5658667.26], [410845.76, 5658670.37], [410814.71, 5658703.3], [410790.52, 5658728.95], [410811.54, 5658749.05], [410829.65, 5658732.05], [410858.22, 5658763.47], [410843.9, 5658774.86], [410842.44, 5658779.25], [410859.43, 5658797.45], [410861.0, 5658799.31], [410837.04, 5658821.7], [410860.38, 5658847.24]]]}}, {"type": "Feature", "properties": {"k": "colony"}, "geometry": {"type": "Polygon", "coordinates": [[[411479.01, 5659542.05], [411470.12, 5659528.12], [411464.81, 5659519.33], [411462.55, 5659520.71], [411354.9, 5659586.35], [411265.0, 5659641.16], [411269.8, 5659650.73], [411277.25, 5659665.4], [411320.33, 5659639.77], [411343.8, 5659625.28], [411385.98, 5659599.25], [411444.23, 5659563.3], [411479.01, 5659542.05]]]}}, {"type": "Feature", "properties": {"k": "colony"}, "geometry": {"type": "Polygon", "coordinates": [[[411787.3, 5659470.63], [411801.29, 5659466.23], [411804.49, 5659480.61], [411788.12, 5659484.97], [411790.66, 5659519.11], [411791.94, 5659519.69], [411792.28, 5659522.76], [411792.67, 5659526.1], [411791.15, 5659528.33], [411792.44, 5659531.97], [411794.21, 5659531.93], [411867.81, 5659530.36], [411939.46, 5659528.32], [411945.53, 5659528.15], [411946.77, 5659528.11], [411953.15, 5659527.95], [411986.82, 5659511.56], [412000.0, 5659504.78], [412000.0, 5659225.22], [411946.64, 5659255.73], [411937.71, 5659260.22], [411931.59, 5659262.28], [411875.11, 5659271.69], [411883.47, 5659401.92], [411783.46, 5659418.15], [411787.3, 5659470.63]]]}}, {"type": "Feature", "properties": {"k": "colony"}, "geometry": {"type": "Polygon", "coordinates": [[[410575.0, 5658826.27], [410630.0, 5658757.95], [410631.96, 5658755.56], [410612.16, 5658740.13], [410621.67, 5658728.19], [410641.43, 5658743.65], [410656.72, 5658724.71], [410656.44, 5658722.3], [410628.36, 5658704.91], [410602.6, 5658735.03], [410562.28, 5658710.47], [410479.02, 5658843.51], [410506.7, 5658862.07], [410518.45, 5658869.95], [410521.1, 5658871.73], [410532.14, 5658879.12], [410575.0, 5658826.27]]]}}, {"type": "Feature", "properties": {"k": "colony"}, "geometry": {"type": "Polygon", "coordinates": [[[410510.56, 5659361.47], [410517.69, 5659361.92], [410532.08, 5659364.88], [410535.67, 5659331.19], [410517.39, 5659330.0], [410500.27, 5659328.89], [410498.61, 5659360.71], [410510.56, 5659361.47]]]}}, {"type": "Feature", "properties": {"k": "colony"}, "geometry": {"type": "Polygon", "coordinates": [[[411772.79, 5659353.74], [411771.7, 5659339.69], [411771.16, 5659324.41], [411769.57, 5659295.85], [411764.72, 5659292.38], [411759.49, 5659295.37], [411733.59, 5659311.11], [411705.48, 5659328.18], [411706.35, 5659364.29], [411706.75, 5659380.9], [411707.06, 5659393.35], [411707.31, 5659403.82], [411773.51, 5659362.54], [411772.79, 5659353.74]]]}}, {"type": "Feature", "properties": {"k": "colony"}, "geometry": {"type": "Polygon", "coordinates": [[[411783.46, 5659418.15], [411883.47, 5659401.92], [411875.11, 5659271.69], [411782.65, 5659288.06], [411776.4, 5659295.77], [411779.83, 5659353.54], [411780.03, 5659361.02], [411783.46, 5659418.15]]]}}, {"type": "Feature", "properties": {"k": "colony"}, "geometry": {"type": "Polygon", "coordinates": [[[411745.04, 5659594.24], [411732.3, 5659602.04], [411725.68, 5659606.11], [411712.52, 5659614.17], [411713.19, 5659638.71], [411714.87, 5659682.95], [411714.75, 5659711.11], [411714.78, 5659719.98], [411714.84, 5659738.31], [411713.35, 5659762.96], [411710.62, 5659784.61], [411764.43, 5659751.21], [411771.48, 5659746.93], [411776.86, 5659743.51], [411778.67, 5659723.1], [411781.63, 5659699.1], [411783.53, 5659693.28], [411784.92, 5659681.62], [411785.11, 5659675.62], [411786.77, 5659645.21], [411787.79, 5659611.03], [411787.94, 5659572.68], [411787.14, 5659568.98], [411745.04, 5659594.24]]]}}, {"type": "Feature", "properties": {"k": "colony"}, "geometry": {"type": "Polygon", "coordinates": [[[411709.12, 5658748.19], [411713.48, 5658748.54], [411754.48, 5658747.34], [411754.82, 5658750.67], [411811.13, 5658725.05], [411813.2, 5658723.52], [411814.61, 5658720.8], [411815.01, 5658717.97], [411815.83, 5658712.17], [411815.78, 5658711.19], [411815.8, 5658708.95], [411801.34, 5658709.2], [411778.74, 5658709.92], [411778.76, 5658704.31], [411778.77, 5658703.16], [411736.17, 5658703.2], [411736.16, 5658697.91], [411736.29, 5658689.84], [411736.1, 5658681.17], [411727.26, 5658681.22], [411726.99, 5658657.73], [411760.29, 5658657.12], [411786.85, 5658655.12], [411786.76, 5658648.83], [411786.38, 5658637.83], [411786.15, 5658631.36], [411726.06, 5658634.52], [411687.98, 5658636.55], [411688.28, 5658647.61], [411690.78, 5658740.07], [411709.12, 5658748.19]]]}}, {"type": "Feature", "properties": {"k": "colony"}, "geometry": {"type": "Polygon", "coordinates": [[[411532.23, 5659877.67], [411587.7, 5659843.32], [411594.96, 5659855.94], [411682.9, 5659802.34], [411686.13, 5659780.4], [411690.75, 5659734.63], [411690.22, 5659719.78], [411430.36, 5659883.43], [411445.65, 5659902.81], [411460.63, 5659921.58], [411532.23, 5659877.67]]]}}, {"type": "Feature", "properties": {"k": "colony"}, "geometry": {"type": "Polygon", "coordinates": [[[411564.33, 5659033.63], [411563.78, 5659034.27], [411551.53, 5659400.01], [411552.1, 5659399.81], [411563.91, 5659398.75], [411574.78, 5659029.91], [411564.33, 5659033.63]]]}}, {"type": "Feature", "properties": {"k": "colony"}, "geometry": {"type": "Polygon", "coordinates": [[[411552.18, 5659039.91], [411528.69, 5659050.83], [411518.62, 5659402.89], [411542.15, 5659401.74], [411551.53, 5659400.01], [411563.78, 5659034.27], [411552.18, 5659039.91]]]}}, {"type": "Feature", "properties": {"k": "colony"}, "geometry": {"type": "Polygon", "coordinates": [[[411420.76, 5659110.5], [411384.8, 5659132.14], [411358.5, 5659147.93], [411335.32, 5659163.6], [411321.68, 5659173.1], [411334.54, 5659192.98], [411333.18, 5659193.78], [411339.99, 5659205.91], [411338.36, 5659220.18], [411337.89, 5659224.29], [411335.76, 5659235.37], [411334.71, 5659240.42], [411334.0, 5659243.87], [411332.84, 5659249.43], [411332.72, 5659252.0], [411330.85, 5659262.84], [411325.75, 5659289.59], [411325.72, 5659297.42], [411318.81, 5659297.36], [411325.15, 5659312.26], [411316.09, 5659316.41], [411326.05, 5659343.79], [411326.96, 5659358.67], [411308.54, 5659362.25], [411313.08, 5659372.93], [411310.44, 5659374.73], [411310.05, 5659378.6], [411307.65, 5659430.53], [411309.26, 5659435.38], [411312.1, 5659438.33], [411314.79, 5659439.68], [411340.66, 5659435.7], [411362.35, 5659430.58], [411391.11, 5659425.76], [411407.24, 5659424.92], [411422.37, 5659424.13], [411438.02, 5659424.03], [411436.33, 5659361.75], [411435.81, 5659336.17], [411436.04, 5659325.1], [411436.45, 5659305.08], [411451.76, 5659304.99], [411451.55, 5659092.17], [411420.76, 5659110.5]]]}}, {"type": "Feature", "properties": {"k": "colony"}, "geometry": {"type": "Polygon", "coordinates": [[[411614.06, 5659963.46], [411609.14, 5659960.16], [411602.11, 5659961.15], [411537.56, 5660000.0], [411590.23, 5660000.0], [411614.06, 5659963.46]]]}}, {"type": "Feature", "properties": {"k": "colony"}, "geometry": {"type": "Polygon", "coordinates": [[[411641.71, 5659495.34], [411634.38, 5659495.51], [411633.03, 5659447.93], [411572.13, 5659483.76], [411479.01, 5659542.05], [411444.23, 5659563.3], [411444.94, 5659606.7], [411405.55, 5659630.98], [411420.25, 5659653.22], [411436.01, 5659679.49], [411394.43, 5659705.28], [411389.81, 5659708.07], [411377.83, 5659715.34], [411365.38, 5659722.36], [411366.6, 5659729.97], [411329.87, 5659754.44], [411345.98, 5659775.34], [411357.97, 5659791.3], [411359.08, 5659792.78], [411396.32, 5659769.25], [411405.01, 5659783.88], [411399.75, 5659786.8], [411387.77, 5659794.14], [411369.03, 5659805.22], [411370.55, 5659807.07], [411405.48, 5659852.3], [411430.36, 5659883.43], [411690.22, 5659719.78], [411688.17, 5659611.63], [411686.12, 5659552.54], [411685.53, 5659534.1], [411642.97, 5659560.0], [411641.71, 5659495.34]]]}}, {"type": "Feature", "properties": {"k": "colony"}, "geometry": {"type": "Polygon", "coordinates": [[[411505.35, 5659980.82], [411512.89, 5659992.03], [411537.14, 5659976.96], [411569.45, 5659957.37], [411600.34, 5659938.64], [411623.48, 5659924.6], [411627.63, 5659922.08], [411633.42, 5659931.38], [411634.08, 5659932.45], [411645.58, 5659911.31], [411663.86, 5659865.94], [411677.2, 5659828.96], [411682.9, 5659802.34], [411594.96, 5659855.94], [411587.7, 5659843.32], [411532.23, 5659877.67], [411549.01, 5659903.98], [411577.83, 5659885.34], [411591.13, 5659909.97], [411548.89, 5659936.94], [411524.86, 5659950.91], [411496.2, 5659968.04], [411505.35, 5659980.82]]]}}, {"type": "Feature", "properties": {"k": "colony"}, "geometry": {"type": "Polygon", "coordinates": [[[411232.62, 5659995.64], [411226.2, 5659988.92], [411166.51, 5660000.0], [411236.52, 5660000.0], [411232.62, 5659995.64]]]}}, {"type": "Feature", "properties": {"k": "colony"}, "geometry": {"type": "Polygon", "coordinates": [[[410763.29, 5658959.6], [410758.08, 5658952.28], [410746.35, 5658937.82], [410734.49, 5658923.57], [410728.81, 5658929.3], [410693.27, 5658965.13], [410691.82, 5658966.59], [410685.58, 5658972.86], [410691.54, 5658980.52], [410697.57, 5658988.28], [410705.24, 5658998.33], [410746.89, 5658985.02], [410762.07, 5658980.16], [410773.67, 5658976.46], [410763.29, 5658959.6]]]}}, {"type": "Feature", "properties": {"k": "colony"}, "geometry": {"type": "Polygon", "coordinates": [[[410438.28, 5658225.12], [410492.9, 5658144.58], [410421.54, 5658095.3], [410321.35, 5658146.24], [410319.2, 5658148.84], [410317.51, 5658151.93], [410318.07, 5658155.55], [410319.55, 5658158.92], [410359.01, 5658209.09], [410400.71, 5658217.92], [410376.07, 5658254.25], [410352.0, 5658287.58], [410353.89, 5658288.94], [410382.62, 5658309.99], [410438.28, 5658225.12]]]}}, {"type": "Feature", "properties": {"k": "colony"}, "geometry": {"type": "Polygon", "coordinates": [[[410085.31, 5659652.7], [410091.13, 5659609.53], [410051.22, 5659605.46], [410037.52, 5659604.07], [410035.82, 5659603.89], [410035.38, 5659608.36], [410029.68, 5659607.79], [410028.17, 5659607.64], [410027.39, 5659614.68], [410026.04, 5659625.36], [410000.0, 5659623.15], [410000.0, 5659651.23], [410004.57, 5659651.26], [410085.31, 5659652.7]]]}}, {"type": "Feature", "properties": {"k": "colony"}, "geometry": {"type": "Polygon", "coordinates": [[[410000.69, 5659915.37], [410020.95, 5659912.9], [410024.5, 5659905.38], [410027.39, 5659899.23], [410028.32, 5659896.67], [410026.26, 5659893.4], [410025.52, 5659893.79], [410008.37, 5659864.23], [410000.95, 5659867.77], [410000.17, 5659866.4], [410000.0, 5659866.18], [410000.0, 5659915.4], [410000.69, 5659915.37]]]}}, {"type": "Feature", "properties": {"k": "colony"}, "geometry": {"type": "Polygon", "coordinates": [[[410320.19, 5659801.25], [410314.25, 5659803.81], [410246.59, 5659800.78], [410184.94, 5659798.36], [410172.72, 5659796.34], [410160.17, 5659791.18], [410150.51, 5659783.21], [410141.77, 5659772.35], [410136.19, 5659758.73], [410134.58, 5659703.6], [410137.01, 5659659.07], [410134.46, 5659658.75], [410134.59, 5659654.88], [410085.31, 5659652.7], [410082.0, 5659682.98], [410077.89, 5659714.58], [410074.78, 5659746.22], [410043.38, 5659751.97], [410042.84, 5659769.73], [410044.9, 5659781.94], [410047.58, 5659792.09], [410050.66, 5659799.94], [410045.45, 5659802.25], [410036.21, 5659800.19], [410030.32, 5659819.89], [410038.79, 5659821.93], [410032.88, 5659842.53], [410037.03, 5659843.55], [410034.77, 5659867.98], [410034.45, 5659871.42], [410041.04, 5659875.39], [410042.95, 5659876.79], [410044.23, 5659878.66], [410039.62, 5659884.4], [410030.77, 5659901.0], [410052.54, 5659912.19], [410041.62, 5659932.68], [410040.88, 5659934.06], [410074.9, 5659993.28], [410072.92, 5659994.39], [410072.02, 5659995.05], [410074.36, 5660000.0], [410337.62, 5660000.0], [410337.17, 5659992.43], [410336.18, 5659992.5], [410305.52, 5659994.33], [410305.33, 5659992.4], [410305.21, 5659990.81], [410301.61, 5659951.41], [410296.5, 5659905.76], [410295.14, 5659889.37], [410294.52, 5659877.63], [410311.32, 5659875.47], [410333.66, 5659872.64], [410327.54, 5659816.48], [410329.62, 5659807.66], [410330.0, 5659803.8], [410329.87, 5659801.31], [410320.19, 5659801.25]]]}}, {"type": "Feature", "properties": {"k": "colony"}, "geometry": {"type": "Polygon", "coordinates": [[[410808.11, 5658352.24], [410798.29, 5658368.06], [410768.81, 5658415.51], [410766.54, 5658420.63], [410767.23, 5658422.78], [410817.64, 5658451.81], [410864.15, 5658477.85], [410867.1, 5658474.67], [410905.43, 5658435.15], [410923.6, 5658415.76], [410939.84, 5658425.7], [410947.24, 5658419.1], [410947.42, 5658417.67], [410948.54, 5658412.87], [410803.29, 5658324.07], [410792.23, 5658342.16], [410808.11, 5658352.24]]]}}, {"type": "Feature", "properties": {"k": "colony"}, "geometry": {"type": "Polygon", "coordinates": [[[410803.29, 5658324.07], [410948.54, 5658412.87], [410951.44, 5658406.91], [410929.71, 5658393.13], [410925.99, 5658384.17], [410911.02, 5658371.98], [410847.45, 5658332.08], [410815.27, 5658311.99], [410798.63, 5658301.38], [410787.53, 5658314.34], [410803.29, 5658324.07]]]}}, {"type": "Feature", "properties": {"k": "colony"}, "geometry": {"type": "Polygon", "coordinates": [[[411188.16, 5659056.36], [411186.65, 5659047.2], [411183.29, 5659031.5], [411179.05, 5659032.36], [411169.89, 5659034.49], [411154.32, 5658980.64], [411153.73, 5658971.11], [411101.74, 5659052.31], [411113.28, 5659060.16], [411113.31, 5659075.8], [411150.29, 5659070.91], [411190.64, 5659065.48], [411188.16, 5659056.36]]]}}, {"type": "Feature", "properties": {"k": "colony"}, "geometry": {"type": "Polygon", "coordinates": [[[411393.85, 5659065.11], [411376.45, 5659078.65], [411379.91, 5659084.52], [411382.85, 5659088.94], [411416.74, 5659069.52], [411406.66, 5659056.18], [411393.85, 5659065.11]]]}}, {"type": "Feature", "properties": {"k": "colony"}, "geometry": {"type": "Polygon", "coordinates": [[[411507.27, 5659004.31], [411493.42, 5659008.01], [411477.07, 5659013.83], [411455.34, 5659023.38], [411437.47, 5659033.44], [411406.66, 5659056.18], [411416.74, 5659069.52], [411440.27, 5659057.06], [411520.93, 5659016.05], [411515.22, 5659002.95], [411507.27, 5659004.31]]]}}, {"type": "Feature", "properties": {"k": "colony"}, "geometry": {"type": "Polygon", "coordinates": [[[411428.19, 5658744.9], [411449.59, 5658745.01], [411456.94, 5658745.15], [411506.93, 5658744.77], [411530.28, 5658745.26], [411530.62, 5658742.88], [411517.78, 5658736.34], [411504.15, 5658737.44], [411483.67, 5658741.26], [411476.36, 5658738.83], [411435.22, 5658718.08], [411430.09, 5658715.35], [411428.2, 5658714.64], [411424.34, 5658714.44], [411421.6, 5658714.81], [411418.91, 5658715.6], [411415.75, 5658717.0], [411413.35, 5658718.82], [411401.52, 5658743.65], [411428.19, 5658744.9]]]}}, {"type": "Feature", "properties": {"k": "colony"}, "geometry": {"type": "Polygon", "coordinates": [[[411451.79, 5659308.81], [411470.86, 5659308.86], [411467.63, 5659416.18], [411480.55, 5659412.44], [411518.62, 5659402.89], [411528.69, 5659050.83], [411496.64, 5659066.8], [411492.82, 5659069.6], [411490.78, 5659076.4], [411487.96, 5659076.63], [411486.9, 5659076.71], [411485.74, 5659077.12], [411473.16, 5659081.68], [411468.44, 5659084.67], [411464.38, 5659086.48], [411452.91, 5659091.47], [411451.55, 5659092.17], [411451.76, 5659304.99], [411451.79, 5659308.81]]]}}, {"type": "Feature", "properties": {"k": "colony"}, "geometry": {"type": "Polygon", "coordinates": [[[411620.85, 5659147.11], [411620.68, 5659173.15], [411616.53, 5659316.22], [411590.99, 5659333.31], [411589.71, 5659376.44], [411596.68, 5659388.14], [411606.36, 5659383.37], [411680.98, 5659333.87], [411680.5, 5659318.59], [411678.9, 5659276.51], [411676.96, 5659228.3], [411667.78, 5659148.68], [411667.49, 5659146.28], [411649.89, 5659148.79], [411652.79, 5659077.14], [411660.17, 5659076.93], [411658.69, 5659041.54], [411633.86, 5659031.12], [411624.93, 5659030.19], [411620.85, 5659147.11]]]}}, {"type": "Feature", "properties": {"k": "colony"}, "geometry": {"type": "Polygon", "coordinates": [[[411581.31, 5659395.71], [411596.68, 5659388.14], [411589.71, 5659376.44], [411590.99, 5659333.31], [411616.53, 5659316.22], [411617.88, 5659254.78], [411620.85, 5659147.11], [411624.93, 5659030.19], [411620.25, 5659031.83], [411616.86, 5659031.41], [411613.81, 5659029.37], [411607.97, 5659022.14], [411603.3, 5659022.18], [411592.59, 5659023.14], [411574.78, 5659029.91], [411563.91, 5659398.75], [411581.31, 5659395.71]]]}}, {"type": "Feature", "properties": {"k": "colony"}, "geometry": {"type": "Polygon", "coordinates": [[[411411.74, 5659434.37], [411409.53, 5659434.23], [411413.22, 5659441.78], [411398.53, 5659445.97], [411403.25, 5659457.03], [411382.08, 5659468.51], [411346.53, 5659490.61], [411299.37, 5659519.3], [411303.51, 5659526.19], [411321.19, 5659555.65], [411297.46, 5659570.31], [411289.09, 5659575.48], [411272.55, 5659585.89], [411269.65, 5659587.71], [411263.07, 5659591.72], [411247.28, 5659601.33], [411247.75, 5659602.41], [411254.31, 5659617.36], [411281.44, 5659600.76], [411329.69, 5659571.23], [411449.04, 5659498.23], [411451.21, 5659496.89], [411413.39, 5659434.68], [411411.74, 5659434.37]]]}}, {"type": "Feature", "properties": {"k": "colony"}, "geometry": {"type": "Polygon", "coordinates": [[[411439.12, 5659434.02], [411428.77, 5659435.67], [411413.39, 5659434.68], [411451.21, 5659496.89], [411464.81, 5659519.33], [411470.12, 5659528.12], [411479.01, 5659542.05], [411572.13, 5659483.76], [411633.03, 5659447.93], [411682.24, 5659418.65], [411680.08, 5659342.71], [411622.7, 5659381.25], [411585.85, 5659402.07], [411566.22, 5659405.75], [411543.14, 5659408.34], [411527.26, 5659410.29], [411511.77, 5659414.33], [411508.6, 5659415.18], [411494.86, 5659418.91], [411439.12, 5659434.02]]]}}, {"type": "Feature", "properties": {"k": "colony"}, "geometry": {"type": "Polygon", "coordinates": [[[411296.91, 5659882.98], [411343.68, 5659869.75], [411391.85, 5659854.9], [411379.65, 5659839.9], [411378.95, 5659839.01], [411347.53, 5659847.54], [411340.46, 5659849.45], [411338.15, 5659841.45], [411344.9, 5659839.56], [411372.96, 5659831.68], [411371.48, 5659829.86], [411369.3, 5659827.19], [411339.05, 5659836.67], [411266.65, 5659856.9], [411266.84, 5659857.75], [411244.38, 5659863.39], [411252.57, 5659893.13], [411296.91, 5659882.98]]]}}, {"type": "Feature", "properties": {"k": "colony"}, "geometry": {"type": "Polygon", "coordinates": [[[411398.84, 5659863.8], [411391.85, 5659854.9], [411343.68, 5659869.75], [411296.91, 5659882.98], [411252.57, 5659893.13], [411172.31, 5659912.57], [411199.48, 5659943.62], [411213.04, 5659959.56], [411270.61, 5659943.74], [411322.9, 5659928.92], [411344.78, 5659921.74], [411330.26, 5659889.54], [411331.5, 5659885.43], [411333.32, 5659884.92], [411371.85, 5659873.08], [411399.54, 5659864.69], [411398.84, 5659863.8]]]}}, {"type": "Feature", "properties": {"k": "colony"}, "geometry": {"type": "Polygon", "coordinates": [[[411659.54, 5659998.63], [411680.09, 5659987.69], [411682.91, 5659986.06], [411674.06, 5659968.91], [411663.09, 5659947.67], [411655.9, 5659944.32], [411638.85, 5659971.11], [411619.63, 5660000.0], [411656.98, 5660000.0], [411659.54, 5659998.63]]]}}, {"type": "Feature", "properties": {"k": "colony"}, "geometry": {"type": "Polygon", "coordinates": [[[410609.07, 5659760.74], [410612.68, 5659766.3], [410617.48, 5659768.62], [410621.1, 5659764.48], [410696.29, 5659675.84], [410705.97, 5659666.6], [410699.66, 5659660.23], [410704.83, 5659654.76], [410702.0, 5659652.28], [410720.64, 5659628.43], [410708.22, 5659616.01], [410702.87, 5659624.42], [410666.41, 5659677.77], [410609.07, 5659760.74]]]}}, {"type": "Feature", "properties": {"k": "colony"}, "geometry": {"type": "Polygon", "coordinates": [[[411704.88, 5659303.5], [411705.27, 5659319.86], [411764.89, 5659283.82], [411766.25, 5659281.45], [411767.42, 5659278.02], [411767.81, 5659266.38], [411767.87, 5659247.93], [411718.26, 5659273.89], [411704.37, 5659282.29], [411704.88, 5659303.5]]]}}, {"type": "Feature", "properties": {"k": "colony"}, "geometry": {"type": "Polygon", "coordinates": [[[411734.95, 5659124.12], [411733.04, 5659146.75], [411732.98, 5659248.48], [411767.9, 5659232.19], [411768.34, 5659122.08], [411770.53, 5659051.15], [411768.17, 5659047.73], [411766.07, 5659045.43], [411762.58, 5659044.55], [411735.89, 5659046.72], [411734.95, 5659124.12]]]}}, {"type": "Feature", "properties": {"k": "colony"}, "geometry": {"type": "Polygon", "coordinates": [[[411732.98, 5659248.48], [411733.04, 5659146.75], [411734.95, 5659124.12], [411735.89, 5659046.72], [411707.82, 5659046.43], [411698.64, 5659045.93], [411700.54, 5659124.55], [411703.96, 5659265.42], [411732.98, 5659248.48]]]}}, {"type": "Feature", "properties": {"k": "colony"}, "geometry": {"type": "Polygon", "coordinates": [[[411781.75, 5658867.14], [411764.04, 5658874.5], [411763.0, 5658872.48], [411762.0, 5658870.56], [411755.02, 5658855.9], [411745.79, 5658836.51], [411740.23, 5658839.95], [411739.49, 5658838.75], [411730.47, 5658844.31], [411730.76, 5658864.02], [411730.97, 5658870.14], [411731.15, 5658874.85], [411732.25, 5658912.27], [411732.31, 5658914.34], [411785.42, 5658889.73], [411781.75, 5658867.14]]]}}, {"type": "Feature", "properties": {"k": "colony"}, "geometry": {"type": "Polygon", "coordinates": [[[411824.74, 5658867.4], [411820.18, 5658857.8], [411802.68, 5658866.19], [411804.62, 5658870.62], [411808.13, 5658879.1], [411870.94, 5658848.58], [411869.18, 5658844.74], [411865.19, 5658835.99], [411862.88, 5658830.96], [411860.93, 5658831.85], [411863.69, 5658838.18], [411849.51, 5658844.35], [411846.75, 5658838.02], [411831.18, 5658844.81], [411833.31, 5658849.33], [411838.37, 5658860.75], [411831.84, 5658863.94], [411828.36, 5658865.65], [411824.74, 5658867.4]]]}}, {"type": "Feature", "properties": {"k": "colony"}, "geometry": {"type": "Polygon", "coordinates": [[[411732.04, 5659040.82], [411768.34, 5659038.95], [411770.42, 5659036.93], [411774.91, 5658944.22], [411775.64, 5658937.94], [411750.88, 5658947.45], [411731.16, 5658954.26], [411709.92, 5658963.08], [411696.76, 5658968.55], [411698.5, 5659040.58], [411732.04, 5659040.82]]]}}, {"type": "Feature", "properties": {"k": "colony"}, "geometry": {"type": "Polygon", "coordinates": [[[411825.85, 5659990.18], [411822.33, 5659988.43], [411817.67, 5659985.85], [411787.61, 5659974.07], [411778.19, 5660000.0], [411821.05, 5660000.0], [411825.85, 5659990.18]]]}}, {"type": "Feature", "properties": {"k": "colony"}, "geometry": {"type": "Polygon", "coordinates": [[[410010.78, 5659859.08], [410034.77, 5659867.98], [410037.03, 5659843.55], [410032.88, 5659842.53], [410038.79, 5659821.93], [410030.32, 5659819.89], [410036.21, 5659800.19], [410045.45, 5659802.25], [410050.66, 5659799.94], [410047.58, 5659792.09], [410044.9, 5659781.94], [410042.84, 5659769.73], [410043.38, 5659751.97], [410004.96, 5659757.66], [410004.42, 5659769.99], [410003.22, 5659797.04], [410000.0, 5659798.98], [410000.0, 5659855.08], [410010.78, 5659859.08]]]}}, {"type": "Feature", "properties": {"k": "orchard"}, "geometry": {"type": "Polygon", "coordinates": [[[411951.53, 5658861.87], [411979.06, 5658847.91], [411972.33, 5658834.8], [411940.74, 5658851.49], [411945.02, 5658859.91], [411947.15, 5658864.1], [411951.53, 5658861.87]]]}}, {"type": "Feature", "properties": {"k": "tree", "h": 4.5, "d": 4.0, "src": "grid"}, "geometry": {"type": "Point", "coordinates": [411970.5, 5658844.0]}}, {"type": "Feature", "properties": {"k": "tree", "h": 4.5, "d": 4.0, "src": "grid"}, "geometry": {"type": "Point", "coordinates": [411963.3, 5658847.7]}}, {"type": "Feature", "properties": {"k": "tree", "h": 4.5, "d": 4.0, "src": "grid"}, "geometry": {"type": "Point", "coordinates": [411956.2, 5658851.4]}}, {"type": "Feature", "properties": {"k": "tree", "h": 4.5, "d": 4.0, "src": "grid"}, "geometry": {"type": "Point", "coordinates": [411949.1, 5658855.0]}}]}