{"type": "FeatureCollection", "attribution": "\u00a9 OpenStreetMap contributors (ODbL)", "crs": {"type": "name", "properties": {"name": "urn:ogc:def:crs:EPSG::25833"}}, "features": [{"type": "Feature", "properties": {"of": "DESNATPU1000Eu05", "kind": "yes", "nx": 0.7396, "ny": 0.673, "w": 1.2, "h": 2.5, "z": 114.65}, "geometry": {"type": "Point", "coordinates": [416380.77, 5656016.75]}}, {"type": "Feature", "properties": {"of": "UUID_53790cea-841d-43d2-a5c9-4eebdbac0cd4", "kind": "yes", "nx": 0.6527, "ny": 0.7576, "w": 1.2, "h": 2.5, "z": 113.84}, "geometry": {"type": "Point", "coordinates": [416242.31, 5656019.7]}}, {"type": "Feature", "properties": {"of": "UUID_0638ac8e-6625-4268-8624-e1a01621568d", "kind": "main", "nx": -0.8796, "ny": -0.4757, "w": 1.8, "h": 3.0, "z": 114.64}, "geometry": {"type": "Point", "coordinates": [417183.44, 5656025.03]}}, {"type": "Feature", "properties": {"of": "UUID_af2a315a-7ab1-43c1-8d81-8d34740161fa", "kind": "yes", "nx": 0.7336, "ny": 0.6796, "w": 1.2, "h": 2.5, "z": 114.5}, "geometry": {"type": "Point", "coordinates": [416358.04, 5656046.15]}}, {"type": "Feature", "properties": {"of": "DESNATPU1000GGkZ", "kind": "main", "nx": 0.5721, "ny": -0.8202, "w": 1.8, "h": 3.0, "z": 114.91}, "geometry": {"type": "Point", "coordinates": [416565.73, 5656061.55]}}, {"type": "Feature", "properties": {"of": "DESNATPU1000G7ON", "kind": "main", "nx": 0.5728, "ny": -0.8197, "w": 1.8, "h": 3.0, "z": 114.85}, "geometry": {"type": "Point", "coordinates": [416575.79, 5656068.57]}}, {"type": "Feature", "properties": {"of": "DESNATPU1000CZxR", "kind": "main", "nx": -0.5981, "ny": -0.8014, "w": 1.8, "h": 3.0, "z": 114.43}, "geometry": {"type": "Point", "coordinates": [416310.33, 5656071.86]}}, {"type": "Feature", "properties": {"of": "DESNATPU1000D7Ar", "kind": "main", "nx": 0.8191, "ny": 0.5737, "w": 1.8, "h": 3.0, "z": 114.92}, "geometry": {"type": "Point", "coordinates": [416578.17, 5656097.23]}}, {"type": "Feature", "properties": {"of": "DESNATPU1000GUhU", "kind": "main", "nx": 0.8818, "ny": 0.4717, "w": 1.8, "h": 3.0, "z": 114.36}, "geometry": {"type": "Point", "coordinates": [417267.5, 5656103.27]}}, {"type": "Feature", "properties": {"of": "DESNATPU1000BIIW", "kind": "main", "nx": -0.572, "ny": 0.8202, "w": 1.8, "h": 3.0, "z": 114.78}, "geometry": {"type": "Point", "coordinates": [416533.87, 5656107.68]}}, {"type": "Feature", "properties": {"of": "DESNATPU1000CnbD", "kind": "main", "nx": 0.8194, "ny": 0.5733, "w": 1.8, "h": 3.0, "z": 114.9}, "geometry": {"type": "Point", "coordinates": [416570.62, 5656108.01]}}, {"type": "Feature", "properties": {"of": "DESNATPU1000ETZu", "kind": "yes", "nx": -0.518, "ny": 0.8554, "w": 1.2, "h": 2.5, "z": 116.09}, "geometry": {"type": "Point", "coordinates": [416082.5, 5656111.0]}}, {"type": "Feature", "properties": {"of": "DESNATPU1000BQJq", "kind": "main", "nx": -0.5711, "ny": 0.8209, "w": 1.8, "h": 3.0, "z": 114.75}, "geometry": {"type": "Point", "coordinates": [416544.44, 5656115.02]}}, {"type": "Feature", "properties": {"of": "UUID_4b95f37a-79a8-49ed-a259-08c8b2a93b88", "kind": "yes", "nx": 0.7601, "ny": 0.6498, "w": 1.2, "h": 2.5, "z": 114.61}, "geometry": {"type": "Point", "coordinates": [416346.44, 5656130.96]}}, {"type": "Feature", "properties": {"of": "UUID_4b95f37a-79a8-49ed-a259-08c8b2a93b88", "kind": "yes", "nx": 0.7601, "ny": 0.6498, "w": 1.2, "h": 2.5, "z": 114.67}, "geometry": {"type": "Point", "coordinates": [416340.41, 5656138.01]}}, {"type": "Feature", "properties": {"of": "DESNATPU1000Hjss", "kind": "main", "nx": -0.2647, "ny": 0.9643, "w": 1.8, "h": 3.0, "z": 114.36}, "geometry": {"type": "Point", "coordinates": [416022.09, 5656142.06]}}, {"type": "Feature", "properties": {"of": "DESNATPU1000ECNS", "kind": "yes", "nx": 0.7155, "ny": 0.6987, "w": 1.2, "h": 2.5, "z": 114.51}, "geometry": {"type": "Point", "coordinates": [416258.99, 5656151.06]}}, {"type": "Feature", "properties": {"of": "DESNATPU1000FIBP", "kind": "main", "nx": 0.0133, "ny": 0.9999, "w": 1.0, "h": 3.0, "z": 114.63}, "geometry": {"type": "Point", "coordinates": [417241.26, 5656158.58]}}, {"type": "Feature", "properties": {"of": "UUID_ca365347-c12a-4c02-afba-9dad2c148d84", "kind": "yes", "nx": 0.7584, "ny": 0.6518, "w": 1.2, "h": 2.5, "z": 115.06}, "geometry": {"type": "Point", "coordinates": [416344.88, 5656159.59]}}, {"type": "Feature", "properties": {"of": "UUID_11b5e968-05f5-4263-866f-7822c943dcfb", "kind": "yes", "nx": -0.6486, "ny": 0.7611, "w": 1.2, "h": 2.5, "z": 115.08}, "geometry": {"type": "Point", "coordinates": [416357.64, 5656168.47]}}, {"type": "Feature", "properties": {"of": "UUID_11b5e968-05f5-4263-866f-7822c943dcfb", "kind": "yes", "nx": -0.6486, "ny": 0.7611, "w": 1.2, "h": 2.5, "z": 115.07}, "geometry": {"type": "Point", "coordinates": [416359.45, 5656170.01]}}, {"type": "Feature", "properties": {"of": "DESNATPU1000Ifzb", "kind": "yes", "nx": 0.6981, "ny": 0.716, "w": 1.2, "h": 2.5, "z": 114.31}, "geometry": {"type": "Point", "coordinates": [416244.73, 5656170.26]}}, {"type": "Feature", "properties": {"of": "DESNATPU1000I1Mg", "kind": "yes", "nx": -0.6846, "ny": -0.7289, "w": 1.2, "h": 2.5, "z": 115.29}, "geometry": {"type": "Point", "coordinates": [416356.55, 5656181.74]}}, {"type": "Feature", "properties": {"of": "DESNATPU1000BWMe", "kind": "yes", "nx": 0.7576, "ny": 0.6527, "w": 0.79, "h": 2.5, "z": 114.76}, "geometry": {"type": "Point", "coordinates": [416402.45, 5656183.57]}}, {"type": "Feature", "properties": {"of": "DESNATPU1000BWMe", "kind": "yes", "nx": -0.6512, "ny": 0.7589, "w": 1.2, "h": 2.5, "z": 114.74}, "geometry": {"type": "Point", "coordinates": [416393.06, 5656186.11]}}, {"type": "Feature", "properties": {"of": "UUID_547245b7-f84c-436b-a1af-0b93fbd29d7c", "kind": "main", "nx": 0.8702, "ny": 0.4926, "w": 1.8, "h": 3.0, "z": 114.57}, "geometry": {"type": "Point", "coordinates": [417242.38, 5656190.4]}}, {"type": "Feature", "properties": {"of": "DESNATPU1000JaSw", "kind": "main", "nx": -0.2594, "ny": 0.9658, "w": 1.8, "h": 3.0, "z": 114.39}, "geometry": {"type": "Point", "coordinates": [416050.23, 5656190.58]}}, {"type": "Feature", "properties": {"of": "UUID_60fea51b-be7c-44dd-9759-c6cc0dd57a36", "kind": "yes", "nx": -0.692, "ny": 0.7219, "w": 1.2, "h": 2.5, "z": 114.97}, "geometry": {"type": "Point", "coordinates": [416255.49, 5656190.94]}}, {"type": "Feature", "properties": {"of": "DESNATPU1000Cjgg", "kind": "yes", "nx": 0.771, "ny": 0.6369, "w": 1.2, "h": 2.5, "z": 114.94}, "geometry": {"type": "Point", "coordinates": [416252.49, 5656191.23]}}, {"type": "Feature", "properties": {"of": "UUID_547245b7-f84c-436b-a1af-0b93fbd29d7c", "kind": "yes", "nx": -0.4849, "ny": 0.8746, "w": 1.2, "h": 2.5, "z": 114.7}, "geometry": {"type": "Point", "coordinates": [417220.87, 5656194.29]}}, {"type": "Feature", "properties": {"of": "DESNATPU1000ByT3", "kind": "main", "nx": -0.2595, "ny": 0.9657, "w": 1.8, "h": 3.0, "z": 114.39}, "geometry": {"type": "Point", "coordinates": [416065.23, 5656194.61]}}, {"type": "Feature", "properties": {"of": "DESNATPU1000Dfg0", "kind": "yes", "nx": 0.7258, "ny": 0.6879, "w": 1.2, "h": 2.5, "z": 115.54}, "geometry": {"type": "Point", "coordinates": [416386.36, 5656196.54]}}, {"type": "Feature", "properties": {"of": "UUID_547245b7-f84c-436b-a1af-0b93fbd29d7c", "kind": "yes", "nx": -0.4796, "ny": 0.8775, "w": 1.2, "h": 2.5, "z": 114.57}, "geometry": {"type": "Point", "coordinates": [417225.23, 5656196.69]}}, {"type": "Feature", "properties": {"of": "UUID_921c52ac-3a19-4f6f-b026-5309b1da6f5d", "kind": "yes", "nx": 0.3951, "ny": -0.9186, "w": 1.2, "h": 2.5, "z": 114.9}, "geometry": {"type": "Point", "coordinates": [416246.31, 5656198.03]}}, {"type": "Feature", "properties": {"of": "DESNATPU1000Jep3", "kind": "main", "nx": -0.2592, "ny": 0.9658, "w": 1.8, "h": 3.0, "z": 114.39}, "geometry": {"type": "Point", "coordinates": [416080.23, 5656198.64]}}, {"type": "Feature", "properties": {"of": "DESNATPU1000D96D", "kind": "yes", "nx": 0.7245, "ny": 0.6893, "w": 1.2, "h": 2.5, "z": 115.79}, "geometry": {"type": "Point", "coordinates": [416380.85, 5656202.36]}}, {"type": "Feature", "properties": {"of": "UUID_0ee526f0-3d73-49af-8846-a51933cbf8e6", "kind": "main", "nx": -0.8171, "ny": -0.5764, "w": 1.8, "h": 3.0, "z": 114.34}, "geometry": {"type": "Point", "coordinates": [417038.82, 5656267.01]}}, {"type": "Feature", "properties": {"of": "DESNATPU1000BCqf", "kind": "main", "nx": -0.5404, "ny": 0.8414, "w": 1.8, "h": 3.0, "z": 114.35}, "geometry": {"type": "Point", "coordinates": [416353.08, 5656278.68]}}, {"type": "Feature", "properties": {"of": "DESNATPU1000DfUV", "kind": "main", "nx": 0.7044, "ny": -0.7098, "w": 1.8, "h": 3.0, "z": 114.04}, "geometry": {"type": "Point", "coordinates": [416069.96, 5656313.0]}}, {"type": "Feature", "properties": {"of": "UUID_f8eddd38-ebd3-4cf6-819a-a97ced76ca2c", "kind": "main", "nx": -0.0827, "ny": -0.9966, "w": 1.8, "h": 3.0, "z": 113.97}, "geometry": {"type": "Point", "coordinates": [416244.53, 5656313.45]}}, {"type": "Feature", "properties": {"of": "DESNATPU1000DfUV", "kind": "yes", "nx": 0.2864, "ny": 0.9581, "w": 1.2, "h": 2.5, "z": 113.94}, "geometry": {"type": "Point", "coordinates": [416070.42, 5656325.74]}}, {"type": "Feature", "properties": {"of": "DESNATPU1000CJPx", "kind": "yes", "nx": 0.6234, "ny": -0.7819, "w": 1.2, "h": 2.5, "z": 112.07}, "geometry": {"type": "Point", "coordinates": [416512.84, 5656328.97]}}, {"type": "Feature", "properties": {"of": "DESNATPU1000BtOe", "kind": "main", "nx": -0.8981, "ny": -0.4397, "w": 1.8, "h": 3.0, "z": 248.81}, "geometry": {"type": "Point", "coordinates": [417961.47, 5656345.08]}}, {"type": "Feature", "properties": {"of": "UUID_c31ba864-bedf-4577-8877-58cbab09b9b1", "kind": "yes", "nx": 0.7718, "ny": 0.6359, "w": 0.87, "h": 2.5, "z": 114.83}, "geometry": {"type": "Point", "coordinates": [416290.17, 5656354.23]}}, {"type": "Feature", "properties": {"of": "DESNATPU1000E5KU", "kind": "main", "nx": -0.8982, "ny": -0.4397, "w": 1.8, "h": 3.0, "z": 248.69}, "geometry": {"type": "Point", "coordinates": [417956.3, 5656355.63]}}, {"type": "Feature", "properties": {"of": "DESNATPU1000DwsY", "kind": "yes", "nx": 0.1205, "ny": 0.9927, "w": 1.2, "h": 2.5, "z": 114.18}, "geometry": {"type": "Point", "coordinates": [416251.99, 5656356.72]}}, {"type": "Feature", "properties": {"of": "UUID_ad75dc0b-c2b9-4a67-b8b3-7487029961f3", "kind": "yes", "nx": -0.7017, "ny": -0.7125, "w": 1.2, "h": 2.5, "z": 117.76}, "geometry": {"type": "Point", "coordinates": [417096.46, 5656388.94]}}, {"type": "Feature", "properties": {"of": "UUID_31b1a850-611b-42b7-8331-1ea5c5bbd8c0", "kind": "yes", "nx": 0.7849, "ny": 0.6196, "w": 0.96, "h": 2.5, "z": 114.9}, "geometry": {"type": "Point", "coordinates": [416135.72, 5656396.36]}}, {"type": "Feature", "properties": {"of": "UUID_50007c0a-c337-41a6-8a88-fea5d6f83aee", "kind": "main", "nx": -0.7173, "ny": 0.6967, "w": 1.8, "h": 3.0, "z": 118.01}, "geometry": {"type": "Point", "coordinates": [417093.39, 5656403.34]}}, {"type": "Feature", "properties": {"of": "UUID_7fed90b3-f413-4f6a-888a-9db8c018f204", "kind": "main", "nx": -0.7826, "ny": -0.6226, "w": 1.8, "h": 3.0, "z": 110.67}, "geometry": {"type": "Point", "coordinates": [416740.95, 5656410.02]}}, {"type": "Feature", "properties": {"of": "DESNATPU1000Gd7W", "kind": "main", "nx": -0.6431, "ny": -0.7658, "w": 1.8, "h": 3.0, "z": 116.08}, "geometry": {"type": "Point", "coordinates": [417044.9, 5656435.86]}}, {"type": "Feature", "properties": {"of": "UUID_1c0931de-c23e-4729-8dbb-271b6eded8d2", "kind": "yes", "nx": 0.2595, "ny": -0.9657, "w": 0.83, "h": 2.5, "z": 198.94}, "geometry": {"type": "Point", "coordinates": [417292.24, 5656531.42]}}, {"type": "Feature", "properties": {"of": "DESNATPU1000CXqg", "kind": "yes", "nx": -0.6782, "ny": -0.7349, "w": 1.2, "h": 2.5, "z": 111.43}, "geometry": {"type": "Point", "coordinates": [416213.29, 5656677.63]}}, {"type": "Feature", "properties": {"of": "DESNATPU1000D6fN", "kind": "exit", "nx": 0.4187, "ny": -0.9081, "w": 1.0, "h": 2.2, "z": 213.5}, "geometry": {"type": "Point", "coordinates": [417215.66, 5656994.43]}}, {"type": "Feature", "properties": {"of": "DESNATPU1000D6fN", "kind": "main", "nx": -0.9082, "ny": -0.4185, "w": 1.8, "h": 3.0, "z": 215.37}, "geometry": {"type": "Point", "coordinates": [417209.69, 5656998.53]}}, {"type": "Feature", "properties": {"of": "UUID_30e88aa9-3caf-4262-a680-b6f5cd671793", "kind": "yes", "nx": 0.6574, "ny": 0.7535, "w": 1.2, "h": 2.5, "z": 147.29}, "geometry": {"type": "Point", "coordinates": [416501.95, 5657141.87]}}, {"type": "Feature", "properties": {"of": "UUID_673d1419-2bdd-4e35-b074-b749042437b9", "kind": "main", "nx": -0.4074, "ny": -0.9133, "w": 1.8, "h": 3.0, "z": 226.28}, "geometry": {"type": "Point", "coordinates": [417441.39, 5657539.11]}}, {"type": "Feature", "properties": {"of": "UUID_17907764-04f0-43ec-a265-3e21479982ec", "kind": "yes", "nx": -0.4676, "ny": 0.8839, "w": 1.2, "h": 2.5, "z": 240.88}, "geometry": {"type": "Point", "coordinates": [417988.98, 5657579.45]}}, {"type": "Feature", "properties": {"of": "UUID_a0ebea75-8d36-4b26-b2ce-0f9e67ff5c34", "kind": "yes", "nx": 0.6064, "ny": 0.7951, "w": 1.2, "h": 2.5, "z": 229.76}, "geometry": {"type": "Point", "coordinates": [417607.94, 5657609.44]}}, {"type": "Feature", "properties": {"of": "DESNATPU1000FHoH", "kind": "yes", "nx": 0.8984, "ny": -0.4392, "w": 1.2, "h": 2.5, "z": 225.13}, "geometry": {"type": "Point", "coordinates": [417391.07, 5657609.53]}}]}