{"type": "FeatureCollection", "attribution": "\u00a9 OpenStreetMap contributors (ODbL)", "crs": {"type": "name", "properties": {"name": "urn:ogc:def:crs:EPSG::25833"}}, "features": [{"type": "Feature", "properties": {"of": "UUID_14b251b1-7e1e-4649-b3bc-49cd06f7c511", "kind": "yes", "nx": -0.1191, "ny": 0.9929, "w": 1.2, "h": 2.5, "z": 129.06}, "geometry": {"type": "Point", "coordinates": [408196.69, 5656017.03]}}, {"type": "Feature", "properties": {"of": "DESNATPU1000FEhv", "kind": "main", "nx": 0.9927, "ny": 0.1207, "w": 1.8, "h": 3.0, "z": 129.52}, "geometry": {"type": "Point", "coordinates": [408235.34, 5656018.95]}}, {"type": "Feature", "properties": {"of": "DESNATPU1000JLvV", "kind": "yes", "nx": 0.9927, "ny": 0.1204, "w": 1.2, "h": 2.5, "z": 129.11}, "geometry": {"type": "Point", "coordinates": [408191.6, 5656026.17]}}, {"type": "Feature", "properties": {"of": "DESNATPU1000IXRh", "kind": "main", "nx": -0.4859, "ny": -0.874, "w": 1.8, "h": 3.0, "z": 119.87}, "geometry": {"type": "Point", "coordinates": [409509.33, 5656036.05]}}, {"type": "Feature", "properties": {"of": "DESNATPU1000CfeK", "kind": "yes", "nx": 0.9941, "ny": 0.1088, "w": 1.2, "h": 2.5, "z": 129.11}, "geometry": {"type": "Point", "coordinates": [408190.07, 5656039.42]}}, {"type": "Feature", "properties": {"of": "DESNATPU1000G6iC", "kind": "yes", "nx": 0.116, "ny": -0.9932, "w": 1.2, "h": 2.5, "z": 129.04}, "geometry": {"type": "Point", "coordinates": [408192.15, 5656050.22]}}, {"type": "Feature", "properties": {"of": "DESNATPU1000CNkm", "kind": "main", "nx": 0.7354, "ny": -0.6776, "w": 0.73, "h": 3.0, "z": 131.88}, "geometry": {"type": "Point", "coordinates": [408307.16, 5656107.82]}}, {"type": "Feature", "properties": {"of": "DESNATPU1000CNkm", "kind": "yes", "nx": -0.1275, "ny": 0.9918, "w": 1.2, "h": 2.5, "z": 131.39}, "geometry": {"type": "Point", "coordinates": [408302.32, 5656124.71]}}, {"type": "Feature", "properties": {"of": "UUID_f261f25d-64e3-4c77-a8f1-6a7f95fe5987", "kind": "main", "nx": 0.9361, "ny": 0.3518, "w": 1.8, "h": 3.0, "z": 124.82}, "geometry": {"type": "Point", "coordinates": [408810.57, 5656165.35]}}, {"type": "Feature", "properties": {"of": "DESNATP1gB0001Gs", "kind": "main", "nx": 0.6329, "ny": 0.7743, "w": 1.8, "h": 3.0, "z": 115.05}, "geometry": {"type": "Point", "coordinates": [409732.1, 5656186.42]}}, {"type": "Feature", "properties": {"of": "UUID_7e3388a9-ad8b-4a6f-9eab-a8eca58691fc", "kind": "main", "nx": 0.4167, "ny": 0.909, "w": 1.8, "h": 3.0, "z": 116.58}, "geometry": {"type": "Point", "coordinates": [409483.43, 5656207.37]}}, {"type": "Feature", "properties": {"of": "UUID_7e3388a9-ad8b-4a6f-9eab-a8eca58691fc", "kind": "main", "nx": 0.4167, "ny": 0.909, "w": 1.8, "h": 3.0, "z": 116.56}, "geometry": {"type": "Point", "coordinates": [409477.7, 5656210.0]}}, {"type": "Feature", "properties": {"of": "UUID_7e3388a9-ad8b-4a6f-9eab-a8eca58691fc", "kind": "main", "nx": 0.4167, "ny": 0.909, "w": 1.8, "h": 3.0, "z": 116.57}, "geometry": {"type": "Point", "coordinates": [409474.9, 5656211.28]}}, {"type": "Feature", "properties": {"of": "UUID_b2a56c6e-83b6-437d-8814-29f84d0e8f97", "kind": "main", "nx": 0.4167, "ny": 0.909, "w": 1.8, "h": 3.0, "z": 116.58}, "geometry": {"type": "Point", "coordinates": [409463.14, 5656216.67]}}, {"type": "Feature", "properties": {"of": "UUID_b2a56c6e-83b6-437d-8814-29f84d0e8f97", "kind": "main", "nx": 0.4167, "ny": 0.909, "w": 1.8, "h": 3.0, "z": 116.58}, "geometry": {"type": "Point", "coordinates": [409460.69, 5656217.79]}}, {"type": "Feature", "properties": {"of": "DESNATPU1000Hwem", "kind": "yes", "nx": 0.7578, "ny": -0.6524, "w": 1.2, "h": 2.5, "z": 115.21}, "geometry": {"type": "Point", "coordinates": [409677.68, 5656218.57]}}, {"type": "Feature", "properties": {"of": "DESNATPU1000BI72", "kind": "main", "nx": -0.1445, "ny": 0.9895, "w": 0.81, "h": 3.0, "z": 129.96}, "geometry": {"type": "Point", "coordinates": [408447.66, 5656220.12]}}, {"type": "Feature", "properties": {"of": "UUID_0b36c89b-260d-44c4-af8f-97a9d34a850f", "kind": "main", "nx": 0.4164, "ny": 0.9092, "w": 1.8, "h": 3.0, "z": 116.38}, "geometry": {"type": "Point", "coordinates": [409501.8, 5656224.02]}}, {"type": "Feature", "properties": {"of": "DESNATPU1000Hwem", "kind": "yes", "nx": 0.9794, "ny": 0.2017, "w": 1.2, "h": 2.5, "z": 115.22}, "geometry": {"type": "Point", "coordinates": [409681.1, 5656224.7]}}, {"type": "Feature", "properties": {"of": "DESNATPU1000Hwem", "kind": "yes", "nx": 0.418, "ny": 0.9084, "w": 1.2, "h": 2.5, "z": 115.21}, "geometry": {"type": "Point", "coordinates": [409668.33, 5656232.13]}}, {"type": "Feature", "properties": {"of": "DESNATP19o0005et", "kind": "main", "nx": 0.4158, "ny": 0.9095, "w": 1.8, "h": 3.0, "z": 116.38}, "geometry": {"type": "Point", "coordinates": [409481.62, 5656233.25]}}, {"type": "Feature", "properties": {"of": "DESNATP19o0005et", "kind": "main", "nx": 0.4158, "ny": 0.9095, "w": 1.8, "h": 3.0, "z": 116.4}, "geometry": {"type": "Point", "coordinates": [409479.26, 5656234.33]}}, {"type": "Feature", "properties": {"of": "DESNATP19o0005et", "kind": "main", "nx": 0.4158, "ny": 0.9095, "w": 1.8, "h": 3.0, "z": 116.4}, "geometry": {"type": "Point", "coordinates": [409471.8, 5656237.74]}}, {"type": "Feature", "properties": {"of": "DESNATP19o0005et", "kind": "main", "nx": 0.4158, "ny": 0.9095, "w": 1.8, "h": 3.0, "z": 116.43}, "geometry": {"type": "Point", "coordinates": [409469.11, 5656238.97]}}, {"type": "Feature", "properties": {"of": "DESNATP19o0005et", "kind": "main", "nx": 0.4158, "ny": 0.9095, "w": 1.8, "h": 3.0, "z": 116.41}, "geometry": {"type": "Point", "coordinates": [409461.86, 5656242.28]}}, {"type": "Feature", "properties": {"of": "DESNATP19o0005et", "kind": "main", "nx": 0.4158, "ny": 0.9095, "w": 1.8, "h": 3.0, "z": 116.41}, "geometry": {"type": "Point", "coordinates": [409459.89, 5656243.18]}}, {"type": "Feature", "properties": {"of": "DESNATPU1000EG0T", "kind": "main", "nx": -0.3667, "ny": 0.9303, "w": 1.8, "h": 3.0, "z": 117.72}, "geometry": {"type": "Point", "coordinates": [409273.79, 5656254.97]}}, {"type": "Feature", "properties": {"of": "UUID_f9cfc98d-95f3-4ad5-9e2e-b53193fb5c0a", "kind": "main", "nx": 0.4168, "ny": 0.909, "w": 1.8, "h": 3.0, "z": 116.07}, "geometry": {"type": "Point", "coordinates": [409514.71, 5656255.48]}}, {"type": "Feature", "properties": {"of": "DESNATP19o0005er", "kind": "main", "nx": 0.4164, "ny": 0.9092, "w": 1.8, "h": 3.0, "z": 116.03}, "geometry": {"type": "Point", "coordinates": [409486.75, 5656259.46]}}, {"type": "Feature", "properties": {"of": "UUID_660448aa-8966-4aa3-acb4-8cc5abb984cd", "kind": "main", "nx": -0.3632, "ny": 0.9317, "w": 1.8, "h": 3.0, "z": 117.4}, "geometry": {"type": "Point", "coordinates": [409317.7, 5656272.97]}}, {"type": "Feature", "properties": {"of": "DESNATPU1000ET3M", "kind": "yes", "nx": -0.9493, "ny": -0.3145, "w": 1.2, "h": 2.5, "z": 115.42}, "geometry": {"type": "Point", "coordinates": [409600.83, 5656286.54]}}, {"type": "Feature", "properties": {"of": "UUID_51f4fbca-1e2f-467b-8f5a-833ec133ff67", "kind": "yes", "nx": -0.9296, "ny": -0.3685, "w": 1.2, "h": 2.5, "z": 117.29}, "geometry": {"type": "Point", "coordinates": [409307.69, 5656286.59]}}, {"type": "Feature", "properties": {"of": "UUID_166a4c26-5e49-4bfa-9c45-c00f65ae30e4", "kind": "main", "nx": -0.3662, "ny": 0.9305, "w": 1.8, "h": 3.0, "z": 117.56}, "geometry": {"type": "Point", "coordinates": [409264.41, 5656286.95]}}, {"type": "Feature", "properties": {"of": "UUID_998281c9-989c-4dba-8ab9-ba988e7e6d53", "kind": "main", "nx": -0.3665, "ny": 0.9304, "w": 1.8, "h": 3.0, "z": 117.54}, "geometry": {"type": "Point", "coordinates": [409277.61, 5656291.87]}}, {"type": "Feature", "properties": {"of": "UUID_23f611be-5079-4bb9-9423-702341defe7e", "kind": "main", "nx": -0.3663, "ny": 0.9305, "w": 1.8, "h": 3.0, "z": 117.42}, "geometry": {"type": "Point", "coordinates": [409290.71, 5656297.05]}}, {"type": "Feature", "properties": {"of": "UUID_5ba5bc05-3aa5-4600-a837-6c6a159871fe", "kind": "main", "nx": -0.367, "ny": 0.9302, "w": 1.28, "h": 3.0, "z": 117.3}, "geometry": {"type": "Point", "coordinates": [409303.72, 5656302.46]}}, {"type": "Feature", "properties": {"of": "DESNATPU1000ITmR", "kind": "yes", "nx": 0.9608, "ny": -0.2773, "w": 1.2, "h": 2.5, "z": 116.91}, "geometry": {"type": "Point", "coordinates": [409031.35, 5656472.33]}}, {"type": "Feature", "properties": {"of": "DESNATPU1000ITmR", "kind": "main", "nx": -0.9607, "ny": 0.2775, "w": 1.8, "h": 3.0, "z": 116.74}, "geometry": {"type": "Point", "coordinates": [408871.26, 5656518.36]}}, {"type": "Feature", "properties": {"of": "DESNATPU1000EW2M", "kind": "yes", "nx": -0.1323, "ny": 0.9912, "w": 1.2, "h": 2.5, "z": 119.58}, "geometry": {"type": "Point", "coordinates": [408078.81, 5656523.94]}}, {"type": "Feature", "properties": {"of": "DESNATPU1000FaoQ", "kind": "yes", "nx": -0.1279, "ny": 0.9918, "w": 1.2, "h": 2.5, "z": 119.6}, "geometry": {"type": "Point", "coordinates": [408090.96, 5656525.54]}}, {"type": "Feature", "properties": {"of": "DESNATPU1000BqgM", "kind": "yes", "nx": -0.1301, "ny": 0.9915, "w": 1.2, "h": 2.5, "z": 119.57}, "geometry": {"type": "Point", "coordinates": [408103.32, 5656527.17]}}, {"type": "Feature", "properties": {"of": "DESNATPU1000BwiU", "kind": "yes", "nx": -0.4839, "ny": -0.8751, "w": 1.07, "h": 2.5, "z": 112.87}, "geometry": {"type": "Point", "coordinates": [409982.35, 5656835.71]}}, {"type": "Feature", "properties": {"of": "DESNATPU1000CHUL", "kind": "shop", "nx": -0.4122, "ny": 0.9111, "w": 1.2, "h": 2.5, "z": 116.12}, "geometry": {"type": "Point", "coordinates": [408137.38, 5656839.58]}}, {"type": "Feature", "properties": {"of": "DESNATPU1000BS4s", "kind": "yes", "nx": -0.4789, "ny": -0.8779, "w": 1.0, "h": 2.5, "z": 112.82}, "geometry": {"type": "Point", "coordinates": [409969.6, 5656842.67]}}, {"type": "Feature", "properties": {"of": "DESNATPU1000BwiU", "kind": "main", "nx": 0.4741, "ny": 0.8805, "w": 0.7, "h": 3.0, "z": 112.69}, "geometry": {"type": "Point", "coordinates": [409987.91, 5656846.07]}}, {"type": "Feature", "properties": {"of": "DESNATPU1000E3Cy", "kind": "yes", "nx": -0.4786, "ny": -0.878, "w": 1.2, "h": 2.5, "z": 112.85}, "geometry": {"type": "Point", "coordinates": [409957.01, 5656849.55]}}, {"type": "Feature", "properties": {"of": "DESNATPU1000BS4s", "kind": "main", "nx": 0.4708, "ny": 0.8822, "w": 1.44, "h": 3.0, "z": 112.7}, "geometry": {"type": "Point", "coordinates": [409975.56, 5656852.83]}}, {"type": "Feature", "properties": {"of": "DESNATPU1000E3Cy", "kind": "main", "nx": 0.4717, "ny": 0.8817, "w": 1.8, "h": 3.0, "z": 112.68}, "geometry": {"type": "Point", "coordinates": [409962.85, 5656859.66]}}, {"type": "Feature", "properties": {"of": "DESNATPU1000FNts", "kind": "yes", "nx": -0.049, "ny": -0.9988, "w": 1.2, "h": 2.5, "z": 115.92}, "geometry": {"type": "Point", "coordinates": [408020.73, 5656885.06]}}, {"type": "Feature", "properties": {"of": "UUID_f94b72e3-3dd6-4789-ba54-23d2db77f8bb", "kind": "main", "nx": -0.4891, "ny": -0.8722, "w": 1.8, "h": 3.0, "z": 114.56}, "geometry": {"type": "Point", "coordinates": [409597.97, 5656913.86]}}, {"type": "Feature", "properties": {"of": "DESNATPU1000BCqu", "kind": "yes", "nx": -0.4749, "ny": -0.8801, "w": 0.87, "h": 2.5, "z": 113.9}, "geometry": {"type": "Point", "coordinates": [409706.13, 5656920.37]}}, {"type": "Feature", "properties": {"of": "DESNATPU1000BCqu", "kind": "yes", "nx": 0.4677, "ny": 0.8839, "w": 0.74, "h": 2.5, "z": 114.01}, "geometry": {"type": "Point", "coordinates": [409711.88, 5656931.19]}}, {"type": "Feature", "properties": {"of": "UUID_63c946b0-f0ff-473a-958b-6652e58bbeda", "kind": "yes", "nx": -0.106, "ny": -0.9944, "w": 1.2, "h": 2.5, "z": 115.14}, "geometry": {"type": "Point", "coordinates": [408028.21, 5656954.32]}}, {"type": "Feature", "properties": {"of": "UUID_87880d96-6dc3-4af7-9c0f-b9b027d66785", "kind": "main", "nx": 0.4757, "ny": 0.8796, "w": 1.8, "h": 3.0, "z": 113.91}, "geometry": {"type": "Point", "coordinates": [409759.58, 5656976.83]}}, {"type": "Feature", "properties": {"of": "DESNATPU1000IeVN", "kind": "main", "nx": 0.8823, "ny": -0.4707, "w": 1.8, "h": 3.0, "z": 112.92}, "geometry": {"type": "Point", "coordinates": [409885.79, 5656979.97]}}, {"type": "Feature", "properties": {"of": "UUID_e8c875c5-760b-4c29-a5e7-836c4c89e626", "kind": "main", "nx": 0.4759, "ny": 0.8795, "w": 1.8, "h": 3.0, "z": 113.9}, "geometry": {"type": "Point", "coordinates": [409749.67, 5656982.19]}}, {"type": "Feature", "properties": {"of": "UUID_5b718c87-676d-48bf-95c0-129e7e708d02", "kind": "main", "nx": -0.8747, "ny": 0.4846, "w": 1.8, "h": 3.0, "z": 112.6}, "geometry": {"type": "Point", "coordinates": [409908.73, 5656986.92]}}, {"type": "Feature", "properties": {"of": "DESNATPU1000G5de", "kind": "main", "nx": 0.4745, "ny": 0.8802, "w": 1.8, "h": 3.0, "z": 113.9}, "geometry": {"type": "Point", "coordinates": [409739.76, 5656987.55]}}, {"type": "Feature", "properties": {"of": "UUID_6be9faa6-6c21-42cd-bdc4-54e6b0a3393b", "kind": "shop", "nx": -0.9943, "ny": 0.1067, "w": 1.2, "h": 2.5, "z": 115.15}, "geometry": {"type": "Point", "coordinates": [408025.96, 5656991.83]}}, {"type": "Feature", "properties": {"of": "DESNATPU1000D0uO", "kind": "main", "nx": 0.8787, "ny": -0.4774, "w": 1.8, "h": 3.0, "z": 112.66}, "geometry": {"type": "Point", "coordinates": [409892.7, 5656992.85]}}, {"type": "Feature", "properties": {"of": "UUID_6be9faa6-6c21-42cd-bdc4-54e6b0a3393b", "kind": "shop", "nx": -0.9943, "ny": 0.1067, "w": 1.2, "h": 2.5, "z": 115.16}, "geometry": {"type": "Point", "coordinates": [408026.49, 5656996.72]}}, {"type": "Feature", "properties": {"of": "DESNATPU1000FDmH", "kind": "main", "nx": 0.4787, "ny": 0.878, "w": 1.8, "h": 3.0, "z": 113.89}, "geometry": {"type": "Point", "coordinates": [409719.91, 5656998.23]}}, {"type": "Feature", "properties": {"of": "DESNATPU1000J5tY", "kind": "main", "nx": -0.8781, "ny": 0.4785, "w": 1.8, "h": 3.0, "z": 112.46}, "geometry": {"type": "Point", "coordinates": [409916.93, 5657001.58]}}, {"type": "Feature", "properties": {"of": "DESNATPU1000FKcd", "kind": "main", "nx": 0.8787, "ny": -0.4774, "w": 1.8, "h": 3.0, "z": 112.47}, "geometry": {"type": "Point", "coordinates": [409898.25, 5657003.07]}}, {"type": "Feature", "properties": {"of": "DESNATPU1000IYeZ", "kind": "main", "nx": 0.481, "ny": 0.8767, "w": 1.8, "h": 3.0, "z": 113.91}, "geometry": {"type": "Point", "coordinates": [409707.36, 5657003.49]}}, {"type": "Feature", "properties": {"of": "DESNATPU1000EQCm", "kind": "main", "nx": 0.4724, "ny": 0.8814, "w": 1.8, "h": 3.0, "z": 113.91}, "geometry": {"type": "Point", "coordinates": [409695.64, 5657009.74]}}, {"type": "Feature", "properties": {"of": "DESNATPU1000C9UA", "kind": "main", "nx": 0.8787, "ny": -0.4774, "w": 1.8, "h": 3.0, "z": 112.32}, "geometry": {"type": "Point", "coordinates": [409904.14, 5657013.9]}}, {"type": "Feature", "properties": {"of": "DESNATPU1000D7If", "kind": "main", "nx": -0.877, "ny": 0.4804, "w": 1.44, "h": 3.0, "z": 112.23}, "geometry": {"type": "Point", "coordinates": [409924.99, 5657017.22]}}, {"type": "Feature", "properties": {"of": "DESNATPU1000Csrs", "kind": "main", "nx": 0.4775, "ny": 0.8786, "w": 1.73, "h": 3.0, "z": 113.83}, "geometry": {"type": "Point", "coordinates": [409672.3, 5657022.37]}}, {"type": "Feature", "properties": {"of": "DESNATPU1000Chhz", "kind": "main", "nx": 0.4902, "ny": 0.8716, "w": 1.8, "h": 3.0, "z": 113.75}, "geometry": {"type": "Point", "coordinates": [409660.72, 5657028.82]}}, {"type": "Feature", "properties": {"of": "DESNATPU1000DV1Q", "kind": "main", "nx": 0.4783, "ny": 0.8782, "w": 1.8, "h": 3.0, "z": 113.8}, "geometry": {"type": "Point", "coordinates": [409649.07, 5657035.22]}}, {"type": "Feature", "properties": {"of": "UUID_69d2aae7-c098-43d6-aa6c-4fe37fb50af0", "kind": "yes", "nx": -0.8787, "ny": 0.4774, "w": 1.2, "h": 2.5, "z": 114.17}, "geometry": {"type": "Point", "coordinates": [409592.69, 5657035.29]}}, {"type": "Feature", "properties": {"of": "DESNATPU1000FH8u", "kind": "main", "nx": 0.4715, "ny": 0.8819, "w": 1.8, "h": 3.0, "z": 112.1}, "geometry": {"type": "Point", "coordinates": [409904.77, 5657041.75]}}, {"type": "Feature", "properties": {"of": "UUID_a5fd77c6-2057-4c50-b954-aefd44cebbad", "kind": "main", "nx": 0.2411, "ny": -0.9705, "w": 1.8, "h": 3.0, "z": 114.11}, "geometry": {"type": "Point", "coordinates": [409611.48, 5657043.25]}}, {"type": "Feature", "properties": {"of": "DESNATPU1000DRKg", "kind": "main", "nx": 0.4713, "ny": 0.882, "w": 1.8, "h": 3.0, "z": 112.2}, "geometry": {"type": "Point", "coordinates": [409896.33, 5657046.26]}}, {"type": "Feature", "properties": {"of": "DESNATPU1000Dv1W", "kind": "main", "nx": 0.4711, "ny": 0.8821, "w": 1.8, "h": 3.0, "z": 112.23}, "geometry": {"type": "Point", "coordinates": [409888.12, 5657050.64]}}, {"type": "Feature", "properties": {"of": "UUID_a5fd77c6-2057-4c50-b954-aefd44cebbad", "kind": "yes", "nx": -0.8748, "ny": 0.4844, "w": 1.2, "h": 2.5, "z": 113.77}, "geometry": {"type": "Point", "coordinates": [409605.02, 5657057.74]}}, {"type": "Feature", "properties": {"of": "UUID_cf9ab771-f947-4fa6-9d44-cde3c032a640", "kind": "yes", "nx": 0.9967, "ny": 0.0811, "w": 1.2, "h": 2.5, "z": 114.76}, "geometry": {"type": "Point", "coordinates": [408039.35, 5657136.23]}}, {"type": "Feature", "properties": {"of": "DESNATPU1000IrWz", "kind": "main", "nx": -0.8805, "ny": 0.474, "w": 1.8, "h": 3.0, "z": 112.27}, "geometry": {"type": "Point", "coordinates": [409725.92, 5657232.0]}}, {"type": "Feature", "properties": {"of": "DESNATPU1000HwLz", "kind": "main", "nx": -0.8766, "ny": 0.4812, "w": 1.38, "h": 3.0, "z": 112.28}, "geometry": {"type": "Point", "coordinates": [409704.47, 5657251.82]}}, {"type": "Feature", "properties": {"of": "DESNATPU1000DFCE", "kind": "main", "nx": -0.9996, "ny": 0.03, "w": 1.28, "h": 3.0, "z": 112.25}, "geometry": {"type": "Point", "coordinates": [409715.84, 5657273.94]}}, {"type": "Feature", "properties": {"of": "DESNATPU1000Bbj1", "kind": "yes", "nx": 0.9202, "ny": -0.3914, "w": 1.2, "h": 2.5, "z": 113.36}, "geometry": {"type": "Point", "coordinates": [408601.09, 5657289.24]}}, {"type": "Feature", "properties": {"of": "UUID_7795674f-4041-4a6c-b063-15bdf05c7a77", "kind": "main", "nx": -0.8888, "ny": 0.4583, "w": 1.8, "h": 3.0, "z": 112.22}, "geometry": {"type": "Point", "coordinates": [409730.01, 5657300.39]}}, {"type": "Feature", "properties": {"of": "UUID_cfb70798-d54a-4061-ba25-2f4346458ba0", "kind": "yes", "nx": 0.8855, "ny": -0.4647, "w": 1.2, "h": 2.5, "z": 110.86}, "geometry": {"type": "Point", "coordinates": [409970.41, 5657440.73]}}, {"type": "Feature", "properties": {"of": "DESNATPU1000Drt7", "kind": "yes", "nx": 0.2728, "ny": -0.9621, "w": 1.2, "h": 2.5, "z": 111.07}, "geometry": {"type": "Point", "coordinates": [409991.51, 5657859.78]}}, {"type": "Feature", "properties": {"of": "DESNATPU1000Cb6l", "kind": "yes", "nx": -0.0744, "ny": -0.9972, "w": 1.2, "h": 2.5, "z": 110.28}, "geometry": {"type": "Point", "coordinates": [409378.28, 5657906.29]}}]}