{"type": "FeatureCollection", "attribution": "\u00a9 OpenStreetMap contributors (ODbL)", "crs": {"type": "name", "properties": {"name": "urn:ogc:def:crs:EPSG::25833"}}, "features": [{"type": "Feature", "properties": {"of": "UUID_50e0120b-2e23-45fb-837d-dc5be1bf3113", "kind": "staircase", "nx": 0.4786, "ny": 0.8781, "w": 1.2, "h": 2.5, "z": 117.9}, "geometry": {"type": "Point", "coordinates": [413378.44, 5654031.21]}}, {"type": "Feature", "properties": {"of": "UUID_795286ea-7d75-4c49-90d8-f733882b01b4", "kind": "main", "nx": -0.3932, "ny": -0.9194, "w": 1.8, "h": 3.0, "z": 126.62}, "geometry": {"type": "Point", "coordinates": [412219.51, 5654031.25]}}, {"type": "Feature", "properties": {"of": "DESNATPU1000BYnK", "kind": "yes", "nx": 0.5965, "ny": -0.8026, "w": 1.2, "h": 2.5, "z": 122.55}, "geometry": {"type": "Point", "coordinates": [412737.12, 5654036.2]}}, {"type": "Feature", "properties": {"of": "DESNATPU1000IUdP", "kind": "main", "nx": 0.5983, "ny": -0.8012, "w": 1.22, "h": 3.0, "z": 121.33}, "geometry": {"type": "Point", "coordinates": [412745.22, 5654043.9]}}, {"type": "Feature", "properties": {"of": "UUID_e9b89eba-ec5a-40d6-bfe6-0533cc905d03", "kind": "staircase", "nx": 0.4759, "ny": 0.8795, "w": 1.2, "h": 2.5, "z": 117.92}, "geometry": {"type": "Point", "coordinates": [413294.37, 5654045.28]}}, {"type": "Feature", "properties": {"of": "DESNATPU1000BHcN", "kind": "service", "nx": 0.7858, "ny": 0.6185, "w": 1.1, "h": 2.3, "z": 124.02}, "geometry": {"type": "Point", "coordinates": [412501.01, 5654052.26]}}, {"type": "Feature", "properties": {"of": "UUID_1c5e7bd8-9333-4401-b880-9fc1ad922e47", "kind": "main", "nx": 0.6183, "ny": -0.786, "w": 1.8, "h": 3.0, "z": 123.79}, "geometry": {"type": "Point", "coordinates": [412534.7, 5654053.19]}}, {"type": "Feature", "properties": {"of": "DESNATPU1000BHcN", "kind": "main", "nx": -0.6185, "ny": 0.7858, "w": 1.8, "h": 3.0, "z": 124.02}, "geometry": {"type": "Point", "coordinates": [412474.3, 5654053.51]}}, {"type": "Feature", "properties": {"of": "DESNATPU1000HphR", "kind": "staircase", "nx": 0.4752, "ny": 0.8799, "w": 1.2, "h": 2.5, "z": 117.94}, "geometry": {"type": "Point", "coordinates": [413277.97, 5654054.15]}}, {"type": "Feature", "properties": {"of": "UUID_ead01f69-e464-4034-a5e3-d1ac1864f8df", "kind": "staircase", "nx": 0.4842, "ny": 0.8749, "w": 0.76, "h": 2.5, "z": 117.95}, "geometry": {"type": "Point", "coordinates": [413340.55, 5654056.87]}}, {"type": "Feature", "properties": {"of": "UUID_3c58e3c1-0f6a-4654-ba26-4f45ec7c34ae", "kind": "yes", "nx": 0.8815, "ny": -0.4723, "w": 1.2, "h": 2.5, "z": 118.01}, "geometry": {"type": "Point", "coordinates": [413137.68, 5654059.16]}}, {"type": "Feature", "properties": {"of": "DESNATPU1000BHcN", "kind": "service", "nx": 0.7858, "ny": 0.6185, "w": 1.1, "h": 2.3, "z": 124.03}, "geometry": {"type": "Point", "coordinates": [412493.97, 5654061.2]}}, {"type": "Feature", "properties": {"of": "DESNATPU1000JWjp", "kind": "staircase", "nx": 0.4754, "ny": 0.8798, "w": 1.2, "h": 2.5, "z": 117.92}, "geometry": {"type": "Point", "coordinates": [413262.74, 5654062.38]}}, {"type": "Feature", "properties": {"of": "DESNATPU1000I4KY", "kind": "yes", "nx": 0.6003, "ny": -0.7998, "w": 1.2, "h": 2.5, "z": 123.79}, "geometry": {"type": "Point", "coordinates": [412616.84, 5654063.38]}}, {"type": "Feature", "properties": {"of": "DESNATP1aL00003S", "kind": "main", "nx": 0.6182, "ny": -0.786, "w": 1.8, "h": 3.0, "z": 123.86}, "geometry": {"type": "Point", "coordinates": [412469.45, 5654064.96]}}, {"type": "Feature", "properties": {"of": "UUID_409590d8-da9c-41e1-8e92-e0efcb5440c1", "kind": "yes", "nx": 0.8818, "ny": -0.4717, "w": 1.2, "h": 2.5, "z": 117.94}, "geometry": {"type": "Point", "coordinates": [413110.03, 5654069.96]}}, {"type": "Feature", "properties": {"of": "DESNATGM11b0017F", "kind": "yes", "nx": -0.1835, "ny": -0.983, "w": 1.2, "h": 2.5, "z": 117.89}, "geometry": {"type": "Point", "coordinates": [413798.54, 5654080.78]}}, {"type": "Feature", "properties": {"of": "UUID_0243b8db-2a7b-4cc0-93ba-db58ca3d723e", "kind": "service", "nx": -0.7859, "ny": -0.6183, "w": 1.1, "h": 2.3, "z": 122.62}, "geometry": {"type": "Point", "coordinates": [412497.83, 5654087.24]}}, {"type": "Feature", "properties": {"of": "DESNATPU1000I4KY", "kind": "main", "nx": 0.595, "ny": -0.8037, "w": 1.8, "h": 3.0, "z": 123.73}, "geometry": {"type": "Point", "coordinates": [412649.07, 5654087.33]}}, {"type": "Feature", "properties": {"of": "DESNATGM11b0017B", "kind": "yes", "nx": -0.6717, "ny": -0.7408, "w": 1.2, "h": 2.5, "z": 117.81}, "geometry": {"type": "Point", "coordinates": [413767.56, 5654095.58]}}, {"type": "Feature", "properties": {"of": "UUID_831a4512-db98-4951-87b7-518be781dd12", "kind": "main", "nx": -0.972, "ny": 0.2349, "w": 1.8, "h": 3.0, "z": 122.39}, "geometry": {"type": "Point", "coordinates": [412282.37, 5654104.28]}}, {"type": "Feature", "properties": {"of": "UUID_fbaa445e-53c1-4eac-85fc-4b5967ac5db2", "kind": "yes", "nx": -0.8035, "ny": -0.5953, "w": 1.2, "h": 2.5, "z": 119.66}, "geometry": {"type": "Point", "coordinates": [412541.58, 5654107.71]}}, {"type": "Feature", "properties": {"of": "DESNATPU1000IUdP", "kind": "yes", "nx": -0.8015, "ny": -0.598, "w": 1.2, "h": 2.5, "z": 123.5}, "geometry": {"type": "Point", "coordinates": [412712.87, 5654113.57]}}, {"type": "Feature", "properties": {"of": "UUID_c2d7738b-dad3-4ec4-8d48-0c33cebb46e7", "kind": "main", "nx": -0.4601, "ny": -0.8878, "w": 1.8, "h": 3.0, "z": 118.19}, "geometry": {"type": "Point", "coordinates": [413150.13, 5654122.38]}}, {"type": "Feature", "properties": {"of": "UUID_4802985d-0206-4d12-a439-c1928d667bdb", "kind": "yes", "nx": -0.4831, "ny": -0.8756, "w": 1.2, "h": 2.5, "z": 121.34}, "geometry": {"type": "Point", "coordinates": [412829.81, 5654126.59]}}, {"type": "Feature", "properties": {"of": "DESNATPU1000G9oq", "kind": "yes", "nx": -0.7402, "ny": -0.6724, "w": 1.2, "h": 2.5, "z": 121.38}, "geometry": {"type": "Point", "coordinates": [412444.1, 5654130.56]}}, {"type": "Feature", "properties": {"of": "DESNATPU1000EZh3", "kind": "yes", "nx": 0.4766, "ny": 0.8791, "w": 1.2, "h": 2.5, "z": 117.51}, "geometry": {"type": "Point", "coordinates": [412929.78, 5654141.67]}}, {"type": "Feature", "properties": {"of": "UUID_259e78ab-745a-4716-a275-3500ecd7747b", "kind": "main", "nx": -0.4939, "ny": -0.8695, "w": 1.8, "h": 3.0, "z": 121.31}, "geometry": {"type": "Point", "coordinates": [412801.44, 5654141.89]}}, {"type": "Feature", "properties": {"of": "UUID_b87af2a9-d7be-47f2-a25d-dda41e1a1709", "kind": "yes", "nx": -0.6007, "ny": 0.7995, "w": 1.2, "h": 2.5, "z": 119.58}, "geometry": {"type": "Point", "coordinates": [412520.52, 5654152.6]}}, {"type": "Feature", "properties": {"of": "DESNATPU1000IxKC", "kind": "yes", "nx": 0.8795, "ny": -0.476, "w": 1.2, "h": 2.5, "z": 117.47}, "geometry": {"type": "Point", "coordinates": [412912.49, 5654153.88]}}, {"type": "Feature", "properties": {"of": "DESNATPU1000HMrm", "kind": "main", "nx": 0.741, "ny": 0.6715, "w": 1.8, "h": 3.0, "z": 118.97}, "geometry": {"type": "Point", "coordinates": [412465.59, 5654158.7]}}, {"type": "Feature", "properties": {"of": "UUID_ee3525df-a748-44eb-8484-b7339435430d", "kind": "yes", "nx": 0.4685, "ny": 0.8835, "w": 1.2, "h": 2.5, "z": 117.48}, "geometry": {"type": "Point", "coordinates": [412982.73, 5654159.42]}}, {"type": "Feature", "properties": {"of": "UUID_668431cf-5b32-4d69-805a-17c8b2dbb8bf", "kind": "service", "nx": -0.3839, "ny": 0.9234, "w": 1.1, "h": 2.3, "z": 116.67}, "geometry": {"type": "Point", "coordinates": [412389.24, 5654160.24]}}, {"type": "Feature", "properties": {"of": "DESNATPU1000CK4K", "kind": "main", "nx": 0.6462, "ny": -0.7632, "w": 1.8, "h": 3.0, "z": 119.83}, "geometry": {"type": "Point", "coordinates": [412440.27, 5654161.48]}}, {"type": "Feature", "properties": {"of": "UUID_121770ab-1a2c-4950-bebc-288db7f0d4e0", "kind": "staircase", "nx": 0.8798, "ny": -0.4754, "w": 1.2, "h": 2.5, "z": 118.11}, "geometry": {"type": "Point", "coordinates": [413038.61, 5654168.53]}}, {"type": "Feature", "properties": {"of": "UUID_f178030e-d3c2-4cf3-9e82-7a3b41f67b4b", "kind": "yes", "nx": 0.5983, "ny": -0.8013, "w": 1.2, "h": 2.5, "z": 119.47}, "geometry": {"type": "Point", "coordinates": [412506.98, 5654170.43]}}, {"type": "Feature", "properties": {"of": "UUID_0c4513e0-2fd8-43a5-a2a9-35b41fbaaf82", "kind": "yes", "nx": -0.8825, "ny": 0.4702, "w": 1.2, "h": 2.5, "z": 118.26}, "geometry": {"type": "Point", "coordinates": [412949.1, 5654176.22]}}, {"type": "Feature", "properties": {"of": "UUID_4ca37c2a-c7ff-42f1-b43d-d558635d0a7f", "kind": "staircase", "nx": -0.8798, "ny": 0.4754, "w": 1.2, "h": 2.5, "z": 118.07}, "geometry": {"type": "Point", "coordinates": [413018.26, 5654179.68]}}, {"type": "Feature", "properties": {"of": "DESNATPU1000DcuF", "kind": "yes", "nx": 0.4767, "ny": 0.8791, "w": 1.2, "h": 2.5, "z": 117.56}, "geometry": {"type": "Point", "coordinates": [412923.72, 5654191.91]}}, {"type": "Feature", "properties": {"of": "DESNATPU1000ERwi", "kind": "yes", "nx": 0.3599, "ny": 0.933, "w": 1.2, "h": 2.5, "z": 118.29}, "geometry": {"type": "Point", "coordinates": [412179.27, 5654192.1]}}, {"type": "Feature", "properties": {"of": "DESNATPU1000Er03", "kind": "yes", "nx": -0.3424, "ny": -0.9395, "w": 1.2, "h": 2.5, "z": 117.5}, "geometry": {"type": "Point", "coordinates": [412040.14, 5654195.84]}}, {"type": "Feature", "properties": {"of": "UUID_e8849c4f-4c52-4611-b50e-374fd373ff9d", "kind": "yes", "nx": 0.3592, "ny": 0.9333, "w": 1.2, "h": 2.5, "z": 118.16}, "geometry": {"type": "Point", "coordinates": [412163.93, 5654198.34]}}, {"type": "Feature", "properties": {"of": "DESNATPU1000J4fU", "kind": "yes", "nx": 0.8076, "ny": 0.5897, "w": 1.2, "h": 2.5, "z": 118.22}, "geometry": {"type": "Point", "coordinates": [412625.18, 5654216.71]}}, {"type": "Feature", "properties": {"of": "DESNATPU1000Er03", "kind": "yes", "nx": -0.9339, "ny": 0.3574, "w": 1.2, "h": 2.5, "z": 117.39}, "geometry": {"type": "Point", "coordinates": [412046.66, 5654230.19]}}, {"type": "Feature", "properties": {"of": "DESNATPU1000J4fU", "kind": "yes", "nx": 0.8023, "ny": 0.5969, "w": 1.2, "h": 2.5, "z": 117.88}, "geometry": {"type": "Point", "coordinates": [412588.64, 5654239.83]}}, {"type": "Feature", "properties": {"of": "DESNATPU1000B9QA", "kind": "yes", "nx": -0.6907, "ny": 0.7232, "w": 1.2, "h": 2.5, "z": 117.41}, "geometry": {"type": "Point", "coordinates": [412425.75, 5654254.41]}}, {"type": "Feature", "properties": {"of": "DESNATPU1000J9BN", "kind": "yes", "nx": -0.6907, "ny": 0.7231, "w": 1.2, "h": 2.5, "z": 117.45}, "geometry": {"type": "Point", "coordinates": [412436.24, 5654264.43]}}, {"type": "Feature", "properties": {"of": "DESNATPU1000IJcK", "kind": "main", "nx": -0.8486, "ny": 0.5291, "w": 1.8, "h": 3.0, "z": 117.82}, "geometry": {"type": "Point", "coordinates": [412885.64, 5654266.87]}}, {"type": "Feature", "properties": {"of": "DESNATPU1000Er03", "kind": "yes", "nx": -0.9354, "ny": 0.3536, "w": 1.2, "h": 2.5, "z": 116.11}, "geometry": {"type": "Point", "coordinates": [412065.33, 5654271.24]}}, {"type": "Feature", "properties": {"of": "DESNATPU1000Hsbl", "kind": "main", "nx": 0.4764, "ny": 0.8792, "w": 1.8, "h": 3.0, "z": 117.57}, "geometry": {"type": "Point", "coordinates": [412857.75, 5654274.8]}}, {"type": "Feature", "properties": {"of": "DESNATPU1000DQY1", "kind": "yes", "nx": -0.6907, "ny": 0.7231, "w": 1.2, "h": 2.5, "z": 117.41}, "geometry": {"type": "Point", "coordinates": [412448.59, 5654276.23]}}, {"type": "Feature", "properties": {"of": "DESNATPU1000Gfwq", "kind": "yes", "nx": 0.5428, "ny": 0.8398, "w": 1.2, "h": 2.5, "z": 116.72}, "geometry": {"type": "Point", "coordinates": [413009.76, 5654276.23]}}, {"type": "Feature", "properties": {"of": "UUID_f5b14272-05c4-41fd-8a66-6f80629ddd5e", "kind": "main", "nx": -0.5694, "ny": 0.822, "w": 1.8, "h": 3.0, "z": 116.48}, "geometry": {"type": "Point", "coordinates": [413297.75, 5654277.67]}}, {"type": "Feature", "properties": {"of": "DESNATPU1000JVoD", "kind": "yes", "nx": -0.9354, "ny": 0.3537, "w": 1.2, "h": 2.5, "z": 116.24}, "geometry": {"type": "Point", "coordinates": [412110.26, 5654277.87]}}, {"type": "Feature", "properties": {"of": "DESNATPU1000JVvH", "kind": "main", "nx": -0.8485, "ny": 0.5291, "w": 1.8, "h": 3.0, "z": 117.8}, "geometry": {"type": "Point", "coordinates": [412894.24, 5654280.65]}}, {"type": "Feature", "properties": {"of": "DESNATPU1000IU7C", "kind": "main", "nx": 0.476, "ny": 0.8795, "w": 1.8, "h": 3.0, "z": 117.55}, "geometry": {"type": "Point", "coordinates": [412841.67, 5654283.51]}}, {"type": "Feature", "properties": {"of": "DESNATPU1000IGUK", "kind": "yes", "nx": -0.6909, "ny": 0.723, "w": 1.2, "h": 2.5, "z": 117.43}, "geometry": {"type": "Point", "coordinates": [412460.13, 5654287.26]}}, {"type": "Feature", "properties": {"of": "DESNATPU1000BEDO", "kind": "yes", "nx": 0.5417, "ny": 0.8406, "w": 1.2, "h": 2.5, "z": 116.82}, "geometry": {"type": "Point", "coordinates": [412986.62, 5654291.24]}}, {"type": "Feature", "properties": {"of": "DESNATPU1000HYUp", "kind": "main", "nx": -0.9998, "ny": 0.022, "w": 0.99, "h": 3.0, "z": 116.31}, "geometry": {"type": "Point", "coordinates": [412382.89, 5654292.46]}}, {"type": "Feature", "properties": {"of": "DESNATPU1000EQEy", "kind": "main", "nx": 0.4747, "ny": 0.8801, "w": 1.8, "h": 3.0, "z": 117.55}, "geometry": {"type": "Point", "coordinates": [412823.68, 5654293.22]}}, {"type": "Feature", "properties": {"of": "DESNATPU1000JVoD", "kind": "yes", "nx": -0.9354, "ny": 0.3537, "w": 1.2, "h": 2.5, "z": 116.16}, "geometry": {"type": "Point", "coordinates": [412116.38, 5654294.07]}}, {"type": "Feature", "properties": {"of": "DESNATPU1000Iy9T", "kind": "main", "nx": -0.8485, "ny": 0.5292, "w": 1.8, "h": 3.0, "z": 117.86}, "geometry": {"type": "Point", "coordinates": [412902.83, 5654294.44]}}, {"type": "Feature", "properties": {"of": "DESNATPU1000EzNa", "kind": "main", "nx": 0.4745, "ny": 0.8803, "w": 1.8, "h": 3.0, "z": 117.55}, "geometry": {"type": "Point", "coordinates": [412807.14, 5654302.14]}}, {"type": "Feature", "properties": {"of": "DESNATPU1000Er03", "kind": "yes", "nx": 0.9363, "ny": -0.3512, "w": 1.2, "h": 2.5, "z": 116.14}, "geometry": {"type": "Point", "coordinates": [412086.91, 5654305.96]}}, {"type": "Feature", "properties": {"of": "DESNATPU1000D67d", "kind": "main", "nx": -0.8486, "ny": 0.5291, "w": 1.8, "h": 3.0, "z": 117.82}, "geometry": {"type": "Point", "coordinates": [412911.43, 5654308.22]}}, {"type": "Feature", "properties": {"of": "DESNATPU1000JVoD", "kind": "yes", "nx": -0.937, "ny": 0.3493, "w": 1.2, "h": 2.5, "z": 116.05}, "geometry": {"type": "Point", "coordinates": [412122.64, 5654309.77]}}, {"type": "Feature", "properties": {"of": "DESNATPU1000HYUp", "kind": "service", "nx": -0.7041, "ny": 0.7101, "w": 1.1, "h": 2.3, "z": 115.06}, "geometry": {"type": "Point", "coordinates": [412435.86, 5654310.68]}}, {"type": "Feature", "properties": {"of": "DESNATPU1000FAIQ", "kind": "main", "nx": 0.4746, "ny": 0.8802, "w": 1.8, "h": 3.0, "z": 117.57}, "geometry": {"type": "Point", "coordinates": [412789.79, 5654311.5]}}, {"type": "Feature", "properties": {"of": "UUID_23e33225-4899-40b3-b55e-7d2e2f8b2155", "kind": "yes", "nx": 0.5452, "ny": 0.8383, "w": 1.2, "h": 2.5, "z": 117.27}, "geometry": {"type": "Point", "coordinates": [413003.7, 5654321.78]}}, {"type": "Feature", "properties": {"of": "UUID_afb07cd6-2801-4679-87ad-d4b8e9980947", "kind": "yes", "nx": -0.8375, "ny": 0.5464, "w": 1.2, "h": 2.5, "z": 117.28}, "geometry": {"type": "Point", "coordinates": [412994.93, 5654322.49]}}, {"type": "Feature", "properties": {"of": "UUID_7c670695-d672-4337-a2e5-fe8ab66fdae7", "kind": "main", "nx": 0.9022, "ny": -0.4313, "w": 1.8, "h": 3.0, "z": 115.88}, "geometry": {"type": "Point", "coordinates": [412251.07, 5654323.15]}}, {"type": "Feature", "properties": {"of": "DESNATPU1000JVoD", "kind": "yes", "nx": -0.9371, "ny": 0.349, "w": 1.2, "h": 2.5, "z": 116.09}, "geometry": {"type": "Point", "coordinates": [412128.63, 5654325.83]}}, {"type": "Feature", "properties": {"of": "DESNATP18F0000Bv", "kind": "main", "nx": 0.8379, "ny": -0.5458, "w": 1.8, "h": 3.0, "z": 117.49}, "geometry": {"type": "Point", "coordinates": [412950.43, 5654329.57]}}, {"type": "Feature", "properties": {"of": "DESNATPU1000JBy1", "kind": "main", "nx": 0.5553, "ny": 0.8316, "w": 1.8, "h": 3.0, "z": 117.28}, "geometry": {"type": "Point", "coordinates": [412902.4, 5654330.22]}}, {"type": "Feature", "properties": {"of": "DESNATPU1000H549", "kind": "main", "nx": 0.4723, "ny": 0.8814, "w": 1.8, "h": 3.0, "z": 117.22}, "geometry": {"type": "Point", "coordinates": [412751.54, 5654332.38]}}, {"type": "Feature", "properties": {"of": "DESNATPU1000IalQ", "kind": "yes", "nx": -0.5553, "ny": -0.8316, "w": 1.2, "h": 2.5, "z": 117.37}, "geometry": {"type": "Point", "coordinates": [412875.24, 5654336.26]}}, {"type": "Feature", "properties": {"of": "DESNATPU1000GQNb", "kind": "main", "nx": 0.5553, "ny": 0.8316, "w": 1.8, "h": 3.0, "z": 117.27}, "geometry": {"type": "Point", "coordinates": [412889.07, 5654339.12]}}, {"type": "Feature", "properties": {"of": "DESNATPU1000Er03", "kind": "yes", "nx": 0.3556, "ny": 0.9346, "w": 1.2, "h": 2.5, "z": 115.92}, "geometry": {"type": "Point", "coordinates": [412095.89, 5654339.21]}}, {"type": "Feature", "properties": {"of": "DESNATPU1000BJ8s", "kind": "main", "nx": 0.4731, "ny": 0.881, "w": 1.8, "h": 3.0, "z": 117.22}, "geometry": {"type": "Point", "coordinates": [412734.26, 5654341.65]}}, {"type": "Feature", "properties": {"of": "DESNATPU1000JZNH", "kind": "main", "nx": -0.8691, "ny": 0.4947, "w": 1.8, "h": 3.0, "z": 116.95}, "geometry": {"type": "Point", "coordinates": [412805.08, 5654341.65]}}, {"type": "Feature", "properties": {"of": "UUID_382ca170-ae65-488b-b9a7-ceb3c44beee8", "kind": "main", "nx": 0.9349, "ny": -0.3549, "w": 1.8, "h": 3.0, "z": 115.55}, "geometry": {"type": "Point", "coordinates": [412061.61, 5654343.93]}}, {"type": "Feature", "properties": {"of": "UUID_382ca170-ae65-488b-b9a7-ceb3c44beee8", "kind": "yes", "nx": -0.3554, "ny": -0.9347, "w": 1.2, "h": 2.5, "z": 115.57}, "geometry": {"type": "Point", "coordinates": [412037.09, 5654345.93]}}, {"type": "Feature", "properties": {"of": "DESNATPU1000IalQ", "kind": "main", "nx": 0.5553, "ny": 0.8316, "w": 1.8, "h": 3.0, "z": 117.32}, "geometry": {"type": "Point", "coordinates": [412872.6, 5654350.12]}}, {"type": "Feature", "properties": {"of": "DESNATPU1000C4RW", "kind": "main", "nx": 0.4735, "ny": 0.8808, "w": 1.8, "h": 3.0, "z": 117.22}, "geometry": {"type": "Point", "coordinates": [412717.42, 5654350.7]}}, {"type": "Feature", "properties": {"of": "DESNATPU1000EjOP", "kind": "main", "nx": -0.8688, "ny": 0.4952, "w": 1.8, "h": 3.0, "z": 116.93}, "geometry": {"type": "Point", "coordinates": [412814.23, 5654357.72]}}, {"type": "Feature", "properties": {"of": "DESNATPU1000COYL", "kind": "main", "nx": 0.5553, "ny": 0.8316, "w": 1.8, "h": 3.0, "z": 117.33}, "geometry": {"type": "Point", "coordinates": [412859.95, 5654358.56]}}, {"type": "Feature", "properties": {"of": "DESNATPU1000FQVB", "kind": "main", "nx": 0.4728, "ny": 0.8812, "w": 1.8, "h": 3.0, "z": 117.27}, "geometry": {"type": "Point", "coordinates": [412699.6, 5654360.27]}}, {"type": "Feature", "properties": {"of": "DESNATPU1000HarG", "kind": "main", "nx": -0.8806, "ny": 0.4739, "w": 1.8, "h": 3.0, "z": 116.78}, "geometry": {"type": "Point", "coordinates": [412755.28, 5654365.26]}}, {"type": "Feature", "properties": {"of": "DESNATPU1000GTk3", "kind": "main", "nx": 0.4747, "ny": 0.8801, "w": 1.8, "h": 3.0, "z": 117.19}, "geometry": {"type": "Point", "coordinates": [412683.66, 5654368.85]}}, {"type": "Feature", "properties": {"of": "DESNATPU1000Ghmt", "kind": "main", "nx": -0.8682, "ny": 0.4962, "w": 1.8, "h": 3.0, "z": 116.97}, "geometry": {"type": "Point", "coordinates": [412823.28, 5654373.58]}}, {"type": "Feature", "properties": {"of": "DESNATPU1000CqeD", "kind": "main", "nx": 0.4754, "ny": 0.8798, "w": 1.8, "h": 3.0, "z": 117.22}, "geometry": {"type": "Point", "coordinates": [412667.28, 5654377.69]}}, {"type": "Feature", "properties": {"of": "DESNATPU1000CIhL", "kind": "main", "nx": -0.8812, "ny": 0.4727, "w": 1.8, "h": 3.0, "z": 115.57}, "geometry": {"type": "Point", "coordinates": [412232.17, 5654377.92]}}, {"type": "Feature", "properties": {"of": "DESNATPU1000IzlO", "kind": "main", "nx": -0.8803, "ny": 0.4744, "w": 1.8, "h": 3.0, "z": 116.78}, "geometry": {"type": "Point", "coordinates": [412765.79, 5654384.78]}}, {"type": "Feature", "properties": {"of": "DESNATPU1000GVPe", "kind": "main", "nx": -0.8681, "ny": 0.4965, "w": 1.8, "h": 3.0, "z": 116.97}, "geometry": {"type": "Point", "coordinates": [412832.73, 5654390.09]}}, {"type": "Feature", "properties": {"of": "DESNATPU1000IVcA", "kind": "main", "nx": 0.5522, "ny": 0.8337, "w": 1.8, "h": 3.0, "z": 116.66}, "geometry": {"type": "Point", "coordinates": [412905.52, 5654390.16]}}, {"type": "Feature", "properties": {"of": "DESNATPU1000AzHD", "kind": "main", "nx": -0.88, "ny": 0.475, "w": 1.8, "h": 3.0, "z": 116.59}, "geometry": {"type": "Point", "coordinates": [412715.22, 5654391.62]}}, {"type": "Feature", "properties": {"of": "DESNATPU1000IRwH", "kind": "main", "nx": 0.5519, "ny": 0.8339, "w": 1.8, "h": 3.0, "z": 116.71}, "geometry": {"type": "Point", "coordinates": [412890.08, 5654400.39]}}, {"type": "Feature", "properties": {"of": "DESNATPU1000Bwcm", "kind": "main", "nx": -0.8792, "ny": 0.4765, "w": 1.8, "h": 3.0, "z": 116.71}, "geometry": {"type": "Point", "coordinates": [412774.36, 5654400.64]}}, {"type": "Feature", "properties": {"of": "DESNATPU1000E413", "kind": "main", "nx": -0.8804, "ny": 0.4742, "w": 1.8, "h": 3.0, "z": 116.59}, "geometry": {"type": "Point", "coordinates": [412723.55, 5654407.08]}}, {"type": "Feature", "properties": {"of": "DESNATPU1000IuTG", "kind": "main", "nx": 0.5515, "ny": 0.8342, "w": 1.8, "h": 3.0, "z": 116.78}, "geometry": {"type": "Point", "coordinates": [412874.25, 5654410.86]}}, {"type": "Feature", "properties": {"of": "DESNATPU1000Etr1", "kind": "main", "nx": -0.8774, "ny": 0.4798, "w": 1.8, "h": 3.0, "z": 116.37}, "geometry": {"type": "Point", "coordinates": [412673.16, 5654414.18]}}, {"type": "Feature", "properties": {"of": "DESNATPU1000GeZO", "kind": "main", "nx": -0.8788, "ny": 0.4772, "w": 1.8, "h": 3.0, "z": 116.72}, "geometry": {"type": "Point", "coordinates": [412783.1, 5654416.75]}}, {"type": "Feature", "properties": {"of": "DESNATPU1000F0On", "kind": "main", "nx": 0.552, "ny": 0.8339, "w": 1.8, "h": 3.0, "z": 116.78}, "geometry": {"type": "Point", "coordinates": [412860.95, 5654419.65]}}, {"type": "Feature", "properties": {"of": "DESNATPU1000H4hx", "kind": "main", "nx": -0.8808, "ny": 0.4736, "w": 1.8, "h": 3.0, "z": 116.59}, "geometry": {"type": "Point", "coordinates": [412732.71, 5654424.1]}}, {"type": "Feature", "properties": {"of": "DESNATPU1000G9Hi", "kind": "main", "nx": -0.8772, "ny": 0.4802, "w": 1.8, "h": 3.0, "z": 116.36}, "geometry": {"type": "Point", "coordinates": [412681.03, 5654428.55]}}, {"type": "Feature", "properties": {"of": "DESNATPU1000BzDM", "kind": "main", "nx": -0.8804, "ny": 0.4743, "w": 1.8, "h": 3.0, "z": 116.57}, "geometry": {"type": "Point", "coordinates": [412740.84, 5654439.19]}}, {"type": "Feature", "properties": {"of": "DESNATPU1000GaXf", "kind": "main", "nx": -0.8777, "ny": 0.4792, "w": 1.8, "h": 3.0, "z": 116.4}, "geometry": {"type": "Point", "coordinates": [412690.39, 5654445.67]}}, {"type": "Feature", "properties": {"of": "DESNATPU1000GsdJ", "kind": "main", "nx": 0.5552, "ny": 0.8317, "w": 1.8, "h": 3.0, "z": 115.64}, "geometry": {"type": "Point", "coordinates": [412801.86, 5654459.21]}}, {"type": "Feature", "properties": {"of": "DESNATPU1000JSwL", "kind": "main", "nx": -0.8779, "ny": 0.4789, "w": 1.8, "h": 3.0, "z": 116.36}, "geometry": {"type": "Point", "coordinates": [412698.37, 5654460.29]}}, {"type": "Feature", "properties": {"of": "DESNATPU1000GrtR", "kind": "main", "nx": 0.5552, "ny": 0.8317, "w": 1.8, "h": 3.0, "z": 115.64}, "geometry": {"type": "Point", "coordinates": [412792.2, 5654465.65]}}, {"type": "Feature", "properties": {"of": "UUID_12d26916-3488-4b58-a76e-a1bd5fecf332", "kind": "yes", "nx": -0.0399, "ny": -0.9992, "w": 1.2, "h": 2.5, "z": 115.58}, "geometry": {"type": "Point", "coordinates": [412340.93, 5654466.76]}}, {"type": "Feature", "properties": {"of": "DESNATPU1000JNDV", "kind": "main", "nx": -0.897, "ny": 0.4421, "w": 1.8, "h": 3.0, "z": 115.68}, "geometry": {"type": "Point", "coordinates": [412647.31, 5654466.89]}}, {"type": "Feature", "properties": {"of": "UUID_12d26916-3488-4b58-a76e-a1bd5fecf332", "kind": "emergency", "nx": -0.0399, "ny": -0.9992, "w": 1.0, "h": 2.2, "z": 115.59}, "geometry": {"type": "Point", "coordinates": [412334.49, 5654467.02]}}, {"type": "Feature", "properties": {"of": "UUID_31528ecf-5d0b-4639-8a18-c78f6a25fffb", "kind": "yes", "nx": -0.039, "ny": -0.9992, "w": 1.2, "h": 2.5, "z": 113.78}, "geometry": {"type": "Point", "coordinates": [412352.91, 5654467.25]}}, {"type": "Feature", "properties": {"of": "UUID_ada0596c-75c9-4071-9f52-cef9e6b6a02a", "kind": "yes", "nx": -0.8805, "ny": 0.474, "w": 1.2, "h": 2.5, "z": 116.13}, "geometry": {"type": "Point", "coordinates": [412478.92, 5654473.86]}}, {"type": "Feature", "properties": {"of": "DESNATPU1000JHMK", "kind": "main", "nx": 0.5552, "ny": 0.8317, "w": 1.8, "h": 3.0, "z": 115.62}, "geometry": {"type": "Point", "coordinates": [412766.17, 5654483.03]}}, {"type": "Feature", "properties": {"of": "DESNATPU1000DXl7", "kind": "main", "nx": -0.895, "ny": 0.4462, "w": 1.8, "h": 3.0, "z": 115.63}, "geometry": {"type": "Point", "coordinates": [412656.64, 5654485.73]}}, {"type": "Feature", "properties": {"of": "DESNATPU1000Eo25", "kind": "main", "nx": 0.5552, "ny": 0.8317, "w": 1.8, "h": 3.0, "z": 115.6}, "geometry": {"type": "Point", "coordinates": [412748.9, 5654494.56]}}, {"type": "Feature", "properties": {"of": "UUID_c114b198-2ea8-45b5-bc29-2112577be552", "kind": "yes", "nx": 0.4772, "ny": 0.8788, "w": 1.2, "h": 2.5, "z": 115.58}, "geometry": {"type": "Point", "coordinates": [412350.29, 5654500.7]}}, {"type": "Feature", "properties": {"of": "DESNATPU1000Ghda", "kind": "main", "nx": 0.5552, "ny": 0.8317, "w": 1.8, "h": 3.0, "z": 115.56}, "geometry": {"type": "Point", "coordinates": [412735.24, 5654503.68]}}, {"type": "Feature", "properties": {"of": "DESNATPU1000Ghzc", "kind": "main", "nx": -0.8949, "ny": 0.4463, "w": 1.8, "h": 3.0, "z": 115.62}, "geometry": {"type": "Point", "coordinates": [412667.1, 5654506.72]}}, {"type": "Feature", "properties": {"of": "DESNATPU1000BhOf", "kind": "main", "nx": 0.5552, "ny": 0.8317, "w": 1.8, "h": 3.0, "z": 115.54}, "geometry": {"type": "Point", "coordinates": [412721.64, 5654512.75]}}, {"type": "Feature", "properties": {"of": "DESNATPU1000I33q", "kind": "main", "nx": 0.5552, "ny": 0.8317, "w": 1.8, "h": 3.0, "z": 115.52}, "geometry": {"type": "Point", "coordinates": [412707.37, 5654522.28]}}, {"type": "Feature", "properties": {"of": "DESNATPU1000H73N", "kind": "main", "nx": -0.9095, "ny": 0.4156, "w": 1.8, "h": 3.0, "z": 115.67}, "geometry": {"type": "Point", "coordinates": [412674.98, 5654523.44]}}, {"type": "Feature", "properties": {"of": "UUID_35778aa1-e692-4289-9bf3-4884e292a4e5", "kind": "yes", "nx": -0.5503, "ny": -0.835, "w": 1.2, "h": 2.5, "z": 114.82}, "geometry": {"type": "Point", "coordinates": [412587.31, 5654550.51]}}, {"type": "Feature", "properties": {"of": "DESNATPU1000Idco", "kind": "main", "nx": 0.8351, "ny": -0.5501, "w": 1.8, "h": 3.0, "z": 114.16}, "geometry": {"type": "Point", "coordinates": [413418.73, 5654583.61]}}, {"type": "Feature", "properties": {"of": "DESNATPU1000B2ot", "kind": "yes", "nx": 0.9964, "ny": -0.085, "w": 0.86, "h": 2.5, "z": 115.04}, "geometry": {"type": "Point", "coordinates": [412841.25, 5654598.87]}}, {"type": "Feature", "properties": {"of": "UUID_678f912b-d07c-471b-a33f-fb44b4ac586d", "kind": "main", "nx": 0.4789, "ny": 0.8778, "w": 0.73, "h": 3.0, "z": 114.88}, "geometry": {"type": "Point", "coordinates": [412097.42, 5654604.19]}}, {"type": "Feature", "properties": {"of": "DESNATPU1000B2ot", "kind": "yes", "nx": -0.9993, "ny": 0.0376, "w": 1.2, "h": 2.5, "z": 115.03}, "geometry": {"type": "Point", "coordinates": [412797.31, 5654608.02]}}, {"type": "Feature", "properties": {"of": "DESNATPU1000B2ot", "kind": "yes", "nx": 0.0349, "ny": 0.9994, "w": 1.2, "h": 2.5, "z": 114.8}, "geometry": {"type": "Point", "coordinates": [412812.98, 5654634.97]}}, {"type": "Feature", "properties": {"of": "DESNATPU1000IkAR", "kind": "yes", "nx": 0.7305, "ny": -0.6829, "w": 0.96, "h": 2.5, "z": 115.47}, "geometry": {"type": "Point", "coordinates": [412824.13, 5654688.61]}}, {"type": "Feature", "properties": {"of": "DESNATPU1000JT93", "kind": "main", "nx": -0.3054, "ny": -0.9522, "w": 1.8, "h": 3.0, "z": 114.79}, "geometry": {"type": "Point", "coordinates": [412517.01, 5654703.1]}}, {"type": "Feature", "properties": {"of": "DESNATPU1000JT93", "kind": "yes", "nx": 0.5432, "ny": 0.8396, "w": 1.2, "h": 2.5, "z": 114.71}, "geometry": {"type": "Point", "coordinates": [412547.16, 5654703.94]}}, {"type": "Feature", "properties": {"of": "DESNATPU1000IkAR", "kind": "yes", "nx": -0.7305, "ny": 0.683, "w": 1.2, "h": 2.5, "z": 115.85}, "geometry": {"type": "Point", "coordinates": [412810.4, 5654713.72]}}, {"type": "Feature", "properties": {"of": "DESNATPU1000JT93", "kind": "yes", "nx": 0.8354, "ny": -0.5496, "w": 1.2, "h": 2.5, "z": 114.56}, "geometry": {"type": "Point", "coordinates": [412531.11, 5654718.95]}}, {"type": "Feature", "properties": {"of": "DESNATPU1000G10G", "kind": "yes", "nx": 0.1177, "ny": -0.9931, "w": 1.2, "h": 2.5, "z": 114.04}, "geometry": {"type": "Point", "coordinates": [412558.38, 5654907.52]}}, {"type": "Feature", "properties": {"of": "DESNATPU1000Fild", "kind": "main", "nx": -0.847, "ny": 0.5316, "w": 1.44, "h": 3.0, "z": 114.41}, "geometry": {"type": "Point", "coordinates": [413927.96, 5655107.84]}}, {"type": "Feature", "properties": {"of": "DESNATPU1000FjZ7", "kind": "main", "nx": 0.5443, "ny": 0.8389, "w": 1.8, "h": 3.0, "z": 114.27}, "geometry": {"type": "Point", "coordinates": [413827.89, 5655110.76]}}, {"type": "Feature", "properties": {"of": "DESNATPU1000BtXZ", "kind": "main", "nx": 0.5425, "ny": 0.8401, "w": 1.8, "h": 3.0, "z": 114.32}, "geometry": {"type": "Point", "coordinates": [413817.81, 5655117.3]}}, {"type": "Feature", "properties": {"of": "UUID_3bd2ab6f-5b64-4738-9745-612e80d74975", "kind": "main", "nx": 0.5443, "ny": 0.8389, "w": 1.8, "h": 3.0, "z": 114.23}, "geometry": {"type": "Point", "coordinates": [413807.72, 5655123.82]}}, {"type": "Feature", "properties": {"of": "DESNATPU1000FXCl", "kind": "main", "nx": -0.8508, "ny": 0.5256, "w": 1.8, "h": 3.0, "z": 114.42}, "geometry": {"type": "Point", "coordinates": [413938.48, 5655124.54]}}, {"type": "Feature", "properties": {"of": "DESNATPU1000B7X7", "kind": "main", "nx": 0.8495, "ny": -0.5275, "w": 1.8, "h": 3.0, "z": 114.27}, "geometry": {"type": "Point", "coordinates": [413898.8, 5655124.57]}}, {"type": "Feature", "properties": {"of": "DESNATPU1000JIOs", "kind": "main", "nx": 0.8376, "ny": -0.5463, "w": 1.8, "h": 3.0, "z": 113.98}, "geometry": {"type": "Point", "coordinates": [413740.22, 5655125.59]}}, {"type": "Feature", "properties": {"of": "DESNATPU1000Cfbf", "kind": "main", "nx": 0.5444, "ny": 0.8388, "w": 1.8, "h": 3.0, "z": 114.31}, "geometry": {"type": "Point", "coordinates": [413794.11, 5655132.65]}}, {"type": "Feature", "properties": {"of": "DESNATPU1000BEr8", "kind": "main", "nx": 0.8372, "ny": -0.5468, "w": 1.8, "h": 3.0, "z": 113.93}, "geometry": {"type": "Point", "coordinates": [413746.53, 5655135.25]}}, {"type": "Feature", "properties": {"of": "DESNATPU1000D7tN", "kind": "main", "nx": 0.5458, "ny": 0.8379, "w": 1.8, "h": 3.0, "z": 114.3}, "geometry": {"type": "Point", "coordinates": [413783.98, 5655139.23]}}, {"type": "Feature", "properties": {"of": "DESNATPU1000CZ9d", "kind": "main", "nx": 0.8494, "ny": -0.5277, "w": 1.8, "h": 3.0, "z": 114.29}, "geometry": {"type": "Point", "coordinates": [413908.24, 5655139.77]}}, {"type": "Feature", "properties": {"of": "DESNATPU1000GkLj", "kind": "main", "nx": -0.8483, "ny": 0.5294, "w": 1.16, "h": 3.0, "z": 114.42}, "geometry": {"type": "Point", "coordinates": [413948.94, 5655141.28]}}, {"type": "Feature", "properties": {"of": "DESNATPU1000H7G5", "kind": "main", "nx": 0.5451, "ny": 0.8384, "w": 1.8, "h": 3.0, "z": 114.26}, "geometry": {"type": "Point", "coordinates": [413773.87, 5655145.82]}}, {"type": "Feature", "properties": {"of": "DESNATPU1000E4HZ", "kind": "main", "nx": 0.8499, "ny": -0.527, "w": 1.8, "h": 3.0, "z": 114.3}, "geometry": {"type": "Point", "coordinates": [413917.67, 5655154.97]}}, {"type": "Feature", "properties": {"of": "DESNATPU1000BGOL", "kind": "main", "nx": 0.8495, "ny": -0.5276, "w": 1.8, "h": 3.0, "z": 114.29}, "geometry": {"type": "Point", "coordinates": [413927.1, 5655170.17]}}, {"type": "Feature", "properties": {"of": "DESNATPU1000GJBq", "kind": "main", "nx": 0.5455, "ny": 0.8381, "w": 1.8, "h": 3.0, "z": 114.43}, "geometry": {"type": "Point", "coordinates": [413729.39, 5655177.34]}}, {"type": "Feature", "properties": {"of": "UUID_89bf7f18-0d96-4bed-810e-b0d095f11403", "kind": "main", "nx": 0.5455, "ny": 0.8381, "w": 1.8, "h": 3.0, "z": 114.39}, "geometry": {"type": "Point", "coordinates": [413709.19, 5655190.85]}}, {"type": "Feature", "properties": {"of": "DESNATPU1000Gi16", "kind": "main", "nx": 0.8402, "ny": -0.5423, "w": 1.8, "h": 3.0, "z": 114.47}, "geometry": {"type": "Point", "coordinates": [413782.8, 5655196.61]}}, {"type": "Feature", "properties": {"of": "UUID_62d27776-bdd7-41fd-b365-80d3fb146d7d", "kind": "main", "nx": 0.5456, "ny": 0.8381, "w": 1.8, "h": 3.0, "z": 114.46}, "geometry": {"type": "Point", "coordinates": [413690.32, 5655203.88]}}, {"type": "Feature", "properties": {"of": "DESNATPU1000Fe1Y", "kind": "main", "nx": 0.8401, "ny": -0.5424, "w": 1.8, "h": 3.0, "z": 114.45}, "geometry": {"type": "Point", "coordinates": [413793.18, 5655212.69]}}, {"type": "Feature", "properties": {"of": "DESNATPU1000IisQ", "kind": "main", "nx": 0.8517, "ny": -0.5241, "w": 1.8, "h": 3.0, "z": 114.27}, "geometry": {"type": "Point", "coordinates": [413953.76, 5655213.2]}}, {"type": "Feature", "properties": {"of": "DESNATPU1000D4Ix", "kind": "yes", "nx": -0.5434, "ny": -0.8395, "w": 1.2, "h": 2.5, "z": 113.57}, "geometry": {"type": "Point", "coordinates": [412474.73, 5655215.18]}}, {"type": "Feature", "properties": {"of": "DESNATPU1000D4Ix", "kind": "main", "nx": 0.5438, "ny": 0.8392, "w": 1.8, "h": 3.0, "z": 113.57}, "geometry": {"type": "Point", "coordinates": [412480.71, 5655225.18]}}, {"type": "Feature", "properties": {"of": "DESNATPU1000JLmR", "kind": "main", "nx": 0.8512, "ny": -0.5249, "w": 1.8, "h": 3.0, "z": 114.29}, "geometry": {"type": "Point", "coordinates": [413962.98, 5655228.17]}}, {"type": "Feature", "properties": {"of": "DESNATPU1000JfCb", "kind": "main", "nx": -0.3693, "ny": 0.9293, "w": 1.8, "h": 3.0, "z": 114.37}, "geometry": {"type": "Point", "coordinates": [413819.89, 5655237.43]}}, {"type": "Feature", "properties": {"of": "DESNATPU1000Hcic", "kind": "main", "nx": 0.8515, "ny": -0.5243, "w": 1.8, "h": 3.0, "z": 114.28}, "geometry": {"type": "Point", "coordinates": [413972.33, 5655243.34]}}, {"type": "Feature", "properties": {"of": "DESNATPU1000JO8R", "kind": "main", "nx": -0.3703, "ny": 0.9289, "w": 1.8, "h": 3.0, "z": 114.38}, "geometry": {"type": "Point", "coordinates": [413835.54, 5655243.65]}}, {"type": "Feature", "properties": {"of": "DESNATPU1000Ayhu", "kind": "main", "nx": -0.3692, "ny": 0.9294, "w": 1.8, "h": 3.0, "z": 114.37}, "geometry": {"type": "Point", "coordinates": [413851.18, 5655249.87]}}, {"type": "Feature", "properties": {"of": "DESNATPU1000GIsC", "kind": "main", "nx": -0.3701, "ny": 0.929, "w": 1.8, "h": 3.0, "z": 114.32}, "geometry": {"type": "Point", "coordinates": [413866.82, 5655256.1]}}, {"type": "Feature", "properties": {"of": "DESNATPU1000G2pl", "kind": "main", "nx": 0.8517, "ny": -0.524, "w": 1.8, "h": 3.0, "z": 114.29}, "geometry": {"type": "Point", "coordinates": [413981.93, 5655258.95]}}, {"type": "Feature", "properties": {"of": "DESNATPU1000EGzK", "kind": "main", "nx": -0.5425, "ny": -0.84, "w": 1.8, "h": 3.0, "z": 113.15}, "geometry": {"type": "Point", "coordinates": [412523.56, 5655291.57]}}, {"type": "Feature", "properties": {"of": "DESNATPU1000IV3T", "kind": "main", "nx": -0.369, "ny": 0.9294, "w": 1.8, "h": 3.0, "z": 114.44}, "geometry": {"type": "Point", "coordinates": [413849.01, 5655302.61]}}, {"type": "Feature", "properties": {"of": "UUID_786d9cbb-156e-4600-aead-9e59783f0835", "kind": "yes", "nx": -0.5486, "ny": -0.8361, "w": 1.2, "h": 2.5, "z": 113.32}, "geometry": {"type": "Point", "coordinates": [412293.63, 5655305.85]}}, {"type": "Feature", "properties": {"of": "DESNATPU1000Etij", "kind": "main", "nx": -0.3685, "ny": 0.9296, "w": 1.8, "h": 3.0, "z": 114.42}, "geometry": {"type": "Point", "coordinates": [413863.83, 5655308.49]}}, {"type": "Feature", "properties": {"of": "DESNATPU1000EOQh", "kind": "main", "nx": 0.5456, "ny": 0.838, "w": 1.8, "h": 3.0, "z": 114.11}, "geometry": {"type": "Point", "coordinates": [413428.59, 5655308.75]}}, {"type": "Feature", "properties": {"of": "DESNATPU1000Fw0n", "kind": "main", "nx": -0.3687, "ny": 0.9295, "w": 1.8, "h": 3.0, "z": 114.45}, "geometry": {"type": "Point", "coordinates": [413878.66, 5655314.37]}}, {"type": "Feature", "properties": {"of": "UUID_f9210e1b-570f-46c2-89fb-356793def31e", "kind": "main", "nx": 0.5514, "ny": 0.8343, "w": 1.8, "h": 3.0, "z": 113.22}, "geometry": {"type": "Point", "coordinates": [412339.55, 5655324.2]}}, {"type": "Feature", "properties": {"of": "DESNATPU1000FVsS", "kind": "main", "nx": 0.8398, "ny": -0.543, "w": 1.8, "h": 3.0, "z": 114.28}, "geometry": {"type": "Point", "coordinates": [413591.47, 5655327.31]}}, {"type": "Feature", "properties": {"of": "UUID_f9210e1b-570f-46c2-89fb-356793def31e", "kind": "main", "nx": 0.5514, "ny": 0.8343, "w": 1.8, "h": 3.0, "z": 113.31}, "geometry": {"type": "Point", "coordinates": [412326.72, 5655332.68]}}, {"type": "Feature", "properties": {"of": "DESNATPU1000HTY0", "kind": "main", "nx": 0.8398, "ny": -0.5429, "w": 1.8, "h": 3.0, "z": 114.3}, "geometry": {"type": "Point", "coordinates": [413601.35, 5655342.59]}}, {"type": "Feature", "properties": {"of": "DESNATPU1000F6kb", "kind": "main", "nx": -0.8406, "ny": 0.5416, "w": 1.45, "h": 3.0, "z": 114.69}, "geometry": {"type": "Point", "coordinates": [413380.38, 5655356.04]}}, {"type": "Feature", "properties": {"of": "DESNATPU1000B4Yr", "kind": "main", "nx": 0.5462, "ny": 0.8377, "w": 1.8, "h": 3.0, "z": 114.75}, "geometry": {"type": "Point", "coordinates": [413362.47, 5655356.88]}}, {"type": "Feature", "properties": {"of": "DESNATPU1000JInb", "kind": "main", "nx": 0.8396, "ny": -0.5432, "w": 1.8, "h": 3.0, "z": 114.3}, "geometry": {"type": "Point", "coordinates": [413611.51, 5655358.31]}}, {"type": "Feature", "properties": {"of": "DESNATPU1000J4yp", "kind": "main", "nx": 0.5461, "ny": 0.8377, "w": 1.8, "h": 3.0, "z": 114.78}, "geometry": {"type": "Point", "coordinates": [413352.49, 5655363.38]}}, {"type": "Feature", "properties": {"of": "DESNATPU1000HIKB", "kind": "main", "nx": 0.5462, "ny": 0.8377, "w": 1.8, "h": 3.0, "z": 114.77}, "geometry": {"type": "Point", "coordinates": [413342.51, 5655369.89]}}, {"type": "Feature", "properties": {"of": "DESNATPU1000GXlk", "kind": "main", "nx": 0.8398, "ny": -0.5429, "w": 1.8, "h": 3.0, "z": 114.35}, "geometry": {"type": "Point", "coordinates": [413621.36, 5655373.54]}}, {"type": "Feature", "properties": {"of": "DESNATPU1000FoyB", "kind": "main", "nx": 0.5461, "ny": 0.8377, "w": 1.8, "h": 3.0, "z": 114.71}, "geometry": {"type": "Point", "coordinates": [413332.52, 5655376.4]}}, {"type": "Feature", "properties": {"of": "UUID_e8108b87-7855-4c27-bb2a-d64c7fdf91b4", "kind": "main", "nx": 0.5473, "ny": 0.8369, "w": 1.8, "h": 3.0, "z": 114.13}, "geometry": {"type": "Point", "coordinates": [412922.65, 5655380.6]}}, {"type": "Feature", "properties": {"of": "DESNATPU1000GOw5", "kind": "main", "nx": 0.5462, "ny": 0.8377, "w": 1.8, "h": 3.0, "z": 114.77}, "geometry": {"type": "Point", "coordinates": [413322.54, 5655382.91]}}, {"type": "Feature", "properties": {"of": "DESNATPU1000G71Q", "kind": "main", "nx": 0.5461, "ny": 0.8377, "w": 1.8, "h": 3.0, "z": 114.71}, "geometry": {"type": "Point", "coordinates": [413312.56, 5655389.42]}}, {"type": "Feature", "properties": {"of": "DESNATPU1000FPUM", "kind": "main", "nx": 0.5994, "ny": 0.8004, "w": 1.09, "h": 3.0, "z": 114.0}, "geometry": {"type": "Point", "coordinates": [413871.69, 5655389.6]}}, {"type": "Feature", "properties": {"of": "DESNATPU1000GWr7", "kind": "main", "nx": 0.5462, "ny": 0.8377, "w": 1.8, "h": 3.0, "z": 114.73}, "geometry": {"type": "Point", "coordinates": [413302.58, 5655395.93]}}, {"type": "Feature", "properties": {"of": "DESNATPU1000F11X", "kind": "main", "nx": 0.546, "ny": 0.8378, "w": 1.8, "h": 3.0, "z": 114.73}, "geometry": {"type": "Point", "coordinates": [413292.58, 5655402.44]}}, {"type": "Feature", "properties": {"of": "UUID_8f799a0a-f781-404a-ad8b-7535c421ae5c", "kind": "main", "nx": 0.5461, "ny": 0.8377, "w": 1.8, "h": 3.0, "z": 114.7}, "geometry": {"type": "Point", "coordinates": [413282.6, 5655408.95]}}, {"type": "Feature", "properties": {"of": "DESNATPU1000G8Fl", "kind": "main", "nx": 0.8769, "ny": -0.4806, "w": 1.8, "h": 3.0, "z": 114.63}, "geometry": {"type": "Point", "coordinates": [413651.22, 5655413.05]}}, {"type": "Feature", "properties": {"of": "DESNATPU1000CMoN", "kind": "main", "nx": 0.8373, "ny": -0.5467, "w": 1.21, "h": 3.0, "z": 114.8}, "geometry": {"type": "Point", "coordinates": [413272.57, 5655415.11]}}, {"type": "Feature", "properties": {"of": "DESNATPU1000IBMO", "kind": "main", "nx": 0.8365, "ny": -0.548, "w": 1.8, "h": 3.0, "z": 114.66}, "geometry": {"type": "Point", "coordinates": [413278.59, 5655424.31]}}, {"type": "Feature", "properties": {"of": "DESNATPU1000B6yK", "kind": "main", "nx": 0.8771, "ny": -0.4804, "w": 1.8, "h": 3.0, "z": 114.58}, "geometry": {"type": "Point", "coordinates": [413659.98, 5655429.03]}}, {"type": "Feature", "properties": {"of": "DESNATPU1000FCye", "kind": "main", "nx": -0.8385, "ny": 0.5449, "w": 1.8, "h": 3.0, "z": 114.34}, "geometry": {"type": "Point", "coordinates": [413435.88, 5655432.46]}}, {"type": "Feature", "properties": {"of": "DESNATPU1000HvCL", "kind": "main", "nx": 0.8373, "ny": -0.5467, "w": 1.8, "h": 3.0, "z": 114.67}, "geometry": {"type": "Point", "coordinates": [413284.61, 5655433.52]}}, {"type": "Feature", "properties": {"of": "DESNATPU1000Dih1", "kind": "main", "nx": 0.877, "ny": -0.4805, "w": 1.8, "h": 3.0, "z": 114.6}, "geometry": {"type": "Point", "coordinates": [413668.81, 5655445.14]}}, {"type": "Feature", "properties": {"of": "DESNATPU1000D037", "kind": "main", "nx": -0.8384, "ny": 0.5451, "w": 1.8, "h": 3.0, "z": 114.25}, "geometry": {"type": "Point", "coordinates": [413445.41, 5655447.12]}}, {"type": "Feature", "properties": {"of": "DESNATPU1000Icia", "kind": "main", "nx": -0.5457, "ny": -0.838, "w": 1.8, "h": 3.0, "z": 114.85}, "geometry": {"type": "Point", "coordinates": [413378.54, 5655449.82]}}, {"type": "Feature", "properties": {"of": "DESNATPU1000Dz32", "kind": "main", "nx": 0.877, "ny": -0.4805, "w": 1.8, "h": 3.0, "z": 114.61}, "geometry": {"type": "Point", "coordinates": [413677.84, 5655461.63]}}, {"type": "Feature", "properties": {"of": "DESNATPU1000D5zB", "kind": "main", "nx": -0.8384, "ny": 0.545, "w": 1.8, "h": 3.0, "z": 114.28}, "geometry": {"type": "Point", "coordinates": [413454.95, 5655461.79]}}, {"type": "Feature", "properties": {"of": "UUID_dc1266c8-b591-4b52-9632-d53dbe6c5cd3", "kind": "yes", "nx": 0.5471, "ny": 0.8371, "w": 1.2, "h": 2.5, "z": 113.86}, "geometry": {"type": "Point", "coordinates": [412157.02, 5655462.43]}}, {"type": "Feature", "properties": {"of": "UUID_7e8edd4f-eb1c-49c7-ba7c-1b91f2101e91", "kind": "main", "nx": -0.5466, "ny": -0.8374, "w": 1.8, "h": 3.0, "z": 114.52}, "geometry": {"type": "Point", "coordinates": [413346.09, 5655470.67]}}, {"type": "Feature", "properties": {"of": "DESNATPU1000BpqH", "kind": "main", "nx": -0.8382, "ny": 0.5453, "w": 1.8, "h": 3.0, "z": 114.28}, "geometry": {"type": "Point", "coordinates": [413464.48, 5655476.46]}}, {"type": "Feature", "properties": {"of": "DESNATPU1000EDfy", "kind": "main", "nx": 0.8751, "ny": -0.4839, "w": 1.8, "h": 3.0, "z": 114.6}, "geometry": {"type": "Point", "coordinates": [413684.7, 5655478.54]}}, {"type": "Feature", "properties": {"of": "UUID_7cd2da15-ae2f-4c5b-a31f-bea4e72e535a", "kind": "main", "nx": -0.5498, "ny": -0.8353, "w": 0.99, "h": 3.0, "z": 114.54}, "geometry": {"type": "Point", "coordinates": [413333.83, 5655478.71]}}, {"type": "Feature", "properties": {"of": "UUID_8af8598b-f152-406a-9fbd-e89ffed2480e", "kind": "staircase", "nx": 0.9759, "ny": 0.2181, "w": 1.2, "h": 2.5, "z": 114.39}, "geometry": {"type": "Point", "coordinates": [413996.7, 5655481.34]}}, {"type": "Feature", "properties": {"of": "UUID_00511fe7-98f6-471d-9a06-46889fc9dbf6", "kind": "main", "nx": 0.8371, "ny": -0.547, "w": 1.8, "h": 3.0, "z": 114.83}, "geometry": {"type": "Point", "coordinates": [412148.43, 5655482.43]}}, {"type": "Feature", "properties": {"of": "UUID_00511fe7-98f6-471d-9a06-46889fc9dbf6", "kind": "main", "nx": 0.8371, "ny": -0.547, "w": 1.8, "h": 3.0, "z": 114.91}, "geometry": {"type": "Point", "coordinates": [412155.56, 5655493.35]}}, {"type": "Feature", "properties": {"of": "DESNATPU1000EpkU", "kind": "main", "nx": 0.875, "ny": -0.484, "w": 1.8, "h": 3.0, "z": 114.6}, "geometry": {"type": "Point", "coordinates": [413693.46, 5655494.36]}}, {"type": "Feature", "properties": {"of": "UUID_d829b983-e1b9-43d9-8504-911c8756a120", "kind": "yes", "nx": -0.8445, "ny": 0.5355, "w": 1.2, "h": 2.5, "z": 114.76}, "geometry": {"type": "Point", "coordinates": [413131.69, 5655508.41]}}, {"type": "Feature", "properties": {"of": "DESNATPU1000EZFM", "kind": "main", "nx": 0.8787, "ny": -0.4774, "w": 1.8, "h": 3.0, "z": 114.24}, "geometry": {"type": "Point", "coordinates": [413500.39, 5655511.31]}}, {"type": "Feature", "properties": {"of": "DESNATPU1000Bgd1", "kind": "yes", "nx": 0.5454, "ny": 0.8382, "w": 1.2, "h": 2.5, "z": 114.78}, "geometry": {"type": "Point", "coordinates": [413122.59, 5655513.13]}}, {"type": "Feature", "properties": {"of": "DESNATPU1000J2f0", "kind": "yes", "nx": 0.5444, "ny": 0.8388, "w": 1.2, "h": 2.5, "z": 114.8}, "geometry": {"type": "Point", "coordinates": [413112.03, 5655520.0]}}, {"type": "Feature", "properties": {"of": "UUID_fb066942-51d3-418f-95b9-e24c4695895f", "kind": "yes", "nx": -0.8306, "ny": 0.5569, "w": 1.2, "h": 2.5, "z": 114.87}, "geometry": {"type": "Point", "coordinates": [413138.61, 5655520.07]}}, {"type": "Feature", "properties": {"of": "DESNATPU1000BvNN", "kind": "main", "nx": 0.879, "ny": -0.4768, "w": 1.8, "h": 3.0, "z": 114.25}, "geometry": {"type": "Point", "coordinates": [413507.94, 5655525.23]}}, {"type": "Feature", "properties": {"of": "DESNATPU1000Gv0L", "kind": "yes", "nx": 0.5469, "ny": 0.8372, "w": 1.2, "h": 2.5, "z": 114.82}, "geometry": {"type": "Point", "coordinates": [413102.44, 5655526.24]}}, {"type": "Feature", "properties": {"of": "DESNATPU1000JKQB", "kind": "yes", "nx": -0.8455, "ny": 0.534, "w": 1.2, "h": 2.5, "z": 114.83}, "geometry": {"type": "Point", "coordinates": [413143.6, 5655527.89]}}, {"type": "Feature", "properties": {"of": "DESNATPU1000Cx1w", "kind": "main", "nx": 0.5484, "ny": 0.8362, "w": 1.8, "h": 3.0, "z": 114.27}, "geometry": {"type": "Point", "coordinates": [413718.49, 5655532.5]}}, {"type": "Feature", "properties": {"of": "DESNATPU1000ECZe", "kind": "yes", "nx": 0.545, "ny": 0.8385, "w": 1.2, "h": 2.5, "z": 114.8}, "geometry": {"type": "Point", "coordinates": [413091.69, 5655533.25]}}, {"type": "Feature", "properties": {"of": "DESNATPU1000GzwY", "kind": "yes", "nx": -0.8387, "ny": 0.5446, "w": 1.2, "h": 2.5, "z": 114.81}, "geometry": {"type": "Point", "coordinates": [413148.36, 5655535.32]}}, {"type": "Feature", "properties": {"of": "DESNATPU1000GGWe", "kind": "main", "nx": 0.8789, "ny": -0.477, "w": 1.8, "h": 3.0, "z": 114.2}, "geometry": {"type": "Point", "coordinates": [413515.49, 5655539.14]}}, {"type": "Feature", "properties": {"of": "DESNATPU1000DOF0", "kind": "yes", "nx": 0.546, "ny": 0.8378, "w": 1.2, "h": 2.5, "z": 114.77}, "geometry": {"type": "Point", "coordinates": [413082.13, 5655539.47]}}, {"type": "Feature", "properties": {"of": "DESNATPU1000JUGy", "kind": "main", "nx": 0.5464, "ny": 0.8375, "w": 1.8, "h": 3.0, "z": 114.27}, "geometry": {"type": "Point", "coordinates": [413704.09, 5655541.91]}}, {"type": "Feature", "properties": {"of": "DESNATPU1000DKNq", "kind": "yes", "nx": 0.5453, "ny": 0.8382, "w": 1.2, "h": 2.5, "z": 114.87}, "geometry": {"type": "Point", "coordinates": [413071.84, 5655546.17]}}, {"type": "Feature", "properties": {"of": "DESNATPU1000FoJb", "kind": "main", "nx": 0.5464, "ny": 0.8375, "w": 1.8, "h": 3.0, "z": 114.26}, "geometry": {"type": "Point", "coordinates": [413689.68, 5655551.31]}}, {"type": "Feature", "properties": {"of": "DESNATPU1000GLtg", "kind": "main", "nx": 0.8792, "ny": -0.4765, "w": 1.8, "h": 3.0, "z": 114.2}, "geometry": {"type": "Point", "coordinates": [413523.03, 5655553.05]}}, {"type": "Feature", "properties": {"of": "DESNATPU1000EUjo", "kind": "main", "nx": 0.5589, "ny": 0.8293, "w": 1.8, "h": 3.0, "z": 114.61}, "geometry": {"type": "Point", "coordinates": [413144.53, 5655556.49]}}, {"type": "Feature", "properties": {"of": "DESNATPU1000Foch", "kind": "main", "nx": 0.5465, "ny": 0.8374, "w": 1.8, "h": 3.0, "z": 114.34}, "geometry": {"type": "Point", "coordinates": [413675.28, 5655560.71]}}, {"type": "Feature", "properties": {"of": "DESNATPU1000DlwL", "kind": "main", "nx": 0.5414, "ny": 0.8407, "w": 1.8, "h": 3.0, "z": 114.58}, "geometry": {"type": "Point", "coordinates": [413134.47, 5655563.16]}}, {"type": "Feature", "properties": {"of": "DESNATPU1000CuUj", "kind": "main", "nx": 0.8801, "ny": -0.4748, "w": 1.8, "h": 3.0, "z": 114.23}, "geometry": {"type": "Point", "coordinates": [413529.27, 5655568.56]}}, {"type": "Feature", "properties": {"of": "DESNATPU1000JFc1", "kind": "main", "nx": 0.5415, "ny": 0.8407, "w": 1.8, "h": 3.0, "z": 114.59}, "geometry": {"type": "Point", "coordinates": [413124.32, 5655569.69]}}, {"type": "Feature", "properties": {"of": "DESNATPU1000Bn4L", "kind": "main", "nx": 0.5411, "ny": 0.841, "w": 1.8, "h": 3.0, "z": 114.61}, "geometry": {"type": "Point", "coordinates": [413114.16, 5655576.23]}}, {"type": "Feature", "properties": {"of": "DESNATPU1000G0UZ", "kind": "main", "nx": 0.8799, "ny": -0.4751, "w": 1.8, "h": 3.0, "z": 114.26}, "geometry": {"type": "Point", "coordinates": [413536.65, 5655582.24]}}, {"type": "Feature", "properties": {"of": "DESNATPU1000D4CK", "kind": "main", "nx": 0.5422, "ny": 0.8402, "w": 1.8, "h": 3.0, "z": 114.63}, "geometry": {"type": "Point", "coordinates": [413104.01, 5655582.77]}}, {"type": "Feature", "properties": {"of": "DESNATPU1000F8T6", "kind": "main", "nx": 0.8795, "ny": -0.4759, "w": 1.8, "h": 3.0, "z": 114.29}, "geometry": {"type": "Point", "coordinates": [413544.05, 5655595.92]}}, {"type": "Feature", "properties": {"of": "DESNATPU1000Aygn", "kind": "main", "nx": 0.841, "ny": -0.5411, "w": 1.8, "h": 3.0, "z": 113.86}, "geometry": {"type": "Point", "coordinates": [413794.0, 5655611.43]}}, {"type": "Feature", "properties": {"of": "DESNATPU1000By5U", "kind": "main", "nx": 0.5461, "ny": 0.8377, "w": 1.8, "h": 3.0, "z": 114.49}, "geometry": {"type": "Point", "coordinates": [413032.13, 5655624.27]}}, {"type": "Feature", "properties": {"of": "DESNATPU1000Aygn", "kind": "main", "nx": 0.841, "ny": -0.5411, "w": 1.8, "h": 3.0, "z": 113.86}, "geometry": {"type": "Point", "coordinates": [413804.44, 5655627.66]}}, {"type": "Feature", "properties": {"of": "DESNATPU1000Hy7C", "kind": "main", "nx": 0.5461, "ny": 0.8377, "w": 1.8, "h": 3.0, "z": 114.45}, "geometry": {"type": "Point", "coordinates": [413008.6, 5655639.61]}}, {"type": "Feature", "properties": {"of": "DESNATPU1000Aygn", "kind": "yes", "nx": 0.8409, "ny": -0.5411, "w": 1.2, "h": 2.5, "z": 113.86}, "geometry": {"type": "Point", "coordinates": [413815.89, 5655645.44]}}, {"type": "Feature", "properties": {"of": "DESNATPU1000BeUD", "kind": "main", "nx": 0.5461, "ny": 0.8377, "w": 1.8, "h": 3.0, "z": 114.52}, "geometry": {"type": "Point", "coordinates": [412985.08, 5655654.95]}}, {"type": "Feature", "properties": {"of": "UUID_d9689aee-97fa-4556-9b6f-828863779c3a", "kind": "emergency", "nx": -0.2257, "ny": -0.9742, "w": 1.0, "h": 2.2, "z": 114.79}, "geometry": {"type": "Point", "coordinates": [413130.89, 5655669.64]}}, {"type": "Feature", "properties": {"of": "UUID_d9689aee-97fa-4556-9b6f-828863779c3a", "kind": "yes", "nx": -0.2257, "ny": -0.9742, "w": 1.2, "h": 2.5, "z": 114.76}, "geometry": {"type": "Point", "coordinates": [413113.02, 5655673.78]}}, {"type": "Feature", "properties": {"of": "DESNATPU1000Aygn", "kind": "main", "nx": 0.9753, "ny": 0.2207, "w": 0.75, "h": 3.0, "z": 113.86}, "geometry": {"type": "Point", "coordinates": [413833.17, 5655674.61]}}, {"type": "Feature", "properties": {"of": "UUID_d9689aee-97fa-4556-9b6f-828863779c3a", "kind": "yes", "nx": -0.2257, "ny": -0.9742, "w": 1.2, "h": 2.5, "z": 114.7}, "geometry": {"type": "Point", "coordinates": [413095.54, 5655677.83]}}, {"type": "Feature", "properties": {"of": "DESNATPU1000Aygn", "kind": "main", "nx": 0.5416, "ny": 0.8407, "w": 1.8, "h": 3.0, "z": 113.81}, "geometry": {"type": "Point", "coordinates": [413822.74, 5655684.08]}}, {"type": "Feature", "properties": {"of": "DESNATPU1000Aygn", "kind": "main", "nx": 0.5416, "ny": 0.8407, "w": 1.8, "h": 3.0, "z": 113.84}, "geometry": {"type": "Point", "coordinates": [413816.94, 5655687.82]}}, {"type": "Feature", "properties": {"of": "DESNATPU1000JGvZ", "kind": "yes", "nx": 0.547, "ny": 0.8371, "w": 1.2, "h": 2.5, "z": 114.53}, "geometry": {"type": "Point", "coordinates": [413061.84, 5655692.39]}}, {"type": "Feature", "properties": {"of": "UUID_abf8b0a5-05c2-4c71-8510-0adc9ba3c65a", "kind": "yes", "nx": -0.8375, "ny": 0.5464, "w": 1.2, "h": 2.5, "z": 114.37}, "geometry": {"type": "Point", "coordinates": [413555.85, 5655693.58]}}, {"type": "Feature", "properties": {"of": "DESNATPU1000Aygn", "kind": "main", "nx": 0.5416, "ny": 0.8407, "w": 1.8, "h": 3.0, "z": 113.87}, "geometry": {"type": "Point", "coordinates": [413804.93, 5655695.56]}}, {"type": "Feature", "properties": {"of": "UUID_428019f5-7e06-409d-aa4d-eaf7bd9713bc", "kind": "yes", "nx": 0.5462, "ny": 0.8377, "w": 1.2, "h": 2.5, "z": 114.33}, "geometry": {"type": "Point", "coordinates": [413540.23, 5655697.06]}}, {"type": "Feature", "properties": {"of": "DESNATPU1000Aygn", "kind": "main", "nx": 0.278, "ny": 0.9606, "w": 1.8, "h": 3.0, "z": 113.83}, "geometry": {"type": "Point", "coordinates": [413790.03, 5655701.26]}}, {"type": "Feature", "properties": {"of": "DESNATPU1000Aygn", "kind": "yes", "nx": 0.278, "ny": 0.9606, "w": 1.2, "h": 2.5, "z": 113.86}, "geometry": {"type": "Point", "coordinates": [413780.7, 5655703.96]}}, {"type": "Feature", "properties": {"of": "DESNATPU1000Aygn", "kind": "main", "nx": -0.8368, "ny": 0.5474, "w": 1.8, "h": 3.0, "z": 113.89}, "geometry": {"type": "Point", "coordinates": [413749.22, 5655706.03]}}, {"type": "Feature", "properties": {"of": "DESNATPU1000Aygn", "kind": "yes", "nx": 0.278, "ny": 0.9606, "w": 1.2, "h": 2.5, "z": 113.85}, "geometry": {"type": "Point", "coordinates": [413773.26, 5655706.11]}}, {"type": "Feature", "properties": {"of": "UUID_0c1d9c3a-82ad-4602-94e2-602810584c4b", "kind": "main", "nx": 0.2258, "ny": 0.9742, "w": 1.8, "h": 3.0, "z": 115.42}, "geometry": {"type": "Point", "coordinates": [413111.69, 5655707.36]}}, {"type": "Feature", "properties": {"of": "DESNATPU1000H4GQ", "kind": "main", "nx": 0.1238, "ny": -0.9923, "w": 1.8, "h": 3.0, "z": 114.57}, "geometry": {"type": "Point", "coordinates": [413387.23, 5655708.08]}}, {"type": "Feature", "properties": {"of": "DESNATPU1000JWWX", "kind": "main", "nx": 0.1282, "ny": -0.9917, "w": 1.8, "h": 3.0, "z": 114.54}, "geometry": {"type": "Point", "coordinates": [413406.65, 5655710.54]}}, {"type": "Feature", "properties": {"of": "DESNATPU1000Jgqd", "kind": "main", "nx": 0.2734, "ny": 0.9619, "w": 1.8, "h": 3.0, "z": 114.23}, "geometry": {"type": "Point", "coordinates": [413704.82, 5655713.23]}}, {"type": "Feature", "properties": {"of": "UUID_428019f5-7e06-409d-aa4d-eaf7bd9713bc", "kind": "yes", "nx": 0.5462, "ny": 0.8377, "w": 1.2, "h": 2.5, "z": 114.37}, "geometry": {"type": "Point", "coordinates": [413510.08, 5655716.71]}}, {"type": "Feature", "properties": {"of": "DESNATPU1000FZNN", "kind": "main", "nx": 0.2738, "ny": 0.9618, "w": 1.8, "h": 3.0, "z": 114.15}, "geometry": {"type": "Point", "coordinates": [413686.9, 5655718.33]}}, {"type": "Feature", "properties": {"of": "UUID_582ad51a-3547-48a3-9c10-d87976dcceab", "kind": "main", "nx": -0.8389, "ny": 0.5442, "w": 1.8, "h": 3.0, "z": 114.33}, "geometry": {"type": "Point", "coordinates": [412810.22, 5655720.23]}}, {"type": "Feature", "properties": {"of": "DESNATPU1000Et3o", "kind": "main", "nx": 0.2732, "ny": 0.9619, "w": 1.8, "h": 3.0, "z": 114.23}, "geometry": {"type": "Point", "coordinates": [413670.77, 5655724.82]}}, {"type": "Feature", "properties": {"of": "DESNATPU1000BiMZ", "kind": "main", "nx": -0.9918, "ny": -0.128, "w": 1.8, "h": 3.0, "z": 114.52}, "geometry": {"type": "Point", "coordinates": [413372.55, 5655727.12]}}, {"type": "Feature", "properties": {"of": "DESNATPU1000EcO8", "kind": "main", "nx": 0.2731, "ny": 0.962, "w": 1.8, "h": 3.0, "z": 114.21}, "geometry": {"type": "Point", "coordinates": [413655.43, 5655729.18]}}, {"type": "Feature", "properties": {"of": "UUID_0a663072-cbb8-4c9a-8281-1cad0f4cfc9b", "kind": "main", "nx": 0.1172, "ny": -0.9931, "w": 1.8, "h": 3.0, "z": 114.56}, "geometry": {"type": "Point", "coordinates": [413368.76, 5655731.63]}}, {"type": "Feature", "properties": {"of": "DESNATPU1000ESln", "kind": "main", "nx": -0.2623, "ny": 0.965, "w": 1.8, "h": 3.0, "z": 114.44}, "geometry": {"type": "Point", "coordinates": [412463.27, 5655732.13]}}, {"type": "Feature", "properties": {"of": "DESNATPU1000HtGN", "kind": "main", "nx": 0.2726, "ny": 0.9621, "w": 1.8, "h": 3.0, "z": 114.24}, "geometry": {"type": "Point", "coordinates": [413639.97, 5655733.56]}}, {"type": "Feature", "properties": {"of": "UUID_dfb8849f-8d82-422e-83b1-8dc5e81a4db1", "kind": "staircase", "nx": 0.8644, "ny": -0.5028, "w": 1.2, "h": 2.5, "z": 114.67}, "geometry": {"type": "Point", "coordinates": [412173.75, 5655735.55]}}, {"type": "Feature", "properties": {"of": "DESNATPU1000Gwt7", "kind": "main", "nx": 0.9973, "ny": -0.0737, "w": 1.8, "h": 3.0, "z": 113.93}, "geometry": {"type": "Point", "coordinates": [413485.19, 5655736.81]}}, {"type": "Feature", "properties": {"of": "DESNATPU1000C8SU", "kind": "main", "nx": 0.2734, "ny": 0.9619, "w": 1.8, "h": 3.0, "z": 114.23}, "geometry": {"type": "Point", "coordinates": [413625.05, 5655737.8]}}, {"type": "Feature", "properties": {"of": "DESNATPU1000IWqP", "kind": "main", "nx": 0.2738, "ny": 0.9618, "w": 1.8, "h": 3.0, "z": 114.29}, "geometry": {"type": "Point", "coordinates": [413609.63, 5655742.18]}}, {"type": "Feature", "properties": {"of": "UUID_4689ab70-780e-4c78-a2b4-54940e6f9b32", "kind": "yes", "nx": 0.9017, "ny": -0.4323, "w": 1.2, "h": 2.5, "z": 114.37}, "geometry": {"type": "Point", "coordinates": [412717.39, 5655745.38]}}, {"type": "Feature", "properties": {"of": "UUID_f9b5f4cd-1ec0-4f80-a738-9644d68a7638", "kind": "main", "nx": -0.2155, "ny": -0.9765, "w": 1.8, "h": 3.0, "z": 114.15}, "geometry": {"type": "Point", "coordinates": [413096.93, 5655748.56]}}, {"type": "Feature", "properties": {"of": "DESNATPU1000Dako", "kind": "main", "nx": 0.0742, "ny": 0.9972, "w": 1.8, "h": 3.0, "z": 113.99}, "geometry": {"type": "Point", "coordinates": [413580.19, 5655750.59]}}, {"type": "Feature", "properties": {"of": "DESNATPU1000BfbY", "kind": "main", "nx": 0.0747, "ny": 0.9972, "w": 1.8, "h": 3.0, "z": 113.94}, "geometry": {"type": "Point", "coordinates": [413565.38, 5655751.7]}}, {"type": "Feature", "properties": {"of": "DESNATPU1000Dw9T", "kind": "main", "nx": -0.9973, "ny": 0.0733, "w": 1.8, "h": 3.0, "z": 113.96}, "geometry": {"type": "Point", "coordinates": [413475.74, 5655752.76]}}, {"type": "Feature", "properties": {"of": "DESNATPU1000Cs47", "kind": "main", "nx": 0.0749, "ny": 0.9972, "w": 1.8, "h": 3.0, "z": 113.97}, "geometry": {"type": "Point", "coordinates": [413551.21, 5655752.76]}}, {"type": "Feature", "properties": {"of": "DESNATPU1000Eb2w", "kind": "main", "nx": 0.84, "ny": -0.5426, "w": 1.8, "h": 3.0, "z": 113.81}, "geometry": {"type": "Point", "coordinates": [413838.95, 5655755.35]}}, {"type": "Feature", "properties": {"of": "DESNATPU1000E41Q", "kind": "main", "nx": 0.0697, "ny": 0.9976, "w": 1.8, "h": 3.0, "z": 113.94}, "geometry": {"type": "Point", "coordinates": [413537.29, 5655756.82]}}, {"type": "Feature", "properties": {"of": "UUID_dfb8849f-8d82-422e-83b1-8dc5e81a4db1", "kind": "main", "nx": -0.5027, "ny": -0.8645, "w": 1.8, "h": 3.0, "z": 114.7}, "geometry": {"type": "Point", "coordinates": [412119.81, 5655757.18]}}, {"type": "Feature", "properties": {"of": "DESNATPU1000GoL7", "kind": "main", "nx": 0.0698, "ny": 0.9976, "w": 1.8, "h": 3.0, "z": 113.99}, "geometry": {"type": "Point", "coordinates": [413522.79, 5655757.83]}}, {"type": "Feature", "properties": {"of": "DESNATPU1000HkE2", "kind": "main", "nx": 0.0691, "ny": 0.9976, "w": 1.8, "h": 3.0, "z": 113.97}, "geometry": {"type": "Point", "coordinates": [413508.43, 5655758.83]}}, {"type": "Feature", "properties": {"of": "DESNATPU1000FEF5", "kind": "main", "nx": 0.0706, "ny": 0.9975, "w": 1.8, "h": 3.0, "z": 113.9}, "geometry": {"type": "Point", "coordinates": [413494.05, 5655759.84]}}, {"type": "Feature", "properties": {"of": "DESNATPU1000Bx2y", "kind": "yes", "nx": 0.9199, "ny": -0.3921, "w": 1.2, "h": 2.5, "z": 114.39}, "geometry": {"type": "Point", "coordinates": [412637.17, 5655773.44]}}, {"type": "Feature", "properties": {"of": "UUID_d2aba837-56df-4161-b688-3f8499ae523b", "kind": "main", "nx": 0.8643, "ny": -0.503, "w": 1.8, "h": 3.0, "z": 114.92}, "geometry": {"type": "Point", "coordinates": [412448.18, 5655774.47]}}, {"type": "Feature", "properties": {"of": "DESNATPU1000Azfz", "kind": "yes", "nx": 0.3556, "ny": -0.9346, "w": 1.02, "h": 2.5, "z": 113.99}, "geometry": {"type": "Point", "coordinates": [413899.14, 5655775.48]}}, {"type": "Feature", "properties": {"of": "DESNATPU1000Fv4Z", "kind": "yes", "nx": -0.9787, "ny": -0.2051, "w": 1.02, "h": 2.5, "z": 114.28}, "geometry": {"type": "Point", "coordinates": [413964.61, 5655779.31]}}, {"type": "Feature", "properties": {"of": "DESNATPU1000GreD", "kind": "yes", "nx": 0.5034, "ny": 0.8641, "w": 1.2, "h": 2.5, "z": 114.47}, "geometry": {"type": "Point", "coordinates": [412612.24, 5655782.46]}}, {"type": "Feature", "properties": {"of": "UUID_24171d54-8e93-4d4e-899c-44fbc54d879a", "kind": "main", "nx": 0.9369, "ny": -0.3495, "w": 1.8, "h": 3.0, "z": 113.92}, "geometry": {"type": "Point", "coordinates": [413384.19, 5655796.81]}}, {"type": "Feature", "properties": {"of": "DESNATPU1000F3ib", "kind": "main", "nx": -0.974, "ny": 0.2264, "w": 1.8, "h": 3.0, "z": 114.06}, "geometry": {"type": "Point", "coordinates": [413094.56, 5655798.54]}}, {"type": "Feature", "properties": {"of": "DESNATPU1000GyrJ", "kind": "main", "nx": 0.8418, "ny": -0.5397, "w": 1.8, "h": 3.0, "z": 114.14}, "geometry": {"type": "Point", "coordinates": [413913.3, 5655799.1]}}, {"type": "Feature", "properties": {"of": "DESNATPU1000H0w2", "kind": "main", "nx": 0.9446, "ny": -0.3282, "w": 1.8, "h": 3.0, "z": 113.91}, "geometry": {"type": "Point", "coordinates": [413656.88, 5655801.84]}}, {"type": "Feature", "properties": {"of": "DESNATPU1000Fv4Z", "kind": "main", "nx": -0.8399, "ny": 0.5427, "w": 1.55, "h": 3.0, "z": 114.28}, "geometry": {"type": "Point", "coordinates": [413971.32, 5655803.28]}}, {"type": "Feature", "properties": {"of": "UUID_93fe0151-97db-4e69-9280-20e1cb59bdf9", "kind": "main", "nx": -0.9783, "ny": 0.2073, "w": 1.8, "h": 3.0, "z": 113.71}, "geometry": {"type": "Point", "coordinates": [413259.45, 5655809.85]}}, {"type": "Feature", "properties": {"of": "UUID_c7936f65-44d7-4c8b-acf4-8d4e211ce0b4", "kind": "service", "nx": -0.2143, "ny": -0.9768, "w": 1.1, "h": 2.3, "z": 111.22}, "geometry": {"type": "Point", "coordinates": [413196.68, 5655813.11]}}, {"type": "Feature", "properties": {"of": "DESNATPU1000ECHp", "kind": "main", "nx": 0.8424, "ny": -0.5389, "w": 1.8, "h": 3.0, "z": 114.13}, "geometry": {"type": "Point", "coordinates": [413922.74, 5655813.79]}}, {"type": "Feature", "properties": {"of": "DESNATPU1000ElNa", "kind": "yes", "nx": 0.5484, "ny": 0.8362, "w": 1.2, "h": 2.5, "z": 113.77}, "geometry": {"type": "Point", "coordinates": [413867.65, 5655814.26]}}, {"type": "Feature", "properties": {"of": "DESNATPU1000EuM7", "kind": "yes", "nx": 0.949, "ny": -0.3154, "w": 1.2, "h": 2.5, "z": 114.27}, "geometry": {"type": "Point", "coordinates": [412651.24, 5655814.3]}}, {"type": "Feature", "properties": {"of": "DESNATPU1000EBQG", "kind": "yes", "nx": 0.5006, "ny": 0.8657, "w": 1.2, "h": 2.5, "z": 114.37}, "geometry": {"type": "Point", "coordinates": [412560.23, 5655815.09]}}, {"type": "Feature", "properties": {"of": "UUID_f5642054-27ad-48bd-a915-404737850989", "kind": "yes", "nx": -0.2129, "ny": -0.9771, "w": 1.2, "h": 2.5, "z": 115.09}, "geometry": {"type": "Point", "coordinates": [413132.48, 5655815.34]}}, {"type": "Feature", "properties": {"of": "DESNATPU1000BkFE", "kind": "main", "nx": 0.9447, "ny": -0.328, "w": 1.8, "h": 3.0, "z": 113.87}, "geometry": {"type": "Point", "coordinates": [413661.88, 5655816.23]}}, {"type": "Feature", "properties": {"of": "DESNATPU1000BzvP", "kind": "yes", "nx": 0.5475, "ny": 0.8368, "w": 1.2, "h": 2.5, "z": 113.75}, "geometry": {"type": "Point", "coordinates": [413859.64, 5655819.52]}}, {"type": "Feature", "properties": {"of": "DESNATPU1000G1OO", "kind": "main", "nx": 0.9596, "ny": -0.2814, "w": 1.8, "h": 3.0, "z": 113.88}, "geometry": {"type": "Point", "coordinates": [413599.04, 5655821.79]}}, {"type": "Feature", "properties": {"of": "DESNATPU1000HPwl", "kind": "yes", "nx": 0.5006, "ny": 0.8657, "w": 1.2, "h": 2.5, "z": 114.33}, "geometry": {"type": "Point", "coordinates": [412545.3, 5655823.13]}}, {"type": "Feature", "properties": {"of": "DESNATPU1000BzvP", "kind": "yes", "nx": 0.5475, "ny": 0.8368, "w": 1.2, "h": 2.5, "z": 113.76}, "geometry": {"type": "Point", "coordinates": [413850.44, 5655825.53]}}, {"type": "Feature", "properties": {"of": "DESNATPU1000Hukp", "kind": "main", "nx": -0.9775, "ny": 0.2109, "w": 1.8, "h": 3.0, "z": 113.71}, "geometry": {"type": "Point", "coordinates": [413262.89, 5655825.82]}}, {"type": "Feature", "properties": {"of": "DESNATPU1000BT59", "kind": "yes", "nx": 0.5388, "ny": 0.8424, "w": 1.2, "h": 2.5, "z": 114.25}, "geometry": {"type": "Point", "coordinates": [413997.11, 5655828.19]}}, {"type": "Feature", "properties": {"of": "DESNATPU1000F4Zs", "kind": "main", "nx": 0.8406, "ny": -0.5416, "w": 1.14, "h": 3.0, "z": 114.13}, "geometry": {"type": "Point", "coordinates": [413932.01, 5655828.2]}}, {"type": "Feature", "properties": {"of": "UUID_738b7e97-917a-482d-8357-e7f11de6633d", "kind": "yes", "nx": 0.8408, "ny": -0.5413, "w": 1.2, "h": 2.5, "z": 113.72}, "geometry": {"type": "Point", "coordinates": [413849.44, 5655829.48]}}, {"type": "Feature", "properties": {"of": "UUID_29bd5000-75fa-4316-9bcc-36076f30e034", "kind": "yes", "nx": 0.5009, "ny": 0.8655, "w": 1.2, "h": 2.5, "z": 114.45}, "geometry": {"type": "Point", "coordinates": [412533.67, 5655829.85]}}, {"type": "Feature", "properties": {"of": "UUID_6ef24fe9-bec7-49d9-9901-ffb996a3bb76", "kind": "yes", "nx": 0.2126, "ny": 0.9771, "w": 1.2, "h": 2.5, "z": 115.06}, "geometry": {"type": "Point", "coordinates": [413133.73, 5655831.22]}}, {"type": "Feature", "properties": {"of": "DESNATPU1000IcWJ", "kind": "main", "nx": 0.9443, "ny": -0.329, "w": 1.8, "h": 3.0, "z": 113.91}, "geometry": {"type": "Point", "coordinates": [413667.11, 5655831.29]}}, {"type": "Feature", "properties": {"of": "DESNATPU1000HxFz", "kind": "main", "nx": 0.96, "ny": -0.2799, "w": 1.8, "h": 3.0, "z": 113.89}, "geometry": {"type": "Point", "coordinates": [413603.44, 5655836.84]}}, {"type": "Feature", "properties": {"of": "DESNATPU1000Ht5P", "kind": "main", "nx": 0.9673, "ny": -0.2537, "w": 1.8, "h": 3.0, "z": 113.88}, "geometry": {"type": "Point", "coordinates": [413542.25, 5655837.16]}}, {"type": "Feature", "properties": {"of": "DESNATPU1000EXeo", "kind": "yes", "nx": 0.8401, "ny": -0.5424, "w": 1.2, "h": 2.5, "z": 113.78}, "geometry": {"type": "Point", "coordinates": [413854.61, 5655837.52]}}, {"type": "Feature", "properties": {"of": "DESNATPU1000FATP", "kind": "yes", "nx": 0.9484, "ny": -0.3171, "w": 1.2, "h": 2.5, "z": 114.26}, "geometry": {"type": "Point", "coordinates": [412659.66, 5655839.57]}}, {"type": "Feature", "properties": {"of": "DESNATPU1000HDH5", "kind": "main", "nx": 0.9731, "ny": -0.2302, "w": 1.8, "h": 3.0, "z": 113.87}, "geometry": {"type": "Point", "coordinates": [413482.77, 5655843.44]}}, {"type": "Feature", "properties": {"of": "DESNATPU1000B8th", "kind": "main", "nx": 0.9451, "ny": -0.3267, "w": 1.8, "h": 3.0, "z": 113.91}, "geometry": {"type": "Point", "coordinates": [413672.2, 5655845.94]}}, {"type": "Feature", "properties": {"of": "UUID_ad7efdd6-c1a1-46a8-a508-3fa5ad8d6fb9", "kind": "yes", "nx": 0.5028, "ny": 0.8644, "w": 1.2, "h": 2.5, "z": 111.5}, "geometry": {"type": "Point", "coordinates": [412139.49, 5655848.5]}}, {"type": "Feature", "properties": {"of": "DESNATPU1000FPm3", "kind": "main", "nx": 0.9597, "ny": -0.2812, "w": 1.8, "h": 3.0, "z": 113.85}, "geometry": {"type": "Point", "coordinates": [413607.84, 5655851.88]}}, {"type": "Feature", "properties": {"of": "DESNATPU1000I2xZ", "kind": "main", "nx": 0.9672, "ny": -0.2538, "w": 1.8, "h": 3.0, "z": 113.91}, "geometry": {"type": "Point", "coordinates": [413546.24, 5655852.36]}}, {"type": "Feature", "properties": {"of": "UUID_aea22ea5-ff14-4273-9e98-fd500d6cc69a", "kind": "yes", "nx": 0.9772, "ny": -0.2125, "w": 1.2, "h": 2.5, "z": 115.04}, "geometry": {"type": "Point", "coordinates": [413131.59, 5655852.56]}}, {"type": "Feature", "properties": {"of": "DESNATPU1000IgRF", "kind": "main", "nx": 0.9731, "ny": -0.2304, "w": 1.8, "h": 3.0, "z": 113.89}, "geometry": {"type": "Point", "coordinates": [413487.14, 5655861.89]}}, {"type": "Feature", "properties": {"of": "DESNATPU1000C6gr", "kind": "main", "nx": 0.3621, "ny": 0.9321, "w": 1.8, "h": 3.0, "z": 113.74}, "geometry": {"type": "Point", "coordinates": [413920.36, 5655862.17]}}, {"type": "Feature", "properties": {"of": "DESNATPU1000H27m", "kind": "main", "nx": 0.2701, "ny": 0.9628, "w": 1.8, "h": 3.0, "z": 113.86}, "geometry": {"type": "Point", "coordinates": [413402.96, 5655863.97]}}, {"type": "Feature", "properties": {"of": "DESNATPU1000HQ6u", "kind": "yes", "nx": 0.9495, "ny": -0.3137, "w": 1.2, "h": 2.5, "z": 114.35}, "geometry": {"type": "Point", "coordinates": [412667.9, 5655864.37]}}, {"type": "Feature", "properties": {"of": "DESNATPU1000HO1y", "kind": "main", "nx": 0.2711, "ny": 0.9626, "w": 1.8, "h": 3.0, "z": 113.91}, "geometry": {"type": "Point", "coordinates": [413392.8, 5655866.82]}}, {"type": "Feature", "properties": {"of": "DESNATPU1000CJtv", "kind": "main", "nx": 0.9599, "ny": -0.2804, "w": 1.8, "h": 3.0, "z": 113.83}, "geometry": {"type": "Point", "coordinates": [413612.24, 5655866.92]}}, {"type": "Feature", "properties": {"of": "UUID_203fafa1-3ecb-4d2d-be6b-f59c646291a3", "kind": "main", "nx": -0.9248, "ny": 0.3805, "w": 1.8, "h": 3.0, "z": 115.09}, "geometry": {"type": "Point", "coordinates": [412839.84, 5655867.1]}}, {"type": "Feature", "properties": {"of": "DESNATPU1000IJdm", "kind": "main", "nx": 0.9675, "ny": -0.2528, "w": 1.8, "h": 3.0, "z": 113.9}, "geometry": {"type": "Point", "coordinates": [413550.22, 5655867.57]}}, {"type": "Feature", "properties": {"of": "DESNATPU1000HDEF", "kind": "main", "nx": 0.3621, "ny": 0.9321, "w": 1.8, "h": 3.0, "z": 113.71}, "geometry": {"type": "Point", "coordinates": [413905.95, 5655867.77]}}, {"type": "Feature", "properties": {"of": "DESNATPU1000EHVC", "kind": "main", "nx": 0.2703, "ny": 0.9628, "w": 1.8, "h": 3.0, "z": 113.92}, "geometry": {"type": "Point", "coordinates": [413374.62, 5655871.93]}}, {"type": "Feature", "properties": {"of": "DESNATPU1000C2jM", "kind": "main", "nx": 0.9324, "ny": -0.3613, "w": 1.8, "h": 3.0, "z": 113.8}, "geometry": {"type": "Point", "coordinates": [413822.45, 5655873.71]}}, {"type": "Feature", "properties": {"of": "DESNATPU1000DN8b", "kind": "main", "nx": 0.2703, "ny": 0.9628, "w": 1.8, "h": 3.0, "z": 113.86}, "geometry": {"type": "Point", "coordinates": [413365.11, 5655874.6]}}, {"type": "Feature", "properties": {"of": "DESNATPU1000Ds8D", "kind": "yes", "nx": 0.2998, "ny": 0.954, "w": 1.2, "h": 2.5, "z": 114.46}, "geometry": {"type": "Point", "coordinates": [412633.04, 5655874.95]}}, {"type": "Feature", "properties": {"of": "UUID_0e92cf69-4fc9-4a54-9346-a7ca282e6066", "kind": "yes", "nx": -0.2992, "ny": -0.9542, "w": 1.2, "h": 2.5, "z": 113.7}, "geometry": {"type": "Point", "coordinates": [413727.68, 5655875.15]}}, {"type": "Feature", "properties": {"of": "UUID_84948976-f26f-4203-ac4e-3bd754dda1dc", "kind": "main", "nx": -0.3557, "ny": -0.9346, "w": 1.8, "h": 3.0, "z": 115.74}, "geometry": {"type": "Point", "coordinates": [412752.9, 5655876.79]}}, {"type": "Feature", "properties": {"of": "DESNATPU1000G3vD", "kind": "main", "nx": 0.9731, "ny": -0.2304, "w": 1.8, "h": 3.0, "z": 113.9}, "geometry": {"type": "Point", "coordinates": [413491.51, 5655880.34]}}, {"type": "Feature", "properties": {"of": "DESNATPU1000IEd6", "kind": "yes", "nx": 0.2997, "ny": 0.954, "w": 1.2, "h": 2.5, "z": 114.5}, "geometry": {"type": "Point", "coordinates": [412608.79, 5655882.57]}}, {"type": "Feature", "properties": {"of": "DESNATPU1000Dz8d", "kind": "main", "nx": 0.9672, "ny": -0.2541, "w": 1.8, "h": 3.0, "z": 113.92}, "geometry": {"type": "Point", "coordinates": [413554.2, 5655882.78]}}, {"type": "Feature", "properties": {"of": "DESNATPU1000ImXw", "kind": "main", "nx": 0.2852, "ny": 0.9585, "w": 1.8, "h": 3.0, "z": 113.77}, "geometry": {"type": "Point", "coordinates": [413323.34, 5655886.62]}}, {"type": "Feature", "properties": {"of": "DESNATPU1000B1oi", "kind": "main", "nx": 0.2866, "ny": 0.9581, "w": 1.8, "h": 3.0, "z": 113.84}, "geometry": {"type": "Point", "coordinates": [413312.8, 5655889.76]}}, {"type": "Feature", "properties": {"of": "DESNATPU1000C9Zr", "kind": "yes", "nx": 0.2998, "ny": 0.954, "w": 1.2, "h": 2.5, "z": 114.47}, "geometry": {"type": "Point", "coordinates": [412584.55, 5655890.19]}}, {"type": "Feature", "properties": {"of": "UUID_409e41cd-92f3-4875-b532-378f8b5dd9bc", "kind": "main", "nx": 0.3012, "ny": 0.9536, "w": 1.8, "h": 3.0, "z": 114.04}, "geometry": {"type": "Point", "coordinates": [413154.73, 5655891.41]}}, {"type": "Feature", "properties": {"of": "DESNATGM11b000ih", "kind": "staircase", "nx": 0.3959, "ny": -0.9183, "w": 1.2, "h": 2.5, "z": 114.75}, "geometry": {"type": "Point", "coordinates": [412475.0, 5655892.54]}}, {"type": "Feature", "properties": {"of": "DESNATPU1000Fadn", "kind": "main", "nx": 0.2855, "ny": 0.9584, "w": 1.8, "h": 3.0, "z": 113.83}, "geometry": {"type": "Point", "coordinates": [413295.28, 5655894.99]}}, {"type": "Feature", "properties": {"of": "DESNATPU1000InPN", "kind": "yes", "nx": -0.8404, "ny": 0.5419, "w": 1.2, "h": 2.5, "z": 114.14}, "geometry": {"type": "Point", "coordinates": [413955.14, 5655895.24]}}, {"type": "Feature", "properties": {"of": "DESNATPU1000GIWv", "kind": "main", "nx": 0.2859, "ny": 0.9583, "w": 1.8, "h": 3.0, "z": 113.83}, "geometry": {"type": "Point", "coordinates": [413284.81, 5655898.11]}}, {"type": "Feature", "properties": {"of": "DESNATPU1000FmAr", "kind": "main", "nx": 0.9733, "ny": -0.2297, "w": 1.8, "h": 3.0, "z": 113.88}, "geometry": {"type": "Point", "coordinates": [413495.87, 5655898.79]}}, {"type": "Feature", "properties": {"of": "DESNATPU1000C9nZ", "kind": "yes", "nx": -0.3136, "ny": -0.9496, "w": 1.2, "h": 2.5, "z": 114.1}, "geometry": {"type": "Point", "coordinates": [413427.21, 5655906.06]}}, {"type": "Feature", "properties": {"of": "DESNATPU1000CQkt", "kind": "yes", "nx": -0.8404, "ny": 0.542, "w": 1.2, "h": 2.5, "z": 114.13}, "geometry": {"type": "Point", "coordinates": [413963.68, 5655908.49]}}, {"type": "Feature", "properties": {"of": "DESNATPU1000IOfN", "kind": "main", "nx": 0.3005, "ny": 0.9538, "w": 1.8, "h": 3.0, "z": 113.84}, "geometry": {"type": "Point", "coordinates": [413246.07, 5655909.93]}}, {"type": "Feature", "properties": {"of": "DESNATPU1000BRCG", "kind": "yes", "nx": -0.3144, "ny": -0.9493, "w": 1.2, "h": 2.5, "z": 114.27}, "geometry": {"type": "Point", "coordinates": [413410.76, 5655911.5]}}, {"type": "Feature", "properties": {"of": "DESNATPU1000Ba6g", "kind": "yes", "nx": 0.949, "ny": -0.3152, "w": 1.2, "h": 2.5, "z": 114.37}, "geometry": {"type": "Point", "coordinates": [412683.76, 5655912.17]}}, {"type": "Feature", "properties": {"of": "DESNATPU1000GcBD", "kind": "main", "nx": 0.2996, "ny": 0.9541, "w": 1.8, "h": 3.0, "z": 113.95}, "geometry": {"type": "Point", "coordinates": [413235.69, 5655913.2]}}, {"type": "Feature", "properties": {"of": "DESNATPU1000J6Tv", "kind": "yes", "nx": -0.3142, "ny": -0.9493, "w": 1.2, "h": 2.5, "z": 114.37}, "geometry": {"type": "Point", "coordinates": [413393.37, 5655917.26]}}, {"type": "Feature", "properties": {"of": "DESNATPU1000Idav", "kind": "main", "nx": 0.3, "ny": 0.9539, "w": 1.8, "h": 3.0, "z": 113.85}, "geometry": {"type": "Point", "coordinates": [413218.74, 5655918.52]}}, {"type": "Feature", "properties": {"of": "DESNATPU1000IAoe", "kind": "yes", "nx": -0.8404, "ny": 0.5419, "w": 1.2, "h": 2.5, "z": 114.1}, "geometry": {"type": "Point", "coordinates": [413972.36, 5655921.94]}}, {"type": "Feature", "properties": {"of": "DESNATPU1000DzC5", "kind": "main", "nx": 0.2993, "ny": 0.9542, "w": 1.8, "h": 3.0, "z": 113.86}, "geometry": {"type": "Point", "coordinates": [413207.66, 5655922.0]}}, {"type": "Feature", "properties": {"of": "DESNATPU1000D1Pv", "kind": "yes", "nx": -0.3147, "ny": -0.9492, "w": 1.2, "h": 2.5, "z": 114.34}, "geometry": {"type": "Point", "coordinates": [413376.4, 5655922.88]}}, {"type": "Feature", "properties": {"of": "UUID_f8057bff-062a-4914-8384-60a4cac7af74", "kind": "main", "nx": -0.2769, "ny": -0.9609, "w": 1.8, "h": 3.0, "z": 113.75}, "geometry": {"type": "Point", "coordinates": [413784.19, 5655927.36]}}, {"type": "Feature", "properties": {"of": "UUID_f8057bff-062a-4914-8384-60a4cac7af74", "kind": "main", "nx": 0.9599, "ny": -0.2804, "w": 1.79, "h": 3.0, "z": 113.78}, "geometry": {"type": "Point", "coordinates": [413786.22, 5655927.96]}}, {"type": "Feature", "properties": {"of": "DESNATGM11b000ih", "kind": "service", "nx": 0.3715, "ny": 0.9284, "w": 1.1, "h": 2.3, "z": 114.09}, "geometry": {"type": "Point", "coordinates": [412470.16, 5655928.75]}}, {"type": "Feature", "properties": {"of": "DESNATPU1000AzUS", "kind": "emergency", "nx": -0.2659, "ny": -0.964, "w": 1.0, "h": 2.2, "z": 114.31}, "geometry": {"type": "Point", "coordinates": [412924.36, 5655931.3]}}, {"type": "Feature", "properties": {"of": "DESNATPU1000HaMW", "kind": "yes", "nx": -0.3271, "ny": -0.945, "w": 1.2, "h": 2.5, "z": 114.26}, "geometry": {"type": "Point", "coordinates": [413332.14, 5655932.55]}}, {"type": "Feature", "properties": {"of": "DESNATPU1000DMUM", "kind": "main", "nx": 0.2992, "ny": 0.9542, "w": 1.8, "h": 3.0, "z": 113.88}, "geometry": {"type": "Point", "coordinates": [413171.67, 5655933.09]}}, {"type": "Feature", "properties": {"of": "DESNATPU1000HISE", "kind": "yes", "nx": -0.8402, "ny": 0.5423, "w": 1.2, "h": 2.5, "z": 114.13}, "geometry": {"type": "Point", "coordinates": [413981.09, 5655935.49]}}, {"type": "Feature", "properties": {"of": "DESNATPU1000JXrD", "kind": "yes", "nx": -0.3271, "ny": -0.945, "w": 1.2, "h": 2.5, "z": 114.24}, "geometry": {"type": "Point", "coordinates": [413323.42, 5655935.57]}}, {"type": "Feature", "properties": {"of": "DESNATPU1000E2vW", "kind": "main", "nx": 0.2977, "ny": 0.9547, "w": 1.8, "h": 3.0, "z": 113.84}, "geometry": {"type": "Point", "coordinates": [413161.37, 5655936.31]}}, {"type": "Feature", "properties": {"of": "UUID_62221dab-3e67-41c2-bcfe-8e17b02a1dc0", "kind": "yes", "nx": 0.9489, "ny": -0.3155, "w": 1.2, "h": 2.5, "z": 114.44}, "geometry": {"type": "Point", "coordinates": [412691.82, 5655940.07]}}, {"type": "Feature", "properties": {"of": "DESNATPU1000CKGj", "kind": "main", "nx": 0.2993, "ny": 0.9542, "w": 1.8, "h": 3.0, "z": 113.86}, "geometry": {"type": "Point", "coordinates": [413143.62, 5655941.87]}}, {"type": "Feature", "properties": {"of": "DESNATPU1000FRs5", "kind": "yes", "nx": -0.3271, "ny": -0.945, "w": 1.2, "h": 2.5, "z": 114.25}, "geometry": {"type": "Point", "coordinates": [413304.64, 5655942.07]}}, {"type": "Feature", "properties": {"of": "DESNATPU1000Idcd", "kind": "yes", "nx": -0.9438, "ny": 0.3306, "w": 1.2, "h": 2.5, "z": 115.83}, "geometry": {"type": "Point", "coordinates": [412866.06, 5655943.27]}}, {"type": "Feature", "properties": {"of": "DESNATPU1000HPOm", "kind": "main", "nx": 0.2993, "ny": 0.9542, "w": 1.8, "h": 3.0, "z": 113.85}, "geometry": {"type": "Point", "coordinates": [413133.7, 5655944.98]}}, {"type": "Feature", "properties": {"of": "DESNATPU1000CYVH", "kind": "yes", "nx": -0.3272, "ny": -0.945, "w": 1.2, "h": 2.5, "z": 114.27}, "geometry": {"type": "Point", "coordinates": [413295.86, 5655945.11]}}, {"type": "Feature", "properties": {"of": "DESNATP18F00009A", "kind": "main", "nx": 0.5028, "ny": 0.8644, "w": 1.8, "h": 3.0, "z": 114.99}, "geometry": {"type": "Point", "coordinates": [412072.05, 5655947.37]}}, {"type": "Feature", "properties": {"of": "DESNATPU1000Da34", "kind": "yes", "nx": 0.9396, "ny": -0.3422, "w": 1.2, "h": 2.5, "z": 114.49}, "geometry": {"type": "Point", "coordinates": [412528.5, 5655948.99]}}, {"type": "Feature", "properties": {"of": "DESNATPU1000H4K0", "kind": "yes", "nx": -0.9601, "ny": 0.2798, "w": 1.2, "h": 2.5, "z": 113.23}, "geometry": {"type": "Point", "coordinates": [413696.07, 5655951.23]}}, {"type": "Feature", "properties": {"of": "DESNATPU1000FRs5", "kind": "staircase", "nx": 0.3269, "ny": 0.945, "w": 1.2, "h": 2.5, "z": 114.27}, "geometry": {"type": "Point", "coordinates": [413312.21, 5655951.31]}}, {"type": "Feature", "properties": {"of": "DESNATPU1000H5lH", "kind": "main", "nx": 0.2832, "ny": 0.959, "w": 1.8, "h": 3.0, "z": 113.61}, "geometry": {"type": "Point", "coordinates": [413970.94, 5655961.87]}}, {"type": "Feature", "properties": {"of": "DESNATPU1000BdBn", "kind": "staircase", "nx": 0.3287, "ny": 0.9444, "w": 1.2, "h": 2.5, "z": 114.17}, "geometry": {"type": "Point", "coordinates": [413259.64, 5655963.66]}}, {"type": "Feature", "properties": {"of": "DESNATPU1000H4K0", "kind": "yes", "nx": -0.9601, "ny": 0.2798, "w": 1.2, "h": 2.5, "z": 111.9}, "geometry": {"type": "Point", "coordinates": [413700.18, 5655965.34]}}, {"type": "Feature", "properties": {"of": "DESNATPU1000Gr0V", "kind": "yes", "nx": 0.9457, "ny": -0.3251, "w": 1.2, "h": 2.5, "z": 114.5}, "geometry": {"type": "Point", "coordinates": [412534.21, 5655965.66]}}, {"type": "Feature", "properties": {"of": "DESNATPU1000CIeA", "kind": "main", "nx": 0.2834, "ny": 0.959, "w": 1.8, "h": 3.0, "z": 113.63}, "geometry": {"type": "Point", "coordinates": [413953.9, 5655966.9]}}, {"type": "Feature", "properties": {"of": "DESNATPU1000H8Bm", "kind": "yes", "nx": 0.9486, "ny": -0.3164, "w": 1.2, "h": 2.5, "z": 114.38}, "geometry": {"type": "Point", "coordinates": [412700.98, 5655967.6]}}, {"type": "Feature", "properties": {"of": "DESNATPU1000FBDP", "kind": "yes", "nx": 0.9498, "ny": -0.3128, "w": 1.2, "h": 2.5, "z": 114.44}, "geometry": {"type": "Point", "coordinates": [412469.89, 5655968.01]}}, {"type": "Feature", "properties": {"of": "DESNATPU1000J1zd", "kind": "staircase", "nx": 0.3295, "ny": 0.9442, "w": 1.2, "h": 2.5, "z": 114.15}, "geometry": {"type": "Point", "coordinates": [413246.46, 5655968.26]}}, {"type": "Feature", "properties": {"of": "DESNATPU1000Fodx", "kind": "main", "nx": 0.2842, "ny": 0.9588, "w": 1.8, "h": 3.0, "z": 113.61}, "geometry": {"type": "Point", "coordinates": [413936.86, 5655971.94]}}, {"type": "Feature", "properties": {"of": "DESNATPU1000JMV3", "kind": "main", "nx": 0.2801, "ny": 0.96, "w": 1.8, "h": 3.0, "z": 113.58}, "geometry": {"type": "Point", "coordinates": [413566.71, 5655972.58]}}, {"type": "Feature", "properties": {"of": "DESNATPU1000HIq5", "kind": "staircase", "nx": 0.3295, "ny": 0.9441, "w": 1.2, "h": 2.5, "z": 114.16}, "geometry": {"type": "Point", "coordinates": [413233.57, 5655972.75]}}, {"type": "Feature", "properties": {"of": "DESNATPU1000HuqG", "kind": "main", "nx": 0.2806, "ny": 0.9598, "w": 1.8, "h": 3.0, "z": 113.51}, "geometry": {"type": "Point", "coordinates": [413555.2, 5655975.94]}}, {"type": "Feature", "properties": {"of": "DESNATPU1000IbVR", "kind": "staircase", "nx": 0.3287, "ny": 0.9444, "w": 1.2, "h": 2.5, "z": 114.13}, "geometry": {"type": "Point", "coordinates": [413217.91, 5655978.21]}}, {"type": "Feature", "properties": {"of": "DESNATPU1000HTx9", "kind": "main", "nx": 0.2789, "ny": 0.9603, "w": 1.8, "h": 3.0, "z": 113.6}, "geometry": {"type": "Point", "coordinates": [413543.42, 5655979.37]}}, {"type": "Feature", "properties": {"of": "DESNATPU1000DOIv", "kind": "main", "nx": 0.2778, "ny": 0.9606, "w": 1.8, "h": 3.0, "z": 114.11}, "geometry": {"type": "Point", "coordinates": [413069.07, 5655980.31]}}, {"type": "Feature", "properties": {"of": "DESNATPU1000B6C3", "kind": "yes", "nx": 0.9456, "ny": -0.3255, "w": 1.2, "h": 2.5, "z": 114.51}, "geometry": {"type": "Point", "coordinates": [412539.97, 5655982.44]}}, {"type": "Feature", "properties": {"of": "DESNATPU1000CoHT", "kind": "main", "nx": 0.2815, "ny": 0.9596, "w": 1.8, "h": 3.0, "z": 113.6}, "geometry": {"type": "Point", "coordinates": [413532.13, 5655982.66]}}, {"type": "Feature", "properties": {"of": "DESNATPU1000HVdP", "kind": "main", "nx": 0.2775, "ny": 0.9607, "w": 1.8, "h": 3.0, "z": 114.15}, "geometry": {"type": "Point", "coordinates": [413054.06, 5655984.64]}}, {"type": "Feature", "properties": {"of": "DESNATPU1000HUax", "kind": "main", "nx": 0.2863, "ny": 0.9581, "w": 1.8, "h": 3.0, "z": 113.5}, "geometry": {"type": "Point", "coordinates": [413893.39, 5655985.0]}}, {"type": "Feature", "properties": {"of": "DESNATPU1000BA8a", "kind": "main", "nx": 0.2807, "ny": 0.9598, "w": 1.8, "h": 3.0, "z": 113.55}, "geometry": {"type": "Point", "coordinates": [413520.05, 5655986.2]}}, {"type": "Feature", "properties": {"of": "DESNATPU1000Jdf0", "kind": "yes", "nx": 0.9494, "ny": -0.3141, "w": 1.2, "h": 2.5, "z": 114.48}, "geometry": {"type": "Point", "coordinates": [412475.98, 5655986.34]}}, {"type": "Feature", "properties": {"of": "UUID_aceb1e74-d6f4-47f1-aa4c-7604bac884ba", "kind": "yes", "nx": 0.9343, "ny": -0.3564, "w": 1.2, "h": 2.5, "z": 114.41}, "geometry": {"type": "Point", "coordinates": [412413.3, 5655989.33]}}, {"type": "Feature", "properties": {"of": "DESNATPU1000JaCa", "kind": "main", "nx": 0.2804, "ny": 0.9599, "w": 1.8, "h": 3.0, "z": 113.58}, "geometry": {"type": "Point", "coordinates": [413508.74, 5655989.51]}}, {"type": "Feature", "properties": {"of": "DESNATPU1000ESDn", "kind": "main", "nx": 0.2782, "ny": 0.9605, "w": 1.8, "h": 3.0, "z": 114.16}, "geometry": {"type": "Point", "coordinates": [413034.9, 5655990.19]}}, {"type": "Feature", "properties": {"of": "DESNATPU1000AzUS", "kind": "main", "nx": 0.968, "ny": -0.2511, "w": 1.8, "h": 3.0, "z": 114.35}, "geometry": {"type": "Point", "coordinates": [412946.78, 5655991.55]}}, {"type": "Feature", "properties": {"of": "DESNATPU1000CKU6", "kind": "main", "nx": 0.2813, "ny": 0.9596, "w": 1.8, "h": 3.0, "z": 113.48}, "geometry": {"type": "Point", "coordinates": [413497.0, 5655992.94]}}, {"type": "Feature", "properties": {"of": "DESNATP1iT0000Ly", "kind": "main", "nx": 0.2863, "ny": 0.9581, "w": 1.8, "h": 3.0, "z": 113.48}, "geometry": {"type": "Point", "coordinates": [413865.11, 5655993.45]}}, {"type": "Feature", "properties": {"of": "DESNATPU1000CuYm", "kind": "yes", "nx": 0.949, "ny": -0.3151, "w": 1.2, "h": 2.5, "z": 114.42}, "geometry": {"type": "Point", "coordinates": [412710.15, 5655995.13]}}, {"type": "Feature", "properties": {"of": "DESNATPU1000HtfE", "kind": "main", "nx": 0.2782, "ny": 0.9605, "w": 1.8, "h": 3.0, "z": 114.15}, "geometry": {"type": "Point", "coordinates": [413017.6, 5655995.2]}}, {"type": "Feature", "properties": {"of": "DESNATPU1000HxUA", "kind": "yes", "nx": -0.9055, "ny": -0.4243, "w": 1.2, "h": 2.5, "z": 114.29}, "geometry": {"type": "Point", "coordinates": [412432.98, 5655996.36]}}]}