{"type": "FeatureCollection", "attribution": "\u00a9 OpenStreetMap contributors (ODbL)", "crs": {"type": "name", "properties": {"name": "urn:ogc:def:crs:EPSG::25833"}}, "features": [{"type": "Feature", "properties": {"of": "UUID_9d700d78-81ab-4603-acfb-8815da453c50", "kind": "main", "nx": -0.8797, "ny": -0.4756, "w": 1.38, "h": 3.0, "z": 134.17}, "geometry": {"type": "Point", "coordinates": [414658.06, 5658016.01]}}, {"type": "Feature", "properties": {"of": "UUID_32838ab2-20ca-41d6-92df-825cae11c8c2", "kind": "main", "nx": -0.8702, "ny": -0.4927, "w": 1.48, "h": 3.0, "z": 134.54}, "geometry": {"type": "Point", "coordinates": [414656.39, 5658019.83]}}, {"type": "Feature", "properties": {"of": "DESNATPU1000IkKp", "kind": "main", "nx": -0.1007, "ny": 0.9949, "w": 1.8, "h": 3.0, "z": 136.95}, "geometry": {"type": "Point", "coordinates": [415010.82, 5658053.4]}}, {"type": "Feature", "properties": {"of": "UUID_ce0fbd60-ca7c-4952-be1f-2e5e78cc7d2a", "kind": "main", "nx": 0.1273, "ny": -0.9919, "w": 1.8, "h": 3.0, "z": 124.49}, "geometry": {"type": "Point", "coordinates": [414293.67, 5658065.45]}}, {"type": "Feature", "properties": {"of": "UUID_ce0fbd60-ca7c-4952-be1f-2e5e78cc7d2a", "kind": "service", "nx": 0.1278, "ny": -0.9918, "w": 1.1, "h": 2.3, "z": 124.49}, "geometry": {"type": "Point", "coordinates": [414313.28, 5658067.97]}}, {"type": "Feature", "properties": {"of": "DESNATPU1000Bl3C", "kind": "main", "nx": -0.9487, "ny": 0.3163, "w": 1.8, "h": 3.0, "z": 135.6}, "geometry": {"type": "Point", "coordinates": [414652.93, 5658068.02]}}, {"type": "Feature", "properties": {"of": "UUID_b10117c4-5152-45a1-b29a-a9a21f0ffdf5", "kind": "service", "nx": 0.1373, "ny": -0.9905, "w": 1.1, "h": 2.3, "z": 123.26}, "geometry": {"type": "Point", "coordinates": [414321.97, 5658071.58]}}, {"type": "Feature", "properties": {"of": "UUID_246d0c49-3fd0-4966-b03d-0b379db104a1", "kind": "main", "nx": -0.948, "ny": 0.3183, "w": 1.8, "h": 3.0, "z": 135.72}, "geometry": {"type": "Point", "coordinates": [414654.84, 5658076.91]}}, {"type": "Feature", "properties": {"of": "UUID_a590dc54-0621-4473-be39-9c2bcb4f938d", "kind": "main", "nx": -0.9523, "ny": 0.305, "w": 1.67, "h": 3.0, "z": 135.65}, "geometry": {"type": "Point", "coordinates": [414659.41, 5658089.32]}}, {"type": "Feature", "properties": {"of": "UUID_b10117c4-5152-45a1-b29a-a9a21f0ffdf5", "kind": "service", "nx": -0.1104, "ny": 0.9939, "w": 1.1, "h": 2.3, "z": 124.52}, "geometry": {"type": "Point", "coordinates": [414319.17, 5658094.78]}}, {"type": "Feature", "properties": {"of": "UUID_e0da86bd-5823-4906-8b6a-961ec652ebc9", "kind": "main", "nx": -0.9531, "ny": 0.3026, "w": 1.8, "h": 3.0, "z": 135.7}, "geometry": {"type": "Point", "coordinates": [414660.33, 5658097.98]}}, {"type": "Feature", "properties": {"of": "UUID_46d74116-a666-4c51-a6f7-6e7d3fedc886", "kind": "main", "nx": -0.9486, "ny": 0.3164, "w": 1.8, "h": 3.0, "z": 136.66}, "geometry": {"type": "Point", "coordinates": [414665.33, 5658108.38]}}, {"type": "Feature", "properties": {"of": "UUID_1f19660c-2611-470d-bbd4-d5bafa6db75f", "kind": "main", "nx": 0.9487, "ny": -0.3162, "w": 1.15, "h": 3.0, "z": 135.75}, "geometry": {"type": "Point", "coordinates": [414632.0, 5658108.71]}}, {"type": "Feature", "properties": {"of": "UUID_4e9c54d4-891f-4ffa-a4ef-6fff68b7fb39", "kind": "main", "nx": 0.3192, "ny": 0.9477, "w": 1.8, "h": 3.0, "z": 136.4}, "geometry": {"type": "Point", "coordinates": [414639.79, 5658138.07]}}, {"type": "Feature", "properties": {"of": "UUID_50005d21-240b-4238-a81b-2024e90999e6", "kind": "yes", "nx": 0.9648, "ny": 0.2629, "w": 1.2, "h": 2.5, "z": 122.72}, "geometry": {"type": "Point", "coordinates": [414101.81, 5658142.3]}}, {"type": "Feature", "properties": {"of": "DESNATPU1000Hmqu", "kind": "main", "nx": 0.2985, "ny": 0.9544, "w": 1.8, "h": 3.0, "z": 136.57}, "geometry": {"type": "Point", "coordinates": [414648.53, 5658151.63]}}, {"type": "Feature", "properties": {"of": "UUID_8f89d351-d272-4d75-95f8-da33d4919c8f", "kind": "yes", "nx": 0.9649, "ny": 0.2628, "w": 1.2, "h": 2.5, "z": 122.76}, "geometry": {"type": "Point", "coordinates": [414096.34, 5658163.11]}}, {"type": "Feature", "properties": {"of": "DESNATPU1000Ih0C", "kind": "yes", "nx": 0.9948, "ny": 0.1018, "w": 1.2, "h": 2.5, "z": 131.33}, "geometry": {"type": "Point", "coordinates": [414332.69, 5658164.82]}}, {"type": "Feature", "properties": {"of": "UUID_3d607eb3-5958-4f70-8b7c-798412547d7a", "kind": "yes", "nx": -0.9625, "ny": -0.2714, "w": 1.2, "h": 2.5, "z": 124.86}, "geometry": {"type": "Point", "coordinates": [414185.76, 5658166.65]}}, {"type": "Feature", "properties": {"of": "UUID_ce71115f-d604-44b5-ab90-8166a9e38389", "kind": "main", "nx": 0.9481, "ny": -0.318, "w": 1.19, "h": 3.0, "z": 136.84}, "geometry": {"type": "Point", "coordinates": [414655.71, 5658167.44]}}, {"type": "Feature", "properties": {"of": "DESNATPU1000DX5m", "kind": "yes", "nx": 0.2605, "ny": -0.9655, "w": 1.2, "h": 2.5, "z": 125.0}, "geometry": {"type": "Point", "coordinates": [414184.11, 5658183.7]}}, {"type": "Feature", "properties": {"of": "DESNATPU1000F74U", "kind": "yes", "nx": 0.9823, "ny": 0.1871, "w": 1.2, "h": 2.5, "z": 126.19}, "geometry": {"type": "Point", "coordinates": [414277.24, 5658186.75]}}, {"type": "Feature", "properties": {"of": "UUID_ad8cdddc-e6a8-4453-b2e0-16a32834bd56", "kind": "yes", "nx": 0.9699, "ny": 0.2435, "w": 1.2, "h": 2.5, "z": 124.23}, "geometry": {"type": "Point", "coordinates": [414087.32, 5658194.46]}}, {"type": "Feature", "properties": {"of": "DESNATPU1000IrEs", "kind": "yes", "nx": 0.2524, "ny": 0.9676, "w": 1.2, "h": 2.5, "z": 137.96}, "geometry": {"type": "Point", "coordinates": [414676.99, 5658243.81]}}, {"type": "Feature", "properties": {"of": "DESNATPU1000CNjQ", "kind": "yes", "nx": 0.3299, "ny": -0.944, "w": 1.2, "h": 2.5, "z": 134.32}, "geometry": {"type": "Point", "coordinates": [414313.7, 5658253.84]}}, {"type": "Feature", "properties": {"of": "DESNATPU1000BKgA", "kind": "yes", "nx": 0.2809, "ny": -0.9597, "w": 1.2, "h": 2.5, "z": 134.91}, "geometry": {"type": "Point", "coordinates": [414335.15, 5658260.27]}}, {"type": "Feature", "properties": {"of": "DESNATPU1000DZXd", "kind": "yes", "nx": 0.259, "ny": 0.9659, "w": 1.2, "h": 2.5, "z": 137.52}, "geometry": {"type": "Point", "coordinates": [414645.36, 5658260.59]}}, {"type": "Feature", "properties": {"of": "UUID_fbe591c7-6db6-4ce5-b51f-e9f1b4d1d64f", "kind": "home", "nx": -0.0639, "ny": -0.998, "w": 1.2, "h": 2.5, "z": 141.87}, "geometry": {"type": "Point", "coordinates": [414973.33, 5658260.93]}}, {"type": "Feature", "properties": {"of": "DESNATPU1000GOFQ", "kind": "yes", "nx": 0.2885, "ny": -0.9575, "w": 1.2, "h": 2.5, "z": 134.78}, "geometry": {"type": "Point", "coordinates": [414354.66, 5658265.56]}}, {"type": "Feature", "properties": {"of": "DESNATPU1000FTXq", "kind": "yes", "nx": -0.9934, "ny": -0.1146, "w": 1.2, "h": 2.5, "z": 130.9}, "geometry": {"type": "Point", "coordinates": [414250.54, 5658282.65]}}, {"type": "Feature", "properties": {"of": "DESNATPU1000Dxlv", "kind": "yes", "nx": 0.9547, "ny": 0.2976, "w": 1.2, "h": 2.5, "z": 134.92}, "geometry": {"type": "Point", "coordinates": [414392.28, 5658283.06]}}, {"type": "Feature", "properties": {"of": "UUID_6bbc00b5-ef0c-4ddb-9e46-a581b843b67d", "kind": "main", "nx": 0.9994, "ny": -0.0355, "w": 1.8, "h": 3.0, "z": 144.13}, "geometry": {"type": "Point", "coordinates": [414994.42, 5658327.42]}}, {"type": "Feature", "properties": {"of": "DESNATPU1000JbVi", "kind": "yes", "nx": -0.9594, "ny": 0.2821, "w": 1.2, "h": 2.5, "z": 137.15}, "geometry": {"type": "Point", "coordinates": [414632.61, 5658330.41]}}, {"type": "Feature", "properties": {"of": "DESNATPU1000CPnS", "kind": "main", "nx": 0.9382, "ny": -0.3461, "w": 1.78, "h": 3.0, "z": 144.21}, "geometry": {"type": "Point", "coordinates": [414991.48, 5658342.98]}}, {"type": "Feature", "properties": {"of": "UUID_afa3b2f4-f611-4288-8877-4b28ddf7b2bf", "kind": "main", "nx": -0.315, "ny": -0.9491, "w": 1.8, "h": 3.0, "z": 136.15}, "geometry": {"type": "Point", "coordinates": [414480.44, 5658344.21]}}, {"type": "Feature", "properties": {"of": "DESNATPU1000EiE9", "kind": "yes", "nx": -0.9593, "ny": 0.2825, "w": 1.2, "h": 2.5, "z": 137.11}, "geometry": {"type": "Point", "coordinates": [414636.73, 5658344.38]}}, {"type": "Feature", "properties": {"of": "UUID_5c0738d7-1b5c-45bc-a32f-46bfd4208ebd", "kind": "yes", "nx": -0.2869, "ny": 0.958, "w": 1.2, "h": 2.5, "z": 134.84}, "geometry": {"type": "Point", "coordinates": [414282.49, 5658345.85]}}, {"type": "Feature", "properties": {"of": "DESNATPU1000GTIJ", "kind": "main", "nx": 0.8969, "ny": -0.4422, "w": 1.52, "h": 3.0, "z": 144.16}, "geometry": {"type": "Point", "coordinates": [414991.26, 5658348.14]}}, {"type": "Feature", "properties": {"of": "UUID_4a1cf7a0-1f4c-48cf-b264-1d1d913c89f8", "kind": "main", "nx": -0.3097, "ny": -0.9508, "w": 1.29, "h": 3.0, "z": 136.17}, "geometry": {"type": "Point", "coordinates": [414463.83, 5658349.73]}}, {"type": "Feature", "properties": {"of": "UUID_3d0d91ea-45e9-48ee-92f2-a5f5c6d15987", "kind": "yes", "nx": -0.2933, "ny": 0.956, "w": 1.2, "h": 2.5, "z": 135.51}, "geometry": {"type": "Point", "coordinates": [414300.09, 5658351.09]}}, {"type": "Feature", "properties": {"of": "DESNATPU1000E2C7", "kind": "yes", "nx": 0.8414, "ny": -0.5403, "w": 1.2, "h": 2.5, "z": 144.17}, "geometry": {"type": "Point", "coordinates": [414991.75, 5658353.6]}}, {"type": "Feature", "properties": {"of": "DESNATPU1000C21r", "kind": "yes", "nx": -0.9593, "ny": 0.2824, "w": 1.2, "h": 2.5, "z": 137.12}, "geometry": {"type": "Point", "coordinates": [414640.87, 5658358.45]}}, {"type": "Feature", "properties": {"of": "DESNATPU1000BaoE", "kind": "yes", "nx": 0.7756, "ny": -0.6312, "w": 1.2, "h": 2.5, "z": 144.32}, "geometry": {"type": "Point", "coordinates": [414992.85, 5658359.01]}}, {"type": "Feature", "properties": {"of": "UUID_231eb704-2a2d-4415-a911-9d9b7413ca7a", "kind": "yes", "nx": -0.3332, "ny": 0.9428, "w": 1.2, "h": 2.5, "z": 136.93}, "geometry": {"type": "Point", "coordinates": [414336.64, 5658363.35]}}, {"type": "Feature", "properties": {"of": "DESNATPU1000CMBN", "kind": "yes", "nx": -0.9594, "ny": 0.2821, "w": 1.2, "h": 2.5, "z": 137.13}, "geometry": {"type": "Point", "coordinates": [414645.02, 5658372.56]}}, {"type": "Feature", "properties": {"of": "UUID_507619c9-3ba7-4bf8-a0c7-bcecbf0e208c", "kind": "yes", "nx": -0.9175, "ny": -0.3976, "w": 1.2, "h": 2.5, "z": 134.68}, "geometry": {"type": "Point", "coordinates": [414385.34, 5658375.53]}}, {"type": "Feature", "properties": {"of": "DESNATPU1000ICjd", "kind": "yes", "nx": -0.0833, "ny": 0.9965, "w": 1.2, "h": 2.5, "z": 142.46}, "geometry": {"type": "Point", "coordinates": [414772.61, 5658382.37]}}, {"type": "Feature", "properties": {"of": "DESNATPU1000GUWV", "kind": "home", "nx": 0.0362, "ny": 0.9993, "w": 1.2, "h": 2.5, "z": 136.75}, "geometry": {"type": "Point", "coordinates": [414622.79, 5658386.08]}}, {"type": "Feature", "properties": {"of": "DESNATPU1000CMfG", "kind": "yes", "nx": -0.3654, "ny": 0.9308, "w": 1.2, "h": 2.5, "z": 134.72}, "geometry": {"type": "Point", "coordinates": [414402.31, 5658386.39]}}, {"type": "Feature", "properties": {"of": "DESNATPU1000BXH4", "kind": "home", "nx": 0.0445, "ny": 0.999, "w": 1.2, "h": 2.5, "z": 136.75}, "geometry": {"type": "Point", "coordinates": [414607.81, 5658386.68]}}, {"type": "Feature", "properties": {"of": "DESNATPU1000FYMU", "kind": "home", "nx": 0.044, "ny": 0.999, "w": 1.2, "h": 2.5, "z": 136.72}, "geometry": {"type": "Point", "coordinates": [414592.91, 5658387.34]}}, {"type": "Feature", "properties": {"of": "DESNATPU1000Hojc", "kind": "home", "nx": 0.0438, "ny": 0.999, "w": 1.2, "h": 2.5, "z": 136.75}, "geometry": {"type": "Point", "coordinates": [414578.77, 5658387.97]}}, {"type": "Feature", "properties": {"of": "DESNATP1iT0000MB", "kind": "yes", "nx": 0.4863, "ny": 0.8738, "w": 1.2, "h": 2.5, "z": 138.8}, "geometry": {"type": "Point", "coordinates": [414199.47, 5658388.55]}}, {"type": "Feature", "properties": {"of": "DESNATPU1000IwAp", "kind": "yes", "nx": -0.9178, "ny": -0.3971, "w": 1.2, "h": 2.5, "z": 134.7}, "geometry": {"type": "Point", "coordinates": [414379.06, 5658390.02]}}, {"type": "Feature", "properties": {"of": "UUID_f0eef3d9-5181-4284-985a-583026e50806", "kind": "yes", "nx": -0.2996, "ny": 0.9541, "w": 1.2, "h": 2.5, "z": 135.34}, "geometry": {"type": "Point", "coordinates": [414353.97, 5658390.16]}}, {"type": "Feature", "properties": {"of": "DESNATPU1000If9a", "kind": "yes", "nx": -0.3957, "ny": 0.9184, "w": 1.2, "h": 2.5, "z": 134.77}, "geometry": {"type": "Point", "coordinates": [414414.16, 5658391.5]}}, {"type": "Feature", "properties": {"of": "UUID_a8d9912f-284d-4ccb-b8d3-785e095ee7ab", "kind": "yes", "nx": -0.2356, "ny": 0.9719, "w": 0.94, "h": 2.5, "z": 137.83}, "geometry": {"type": "Point", "coordinates": [414314.65, 5658392.73]}}, {"type": "Feature", "properties": {"of": "DESNATPU1000If9a", "kind": "yes", "nx": -0.4078, "ny": 0.9131, "w": 1.2, "h": 2.5, "z": 134.76}, "geometry": {"type": "Point", "coordinates": [414426.12, 5658396.66]}}, {"type": "Feature", "properties": {"of": "DESNATPU1000C5rO", "kind": "yes", "nx": -0.9196, "ny": -0.393, "w": 1.2, "h": 2.5, "z": 136.85}, "geometry": {"type": "Point", "coordinates": [414447.12, 5658401.62]}}, {"type": "Feature", "properties": {"of": "DESNATPU1000Hk80", "kind": "home", "nx": 0.6255, "ny": 0.7802, "w": 1.2, "h": 2.5, "z": 147.41}, "geometry": {"type": "Point", "coordinates": [415026.38, 5658406.29]}}, {"type": "Feature", "properties": {"of": "DESNATPU1000Hk80", "kind": "home", "nx": 0.6255, "ny": 0.7802, "w": 1.2, "h": 2.5, "z": 147.41}, "geometry": {"type": "Point", "coordinates": [415021.77, 5658409.99]}}, {"type": "Feature", "properties": {"of": "DESNATPU1000Hk80", "kind": "home", "nx": 0.6255, "ny": 0.7802, "w": 1.2, "h": 2.5, "z": 147.48}, "geometry": {"type": "Point", "coordinates": [415017.17, 5658413.67]}}, {"type": "Feature", "properties": {"of": "DESNATPU1000EyI5", "kind": "yes", "nx": -0.9194, "ny": -0.3933, "w": 1.2, "h": 2.5, "z": 136.9}, "geometry": {"type": "Point", "coordinates": [414441.61, 5658414.52]}}, {"type": "Feature", "properties": {"of": "DESNATPU1000FmFH", "kind": "home", "nx": -0.1225, "ny": 0.9925, "w": 0.88, "h": 2.5, "z": 142.88}, "geometry": {"type": "Point", "coordinates": [414763.64, 5658415.88]}}, {"type": "Feature", "properties": {"of": "DESNATPU1000Hk80", "kind": "home", "nx": 0.6255, "ny": 0.7802, "w": 1.2, "h": 2.5, "z": 147.57}, "geometry": {"type": "Point", "coordinates": [415012.54, 5658417.38]}}, {"type": "Feature", "properties": {"of": "DESNATPU1000E2n5", "kind": "home", "nx": -0.1185, "ny": 0.993, "w": 1.2, "h": 2.5, "z": 142.89}, "geometry": {"type": "Point", "coordinates": [414779.91, 5658417.85]}}, {"type": "Feature", "properties": {"of": "DESNATPU1000CTQq", "kind": "home", "nx": -0.1216, "ny": 0.9926, "w": 1.2, "h": 2.5, "z": 142.89}, "geometry": {"type": "Point", "coordinates": [414796.56, 5658419.87]}}, {"type": "Feature", "properties": {"of": "DESNATPU1000Hk80", "kind": "home", "nx": 0.6255, "ny": 0.7802, "w": 1.2, "h": 2.5, "z": 147.57}, "geometry": {"type": "Point", "coordinates": [415008.0, 5658421.02]}}, {"type": "Feature", "properties": {"of": "DESNATPU1000Ft6z", "kind": "home", "nx": -0.119, "ny": 0.9929, "w": 1.2, "h": 2.5, "z": 143.87}, "geometry": {"type": "Point", "coordinates": [414813.36, 5658422.89]}}, {"type": "Feature", "properties": {"of": "UUID_a12e1c71-8218-4e0f-8f56-92c16d4df739", "kind": "yes", "nx": -0.4872, "ny": -0.8733, "w": 1.2, "h": 2.5, "z": 139.13}, "geometry": {"type": "Point", "coordinates": [414216.13, 5658422.92]}}, {"type": "Feature", "properties": {"of": "DESNATPU1000Hk80", "kind": "home", "nx": 0.6255, "ny": 0.7802, "w": 1.2, "h": 2.5, "z": 147.45}, "geometry": {"type": "Point", "coordinates": [415003.44, 5658424.68]}}, {"type": "Feature", "properties": {"of": "DESNATPU1000IxBp", "kind": "yes", "nx": -0.9198, "ny": -0.3924, "w": 1.2, "h": 2.5, "z": 136.86}, "geometry": {"type": "Point", "coordinates": [414436.67, 5658426.07]}}, {"type": "Feature", "properties": {"of": "DESNATPU1000CVgu", "kind": "home", "nx": -0.12, "ny": 0.9928, "w": 1.2, "h": 2.5, "z": 143.83}, "geometry": {"type": "Point", "coordinates": [414846.8, 5658426.93]}}, {"type": "Feature", "properties": {"of": "DESNATPU1000Bn9A", "kind": "home", "nx": -0.121, "ny": 0.9927, "w": 1.2, "h": 2.5, "z": 144.88}, "geometry": {"type": "Point", "coordinates": [414863.73, 5658430.16]}}, {"type": "Feature", "properties": {"of": "DESNATPU1000D3r5", "kind": "home", "nx": -0.1239, "ny": 0.9923, "w": 1.2, "h": 2.5, "z": 144.84}, "geometry": {"type": "Point", "coordinates": [414880.08, 5658432.19]}}, {"type": "Feature", "properties": {"of": "DESNATPU1000IaSh", "kind": "yes", "nx": -0.7901, "ny": 0.613, "w": 1.2, "h": 2.5, "z": 139.37}, "geometry": {"type": "Point", "coordinates": [414393.86, 5658432.64]}}, {"type": "Feature", "properties": {"of": "UUID_f2ff22ff-3b46-4ec0-bea3-027a4ecae41d", "kind": "main", "nx": 0.4854, "ny": 0.8743, "w": 1.8, "h": 3.0, "z": 138.87}, "geometry": {"type": "Point", "coordinates": [414105.69, 5658436.64]}}, {"type": "Feature", "properties": {"of": "DESNATPU1000Dkfm", "kind": "yes", "nx": 0.613, "ny": 0.7901, "w": 1.2, "h": 2.5, "z": 139.45}, "geometry": {"type": "Point", "coordinates": [414371.77, 5658453.08]}}, {"type": "Feature", "properties": {"of": "DESNATPU1000Elnm", "kind": "yes", "nx": 0.6138, "ny": 0.7895, "w": 1.2, "h": 2.5, "z": 139.4}, "geometry": {"type": "Point", "coordinates": [414423.59, 5658462.17]}}, {"type": "Feature", "properties": {"of": "DESNATPU1000CR14", "kind": "main", "nx": 0.8512, "ny": 0.5249, "w": 1.8, "h": 3.0, "z": 148.88}, "geometry": {"type": "Point", "coordinates": [415015.33, 5658471.72]}}, {"type": "Feature", "properties": {"of": "DESNATPU1000Elnm", "kind": "yes", "nx": 0.6134, "ny": 0.7898, "w": 1.2, "h": 2.5, "z": 139.45}, "geometry": {"type": "Point", "coordinates": [414406.16, 5658475.67]}}, {"type": "Feature", "properties": {"of": "UUID_e6486bce-6895-442e-a725-8bfdfba85783", "kind": "yes", "nx": -0.7902, "ny": 0.6129, "w": 1.2, "h": 2.5, "z": 139.43}, "geometry": {"type": "Point", "coordinates": [414347.2, 5658480.3]}}, {"type": "Feature", "properties": {"of": "DESNATP1Ak0000Qv", "kind": "main", "nx": 0.8418, "ny": 0.5397, "w": 1.8, "h": 3.0, "z": 145.39}, "geometry": {"type": "Point", "coordinates": [414882.54, 5658485.12]}}, {"type": "Feature", "properties": {"of": "DESNATPU1000BtQX", "kind": "main", "nx": 0.8423, "ny": 0.539, "w": 1.8, "h": 3.0, "z": 145.25}, "geometry": {"type": "Point", "coordinates": [414880.16, 5658488.82]}}, {"type": "Feature", "properties": {"of": "DESNATPU1000GdHk", "kind": "main", "nx": 0.8504, "ny": 0.5261, "w": 1.8, "h": 3.0, "z": 148.84}, "geometry": {"type": "Point", "coordinates": [415003.25, 5658491.28]}}, {"type": "Feature", "properties": {"of": "UUID_b34263ac-0b1f-4bda-b775-df0a6534b09f", "kind": "yes", "nx": 0.6124, "ny": 0.7905, "w": 1.2, "h": 2.5, "z": 139.76}, "geometry": {"type": "Point", "coordinates": [414378.07, 5658497.44]}}, {"type": "Feature", "properties": {"of": "UUID_d49def73-89f1-4aed-92a9-a284b366be20", "kind": "yes", "nx": -0.7918, "ny": 0.6108, "w": 1.2, "h": 2.5, "z": 139.42}, "geometry": {"type": "Point", "coordinates": [414360.58, 5658497.5]}}, {"type": "Feature", "properties": {"of": "DESNATPU1000Fo8J", "kind": "main", "nx": 0.8506, "ny": 0.5258, "w": 1.56, "h": 3.0, "z": 149.81}, "geometry": {"type": "Point", "coordinates": [415040.0, 5658500.18]}}, {"type": "Feature", "properties": {"of": "DESNATP1Ak0000R1", "kind": "main", "nx": 0.8425, "ny": 0.5388, "w": 1.8, "h": 3.0, "z": 145.33}, "geometry": {"type": "Point", "coordinates": [414872.4, 5658500.94]}}, {"type": "Feature", "properties": {"of": "DESNATPU1000EYjB", "kind": "main", "nx": 0.8217, "ny": 0.5699, "w": 1.8, "h": 3.0, "z": 146.33}, "geometry": {"type": "Point", "coordinates": [414912.14, 5658502.61]}}, {"type": "Feature", "properties": {"of": "DESNATPU1000FsEF", "kind": "main", "nx": 0.8401, "ny": 0.5425, "w": 1.34, "h": 3.0, "z": 145.32}, "geometry": {"type": "Point", "coordinates": [414870.02, 5658504.64]}}, {"type": "Feature", "properties": {"of": "DESNATPU1000EYjB", "kind": "main", "nx": 0.8217, "ny": 0.5699, "w": 1.8, "h": 3.0, "z": 146.35}, "geometry": {"type": "Point", "coordinates": [414909.63, 5658506.22]}}, {"type": "Feature", "properties": {"of": "DESNATPU1000B6bY", "kind": "main", "nx": 0.8517, "ny": 0.5241, "w": 1.8, "h": 3.0, "z": 151.3}, "geometry": {"type": "Point", "coordinates": [415076.95, 5658508.72]}}, {"type": "Feature", "properties": {"of": "DESNATPU1000GXJw", "kind": "main", "nx": 0.8531, "ny": 0.5217, "w": 1.14, "h": 3.0, "z": 149.78}, "geometry": {"type": "Point", "coordinates": [415033.46, 5658510.8]}}, {"type": "Feature", "properties": {"of": "DESNATP1Ak0000R7", "kind": "main", "nx": 0.8433, "ny": 0.5375, "w": 1.8, "h": 3.0, "z": 145.35}, "geometry": {"type": "Point", "coordinates": [414861.57, 5658517.81]}}, {"type": "Feature", "properties": {"of": "DESNATP1Ak0000RD", "kind": "main", "nx": 0.842, "ny": 0.5394, "w": 1.8, "h": 3.0, "z": 148.36}, "geometry": {"type": "Point", "coordinates": [414937.25, 5658518.38]}}, {"type": "Feature", "properties": {"of": "DESNATPU1000InZm", "kind": "main", "nx": 0.85, "ny": 0.5268, "w": 0.83, "h": 3.0, "z": 151.27}, "geometry": {"type": "Point", "coordinates": [415070.8, 5658518.7]}}, {"type": "Feature", "properties": {"of": "DESNATP1Ak0000RB", "kind": "main", "nx": 0.843, "ny": 0.538, "w": 1.8, "h": 3.0, "z": 146.27}, "geometry": {"type": "Point", "coordinates": [414900.73, 5658519.71]}}, {"type": "Feature", "properties": {"of": "DESNATPU1000CPlY", "kind": "main", "nx": 0.8405, "ny": 0.5418, "w": 1.8, "h": 3.0, "z": 145.36}, "geometry": {"type": "Point", "coordinates": [414859.2, 5658521.51]}}, {"type": "Feature", "properties": {"of": "DESNATPU1000Bh6G", "kind": "main", "nx": 0.8385, "ny": 0.5449, "w": 1.8, "h": 3.0, "z": 148.33}, "geometry": {"type": "Point", "coordinates": [414934.04, 5658523.36]}}, {"type": "Feature", "properties": {"of": "DESNATPU1000GxRd", "kind": "main", "nx": 0.8412, "ny": 0.5408, "w": 1.8, "h": 3.0, "z": 146.38}, "geometry": {"type": "Point", "coordinates": [414898.36, 5658523.41]}}, {"type": "Feature", "properties": {"of": "DESNATP1Ak0000RE", "kind": "main", "nx": 0.8518, "ny": 0.5238, "w": 1.8, "h": 3.0, "z": 154.29}, "geometry": {"type": "Point", "coordinates": [415109.78, 5658526.84]}}, {"type": "Feature", "properties": {"of": "DESNATPU1000CHJ1", "kind": "main", "nx": 0.8518, "ny": 0.5239, "w": 1.8, "h": 3.0, "z": 151.29}, "geometry": {"type": "Point", "coordinates": [415063.86, 5658529.95]}}, {"type": "Feature", "properties": {"of": "DESNATP1Ak0000RI", "kind": "main", "nx": 0.8518, "ny": 0.5239, "w": 1.8, "h": 3.0, "z": 154.32}, "geometry": {"type": "Point", "coordinates": [415106.88, 5658531.55]}}, {"type": "Feature", "properties": {"of": "DESNATP1Ak0000QT", "kind": "main", "nx": 0.8423, "ny": 0.5391, "w": 1.8, "h": 3.0, "z": 148.41}, "geometry": {"type": "Point", "coordinates": [414926.6, 5658534.93]}}, {"type": "Feature", "properties": {"of": "DESNATP1Ak0000R9", "kind": "main", "nx": 0.8416, "ny": 0.5401, "w": 1.8, "h": 3.0, "z": 146.43}, "geometry": {"type": "Point", "coordinates": [414889.58, 5658537.07]}}, {"type": "Feature", "properties": {"of": "DESNATPU1000H8dA", "kind": "main", "nx": 0.8421, "ny": 0.5392, "w": 1.8, "h": 3.0, "z": 148.31}, "geometry": {"type": "Point", "coordinates": [414923.13, 5658540.35]}}, {"type": "Feature", "properties": {"of": "DESNATP1Ak0000RP", "kind": "main", "nx": 0.852, "ny": 0.5235, "w": 1.8, "h": 3.0, "z": 156.29}, "geometry": {"type": "Point", "coordinates": [415135.49, 5658541.25]}}, {"type": "Feature", "properties": {"of": "DESNATPU1000Fskh", "kind": "main", "nx": 0.8405, "ny": 0.5419, "w": 1.8, "h": 3.0, "z": 146.35}, "geometry": {"type": "Point", "coordinates": [414886.82, 5658541.37]}}, {"type": "Feature", "properties": {"of": "DESNATP1Ak0000RL", "kind": "main", "nx": 0.8529, "ny": 0.5221, "w": 1.8, "h": 3.0, "z": 154.91}, "geometry": {"type": "Point", "coordinates": [415098.67, 5658544.85]}}, {"type": "Feature", "properties": {"of": "UUID_1220dc4e-c741-4ca8-a75a-18dd1f27591a", "kind": "main", "nx": 0.8404, "ny": 0.542, "w": 1.8, "h": 3.0, "z": 149.68}, "geometry": {"type": "Point", "coordinates": [414962.29, 5658544.97]}}, {"type": "Feature", "properties": {"of": "UUID_6d4437b9-2df7-44ea-ac1b-d920e7fb7e4d", "kind": "yes", "nx": 0.9495, "ny": -0.3137, "w": 1.2, "h": 2.5, "z": 139.67}, "geometry": {"type": "Point", "coordinates": [414594.93, 5658545.53]}}, {"type": "Feature", "properties": {"of": "DESNATP1Ak0000RQ", "kind": "main", "nx": 0.8519, "ny": 0.5236, "w": 1.8, "h": 3.0, "z": 156.3}, "geometry": {"type": "Point", "coordinates": [415132.18, 5658546.63]}}, {"type": "Feature", "properties": {"of": "DESNATP1Ak0000RM", "kind": "main", "nx": 0.8529, "ny": 0.522, "w": 1.8, "h": 3.0, "z": 154.92}, "geometry": {"type": "Point", "coordinates": [415095.23, 5658550.47]}}, {"type": "Feature", "properties": {"of": "DESNATPU1000FMgP", "kind": "main", "nx": 0.8405, "ny": 0.5418, "w": 1.8, "h": 3.0, "z": 148.18}, "geometry": {"type": "Point", "coordinates": [414915.77, 5658551.83]}}, {"type": "Feature", "properties": {"of": "UUID_e3cea89c-9bb9-4dee-8864-1cf8a731a76a", "kind": "main", "nx": 0.8404, "ny": 0.542, "w": 1.8, "h": 3.0, "z": 149.52}, "geometry": {"type": "Point", "coordinates": [414954.92, 5658556.64]}}, {"type": "Feature", "properties": {"of": "DESNATP1Ak0000QV", "kind": "main", "nx": 0.8403, "ny": 0.5422, "w": 1.8, "h": 3.0, "z": 148.13}, "geometry": {"type": "Point", "coordinates": [414912.21, 5658557.35]}}, {"type": "Feature", "properties": {"of": "DESNATP1Ak0000RV", "kind": "main", "nx": 0.8507, "ny": 0.5257, "w": 1.8, "h": 3.0, "z": 157.65}, "geometry": {"type": "Point", "coordinates": [415123.7, 5658560.4]}}, {"type": "Feature", "properties": {"of": "DESNATP1Ak0000RX", "kind": "main", "nx": 0.8506, "ny": 0.5259, "w": 1.8, "h": 3.0, "z": 157.65}, "geometry": {"type": "Point", "coordinates": [415120.14, 5658566.15]}}, {"type": "Feature", "properties": {"of": "UUID_d6936753-7113-4427-9091-2dc990617822", "kind": "staircase", "nx": -0.8415, "ny": -0.5402, "w": 1.2, "h": 2.5, "z": 149.5}, "geometry": {"type": "Point", "coordinates": [414967.47, 5658569.21]}}, {"type": "Feature", "properties": {"of": "UUID_3268622a-8948-4d3a-9ceb-43904843233c", "kind": "main", "nx": 0.8403, "ny": 0.5421, "w": 1.8, "h": 3.0, "z": 149.33}, "geometry": {"type": "Point", "coordinates": [414945.08, 5658571.99]}}, {"type": "Feature", "properties": {"of": "DESNATP1Ak0000Qt", "kind": "main", "nx": -0.5434, "ny": 0.8395, "w": 1.8, "h": 3.0, "z": 152.85}, "geometry": {"type": "Point", "coordinates": [414989.82, 5658597.16]}}, {"type": "Feature", "properties": {"of": "DESNATPU1000GQh9", "kind": "main", "nx": 0.5126, "ny": -0.8586, "w": 1.8, "h": 3.0, "z": 152.25}, "geometry": {"type": "Point", "coordinates": [414967.09, 5658627.79]}}, {"type": "Feature", "properties": {"of": "UUID_527612a5-5815-4591-9cb3-55d52c72c9b8", "kind": "main", "nx": -0.4626, "ny": 0.8866, "w": 1.8, "h": 3.0, "z": 157.99}, "geometry": {"type": "Point", "coordinates": [415068.26, 5658634.43]}}, {"type": "Feature", "properties": {"of": "UUID_e36befe3-9fe4-44ff-8de2-860326d85e56", "kind": "main", "nx": -0.4629, "ny": 0.8864, "w": 1.8, "h": 3.0, "z": 158.0}, "geometry": {"type": "Point", "coordinates": [415081.92, 5658641.56]}}, {"type": "Feature", "properties": {"of": "DESNATPU1000CLjz", "kind": "main", "nx": -0.4635, "ny": 0.8861, "w": 1.8, "h": 3.0, "z": 157.98}, "geometry": {"type": "Point", "coordinates": [415094.76, 5658648.27]}}, {"type": "Feature", "properties": {"of": "UUID_4d58bf09-ec70-4681-a49c-ac8c30dca36c", "kind": "main", "nx": -0.4623, "ny": 0.8867, "w": 1.8, "h": 3.0, "z": 158.06}, "geometry": {"type": "Point", "coordinates": [415107.09, 5658654.71]}}, {"type": "Feature", "properties": {"of": "DESNATP1iT0000av", "kind": "yes", "nx": -0.4501, "ny": 0.893, "w": 1.2, "h": 2.5, "z": 163.89}, "geometry": {"type": "Point", "coordinates": [415158.55, 5658690.58]}}, {"type": "Feature", "properties": {"of": "DESNATPU1000EJQQ", "kind": "main", "nx": 0.9342, "ny": 0.3566, "w": 1.39, "h": 3.0, "z": 159.81}, "geometry": {"type": "Point", "coordinates": [415106.4, 5658695.31]}}, {"type": "Feature", "properties": {"of": "DESNATPU1000JGou", "kind": "main", "nx": -0.4593, "ny": 0.8883, "w": 1.36, "h": 3.0, "z": 156.73}, "geometry": {"type": "Point", "coordinates": [415037.07, 5658698.56]}}, {"type": "Feature", "properties": {"of": "DESNATPU1000CK5C", "kind": "main", "nx": 0.9342, "ny": 0.3568, "w": 1.58, "h": 3.0, "z": 159.8}, "geometry": {"type": "Point", "coordinates": [415101.47, 5658708.26]}}, {"type": "Feature", "properties": {"of": "DESNATPU1000CUTM", "kind": "main", "nx": 0.9345, "ny": 0.356, "w": 1.8, "h": 3.0, "z": 159.82}, "geometry": {"type": "Point", "coordinates": [415096.3, 5658721.78]}}, {"type": "Feature", "properties": {"of": "DESNATPU1000FoPU", "kind": "yes", "nx": -0.9346, "ny": -0.3558, "w": 0.88, "h": 2.5, "z": 162.07}, "geometry": {"type": "Point", "coordinates": [415148.59, 5658733.12]}}, {"type": "Feature", "properties": {"of": "DESNATPU1000DqWY", "kind": "main", "nx": 0.9324, "ny": 0.3613, "w": 1.8, "h": 3.0, "z": 159.79}, "geometry": {"type": "Point", "coordinates": [415091.11, 5658735.17]}}, {"type": "Feature", "properties": {"of": "DESNATPU1000FoPU", "kind": "main", "nx": 0.9354, "ny": 0.3536, "w": 1.8, "h": 3.0, "z": 161.5}, "geometry": {"type": "Point", "coordinates": [415159.5, 5658737.85]}}, {"type": "Feature", "properties": {"of": "DESNATPU1000HvGq", "kind": "yes", "nx": -0.9385, "ny": -0.3453, "w": 0.98, "h": 2.5, "z": 161.96}, "geometry": {"type": "Point", "coordinates": [415143.47, 5658746.69]}}, {"type": "Feature", "properties": {"of": "DESNATPU1000Flqg", "kind": "main", "nx": 0.9348, "ny": 0.3551, "w": 1.72, "h": 3.0, "z": 159.8}, "geometry": {"type": "Point", "coordinates": [415085.82, 5658748.99]}}, {"type": "Feature", "properties": {"of": "DESNATPU1000HvGq", "kind": "main", "nx": 0.9371, "ny": 0.3492, "w": 1.8, "h": 3.0, "z": 161.51}, "geometry": {"type": "Point", "coordinates": [415154.46, 5658751.29]}}, {"type": "Feature", "properties": {"of": "DESNATPU1000J6cF", "kind": "main", "nx": -0.9352, "ny": -0.354, "w": 1.19, "h": 3.0, "z": 162.04}, "geometry": {"type": "Point", "coordinates": [415138.4, 5658760.16]}}, {"type": "Feature", "properties": {"of": "DESNATPU1000GEEY", "kind": "main", "nx": 0.9355, "ny": 0.3532, "w": 1.8, "h": 3.0, "z": 159.83}, "geometry": {"type": "Point", "coordinates": [415080.81, 5658762.09]}}, {"type": "Feature", "properties": {"of": "DESNATPU1000J6cF", "kind": "staircase", "nx": 0.936, "ny": 0.3519, "w": 1.2, "h": 2.5, "z": 161.49}, "geometry": {"type": "Point", "coordinates": [415149.39, 5658764.77]}}, {"type": "Feature", "properties": {"of": "DESNATPU1000Hnz0", "kind": "main", "nx": -0.9346, "ny": -0.3557, "w": 1.3, "h": 3.0, "z": 161.95}, "geometry": {"type": "Point", "coordinates": [415133.33, 5658773.63]}}, {"type": "Feature", "properties": {"of": "DESNATPU1000GP2y", "kind": "main", "nx": 0.3537, "ny": -0.9354, "w": 1.49, "h": 3.0, "z": 165.95}, "geometry": {"type": "Point", "coordinates": [415234.93, 5658777.81]}}, {"type": "Feature", "properties": {"of": "DESNATPU1000Hnz0", "kind": "secondary", "nx": 0.9353, "ny": 0.3539, "w": 1.2, "h": 2.5, "z": 161.51}, "geometry": {"type": "Point", "coordinates": [415144.29, 5658778.27]}}, {"type": "Feature", "properties": {"of": "DESNATPU1000DAdg", "kind": "main", "nx": -0.3535, "ny": 0.9354, "w": 1.8, "h": 3.0, "z": 159.79}, "geometry": {"type": "Point", "coordinates": [415077.59, 5658782.09]}}, {"type": "Feature", "properties": {"of": "DESNATPU1000C2ee", "kind": "main", "nx": 0.3524, "ny": -0.9358, "w": 1.49, "h": 3.0, "z": 166.14}, "geometry": {"type": "Point", "coordinates": [415248.49, 5658782.9]}}, {"type": "Feature", "properties": {"of": "DESNATPU1000ETHr", "kind": "main", "nx": -0.3528, "ny": 0.9357, "w": 1.8, "h": 3.0, "z": 159.83}, "geometry": {"type": "Point", "coordinates": [415091.25, 5658787.27]}}, {"type": "Feature", "properties": {"of": "DESNATPU1000I104", "kind": "main", "nx": -0.9356, "ny": -0.353, "w": 1.68, "h": 3.0, "z": 161.95}, "geometry": {"type": "Point", "coordinates": [415128.07, 5658787.53]}}, {"type": "Feature", "properties": {"of": "DESNATPU1000Edsz", "kind": "main", "nx": 0.3535, "ny": -0.9354, "w": 1.61, "h": 3.0, "z": 166.0}, "geometry": {"type": "Point", "coordinates": [415261.99, 5658787.99]}}, {"type": "Feature", "properties": {"of": "DESNATPU1000GP2y", "kind": "yes", "nx": -0.3537, "ny": 0.9354, "w": 1.2, "h": 2.5, "z": 165.54}, "geometry": {"type": "Point", "coordinates": [415230.74, 5658789.02]}}, {"type": "Feature", "properties": {"of": "DESNATPU1000I104", "kind": "yes", "nx": 0.9368, "ny": 0.3499, "w": 1.2, "h": 2.5, "z": 161.54}, "geometry": {"type": "Point", "coordinates": [415139.31, 5658791.52]}}, {"type": "Feature", "properties": {"of": "DESNATPU1000DMag", "kind": "main", "nx": 0.3487, "ny": -0.9372, "w": 1.57, "h": 3.0, "z": 166.12}, "geometry": {"type": "Point", "coordinates": [415275.53, 5658793.08]}}, {"type": "Feature", "properties": {"of": "DESNATPU1000C2ee", "kind": "yes", "nx": -0.3516, "ny": 0.9362, "w": 1.2, "h": 2.5, "z": 165.53}, "geometry": {"type": "Point", "coordinates": [415243.94, 5658793.89]}}, {"type": "Feature", "properties": {"of": "DESNATPU1000Edsz", "kind": "yes", "nx": -0.3507, "ny": 0.9365, "w": 1.2, "h": 2.5, "z": 165.52}, "geometry": {"type": "Point", "coordinates": [415257.69, 5658799.09]}}, {"type": "Feature", "properties": {"of": "DESNATPU1000HJFa", "kind": "staircase", "nx": 0.362, "ny": -0.9322, "w": 1.2, "h": 2.5, "z": 163.07}, "geometry": {"type": "Point", "coordinates": [415166.65, 5658810.15]}}, {"type": "Feature", "properties": {"of": "DESNATPU1000IK4o", "kind": "main", "nx": -0.3527, "ny": 0.9357, "w": 1.51, "h": 3.0, "z": 162.6}, "geometry": {"type": "Point", "coordinates": [415135.57, 5658811.36]}}, {"type": "Feature", "properties": {"of": "DESNATPU1000CmQH", "kind": "secondary", "nx": -0.936, "ny": -0.352, "w": 1.2, "h": 2.5, "z": 166.45}, "geometry": {"type": "Point", "coordinates": [415272.21, 5658811.85]}}, {"type": "Feature", "properties": {"of": "DESNATPU1000CpQv", "kind": "main", "nx": 0.3455, "ny": -0.9384, "w": 1.53, "h": 3.0, "z": 168.55}, "geometry": {"type": "Point", "coordinates": [415320.01, 5658812.42]}}, {"type": "Feature", "properties": {"of": "DESNATPU1000Jc4i", "kind": "staircase", "nx": 0.3531, "ny": -0.9356, "w": 1.2, "h": 2.5, "z": 163.1}, "geometry": {"type": "Point", "coordinates": [415180.47, 5658815.38]}}, {"type": "Feature", "properties": {"of": "DESNATPU1000G2zd", "kind": "main", "nx": -0.3545, "ny": 0.935, "w": 1.7, "h": 3.0, "z": 162.63}, "geometry": {"type": "Point", "coordinates": [415149.09, 5658816.39]}}, {"type": "Feature", "properties": {"of": "DESNATPU1000CmQH", "kind": "main", "nx": 0.9348, "ny": 0.3553, "w": 0.99, "h": 3.0, "z": 167.02}, "geometry": {"type": "Point", "coordinates": [415283.16, 5658816.6]}}, {"type": "Feature", "properties": {"of": "DESNATPU1000H4e0", "kind": "main", "nx": 0.3523, "ny": -0.9359, "w": 1.13, "h": 3.0, "z": 168.5}, "geometry": {"type": "Point", "coordinates": [415333.42, 5658817.46]}}, {"type": "Feature", "properties": {"of": "DESNATPU1000HJFa", "kind": "main", "nx": -0.3491, "ny": 0.9371, "w": 1.59, "h": 3.0, "z": 162.59}, "geometry": {"type": "Point", "coordinates": [415162.61, 5658821.54]}}, {"type": "Feature", "properties": {"of": "DESNATPU1000CpQv", "kind": "secondary", "nx": -0.3467, "ny": 0.938, "w": 1.2, "h": 2.5, "z": 168.04}, "geometry": {"type": "Point", "coordinates": [415315.97, 5658823.79]}}, {"type": "Feature", "properties": {"of": "DESNATPU1000Ei8D", "kind": "secondary", "nx": -0.9347, "ny": -0.3554, "w": 1.2, "h": 2.5, "z": 166.42}, "geometry": {"type": "Point", "coordinates": [415267.11, 5658825.2]}}, {"type": "Feature", "properties": {"of": "DESNATPU1000Jc4i", "kind": "main", "nx": -0.3497, "ny": 0.9369, "w": 1.61, "h": 3.0, "z": 162.63}, "geometry": {"type": "Point", "coordinates": [415176.43, 5658826.69]}}, {"type": "Feature", "properties": {"of": "DESNATPU1000H4e0", "kind": "secondary", "nx": -0.3516, "ny": 0.9362, "w": 1.2, "h": 2.5, "z": 168.05}, "geometry": {"type": "Point", "coordinates": [415329.31, 5658828.67]}}, {"type": "Feature", "properties": {"of": "DESNATPU1000JGtC", "kind": "main", "nx": -0.9338, "ny": -0.3578, "w": 0.87, "h": 3.0, "z": 164.01}, "geometry": {"type": "Point", "coordinates": [415195.8, 5658838.14]}}, {"type": "Feature", "properties": {"of": "DESNATPU1000HMPx", "kind": "secondary", "nx": -0.9377, "ny": -0.3475, "w": 1.2, "h": 2.5, "z": 166.48}, "geometry": {"type": "Point", "coordinates": [415262.05, 5658838.65]}}, {"type": "Feature", "properties": {"of": "DESNATPU1000Bzgz", "kind": "secondary", "nx": 0.9331, "ny": 0.3595, "w": 1.2, "h": 2.5, "z": 168.02}, "geometry": {"type": "Point", "coordinates": [415342.45, 5658841.09]}}, {"type": "Feature", "properties": {"of": "DESNATPU1000JGtC", "kind": "secondary", "nx": 0.9363, "ny": 0.3511, "w": 1.2, "h": 2.5, "z": 163.61}, "geometry": {"type": "Point", "coordinates": [415206.61, 5658842.83]}}, {"type": "Feature", "properties": {"of": "DESNATPU1000HMPx", "kind": "main", "nx": 0.9363, "ny": 0.3511, "w": 1.01, "h": 3.0, "z": 167.08}, "geometry": {"type": "Point", "coordinates": [415273.03, 5658843.51]}}, {"type": "Feature", "properties": {"of": "DESNATPU1000IXti", "kind": "main", "nx": -0.937, "ny": -0.3494, "w": 1.18, "h": 3.0, "z": 164.06}, "geometry": {"type": "Point", "coordinates": [415190.68, 5658851.74]}}, {"type": "Feature", "properties": {"of": "DESNATPU1000BXtz", "kind": "secondary", "nx": -0.9373, "ny": -0.3486, "w": 1.2, "h": 2.5, "z": 166.45}, "geometry": {"type": "Point", "coordinates": [415256.92, 5658852.22]}}, {"type": "Feature", "properties": {"of": "DESNATPU1000CPZf", "kind": "secondary", "nx": 0.9345, "ny": 0.3558, "w": 1.2, "h": 2.5, "z": 168.02}, "geometry": {"type": "Point", "coordinates": [415337.35, 5658854.52]}}, {"type": "Feature", "properties": {"of": "DESNATPU1000IXti", "kind": "yes", "nx": 0.9363, "ny": 0.3511, "w": 1.2, "h": 2.5, "z": 163.57}, "geometry": {"type": "Point", "coordinates": [415201.43, 5658856.33]}}, {"type": "Feature", "properties": {"of": "DESNATPU1000Ctnb", "kind": "main", "nx": -0.9355, "ny": -0.3534, "w": 1.1, "h": 3.0, "z": 163.95}, "geometry": {"type": "Point", "coordinates": [415185.5, 5658865.48]}}, {"type": "Feature", "properties": {"of": "DESNATPU1000E1RP", "kind": "secondary", "nx": 0.934, "ny": 0.3572, "w": 1.2, "h": 2.5, "z": 168.08}, "geometry": {"type": "Point", "coordinates": [415332.26, 5658867.97]}}, {"type": "Feature", "properties": {"of": "DESNATPU1000Ctnb", "kind": "yes", "nx": 0.9366, "ny": 0.3503, "w": 1.2, "h": 2.5, "z": 163.59}, "geometry": {"type": "Point", "coordinates": [415196.38, 5658870.03]}}, {"type": "Feature", "properties": {"of": "DESNATPU1000D55P", "kind": "main", "nx": -0.9325, "ny": -0.3611, "w": 1.04, "h": 3.0, "z": 168.54}, "geometry": {"type": "Point", "coordinates": [415316.24, 5658876.79]}}, {"type": "Feature", "properties": {"of": "DESNATPU1000D55P", "kind": "secondary", "nx": 0.934, "ny": 0.3573, "w": 1.2, "h": 2.5, "z": 168.11}, "geometry": {"type": "Point", "coordinates": [415327.15, 5658881.46]}}, {"type": "Feature", "properties": {"of": "DESNATPU1000FuWK", "kind": "yes", "nx": 0.9368, "ny": 0.35, "w": 1.2, "h": 2.5, "z": 163.67}, "geometry": {"type": "Point", "coordinates": [415191.37, 5658883.61]}}, {"type": "Feature", "properties": {"of": "DESNATPU1000D6A1", "kind": "main", "nx": -0.9341, "ny": -0.3569, "w": 1.4, "h": 3.0, "z": 168.57}, "geometry": {"type": "Point", "coordinates": [415308.53, 5658889.9]}}, {"type": "Feature", "properties": {"of": "DESNATPU1000D6A1", "kind": "secondary", "nx": 0.9357, "ny": 0.3528, "w": 1.2, "h": 2.5, "z": 168.18}, "geometry": {"type": "Point", "coordinates": [415319.39, 5658894.48]}}, {"type": "Feature", "properties": {"of": "DESNATPU1000EnDW", "kind": "yes", "nx": 0.3487, "ny": -0.9372, "w": 1.07, "h": 2.5, "z": 165.17}, "geometry": {"type": "Point", "coordinates": [415222.98, 5658899.9]}}, {"type": "Feature", "properties": {"of": "DESNATPU1000IF5x", "kind": "main", "nx": -0.349, "ny": 0.9371, "w": 1.8, "h": 3.0, "z": 164.41}, "geometry": {"type": "Point", "coordinates": [415192.15, 5658900.98]}}, {"type": "Feature", "properties": {"of": "DESNATPU1000EHjB", "kind": "main", "nx": -0.9333, "ny": -0.359, "w": 1.29, "h": 3.0, "z": 168.53}, "geometry": {"type": "Point", "coordinates": [415303.48, 5658903.2]}}, {"type": "Feature", "properties": {"of": "DESNATPU1000CoE1", "kind": "secondary", "nx": 0.3483, "ny": -0.9374, "w": 1.2, "h": 2.5, "z": 165.27}, "geometry": {"type": "Point", "coordinates": [415236.76, 5658905.05]}}, {"type": "Feature", "properties": {"of": "DESNATPU1000EAyU", "kind": "main", "nx": -0.349, "ny": 0.9371, "w": 1.8, "h": 3.0, "z": 164.53}, "geometry": {"type": "Point", "coordinates": [415205.51, 5658906.0]}}, {"type": "Feature", "properties": {"of": "DESNATPU1000EHjB", "kind": "secondary", "nx": 0.9352, "ny": 0.3541, "w": 1.2, "h": 2.5, "z": 168.17}, "geometry": {"type": "Point", "coordinates": [415314.49, 5658907.61]}}, {"type": "Feature", "properties": {"of": "DESNATPU1000EnDW", "kind": "main", "nx": -0.3519, "ny": 0.936, "w": 1.73, "h": 3.0, "z": 164.5}, "geometry": {"type": "Point", "coordinates": [415218.95, 5658911.06]}}, {"type": "Feature", "properties": {"of": "DESNATPU1000CoE1", "kind": "main", "nx": -0.3537, "ny": 0.9354, "w": 1.73, "h": 3.0, "z": 164.55}, "geometry": {"type": "Point", "coordinates": [415232.61, 5658916.05]}}, {"type": "Feature", "properties": {"of": "DESNATPU1000IOX9", "kind": "main", "nx": -0.9348, "ny": -0.3552, "w": 1.22, "h": 3.0, "z": 168.54}, "geometry": {"type": "Point", "coordinates": [415298.3, 5658916.79]}}, {"type": "Feature", "properties": {"of": "DESNATPU1000CnYY", "kind": "main", "nx": -0.3507, "ny": 0.9365, "w": 1.3, "h": 3.0, "z": 164.47}, "geometry": {"type": "Point", "coordinates": [415245.82, 5658920.98]}}, {"type": "Feature", "properties": {"of": "DESNATPU1000IOX9", "kind": "secondary", "nx": 0.9356, "ny": 0.3532, "w": 1.2, "h": 2.5, "z": 168.17}, "geometry": {"type": "Point", "coordinates": [415309.18, 5658921.21]}}, {"type": "Feature", "properties": {"of": "DESNATPU1000BS0S", "kind": "main", "nx": -0.9369, "ny": -0.3496, "w": 1.26, "h": 3.0, "z": 168.53}, "geometry": {"type": "Point", "coordinates": [415293.23, 5658930.18]}}, {"type": "Feature", "properties": {"of": "DESNATPU1000BS0S", "kind": "secondary", "nx": 0.9347, "ny": 0.3554, "w": 1.2, "h": 2.5, "z": 168.18}, "geometry": {"type": "Point", "coordinates": [415304.25, 5658934.64]}}]}