{"type": "FeatureCollection", "attribution": "\u00a9 OpenStreetMap contributors (ODbL)", "crs": {"type": "name", "properties": {"name": "urn:ogc:def:crs:EPSG::25833"}}, "features": [{"type": "Feature", "properties": {"of": "DESNATPU1000Bj2F", "kind": "main", "nx": -0.7887, "ny": 0.6148, "w": 1.8, "h": 3.0, "z": 113.56}, "geometry": {"type": "Point", "coordinates": [414441.2, 5656011.61]}}, {"type": "Feature", "properties": {"of": "DESNATPU1000FFaS", "kind": "main", "nx": 0.3835, "ny": 0.9235, "w": 1.8, "h": 3.0, "z": 113.38}, "geometry": {"type": "Point", "coordinates": [414210.45, 5656015.5]}}, {"type": "Feature", "properties": {"of": "DESNATPU1000D62H", "kind": "main", "nx": -0.7843, "ny": 0.6204, "w": 1.8, "h": 3.0, "z": 113.06}, "geometry": {"type": "Point", "coordinates": [414328.67, 5656016.61]}}, {"type": "Feature", "properties": {"of": "DESNATPU1000EJpP", "kind": "main", "nx": 0.3842, "ny": 0.9232, "w": 1.8, "h": 3.0, "z": 113.36}, "geometry": {"type": "Point", "coordinates": [414195.57, 5656021.69]}}, {"type": "Feature", "properties": {"of": "UUID_f6b685d2-1d73-4ee2-a04d-e777d07a4bc0", "kind": "main", "nx": -0.7946, "ny": 0.6071, "w": 1.8, "h": 3.0, "z": 113.32}, "geometry": {"type": "Point", "coordinates": [414422.1, 5656023.44]}}, {"type": "Feature", "properties": {"of": "DESNATPU1000HxQK", "kind": "main", "nx": 0.6036, "ny": 0.7973, "w": 1.8, "h": 3.0, "z": 112.74}, "geometry": {"type": "Point", "coordinates": [414836.37, 5656023.66]}}, {"type": "Feature", "properties": {"of": "DESNATPU1000IpVr", "kind": "main", "nx": 0.8644, "ny": -0.5027, "w": 1.8, "h": 3.0, "z": 113.74}, "geometry": {"type": "Point", "coordinates": [414144.53, 5656025.11]}}, {"type": "Feature", "properties": {"of": "DESNATPU1000BrJI", "kind": "main", "nx": 0.3836, "ny": 0.9235, "w": 1.8, "h": 3.0, "z": 113.39}, "geometry": {"type": "Point", "coordinates": [414180.68, 5656027.88]}}, {"type": "Feature", "properties": {"of": "DESNATPU1000JCdx", "kind": "yes", "nx": 0.6125, "ny": 0.7905, "w": 1.2, "h": 2.5, "z": 112.68}, "geometry": {"type": "Point", "coordinates": [414891.52, 5656029.61]}}, {"type": "Feature", "properties": {"of": "DESNATPU1000Dncf", "kind": "main", "nx": 0.6123, "ny": 0.7907, "w": 1.8, "h": 3.0, "z": 114.36}, "geometry": {"type": "Point", "coordinates": [414549.41, 5656030.62]}}, {"type": "Feature", "properties": {"of": "DESNATPU1000EaN1", "kind": "main", "nx": -0.7848, "ny": 0.6197, "w": 1.8, "h": 3.0, "z": 113.03}, "geometry": {"type": "Point", "coordinates": [414340.13, 5656031.11]}}, {"type": "Feature", "properties": {"of": "DESNATPU1000Ix5f", "kind": "main", "nx": -0.6019, "ny": -0.7985, "w": 1.8, "h": 3.0, "z": 113.37}, "geometry": {"type": "Point", "coordinates": [414405.59, 5656031.28]}}, {"type": "Feature", "properties": {"of": "DESNATP1Ak0000H2", "kind": "main", "nx": -0.7891, "ny": 0.6143, "w": 1.8, "h": 3.0, "z": 113.86}, "geometry": {"type": "Point", "coordinates": [414501.55, 5656034.16]}}, {"type": "Feature", "properties": {"of": "DESNATPU1000HXm4", "kind": "main", "nx": -0.7928, "ny": 0.6095, "w": 1.8, "h": 3.0, "z": 114.36}, "geometry": {"type": "Point", "coordinates": [414676.07, 5656035.8]}}, {"type": "Feature", "properties": {"of": "DESNATPU1000GhQU", "kind": "main", "nx": -0.7879, "ny": 0.6159, "w": 1.8, "h": 3.0, "z": 114.16}, "geometry": {"type": "Point", "coordinates": [414460.96, 5656038.18]}}, {"type": "Feature", "properties": {"of": "UUID_635887e2-6bf1-4429-bdbc-df677b9a68a0", "kind": "main", "nx": 0.3857, "ny": 0.9226, "w": 1.8, "h": 3.0, "z": 112.79}, "geometry": {"type": "Point", "coordinates": [414304.7, 5656039.53]}}, {"type": "Feature", "properties": {"of": "DESNATPU1000Gklz", "kind": "main", "nx": -0.7971, "ny": 0.6039, "w": 1.8, "h": 3.0, "z": 114.22}, "geometry": {"type": "Point", "coordinates": [414773.48, 5656045.25]}}, {"type": "Feature", "properties": {"of": "DESNATPU1000Cvne", "kind": "main", "nx": -0.7932, "ny": 0.6089, "w": 1.8, "h": 3.0, "z": 114.33}, "geometry": {"type": "Point", "coordinates": [414683.96, 5656046.08]}}, {"type": "Feature", "properties": {"of": "UUID_c6978870-4179-48fa-a21f-f7becc16ff77", "kind": "yes", "nx": 0.6065, "ny": 0.7951, "w": 1.2, "h": 2.5, "z": 114.11}, "geometry": {"type": "Point", "coordinates": [414872.79, 5656048.69]}}, {"type": "Feature", "properties": {"of": "UUID_08bafbe0-c760-411e-b341-bdd1a7733e64", "kind": "main", "nx": 0.3862, "ny": 0.9224, "w": 1.8, "h": 3.0, "z": 112.91}, "geometry": {"type": "Point", "coordinates": [414286.59, 5656049.32]}}, {"type": "Feature", "properties": {"of": "DESNATPU1000CJRd", "kind": "main", "nx": -0.7873, "ny": 0.6165, "w": 1.8, "h": 3.0, "z": 114.14}, "geometry": {"type": "Point", "coordinates": [414470.72, 5656050.66]}}, {"type": "Feature", "properties": {"of": "UUID_a94528db-50cb-4f0e-a9c2-e3547344d3f5", "kind": "main", "nx": 0.3861, "ny": 0.9225, "w": 1.8, "h": 3.0, "z": 111.06}, "geometry": {"type": "Point", "coordinates": [414271.68, 5656053.36]}}, {"type": "Feature", "properties": {"of": "DESNATPU1000Gklz", "kind": "main", "nx": -0.7971, "ny": 0.6039, "w": 1.8, "h": 3.0, "z": 114.22}, "geometry": {"type": "Point", "coordinates": [414779.99, 5656053.85]}}, {"type": "Feature", "properties": {"of": "DESNATPU1000J4pS", "kind": "main", "nx": -0.7934, "ny": 0.6087, "w": 1.8, "h": 3.0, "z": 114.3}, "geometry": {"type": "Point", "coordinates": [414691.84, 5656056.35]}}, {"type": "Feature", "properties": {"of": "DESNATP1Ak0000HR", "kind": "yes", "nx": -0.616, "ny": -0.7877, "w": 1.2, "h": 2.5, "z": 114.04}, "geometry": {"type": "Point", "coordinates": [414876.41, 5656056.7]}}, {"type": "Feature", "properties": {"of": "DESNATPU1000HVLP", "kind": "main", "nx": 0.6113, "ny": 0.7914, "w": 1.8, "h": 3.0, "z": 114.36}, "geometry": {"type": "Point", "coordinates": [414568.66, 5656056.81]}}, {"type": "Feature", "properties": {"of": "DESNATPU1000Enmt", "kind": "main", "nx": 0.3817, "ny": 0.9243, "w": 1.8, "h": 3.0, "z": 113.29}, "geometry": {"type": "Point", "coordinates": [414229.24, 5656059.53]}}, {"type": "Feature", "properties": {"of": "DESNATPU1000EgRr", "kind": "main", "nx": -0.7878, "ny": 0.6159, "w": 1.8, "h": 3.0, "z": 114.13}, "geometry": {"type": "Point", "coordinates": [414480.48, 5656063.14]}}, {"type": "Feature", "properties": {"of": "DESNATPU1000HQGT", "kind": "yes", "nx": -0.6168, "ny": -0.7871, "w": 1.2, "h": 2.5, "z": 114.04}, "geometry": {"type": "Point", "coordinates": [414534.77, 5656063.66]}}, {"type": "Feature", "properties": {"of": "DESNATPU1000BsSC", "kind": "main", "nx": 0.3869, "ny": 0.9221, "w": 1.8, "h": 3.0, "z": 113.3}, "geometry": {"type": "Point", "coordinates": [414215.16, 5656065.39]}}, {"type": "Feature", "properties": {"of": "DESNATPU1000HgRR", "kind": "main", "nx": 0.6077, "ny": 0.7942, "w": 1.8, "h": 3.0, "z": 113.17}, "geometry": {"type": "Point", "coordinates": [414321.06, 5656065.46]}}, {"type": "Feature", "properties": {"of": "DESNATPU1000FwhJ", "kind": "main", "nx": -0.7933, "ny": 0.6088, "w": 1.73, "h": 3.0, "z": 114.33}, "geometry": {"type": "Point", "coordinates": [414699.72, 5656066.61]}}, {"type": "Feature", "properties": {"of": "DESNATPU1000EvIW", "kind": "main", "nx": 0.3879, "ny": 0.9217, "w": 1.8, "h": 3.0, "z": 113.28}, "geometry": {"type": "Point", "coordinates": [414201.09, 5656071.3]}}, {"type": "Feature", "properties": {"of": "DESNATPU1000HQGT", "kind": "main", "nx": -0.7872, "ny": 0.6167, "w": 1.8, "h": 3.0, "z": 114.09}, "geometry": {"type": "Point", "coordinates": [414532.68, 5656074.38]}}, {"type": "Feature", "properties": {"of": "DESNATPU1000Dzau", "kind": "main", "nx": 0.6164, "ny": 0.7874, "w": 1.8, "h": 3.0, "z": 114.39}, "geometry": {"type": "Point", "coordinates": [414644.22, 5656075.15]}}, {"type": "Feature", "properties": {"of": "UUID_666dc36d-6489-4899-a600-b57eb5e5a782", "kind": "yes", "nx": 0.2046, "ny": 0.9788, "w": 1.2, "h": 2.5, "z": 113.71}, "geometry": {"type": "Point", "coordinates": [415605.21, 5656075.85]}}, {"type": "Feature", "properties": {"of": "DESNATPU1000E0ek", "kind": "main", "nx": 0.6047, "ny": 0.7965, "w": 1.8, "h": 3.0, "z": 113.24}, "geometry": {"type": "Point", "coordinates": [414305.98, 5656076.94]}}, {"type": "Feature", "properties": {"of": "DESNATPU1000D0hD", "kind": "main", "nx": -0.6132, "ny": -0.7899, "w": 1.8, "h": 3.0, "z": 113.25}, "geometry": {"type": "Point", "coordinates": [415073.14, 5656077.72]}}, {"type": "Feature", "properties": {"of": "DESNATPU1000Hcdl", "kind": "main", "nx": 0.6117, "ny": 0.7911, "w": 1.8, "h": 3.0, "z": 113.71}, "geometry": {"type": "Point", "coordinates": [414763.76, 5656084.7]}}, {"type": "Feature", "properties": {"of": "DESNATPU1000G5yA", "kind": "main", "nx": 0.6196, "ny": 0.7849, "w": 1.8, "h": 3.0, "z": 114.44}, "geometry": {"type": "Point", "coordinates": [414631.98, 5656084.77]}}, {"type": "Feature", "properties": {"of": "DESNATPU1000Cs4p", "kind": "main", "nx": 0.8619, "ny": -0.507, "w": 1.8, "h": 3.0, "z": 113.15}, "geometry": {"type": "Point", "coordinates": [414182.89, 5656085.53]}}, {"type": "Feature", "properties": {"of": "DESNATPU1000HK8h", "kind": "main", "nx": -0.6117, "ny": -0.7911, "w": 1.13, "h": 3.0, "z": 114.2}, "geometry": {"type": "Point", "coordinates": [414506.53, 5656086.17]}}, {"type": "Feature", "properties": {"of": "DESNATPU1000DZvB", "kind": "main", "nx": 0.6091, "ny": 0.7931, "w": 1.8, "h": 3.0, "z": 114.19}, "geometry": {"type": "Point", "coordinates": [414476.39, 5656087.26]}}, {"type": "Feature", "properties": {"of": "DESNATPU1000CPWB", "kind": "main", "nx": -0.7969, "ny": 0.6041, "w": 1.8, "h": 3.0, "z": 114.09}, "geometry": {"type": "Point", "coordinates": [414662.41, 5656088.22]}}, {"type": "Feature", "properties": {"of": "DESNATPU1000Eq8v", "kind": "main", "nx": 0.6111, "ny": 0.7916, "w": 1.8, "h": 3.0, "z": 113.18}, "geometry": {"type": "Point", "coordinates": [414290.91, 5656088.5]}}, {"type": "Feature", "properties": {"of": "DESNATPU1000EV64", "kind": "main", "nx": 0.7944, "ny": -0.6074, "w": 1.8, "h": 3.0, "z": 113.42}, "geometry": {"type": "Point", "coordinates": [414824.51, 5656090.93]}}, {"type": "Feature", "properties": {"of": "DESNATPU1000HK8h", "kind": "yes", "nx": 0.9948, "ny": 0.102, "w": 1.2, "h": 2.5, "z": 114.32}, "geometry": {"type": "Point", "coordinates": [414520.96, 5656093.73]}}, {"type": "Feature", "properties": {"of": "DESNATPU1000GqMn", "kind": "main", "nx": 0.6111, "ny": 0.7916, "w": 1.8, "h": 3.0, "z": 113.73}, "geometry": {"type": "Point", "coordinates": [414751.73, 5656093.99]}}, {"type": "Feature", "properties": {"of": "DESNATPU1000HJ21", "kind": "main", "nx": 0.6158, "ny": 0.7879, "w": 1.8, "h": 3.0, "z": 114.45}, "geometry": {"type": "Point", "coordinates": [414619.74, 5656094.38]}}, {"type": "Feature", "properties": {"of": "DESNATPU1000B5id", "kind": "yes", "nx": -0.612, "ny": -0.7909, "w": 1.2, "h": 2.5, "z": 113.36}, "geometry": {"type": "Point", "coordinates": [415083.37, 5656095.65]}}, {"type": "Feature", "properties": {"of": "DESNATPU1000F630", "kind": "main", "nx": 0.6096, "ny": 0.7927, "w": 1.8, "h": 3.0, "z": 114.13}, "geometry": {"type": "Point", "coordinates": [414463.69, 5656097.01]}}, {"type": "Feature", "properties": {"of": "UUID_d4d1896c-1b93-41ee-a2a8-0fe7e5680c11", "kind": "main", "nx": -0.7887, "ny": 0.6148, "w": 0.81, "h": 3.0, "z": 113.47}, "geometry": {"type": "Point", "coordinates": [414393.75, 5656098.88]}}, {"type": "Feature", "properties": {"of": "DESNATPU1000Feei", "kind": "main", "nx": 0.8653, "ny": -0.5012, "w": 1.8, "h": 3.0, "z": 113.15}, "geometry": {"type": "Point", "coordinates": [414191.18, 5656099.72]}}, {"type": "Feature", "properties": {"of": "DESNATPU1000DMsE", "kind": "main", "nx": -0.7962, "ny": 0.605, "w": 1.8, "h": 3.0, "z": 114.0}, "geometry": {"type": "Point", "coordinates": [414672.0, 5656100.86]}}, {"type": "Feature", "properties": {"of": "DESNATPU1000GmzM", "kind": "main", "nx": 0.6138, "ny": 0.7895, "w": 1.8, "h": 3.0, "z": 113.6}, "geometry": {"type": "Point", "coordinates": [414795.87, 5656103.92]}}, {"type": "Feature", "properties": {"of": "DESNATPU1000He8J", "kind": "main", "nx": 0.6153, "ny": 0.7883, "w": 1.8, "h": 3.0, "z": 114.43}, "geometry": {"type": "Point", "coordinates": [414607.47, 5656103.96]}}, {"type": "Feature", "properties": {"of": "DESNATPU1000EeuI", "kind": "main", "nx": 0.6117, "ny": 0.7911, "w": 1.8, "h": 3.0, "z": 113.74}, "geometry": {"type": "Point", "coordinates": [414738.58, 5656104.15]}}, {"type": "Feature", "properties": {"of": "DESNATPU1000J3co", "kind": "main", "nx": 0.7945, "ny": -0.6073, "w": 1.8, "h": 3.0, "z": 113.45}, "geometry": {"type": "Point", "coordinates": [414835.64, 5656105.49]}}, {"type": "Feature", "properties": {"of": "DESNATPU1000BsRL", "kind": "main", "nx": 0.609, "ny": 0.7931, "w": 1.8, "h": 3.0, "z": 114.18}, "geometry": {"type": "Point", "coordinates": [414451.01, 5656106.76]}}, {"type": "Feature", "properties": {"of": "DESNATPU1000IbKq", "kind": "main", "nx": 0.6118, "ny": 0.791, "w": 1.8, "h": 3.0, "z": 113.19}, "geometry": {"type": "Point", "coordinates": [414263.32, 5656106.98]}}, {"type": "Feature", "properties": {"of": "DESNATPU1000GOWq", "kind": "main", "nx": 0.6135, "ny": 0.7897, "w": 1.8, "h": 3.0, "z": 113.55}, "geometry": {"type": "Point", "coordinates": [414783.83, 5656113.28]}}, {"type": "Feature", "properties": {"of": "DESNATPU1000DJag", "kind": "main", "nx": -0.7967, "ny": 0.6043, "w": 1.8, "h": 3.0, "z": 113.93}, "geometry": {"type": "Point", "coordinates": [414681.59, 5656113.49]}}, {"type": "Feature", "properties": {"of": "DESNATPU1000CcGd", "kind": "main", "nx": 0.6149, "ny": 0.7886, "w": 1.8, "h": 3.0, "z": 114.42}, "geometry": {"type": "Point", "coordinates": [414595.19, 5656113.54]}}, {"type": "Feature", "properties": {"of": "DESNATPU1000FIyA", "kind": "main", "nx": 0.8637, "ny": -0.5041, "w": 1.8, "h": 3.0, "z": 113.18}, "geometry": {"type": "Point", "coordinates": [414199.44, 5656113.94]}}, {"type": "Feature", "properties": {"of": "DESNATPU1000H1AT", "kind": "main", "nx": 0.6109, "ny": 0.7917, "w": 1.8, "h": 3.0, "z": 113.71}, "geometry": {"type": "Point", "coordinates": [414725.72, 5656114.08]}}, {"type": "Feature", "properties": {"of": "DESNATPU1000FtdN", "kind": "main", "nx": 0.613, "ny": 0.7901, "w": 1.8, "h": 3.0, "z": 114.19}, "geometry": {"type": "Point", "coordinates": [414438.34, 5656116.54]}}, {"type": "Feature", "properties": {"of": "DESNATPU1000IN0U", "kind": "main", "nx": 0.611, "ny": 0.7916, "w": 1.8, "h": 3.0, "z": 113.2}, "geometry": {"type": "Point", "coordinates": [414250.06, 5656117.21]}}, {"type": "Feature", "properties": {"of": "DESNATPU1000HoKv", "kind": "main", "nx": 0.7942, "ny": -0.6077, "w": 1.8, "h": 3.0, "z": 113.41}, "geometry": {"type": "Point", "coordinates": [414846.77, 5656120.06]}}, {"type": "Feature", "properties": {"of": "DESNATPU1000IsK6", "kind": "main", "nx": 0.6136, "ny": 0.7897, "w": 1.8, "h": 3.0, "z": 113.56}, "geometry": {"type": "Point", "coordinates": [414770.82, 5656123.38]}}, {"type": "Feature", "properties": {"of": "DESNATPU1000ENfm", "kind": "main", "nx": -0.7961, "ny": 0.6052, "w": 1.8, "h": 3.0, "z": 113.96}, "geometry": {"type": "Point", "coordinates": [414691.18, 5656126.12]}}, {"type": "Feature", "properties": {"of": "DESNATPU1000FJ31", "kind": "main", "nx": 0.6131, "ny": 0.79, "w": 1.8, "h": 3.0, "z": 114.19}, "geometry": {"type": "Point", "coordinates": [414425.69, 5656126.35]}}, {"type": "Feature", "properties": {"of": "DESNATPU1000J4yX", "kind": "main", "nx": 0.6108, "ny": 0.7918, "w": 1.8, "h": 3.0, "z": 113.19}, "geometry": {"type": "Point", "coordinates": [414236.8, 5656127.44]}}, {"type": "Feature", "properties": {"of": "DESNATPU1000GNGy", "kind": "main", "nx": 0.8638, "ny": -0.5038, "w": 1.8, "h": 3.0, "z": 113.14}, "geometry": {"type": "Point", "coordinates": [414207.72, 5656128.14]}}, {"type": "Feature", "properties": {"of": "DESNATPU1000Fjyg", "kind": "main", "nx": 0.6147, "ny": 0.7888, "w": 1.8, "h": 3.0, "z": 113.57}, "geometry": {"type": "Point", "coordinates": [414758.79, 5656132.75]}}, {"type": "Feature", "properties": {"of": "DESNATPU1000GOYb", "kind": "main", "nx": -0.2637, "ny": 0.9646, "w": 1.8, "h": 3.0, "z": 114.39}, "geometry": {"type": "Point", "coordinates": [415991.47, 5656133.66]}}, {"type": "Feature", "properties": {"of": "DESNATPU1000EyZP", "kind": "main", "nx": 0.7948, "ny": -0.6068, "w": 1.8, "h": 3.0, "z": 113.44}, "geometry": {"type": "Point", "coordinates": [414857.98, 5656134.72]}}, {"type": "Feature", "properties": {"of": "DESNATPU1000IVyp", "kind": "main", "nx": -0.7921, "ny": 0.6104, "w": 1.8, "h": 3.0, "z": 114.62}, "geometry": {"type": "Point", "coordinates": [414507.07, 5656138.46]}}, {"type": "Feature", "properties": {"of": "UUID_fd71e57f-195b-4ced-ba6c-75cadabb9105", "kind": "main", "nx": -0.6075, "ny": -0.7944, "w": 1.8, "h": 3.0, "z": 113.2}, "geometry": {"type": "Point", "coordinates": [414263.64, 5656141.9]}}, {"type": "Feature", "properties": {"of": "DESNATP1CX0001hK", "kind": "yes", "nx": 0.602, "ny": 0.7985, "w": 1.2, "h": 2.5, "z": 113.62}, "geometry": {"type": "Point", "coordinates": [415105.67, 5656144.65]}}, {"type": "Feature", "properties": {"of": "DESNATPU1000Ivp1", "kind": "main", "nx": 0.6258, "ny": 0.78, "w": 1.8, "h": 3.0, "z": 114.91}, "geometry": {"type": "Point", "coordinates": [414548.08, 5656150.67]}}, {"type": "Feature", "properties": {"of": "UUID_38baca08-5426-4bf8-8159-ecb4c19dfd5c", "kind": "yes", "nx": 0.0662, "ny": 0.9978, "w": 1.2, "h": 2.5, "z": 113.4}, "geometry": {"type": "Point", "coordinates": [414068.27, 5656153.0]}}, {"type": "Feature", "properties": {"of": "UUID_fb69ddab-b9e9-422f-8786-66ef37431f95", "kind": "yes", "nx": 0.0609, "ny": 0.9981, "w": 0.91, "h": 2.5, "z": 113.36}, "geometry": {"type": "Point", "coordinates": [414081.79, 5656154.52]}}, {"type": "Feature", "properties": {"of": "DESNATPU1000EnqO", "kind": "main", "nx": 0.6096, "ny": 0.7927, "w": 1.8, "h": 3.0, "z": 113.92}, "geometry": {"type": "Point", "coordinates": [414669.88, 5656156.97]}}, {"type": "Feature", "properties": {"of": "DESNATPU1000HmkD", "kind": "main", "nx": -0.7868, "ny": 0.6173, "w": 1.8, "h": 3.0, "z": 114.45}, "geometry": {"type": "Point", "coordinates": [414561.87, 5656157.88]}}, {"type": "Feature", "properties": {"of": "DESNATPU1000IXef", "kind": "main", "nx": 0.6224, "ny": 0.7827, "w": 1.8, "h": 3.0, "z": 114.86}, "geometry": {"type": "Point", "coordinates": [414535.62, 5656160.62]}}, {"type": "Feature", "properties": {"of": "DESNATPU1000JMSI", "kind": "main", "nx": -0.791, "ny": 0.6118, "w": 1.8, "h": 3.0, "z": 113.21}, "geometry": {"type": "Point", "coordinates": [414755.61, 5656160.84]}}, {"type": "Feature", "properties": {"of": "DESNATPU1000CUNy", "kind": "main", "nx": -0.9993, "ny": 0.0367, "w": 1.8, "h": 3.0, "z": 113.33}, "geometry": {"type": "Point", "coordinates": [414293.37, 5656163.85]}}, {"type": "Feature", "properties": {"of": "UUID_b1c94329-331b-467d-8410-1af1c6dc2c56", "kind": "main", "nx": -0.2584, "ny": 0.966, "w": 1.8, "h": 3.0, "z": 114.72}, "geometry": {"type": "Point", "coordinates": [415957.65, 5656165.63]}}, {"type": "Feature", "properties": {"of": "DESNATPU1000Htwl", "kind": "main", "nx": 0.6091, "ny": 0.7931, "w": 1.8, "h": 3.0, "z": 113.97}, "geometry": {"type": "Point", "coordinates": [414657.46, 5656166.51]}}, {"type": "Feature", "properties": {"of": "DESNATPU1000EmON", "kind": "main", "nx": -0.2608, "ny": 0.9654, "w": 0.92, "h": 3.0, "z": 114.72}, "geometry": {"type": "Point", "coordinates": [415972.86, 5656169.68]}}, {"type": "Feature", "properties": {"of": "UUID_e9f33970-8848-4544-bd62-7f83eae43fb5", "kind": "main", "nx": 0.06, "ny": 0.9982, "w": 1.8, "h": 3.0, "z": 113.34}, "geometry": {"type": "Point", "coordinates": [414331.46, 5656170.38]}}, {"type": "Feature", "properties": {"of": "DESNATPU1000Ii4X", "kind": "main", "nx": 0.6212, "ny": 0.7837, "w": 1.8, "h": 3.0, "z": 114.9}, "geometry": {"type": "Point", "coordinates": [414523.12, 5656170.54]}}, {"type": "Feature", "properties": {"of": "DESNATPU1000FmFJ", "kind": "main", "nx": -0.7867, "ny": 0.6173, "w": 1.8, "h": 3.0, "z": 114.48}, "geometry": {"type": "Point", "coordinates": [414572.52, 5656171.46]}}, {"type": "Feature", "properties": {"of": "DESNATPU1000IjIc", "kind": "main", "nx": 0.6114, "ny": 0.7913, "w": 1.8, "h": 3.0, "z": 112.69}, "geometry": {"type": "Point", "coordinates": [414866.03, 5656173.1]}}, {"type": "Feature", "properties": {"of": "DESNATPU1000FHPF", "kind": "main", "nx": -0.7905, "ny": 0.6125, "w": 1.8, "h": 3.0, "z": 113.2}, "geometry": {"type": "Point", "coordinates": [414765.19, 5656173.22]}}, {"type": "Feature", "properties": {"of": "DESNATPU1000HjkL", "kind": "yes", "nx": -0.8056, "ny": 0.5925, "w": 1.14, "h": 2.5, "z": 114.84}, "geometry": {"type": "Point", "coordinates": [415839.1, 5656173.44]}}, {"type": "Feature", "properties": {"of": "DESNATPU1000J7tA", "kind": "main", "nx": -0.2583, "ny": 0.9661, "w": 1.8, "h": 3.0, "z": 114.75}, "geometry": {"type": "Point", "coordinates": [415988.06, 5656173.76]}}, {"type": "Feature", "properties": {"of": "UUID_8c84f997-f4e5-4374-a13f-8b726cf6ee34", "kind": "main", "nx": 0.7926, "ny": -0.6097, "w": 1.8, "h": 3.0, "z": 113.64}, "geometry": {"type": "Point", "coordinates": [414736.08, 5656174.02]}}, {"type": "Feature", "properties": {"of": "DESNATPU1000CfGC", "kind": "main", "nx": 0.6469, "ny": 0.7626, "w": 1.8, "h": 3.0, "z": 113.9}, "geometry": {"type": "Point", "coordinates": [414644.73, 5656176.42]}}, {"type": "Feature", "properties": {"of": "DESNATPU1000IyEf", "kind": "main", "nx": 0.6167, "ny": 0.7872, "w": 0.86, "h": 3.0, "z": 114.86}, "geometry": {"type": "Point", "coordinates": [414510.61, 5656180.44]}}, {"type": "Feature", "properties": {"of": "UUID_a88638f0-f81b-433e-835c-84554683206a", "kind": "yes", "nx": 0.0458, "ny": 0.999, "w": 1.2, "h": 2.5, "z": 112.78}, "geometry": {"type": "Point", "coordinates": [414115.13, 5656182.09]}}, {"type": "Feature", "properties": {"of": "DESNATPU1000BGMo", "kind": "main", "nx": 0.6119, "ny": 0.7909, "w": 1.8, "h": 3.0, "z": 112.67}, "geometry": {"type": "Point", "coordinates": [414853.35, 5656182.9]}}, {"type": "Feature", "properties": {"of": "UUID_b26cad38-3598-4564-8f04-cb4013bcc6e4", "kind": "yes", "nx": 0.0458, "ny": 0.999, "w": 1.2, "h": 2.5, "z": 112.76}, "geometry": {"type": "Point", "coordinates": [414082.22, 5656183.6]}}, {"type": "Feature", "properties": {"of": "DESNATPU1000ITGf", "kind": "main", "nx": -0.7851, "ny": 0.6194, "w": 1.8, "h": 3.0, "z": 114.47}, "geometry": {"type": "Point", "coordinates": [414583.17, 5656185.04]}}, {"type": "Feature", "properties": {"of": "DESNATPU1000JRp1", "kind": "main", "nx": -0.7909, "ny": 0.612, "w": 1.8, "h": 3.0, "z": 113.24}, "geometry": {"type": "Point", "coordinates": [414774.99, 5656185.87]}}, {"type": "Feature", "properties": {"of": "DESNATPU1000Cbam", "kind": "main", "nx": 0.6117, "ny": 0.7911, "w": 1.8, "h": 3.0, "z": 113.95}, "geometry": {"type": "Point", "coordinates": [414632.29, 5656186.07]}}, {"type": "Feature", "properties": {"of": "DESNATPU1000I3fS", "kind": "main", "nx": 0.6215, "ny": 0.7834, "w": 1.22, "h": 3.0, "z": 114.86}, "geometry": {"type": "Point", "coordinates": [414498.07, 5656190.32]}}, {"type": "Feature", "properties": {"of": "UUID_39ba6111-903c-4199-b6fe-ecd321f21d8c", "kind": "main", "nx": -0.0672, "ny": -0.9977, "w": 1.8, "h": 3.0, "z": 113.99}, "geometry": {"type": "Point", "coordinates": [414386.46, 5656192.31]}}, {"type": "Feature", "properties": {"of": "DESNATPU1000DySK", "kind": "main", "nx": 0.6119, "ny": 0.791, "w": 1.8, "h": 3.0, "z": 112.68}, "geometry": {"type": "Point", "coordinates": [414840.68, 5656192.71]}}, {"type": "Feature", "properties": {"of": "UUID_ce5578e7-ba60-4f42-8c53-8e5f33f86cb0", "kind": "yes", "nx": -0.0476, "ny": -0.9989, "w": 1.2, "h": 2.5, "z": 113.36}, "geometry": {"type": "Point", "coordinates": [414278.65, 5656197.95]}}, {"type": "Feature", "properties": {"of": "DESNATPU1000F6jl", "kind": "main", "nx": -0.7902, "ny": 0.6129, "w": 1.8, "h": 3.0, "z": 113.2}, "geometry": {"type": "Point", "coordinates": [414784.71, 5656198.42]}}, {"type": "Feature", "properties": {"of": "UUID_ce5578e7-ba60-4f42-8c53-8e5f33f86cb0", "kind": "yes", "nx": -0.0476, "ny": -0.9989, "w": 1.2, "h": 2.5, "z": 113.28}, "geometry": {"type": "Point", "coordinates": [414267.54, 5656198.48]}}, {"type": "Feature", "properties": {"of": "DESNATPU1000EOII", "kind": "main", "nx": -0.7873, "ny": 0.6166, "w": 0.77, "h": 3.0, "z": 114.49}, "geometry": {"type": "Point", "coordinates": [414593.82, 5656198.63]}}, {"type": "Feature", "properties": {"of": "UUID_1f61830e-f876-45d3-916d-f0a72afabe9e", "kind": "yes", "nx": -0.1251, "ny": -0.9921, "w": 1.19, "h": 2.5, "z": 113.21}, "geometry": {"type": "Point", "coordinates": [414225.18, 5656200.58]}}, {"type": "Feature", "properties": {"of": "DESNATPU1000IlB4", "kind": "main", "nx": 0.6124, "ny": 0.7906, "w": 1.8, "h": 3.0, "z": 112.68}, "geometry": {"type": "Point", "coordinates": [414828.0, 5656202.52]}}, {"type": "Feature", "properties": {"of": "UUID_1f61830e-f876-45d3-916d-f0a72afabe9e", "kind": "main", "nx": 0.9986, "ny": -0.0534, "w": 1.18, "h": 3.0, "z": 113.38}, "geometry": {"type": "Point", "coordinates": [414251.11, 5656204.01]}}, {"type": "Feature", "properties": {"of": "DESNATPU1000D6uN", "kind": "main", "nx": 0.6151, "ny": 0.7885, "w": 1.8, "h": 3.0, "z": 112.55}, "geometry": {"type": "Point", "coordinates": [414889.43, 5656204.99]}}, {"type": "Feature", "properties": {"of": "DESNATPU1000Dckp", "kind": "yes", "nx": -0.5966, "ny": -0.8025, "w": 1.2, "h": 2.5, "z": 113.62}, "geometry": {"type": "Point", "coordinates": [414688.11, 5656206.67]}}, {"type": "Feature", "properties": {"of": "DESNATPU1000Hgop", "kind": "main", "nx": 0.6116, "ny": 0.7912, "w": 1.8, "h": 3.0, "z": 112.69}, "geometry": {"type": "Point", "coordinates": [414815.33, 5656212.33]}}, {"type": "Feature", "properties": {"of": "UUID_3192cb57-0347-40b3-880c-a8db019d7ee5", "kind": "yes", "nx": 0.08, "ny": 0.9968, "w": 1.2, "h": 2.5, "z": 113.07}, "geometry": {"type": "Point", "coordinates": [414165.58, 5656214.77]}}, {"type": "Feature", "properties": {"of": "DESNATPU1000IbLM", "kind": "main", "nx": 0.6157, "ny": 0.788, "w": 1.8, "h": 3.0, "z": 112.51}, "geometry": {"type": "Point", "coordinates": [414876.82, 5656214.83]}}, {"type": "Feature", "properties": {"of": "DESNATPU1000FIRK", "kind": "yes", "nx": 0.4436, "ny": 0.8962, "w": 1.2, "h": 2.5, "z": 112.36}, "geometry": {"type": "Point", "coordinates": [415567.23, 5656215.27]}}, {"type": "Feature", "properties": {"of": "DESNATPU1000IAZX", "kind": "yes", "nx": 0.081, "ny": 0.9967, "w": 1.2, "h": 2.5, "z": 113.15}, "geometry": {"type": "Point", "coordinates": [414150.0, 5656216.03]}}, {"type": "Feature", "properties": {"of": "DESNATPU1000HfOc", "kind": "yes", "nx": 0.0798, "ny": 0.9968, "w": 1.2, "h": 2.5, "z": 113.04}, "geometry": {"type": "Point", "coordinates": [414135.03, 5656217.25]}}, {"type": "Feature", "properties": {"of": "DESNATPU1000HfOc", "kind": "yes", "nx": 0.0798, "ny": 0.9968, "w": 0.98, "h": 2.5, "z": 113.03}, "geometry": {"type": "Point", "coordinates": [414120.6, 5656218.4]}}, {"type": "Feature", "properties": {"of": "DESNATPU1000GgGJ", "kind": "yes", "nx": 0.0683, "ny": 0.9977, "w": 1.2, "h": 2.5, "z": 112.97}, "geometry": {"type": "Point", "coordinates": [414065.15, 5656220.36]}}, {"type": "Feature", "properties": {"of": "UUID_53902c20-329f-441f-8a47-22091e5a546d", "kind": "yes", "nx": 0.8031, "ny": -0.5959, "w": 1.2, "h": 2.5, "z": 113.12}, "geometry": {"type": "Point", "coordinates": [414924.66, 5656220.73]}}, {"type": "Feature", "properties": {"of": "DESNATPU1000EYPc", "kind": "yes", "nx": 0.0683, "ny": 0.9977, "w": 1.2, "h": 2.5, "z": 112.96}, "geometry": {"type": "Point", "coordinates": [414046.83, 5656221.61]}}, {"type": "Feature", "properties": {"of": "DESNATPU1000HDXx", "kind": "yes", "nx": 0.0678, "ny": 0.9977, "w": 1.2, "h": 2.5, "z": 112.95}, "geometry": {"type": "Point", "coordinates": [414028.28, 5656222.88]}}, {"type": "Feature", "properties": {"of": "DESNATPU1000HKXW", "kind": "main", "nx": 0.6154, "ny": 0.7882, "w": 1.8, "h": 3.0, "z": 112.56}, "geometry": {"type": "Point", "coordinates": [414864.23, 5656224.67]}}, {"type": "Feature", "properties": {"of": "DESNATPU1000JTiC", "kind": "yes", "nx": 0.8952, "ny": -0.4458, "w": 1.2, "h": 2.5, "z": 112.32}, "geometry": {"type": "Point", "coordinates": [415561.85, 5656226.5]}}, {"type": "Feature", "properties": {"of": "DESNATPU1000GTz7", "kind": "main", "nx": 0.7799, "ny": -0.626, "w": 1.8, "h": 3.0, "z": 114.89}, "geometry": {"type": "Point", "coordinates": [414467.55, 5656227.45]}}, {"type": "Feature", "properties": {"of": "DESNATPU1000J1Oq", "kind": "main", "nx": 0.6188, "ny": 0.7855, "w": 1.8, "h": 3.0, "z": 114.22}, "geometry": {"type": "Point", "coordinates": [414574.33, 5656231.66]}}, {"type": "Feature", "properties": {"of": "DESNATP1Ak0000HC", "kind": "yes", "nx": -0.7885, "ny": 0.6151, "w": 1.2, "h": 2.5, "z": 113.48}, "geometry": {"type": "Point", "coordinates": [414665.38, 5656234.32]}}, {"type": "Feature", "properties": {"of": "DESNATPU1000ElRr", "kind": "main", "nx": 0.6154, "ny": 0.7882, "w": 1.8, "h": 3.0, "z": 112.54}, "geometry": {"type": "Point", "coordinates": [414851.62, 5656234.51]}}, {"type": "Feature", "properties": {"of": "UUID_53902c20-329f-441f-8a47-22091e5a546d", "kind": "yes", "nx": 0.8031, "ny": -0.5959, "w": 1.2, "h": 2.5, "z": 113.12}, "geometry": {"type": "Point", "coordinates": [414936.25, 5656236.36]}}, {"type": "Feature", "properties": {"of": "DESNATPU1000ESdu", "kind": "main", "nx": 0.6156, "ny": 0.788, "w": 1.61, "h": 3.0, "z": 114.14}, "geometry": {"type": "Point", "coordinates": [414561.92, 5656241.4]}}, {"type": "Feature", "properties": {"of": "DESNATPU1000HNxO", "kind": "main", "nx": 0.9672, "ny": -0.2541, "w": 1.8, "h": 3.0, "z": 113.03}, "geometry": {"type": "Point", "coordinates": [414119.34, 5656241.61]}}, {"type": "Feature", "properties": {"of": "DESNATPU1000GluS", "kind": "main", "nx": 0.616, "ny": 0.7877, "w": 1.8, "h": 3.0, "z": 112.54}, "geometry": {"type": "Point", "coordinates": [414839.02, 5656244.36]}}, {"type": "Feature", "properties": {"of": "DESNATPU1000E2qn", "kind": "main", "nx": 0.1902, "ny": 0.9817, "w": 1.8, "h": 3.0, "z": 112.43}, "geometry": {"type": "Point", "coordinates": [415124.34, 5656248.93]}}, {"type": "Feature", "properties": {"of": "DESNATPU1000DZZT", "kind": "main", "nx": 0.6201, "ny": 0.7845, "w": 1.56, "h": 3.0, "z": 114.16}, "geometry": {"type": "Point", "coordinates": [414549.49, 5656251.13]}}, {"type": "Feature", "properties": {"of": "DESNATPU1000HlR1", "kind": "main", "nx": 0.9674, "ny": -0.2533, "w": 1.8, "h": 3.0, "z": 113.05}, "geometry": {"type": "Point", "coordinates": [414123.31, 5656256.76]}}, {"type": "Feature", "properties": {"of": "DESNATPU1000FwAS", "kind": "yes", "nx": -0.3063, "ny": 0.9519, "w": 1.2, "h": 2.5, "z": 113.04}, "geometry": {"type": "Point", "coordinates": [415546.35, 5656260.48]}}, {"type": "Feature", "properties": {"of": "DESNATPU1000JUl4", "kind": "main", "nx": 0.619, "ny": 0.7854, "w": 1.41, "h": 3.0, "z": 114.2}, "geometry": {"type": "Point", "coordinates": [414537.09, 5656260.88]}}, {"type": "Feature", "properties": {"of": "DESNATPU1000EfJk", "kind": "main", "nx": 0.9671, "ny": -0.2545, "w": 1.8, "h": 3.0, "z": 113.04}, "geometry": {"type": "Point", "coordinates": [414127.13, 5656271.29]}}, {"type": "Feature", "properties": {"of": "DESNATPU1000I0Yw", "kind": "yes", "nx": 0.9818, "ny": -0.1901, "w": 1.2, "h": 2.5, "z": 113.28}, "geometry": {"type": "Point", "coordinates": [415070.38, 5656271.61]}}, {"type": "Feature", "properties": {"of": "DESNATPU1000GfKD", "kind": "main", "nx": 0.0914, "ny": 0.9958, "w": 1.8, "h": 3.0, "z": 113.49}, "geometry": {"type": "Point", "coordinates": [414494.28, 5656274.56]}}, {"type": "Feature", "properties": {"of": "DESNATPU1000CtYv", "kind": "main", "nx": -0.7916, "ny": 0.611, "w": 1.8, "h": 3.0, "z": 113.1}, "geometry": {"type": "Point", "coordinates": [414843.88, 5656274.9]}}, {"type": "Feature", "properties": {"of": "DESNATPU1000IYkc", "kind": "main", "nx": 0.0627, "ny": 0.998, "w": 1.8, "h": 3.0, "z": 112.79}, "geometry": {"type": "Point", "coordinates": [414445.8, 5656277.98]}}, {"type": "Feature", "properties": {"of": "DESNATPU1000GGt3", "kind": "main", "nx": 0.0655, "ny": 0.9979, "w": 1.8, "h": 3.0, "z": 112.97}, "geometry": {"type": "Point", "coordinates": [414388.64, 5656280.98]}}, {"type": "Feature", "properties": {"of": "DESNATPU1000EYGi", "kind": "main", "nx": 0.6185, "ny": 0.7858, "w": 1.8, "h": 3.0, "z": 113.3}, "geometry": {"type": "Point", "coordinates": [414954.39, 5656281.6]}}, {"type": "Feature", "properties": {"of": "DESNATPU1000Fi0Q", "kind": "main", "nx": -0.7918, "ny": 0.6107, "w": 1.8, "h": 3.0, "z": 113.1}, "geometry": {"type": "Point", "coordinates": [414855.22, 5656289.59]}}, {"type": "Feature", "properties": {"of": "DESNATPU1000J6ka", "kind": "main", "nx": 0.6181, "ny": 0.7861, "w": 1.8, "h": 3.0, "z": 113.29}, "geometry": {"type": "Point", "coordinates": [414940.55, 5656292.49]}}, {"type": "Feature", "properties": {"of": "UUID_fd15a517-759c-4cd4-bd3d-d414cd71c713", "kind": "main", "nx": -0.0297, "ny": 0.9996, "w": 1.8, "h": 3.0, "z": 112.81}, "geometry": {"type": "Point", "coordinates": [414027.8, 5656297.9]}}, {"type": "Feature", "properties": {"of": "DESNATPU1000HAgc", "kind": "main", "nx": -0.0298, "ny": 0.9996, "w": 1.8, "h": 3.0, "z": 112.8}, "geometry": {"type": "Point", "coordinates": [414046.49, 5656298.42]}}, {"type": "Feature", "properties": {"of": "UUID_4775fcd5-aac6-40d1-ad81-547157da7c57", "kind": "main", "nx": -0.0297, "ny": 0.9996, "w": 1.8, "h": 3.0, "z": 112.84}, "geometry": {"type": "Point", "coordinates": [414065.56, 5656299.02]}}, {"type": "Feature", "properties": {"of": "DESNATPU1000INd5", "kind": "main", "nx": -0.0297, "ny": 0.9996, "w": 1.8, "h": 3.0, "z": 112.82}, "geometry": {"type": "Point", "coordinates": [414083.93, 5656299.56]}}, {"type": "Feature", "properties": {"of": "DESNATPU1000Fazq", "kind": "main", "nx": -0.0288, "ny": 0.9996, "w": 1.8, "h": 3.0, "z": 112.86}, "geometry": {"type": "Point", "coordinates": [414140.89, 5656300.47]}}, {"type": "Feature", "properties": {"of": "DESNATPU1000Ie5q", "kind": "main", "nx": -0.0292, "ny": 0.9996, "w": 1.8, "h": 3.0, "z": 112.87}, "geometry": {"type": "Point", "coordinates": [414159.29, 5656301.0]}}, {"type": "Feature", "properties": {"of": "DESNATPU1000Bpsm", "kind": "main", "nx": -0.0278, "ny": 0.9996, "w": 1.8, "h": 3.0, "z": 112.87}, "geometry": {"type": "Point", "coordinates": [414178.52, 5656301.55]}}, {"type": "Feature", "properties": {"of": "DESNATPU1000BcfC", "kind": "main", "nx": -0.0289, "ny": 0.9996, "w": 1.8, "h": 3.0, "z": 112.91}, "geometry": {"type": "Point", "coordinates": [414196.94, 5656302.07]}}, {"type": "Feature", "properties": {"of": "DESNATPU1000Hne9", "kind": "main", "nx": 0.6179, "ny": 0.7862, "w": 1.8, "h": 3.0, "z": 113.31}, "geometry": {"type": "Point", "coordinates": [414926.71, 5656303.37]}}, {"type": "Feature", "properties": {"of": "DESNATPU1000Dsqd", "kind": "main", "nx": -0.791, "ny": 0.6118, "w": 1.8, "h": 3.0, "z": 113.08}, "geometry": {"type": "Point", "coordinates": [414866.55, 5656304.27]}}, {"type": "Feature", "properties": {"of": "DESNATPU1000GkIY", "kind": "main", "nx": 0.6177, "ny": 0.7864, "w": 1.8, "h": 3.0, "z": 113.29}, "geometry": {"type": "Point", "coordinates": [414912.87, 5656314.25]}}, {"type": "Feature", "properties": {"of": "DESNATP1Ak0000Gl", "kind": "main", "nx": 0.0628, "ny": 0.998, "w": 1.8, "h": 3.0, "z": 113.4}, "geometry": {"type": "Point", "coordinates": [414401.46, 5656315.31]}}, {"type": "Feature", "properties": {"of": "DESNATPU1000I5E1", "kind": "main", "nx": -0.7914, "ny": 0.6113, "w": 1.8, "h": 3.0, "z": 113.11}, "geometry": {"type": "Point", "coordinates": [414877.9, 5656318.94]}}, {"type": "Feature", "properties": {"of": "DESNATPU1000ChaR", "kind": "main", "nx": 0.1431, "ny": -0.9897, "w": 1.37, "h": 3.0, "z": 111.36}, "geometry": {"type": "Point", "coordinates": [414037.49, 5656324.48]}}, {"type": "Feature", "properties": {"of": "DESNATPU1000BOdr", "kind": "main", "nx": 0.1397, "ny": -0.9902, "w": 1.53, "h": 3.0, "z": 111.38}, "geometry": {"type": "Point", "coordinates": [414046.88, 5656325.85]}}, {"type": "Feature", "properties": {"of": "DESNATPU1000IWUS", "kind": "main", "nx": 0.1479, "ny": -0.989, "w": 1.41, "h": 3.0, "z": 111.33}, "geometry": {"type": "Point", "coordinates": [414096.88, 5656331.75]}}, {"type": "Feature", "properties": {"of": "DESNATPU1000EDcC", "kind": "main", "nx": 0.1465, "ny": -0.9892, "w": 1.8, "h": 3.0, "z": 111.37}, "geometry": {"type": "Point", "coordinates": [414106.26, 5656333.12]}}, {"type": "Feature", "properties": {"of": "DESNATPU1000ChaR", "kind": "service", "nx": -0.1445, "ny": 0.9895, "w": 1.1, "h": 2.3, "z": 112.78}, "geometry": {"type": "Point", "coordinates": [414035.14, 5656339.04]}}, {"type": "Feature", "properties": {"of": "DESNATPU1000BOdr", "kind": "service", "nx": -0.1447, "ny": 0.9895, "w": 1.1, "h": 2.3, "z": 112.79}, "geometry": {"type": "Point", "coordinates": [414044.54, 5656340.42]}}, {"type": "Feature", "properties": {"of": "DESNATPU1000H4jI", "kind": "service", "nx": -0.9905, "ny": -0.1376, "w": 1.1, "h": 2.3, "z": 112.81}, "geometry": {"type": "Point", "coordinates": [414048.81, 5656345.94]}}, {"type": "Feature", "properties": {"of": "DESNATPU1000IWUS", "kind": "service", "nx": -0.1451, "ny": 0.9894, "w": 1.1, "h": 2.3, "z": 112.63}, "geometry": {"type": "Point", "coordinates": [414094.41, 5656346.27]}}, {"type": "Feature", "properties": {"of": "UUID_45affe62-c14f-4b22-8e01-fb257eb1942b", "kind": "main", "nx": 0.2303, "ny": 0.9731, "w": 1.8, "h": 3.0, "z": 113.88}, "geometry": {"type": "Point", "coordinates": [415981.04, 5656346.38]}}, {"type": "Feature", "properties": {"of": "DESNATP1Ak0000Gj", "kind": "main", "nx": 0.0556, "ny": 0.9985, "w": 1.8, "h": 3.0, "z": 113.1}, "geometry": {"type": "Point", "coordinates": [414408.51, 5656346.67]}}, {"type": "Feature", "properties": {"of": "DESNATPU1000EDcC", "kind": "service", "nx": -0.1463, "ny": 0.9892, "w": 1.1, "h": 2.3, "z": 112.55}, "geometry": {"type": "Point", "coordinates": [414103.63, 5656347.63]}}, {"type": "Feature", "properties": {"of": "DESNATPU1000H4jI", "kind": "main", "nx": 0.9898, "ny": 0.1426, "w": 0.87, "h": 3.0, "z": 113.31}, "geometry": {"type": "Point", "coordinates": [414063.44, 5656348.2]}}, {"type": "Feature", "properties": {"of": "UUID_447c5458-2529-4a1e-9b74-e38998577b60", "kind": "main", "nx": -0.9996, "ny": -0.0294, "w": 1.8, "h": 3.0, "z": 113.55}, "geometry": {"type": "Point", "coordinates": [414222.58, 5656348.86]}}, {"type": "Feature", "properties": {"of": "UUID_447c5458-2529-4a1e-9b74-e38998577b60", "kind": "main", "nx": 0.9996, "ny": 0.0295, "w": 1.8, "h": 3.0, "z": 113.52}, "geometry": {"type": "Point", "coordinates": [414228.47, 5656349.04]}}, {"type": "Feature", "properties": {"of": "UUID_0fd788fa-0a90-44b7-a05f-528fe95e2591", "kind": "main", "nx": 0.1481, "ny": -0.989, "w": 1.8, "h": 3.0, "z": 112.21}, "geometry": {"type": "Point", "coordinates": [414195.35, 5656353.21]}}, {"type": "Feature", "properties": {"of": "DESNATPU1000GMDX", "kind": "main", "nx": 0.146, "ny": -0.9893, "w": 1.7, "h": 3.0, "z": 112.18}, "geometry": {"type": "Point", "coordinates": [414165.58, 5656353.89]}}, {"type": "Feature", "properties": {"of": "DESNATPU1000EzGJ", "kind": "main", "nx": -0.804, "ny": 0.5946, "w": 1.8, "h": 3.0, "z": 112.98}, "geometry": {"type": "Point", "coordinates": [414599.03, 5656353.96]}}, {"type": "Feature", "properties": {"of": "DESNATPU1000IGeE", "kind": "main", "nx": 0.142, "ny": -0.9899, "w": 1.33, "h": 3.0, "z": 112.18}, "geometry": {"type": "Point", "coordinates": [414175.31, 5656355.34]}}, {"type": "Feature", "properties": {"of": "DESNATPU1000F0LR", "kind": "service", "nx": -0.9894, "ny": -0.1454, "w": 1.1, "h": 2.3, "z": 112.65}, "geometry": {"type": "Point", "coordinates": [414107.89, 5656355.96]}}, {"type": "Feature", "properties": {"of": "DESNATPU1000G2kS", "kind": "main", "nx": 0.1357, "ny": -0.9908, "w": 1.76, "h": 3.0, "z": 112.17}, "geometry": {"type": "Point", "coordinates": [414184.57, 5656356.66]}}, {"type": "Feature", "properties": {"of": "DESNATPU1000F0LR", "kind": "main", "nx": 0.9895, "ny": 0.1445, "w": 1.8, "h": 3.0, "z": 113.34}, "geometry": {"type": "Point", "coordinates": [414122.58, 5656357.47]}}, {"type": "Feature", "properties": {"of": "DESNATPU1000IGeE", "kind": "yes", "nx": -0.1464, "ny": 0.9892, "w": 1.2, "h": 2.5, "z": 112.67}, "geometry": {"type": "Point", "coordinates": [414170.34, 5656368.44]}}, {"type": "Feature", "properties": {"of": "UUID_5d8ecc80-aa99-4f73-8425-ee060a7ef6ad", "kind": "main", "nx": -0.9892, "ny": -0.1463, "w": 0.71, "h": 3.0, "z": 113.59}, "geometry": {"type": "Point", "coordinates": [414790.5, 5656390.08]}}, {"type": "Feature", "properties": {"of": "UUID_82b680b3-1b43-4022-a6a1-32a2b57caf9f", "kind": "main", "nx": -0.9896, "ny": -0.1436, "w": 1.8, "h": 3.0, "z": 113.29}, "geometry": {"type": "Point", "coordinates": [414032.3, 5656393.63]}}, {"type": "Feature", "properties": {"of": "DESNATPU1000EF7p", "kind": "yes", "nx": 0.9775, "ny": -0.2111, "w": 1.2, "h": 2.5, "z": 114.15}, "geometry": {"type": "Point", "coordinates": [415431.0, 5656397.81]}}, {"type": "Feature", "properties": {"of": "DESNATPU1000B63e", "kind": "yes", "nx": 0.9909, "ny": 0.1347, "w": 1.2, "h": 2.5, "z": 113.1}, "geometry": {"type": "Point", "coordinates": [414595.26, 5656407.32]}}, {"type": "Feature", "properties": {"of": "DESNATPU1000FWP2", "kind": "yes", "nx": -0.9897, "ny": -0.1431, "w": 1.2, "h": 2.5, "z": 113.32}, "geometry": {"type": "Point", "coordinates": [414925.91, 5656409.97]}}, {"type": "Feature", "properties": {"of": "UUID_eeb0643f-6cdf-45f0-9b90-4e3ff5ef9501", "kind": "yes", "nx": -0.1446, "ny": 0.9895, "w": 1.2, "h": 2.5, "z": 112.68}, "geometry": {"type": "Point", "coordinates": [414497.26, 5656424.01]}}, {"type": "Feature", "properties": {"of": "DESNATPU1000B63e", "kind": "yes", "nx": -0.1347, "ny": 0.9909, "w": 1.2, "h": 2.5, "z": 113.13}, "geometry": {"type": "Point", "coordinates": [414587.46, 5656428.3]}}, {"type": "Feature", "properties": {"of": "UUID_368946ef-7f7c-4157-8df6-167324220b4a", "kind": "main", "nx": 0.9896, "ny": 0.1436, "w": 1.8, "h": 3.0, "z": 113.2}, "geometry": {"type": "Point", "coordinates": [414054.87, 5656446.5]}}, {"type": "Feature", "properties": {"of": "UUID_6a84a4f4-8900-442c-97a6-2ea0f719a2f6", "kind": "yes", "nx": -0.9894, "ny": -0.1449, "w": 1.2, "h": 2.5, "z": 113.7}, "geometry": {"type": "Point", "coordinates": [414821.93, 5656449.01]}}, {"type": "Feature", "properties": {"of": "UUID_90fc43b2-0abb-40c4-ab86-e98c6298c30c", "kind": "yes", "nx": 0.9896, "ny": 0.1435, "w": 1.2, "h": 2.5, "z": 113.25}, "geometry": {"type": "Point", "coordinates": [414040.39, 5656456.07]}}, {"type": "Feature", "properties": {"of": "UUID_409bee14-4c90-4b5f-bf54-195df1709c70", "kind": "main", "nx": 0.9894, "ny": 0.1451, "w": 1.8, "h": 3.0, "z": 112.96}, "geometry": {"type": "Point", "coordinates": [414108.11, 5656456.29]}}, {"type": "Feature", "properties": {"of": "UUID_90fc43b2-0abb-40c4-ab86-e98c6298c30c", "kind": "main", "nx": -0.9896, "ny": -0.1436, "w": 1.8, "h": 3.0, "z": 113.27}, "geometry": {"type": "Point", "coordinates": [414022.34, 5656462.49]}}, {"type": "Feature", "properties": {"of": "UUID_fa23a223-98d7-4a7c-b720-58da8612e3db", "kind": "main", "nx": 0.2258, "ny": 0.9742, "w": 1.8, "h": 3.0, "z": 114.29}, "geometry": {"type": "Point", "coordinates": [415728.53, 5656463.81]}}, {"type": "Feature", "properties": {"of": "DESNATPU1000JgL8", "kind": "yes", "nx": 0.1671, "ny": -0.9859, "w": 1.2, "h": 2.5, "z": 113.0}, "geometry": {"type": "Point", "coordinates": [414466.49, 5656467.47]}}, {"type": "Feature", "properties": {"of": "DESNATPU1000DRrm", "kind": "main", "nx": -0.9896, "ny": -0.1436, "w": 1.8, "h": 3.0, "z": 113.22}, "geometry": {"type": "Point", "coordinates": [414917.61, 5656467.82]}}, {"type": "Feature", "properties": {"of": "DESNATPU1000IyXz", "kind": "yes", "nx": 0.1441, "ny": -0.9896, "w": 1.2, "h": 2.5, "z": 113.01}, "geometry": {"type": "Point", "coordinates": [414495.53, 5656471.58]}}, {"type": "Feature", "properties": {"of": "UUID_a809f2d6-f0ec-4ad8-bb8a-8053fc18f43e", "kind": "main", "nx": 0.1454, "ny": -0.9894, "w": 1.8, "h": 3.0, "z": 112.95}, "geometry": {"type": "Point", "coordinates": [414528.44, 5656476.36]}}, {"type": "Feature", "properties": {"of": "DESNATPU1000BDcu", "kind": "main", "nx": 0.99, "ny": 0.1409, "w": 1.8, "h": 3.0, "z": 113.19}, "geometry": {"type": "Point", "coordinates": [414583.28, 5656487.98]}}, {"type": "Feature", "properties": {"of": "UUID_2e90df2c-ec78-40f6-bf3a-72da4bfa2c8f", "kind": "emergency", "nx": -0.9898, "ny": -0.1425, "w": 1.0, "h": 2.2, "z": 113.08}, "geometry": {"type": "Point", "coordinates": [414678.28, 5656491.47]}}, {"type": "Feature", "properties": {"of": "UUID_bbb22688-42ce-429c-ab2c-31bf8a1eebbd", "kind": "main", "nx": 0.1458, "ny": -0.9893, "w": 1.8, "h": 3.0, "z": 112.64}, "geometry": {"type": "Point", "coordinates": [414691.96, 5656502.22]}}, {"type": "Feature", "properties": {"of": "UUID_35923c2f-8723-4bac-9129-b66244e3b446", "kind": "main", "nx": -0.9906, "ny": -0.1369, "w": 1.49, "h": 3.0, "z": 112.84}, "geometry": {"type": "Point", "coordinates": [414797.14, 5656516.79]}}, {"type": "Feature", "properties": {"of": "DESNATPU1000EuvT", "kind": "yes", "nx": -0.1388, "ny": 0.9903, "w": 1.2, "h": 2.5, "z": 114.7}, "geometry": {"type": "Point", "coordinates": [414394.96, 5656521.01]}}, {"type": "Feature", "properties": {"of": "DESNATP1iT0000Lx", "kind": "staircase", "nx": 0.1513, "ny": -0.9885, "w": 1.16, "h": 2.5, "z": 112.86}, "geometry": {"type": "Point", "coordinates": [414620.05, 5656521.88]}}, {"type": "Feature", "properties": {"of": "DESNATPU1000Dqhg", "kind": "main", "nx": -0.1443, "ny": 0.9895, "w": 1.8, "h": 3.0, "z": 113.0}, "geometry": {"type": "Point", "coordinates": [414521.31, 5656527.26]}}, {"type": "Feature", "properties": {"of": "DESNATPU1000Dqhg", "kind": "main", "nx": -0.143, "ny": 0.9897, "w": 1.8, "h": 3.0, "z": 112.98}, "geometry": {"type": "Point", "coordinates": [414553.34, 5656531.91]}}, {"type": "Feature", "properties": {"of": "UUID_cb58fb24-9cc7-4340-848f-57641de147be", "kind": "yes", "nx": -0.1445, "ny": 0.9895, "w": 1.2, "h": 2.5, "z": 115.04}, "geometry": {"type": "Point", "coordinates": [414685.12, 5656545.48]}}, {"type": "Feature", "properties": {"of": "UUID_66d3fbf6-237e-444c-9515-cadcf70aca17", "kind": "main", "nx": -0.9887, "ny": -0.1497, "w": 1.36, "h": 3.0, "z": 112.86}, "geometry": {"type": "Point", "coordinates": [414792.64, 5656547.1]}}, {"type": "Feature", "properties": {"of": "UUID_8a817305-09f0-4f19-aae9-32bb41824106", "kind": "yes", "nx": -0.1446, "ny": 0.9895, "w": 1.2, "h": 2.5, "z": 112.8}, "geometry": {"type": "Point", "coordinates": [414674.66, 5656553.69]}}, {"type": "Feature", "properties": {"of": "DESNATP1iT0000Lx", "kind": "main", "nx": -0.1426, "ny": 0.9898, "w": 1.8, "h": 3.0, "z": 112.64}, "geometry": {"type": "Point", "coordinates": [414619.81, 5656556.29]}}, {"type": "Feature", "properties": {"of": "DESNATP1iT0000Lx", "kind": "service", "nx": -0.1426, "ny": 0.9898, "w": 1.1, "h": 2.3, "z": 112.89}, "geometry": {"type": "Point", "coordinates": [414651.44, 5656560.84]}}, {"type": "Feature", "properties": {"of": "DESNATP1iT0000ro", "kind": "service", "nx": 0.0524, "ny": -0.9986, "w": 1.1, "h": 2.3, "z": 112.91}, "geometry": {"type": "Point", "coordinates": [414382.0, 5656564.53]}}, {"type": "Feature", "properties": {"of": "DESNATPU1000D1XW", "kind": "service", "nx": 0.0638, "ny": -0.998, "w": 1.1, "h": 2.3, "z": 112.86}, "geometry": {"type": "Point", "coordinates": [414414.71, 5656566.22]}}, {"type": "Feature", "properties": {"of": "UUID_c186e23c-66ae-4eaa-8bf9-52217ca1497c", "kind": "emergency", "nx": 0.0523, "ny": -0.9986, "w": 1.0, "h": 2.2, "z": 112.85}, "geometry": {"type": "Point", "coordinates": [414483.56, 5656568.98]}}, {"type": "Feature", "properties": {"of": "DESNATP1iT0000rr", "kind": "main", "nx": -0.0537, "ny": 0.9986, "w": 1.8, "h": 3.0, "z": 112.63}, "geometry": {"type": "Point", "coordinates": [414469.74, 5656581.0]}}, {"type": "Feature", "properties": {"of": "UUID_6408aa84-a610-4f1d-b425-9e9306f7b89e", "kind": "main", "nx": 0.9993, "ny": -0.0362, "w": 1.57, "h": 3.0, "z": 112.81}, "geometry": {"type": "Point", "coordinates": [414879.34, 5656590.5]}}, {"type": "Feature", "properties": {"of": "UUID_28e598d4-bb8a-4ac3-8169-e471d908ffdb", "kind": "yes", "nx": -0.0165, "ny": -0.9999, "w": 1.2, "h": 2.5, "z": 114.42}, "geometry": {"type": "Point", "coordinates": [414734.33, 5656606.34]}}, {"type": "Feature", "properties": {"of": "DESNATP1iT0000ro", "kind": "service", "nx": -0.0557, "ny": 0.9984, "w": 1.1, "h": 2.3, "z": 113.04}, "geometry": {"type": "Point", "coordinates": [414383.07, 5656610.25]}}, {"type": "Feature", "properties": {"of": "DESNATPU1000D1XW", "kind": "yes", "nx": -0.0576, "ny": 0.9983, "w": 1.2, "h": 2.5, "z": 112.89}, "geometry": {"type": "Point", "coordinates": [414415.93, 5656611.84]}}, {"type": "Feature", "properties": {"of": "UUID_1bf62be8-96d0-46b5-9bbe-c5a381982644", "kind": "main", "nx": 0.21, "ny": 0.9777, "w": 1.8, "h": 3.0, "z": 113.23}, "geometry": {"type": "Point", "coordinates": [414797.92, 5656613.39]}}, {"type": "Feature", "properties": {"of": "DESNATPU1000F6co", "kind": "main", "nx": -0.0549, "ny": 0.9985, "w": 1.38, "h": 3.0, "z": 112.97}, "geometry": {"type": "Point", "coordinates": [414449.75, 5656616.61]}}, {"type": "Feature", "properties": {"of": "DESNATPU1000GtCM", "kind": "main", "nx": -0.0313, "ny": -0.9995, "w": 1.8, "h": 3.0, "z": 112.98}, "geometry": {"type": "Point", "coordinates": [414873.86, 5656617.6]}}, {"type": "Feature", "properties": {"of": "UUID_88c85380-77db-4a9e-80d7-9d83212cfc24", "kind": "yes", "nx": -0.9999, "ny": 0.016, "w": 1.2, "h": 2.5, "z": 113.51}, "geometry": {"type": "Point", "coordinates": [414613.13, 5656618.0]}}, {"type": "Feature", "properties": {"of": "UUID_4872e4c0-b2ac-4c54-a3e3-7322422de8b4", "kind": "main", "nx": -0.0531, "ny": 0.9986, "w": 1.8, "h": 3.0, "z": 112.97}, "geometry": {"type": "Point", "coordinates": [414487.53, 5656618.7]}}, {"type": "Feature", "properties": {"of": "UUID_88c85380-77db-4a9e-80d7-9d83212cfc24", "kind": "main", "nx": -0.9999, "ny": 0.016, "w": 1.8, "h": 3.0, "z": 113.18}, "geometry": {"type": "Point", "coordinates": [414613.15, 5656619.56]}}, {"type": "Feature", "properties": {"of": "UUID_88c85380-77db-4a9e-80d7-9d83212cfc24", "kind": "yes", "nx": 0.9999, "ny": -0.015, "w": 1.17, "h": 2.5, "z": 112.47}, "geometry": {"type": "Point", "coordinates": [414640.62, 5656619.62]}}, {"type": "Feature", "properties": {"of": "UUID_28e598d4-bb8a-4ac3-8169-e471d908ffdb", "kind": "yes", "nx": 0.0174, "ny": 0.9998, "w": 1.2, "h": 2.5, "z": 111.63}, "geometry": {"type": "Point", "coordinates": [414723.88, 5656619.73]}}, {"type": "Feature", "properties": {"of": "UUID_f1e6bd32-07c7-4cee-b0ad-6d18b85efff3", "kind": "yes", "nx": -0.0591, "ny": 0.9982, "w": 1.2, "h": 2.5, "z": 113.02}, "geometry": {"type": "Point", "coordinates": [414570.99, 5656634.85]}}, {"type": "Feature", "properties": {"of": "UUID_d2a8b277-f687-4f45-860f-6b8bbe0f197d", "kind": "yes", "nx": -1.0, "ny": 0.0098, "w": 1.2, "h": 2.5, "z": 112.86}, "geometry": {"type": "Point", "coordinates": [414608.85, 5656639.07]}}, {"type": "Feature", "properties": {"of": "DESNATPU1000E8QY", "kind": "main", "nx": 0.999, "ny": 0.0447, "w": 1.8, "h": 3.0, "z": 113.06}, "geometry": {"type": "Point", "coordinates": [414387.05, 5656641.76]}}, {"type": "Feature", "properties": {"of": "UUID_3452aaa6-6b3a-4644-9cfa-1ca8bc28961d", "kind": "yes", "nx": 0.9997, "ny": -0.0252, "w": 1.2, "h": 2.5, "z": 113.16}, "geometry": {"type": "Point", "coordinates": [414919.26, 5656645.2]}}, {"type": "Feature", "properties": {"of": "UUID_0ae7b71d-5278-4886-bbfd-f90cc8eb79d7", "kind": "yes", "nx": -0.0244, "ny": -0.9997, "w": 1.2, "h": 2.5, "z": 113.17}, "geometry": {"type": "Point", "coordinates": [414924.49, 5656646.37]}}, {"type": "Feature", "properties": {"of": "DESNATPU1000GDPe", "kind": "main", "nx": 0.9996, "ny": -0.0274, "w": 1.8, "h": 3.0, "z": 113.01}, "geometry": {"type": "Point", "coordinates": [414882.54, 5656650.01]}}, {"type": "Feature", "properties": {"of": "UUID_88c85380-77db-4a9e-80d7-9d83212cfc24", "kind": "yes", "nx": 0.0168, "ny": 0.9999, "w": 1.2, "h": 2.5, "z": 112.07}, "geometry": {"type": "Point", "coordinates": [414617.8, 5656651.44]}}, {"type": "Feature", "properties": {"of": "UUID_0ae7b71d-5278-4886-bbfd-f90cc8eb79d7", "kind": "emergency", "nx": 0.9997, "ny": -0.0241, "w": 1.0, "h": 2.2, "z": 112.97}, "geometry": {"type": "Point", "coordinates": [414939.7, 5656651.74]}}, {"type": "Feature", "properties": {"of": "DESNATPU1000CQ6G", "kind": "main", "nx": -0.0566, "ny": 0.9984, "w": 1.8, "h": 3.0, "z": 113.19}, "geometry": {"type": "Point", "coordinates": [414521.06, 5656663.54]}}, {"type": "Feature", "properties": {"of": "DESNATPU1000GBzi", "kind": "yes", "nx": 0.0383, "ny": -0.9993, "w": 1.2, "h": 2.5, "z": 113.04}, "geometry": {"type": "Point", "coordinates": [414375.27, 5656669.57]}}, {"type": "Feature", "properties": {"of": "DESNATPU1000Gipl", "kind": "main", "nx": 0.0429, "ny": 0.9991, "w": 1.8, "h": 3.0, "z": 113.52}, "geometry": {"type": "Point", "coordinates": [414797.51, 5656670.96]}}, {"type": "Feature", "properties": {"of": "DESNATPU1000BVMw", "kind": "yes", "nx": -0.0643, "ny": 0.9979, "w": 0.75, "h": 2.5, "z": 113.37}, "geometry": {"type": "Point", "coordinates": [414740.35, 5656676.24]}}, {"type": "Feature", "properties": {"of": "DESNATPU1000GROD", "kind": "main", "nx": 0.0227, "ny": 0.9997, "w": 1.8, "h": 3.0, "z": 113.54}, "geometry": {"type": "Point", "coordinates": [414682.11, 5656676.97]}}, {"type": "Feature", "properties": {"of": "DESNATP1iT0000rm", "kind": "yes", "nx": 0.0587, "ny": -0.9983, "w": 1.2, "h": 2.5, "z": 114.65}, "geometry": {"type": "Point", "coordinates": [414469.17, 5656680.66]}}, {"type": "Feature", "properties": {"of": "DESNATP1iT0000rm", "kind": "main", "nx": 0.0541, "ny": -0.9985, "w": 1.8, "h": 3.0, "z": 113.08}, "geometry": {"type": "Point", "coordinates": [414462.22, 5656692.85]}}, {"type": "Feature", "properties": {"of": "UUID_e472c34e-4122-4ad3-8538-223246b22877", "kind": "main", "nx": 0.9994, "ny": -0.0339, "w": 1.8, "h": 3.0, "z": 113.78}, "geometry": {"type": "Point", "coordinates": [414984.78, 5656697.95]}}, {"type": "Feature", "properties": {"of": "DESNATP1Ak0000HW", "kind": "main", "nx": -0.9998, "ny": 0.0218, "w": 1.8, "h": 3.0, "z": 113.76}, "geometry": {"type": "Point", "coordinates": [414665.13, 5656701.98]}}, {"type": "Feature", "properties": {"of": "DESNATP1Ak0000HW", "kind": "service", "nx": -0.0227, "ny": -0.9997, "w": 1.1, "h": 2.3, "z": 113.83}, "geometry": {"type": "Point", "coordinates": [414682.89, 5656703.93]}}, {"type": "Feature", "properties": {"of": "UUID_f62200ba-7247-4de7-a516-b2876338207a", "kind": "main", "nx": 0.0684, "ny": -0.9977, "w": 1.8, "h": 3.0, "z": 113.08}, "geometry": {"type": "Point", "coordinates": [414406.83, 5656705.67]}}, {"type": "Feature", "properties": {"of": "DESNATPU1000GBzi", "kind": "yes", "nx": -0.9983, "ny": -0.058, "w": 1.2, "h": 2.5, "z": 113.15}, "geometry": {"type": "Point", "coordinates": [414365.01, 5656706.67]}}, {"type": "Feature", "properties": {"of": "DESNATP1CX0001hE", "kind": "emergency", "nx": -0.0219, "ny": -0.9998, "w": 1.0, "h": 2.2, "z": 113.81}, "geometry": {"type": "Point", "coordinates": [414735.38, 5656706.68]}}, {"type": "Feature", "properties": {"of": "DESNATPU1000GBzi", "kind": "main", "nx": 0.999, "ny": 0.0446, "w": 1.8, "h": 3.0, "z": 113.15}, "geometry": {"type": "Point", "coordinates": [414381.67, 5656707.76]}}, {"type": "Feature", "properties": {"of": "DESNATP1Ak0000HW", "kind": "emergency", "nx": 0.9997, "ny": -0.0235, "w": 1.0, "h": 2.2, "z": 113.71}, "geometry": {"type": "Point", "coordinates": [414682.23, 5656713.36]}}, {"type": "Feature", "properties": {"of": "DESNATP1iT0000rm", "kind": "yes", "nx": -0.9994, "ny": -0.0338, "w": 1.2, "h": 2.5, "z": 114.65}, "geometry": {"type": "Point", "coordinates": [414448.6, 5656719.55]}}, {"type": "Feature", "properties": {"of": "UUID_d7c3fea0-10d5-43ec-9bd8-b0041ff9bbf6", "kind": "main", "nx": 0.0467, "ny": -0.9989, "w": 1.53, "h": 3.0, "z": 113.08}, "geometry": {"type": "Point", "coordinates": [414256.36, 5656725.04]}}, {"type": "Feature", "properties": {"of": "UUID_0f4ae87e-e541-4d6b-8d83-fb38bfdb16d2", "kind": "main", "nx": -0.9985, "ny": -0.0552, "w": 1.8, "h": 3.0, "z": 113.5}, "geometry": {"type": "Point", "coordinates": [414495.16, 5656730.54]}}, {"type": "Feature", "properties": {"of": "UUID_767b245b-4a3b-4a9c-94ab-93195b9f8ada", "kind": "main", "nx": -0.0541, "ny": 0.9985, "w": 1.8, "h": 3.0, "z": 113.2}, "geometry": {"type": "Point", "coordinates": [414527.85, 5656735.32]}}, {"type": "Feature", "properties": {"of": "DESNATPU1000F3Hg", "kind": "main", "nx": -0.9985, "ny": -0.0542, "w": 1.8, "h": 3.0, "z": 113.11}, "geometry": {"type": "Point", "coordinates": [414588.74, 5656741.3]}}, {"type": "Feature", "properties": {"of": "DESNATP1Ak0000HU", "kind": "yes", "nx": 0.0554, "ny": -0.9985, "w": 1.2, "h": 2.5, "z": 113.17}, "geometry": {"type": "Point", "coordinates": [414519.22, 5656744.0]}}, {"type": "Feature", "properties": {"of": "DESNATPU1000DffX", "kind": "main", "nx": 0.9985, "ny": 0.0541, "w": 1.8, "h": 3.0, "z": 113.19}, "geometry": {"type": "Point", "coordinates": [414557.56, 5656744.55]}}, {"type": "Feature", "properties": {"of": "DESNATP1Ak0000HU", "kind": "service", "nx": -0.9985, "ny": -0.0552, "w": 1.1, "h": 2.3, "z": 113.17}, "geometry": {"type": "Point", "coordinates": [414512.26, 5656745.31]}}, {"type": "Feature", "properties": {"of": "UUID_f8819692-4093-4456-979e-d55f138244cd", "kind": "yes", "nx": 0.9997, "ny": -0.0254, "w": 1.2, "h": 2.5, "z": 114.0}, "geometry": {"type": "Point", "coordinates": [414846.03, 5656749.31]}}, {"type": "Feature", "properties": {"of": "UUID_b882e010-8c85-4c7f-9860-b712f325ed5b", "kind": "service", "nx": -0.0423, "ny": 0.9991, "w": 1.1, "h": 2.3, "z": 113.08}, "geometry": {"type": "Point", "coordinates": [414215.84, 5656749.81]}}, {"type": "Feature", "properties": {"of": "UUID_f8819692-4093-4456-979e-d55f138244cd", "kind": "main", "nx": 0.9997, "ny": -0.0254, "w": 1.8, "h": 3.0, "z": 113.85}, "geometry": {"type": "Point", "coordinates": [414846.09, 5656751.66]}}, {"type": "Feature", "properties": {"of": "UUID_a01e3c92-ca7b-48bd-a23e-84f31a2f98d7", "kind": "main", "nx": 0.9996, "ny": -0.0289, "w": 1.8, "h": 3.0, "z": 111.73}, "geometry": {"type": "Point", "coordinates": [414863.97, 5656766.07]}}, {"type": "Feature", "properties": {"of": "DESNATPU1000BuRh", "kind": "main", "nx": -0.0231, "ny": -0.9997, "w": 1.8, "h": 3.0, "z": 113.55}, "geometry": {"type": "Point", "coordinates": [414775.59, 5656769.34]}}, {"type": "Feature", "properties": {"of": "DESNATPU1000I195", "kind": "yes", "nx": -0.9997, "ny": 0.0225, "w": 1.2, "h": 2.5, "z": 113.42}, "geometry": {"type": "Point", "coordinates": [414676.62, 5656770.66]}}, {"type": "Feature", "properties": {"of": "DESNATPU1000DenP", "kind": "yes", "nx": 0.0581, "ny": -0.9983, "w": 1.2, "h": 2.5, "z": 113.59}, "geometry": {"type": "Point", "coordinates": [414365.03, 5656771.01]}}, {"type": "Feature", "properties": {"of": "UUID_763f3a37-e39b-4738-9b9e-f6f176cdd86d", "kind": "yes", "nx": 0.0372, "ny": -0.9993, "w": 1.2, "h": 2.5, "z": 113.27}, "geometry": {"type": "Point", "coordinates": [414073.29, 5656771.7]}}, {"type": "Feature", "properties": {"of": "DESNATP1CX0001h2", "kind": "yes", "nx": 0.0373, "ny": -0.9993, "w": 1.2, "h": 2.5, "z": 113.56}, "geometry": {"type": "Point", "coordinates": [414083.25, 5656772.07]}}, {"type": "Feature", "properties": {"of": "UUID_80c4836c-ccda-407d-9bbc-847238f0aac2", "kind": "yes", "nx": 0.0405, "ny": -0.9992, "w": 1.2, "h": 2.5, "z": 112.74}, "geometry": {"type": "Point", "coordinates": [414173.95, 5656775.59]}}, {"type": "Feature", "properties": {"of": "UUID_cc3eba9f-9a84-401c-b51f-4fab8951db69", "kind": "yes", "nx": 0.0401, "ny": -0.9992, "w": 1.2, "h": 2.5, "z": 114.19}, "geometry": {"type": "Point", "coordinates": [414211.05, 5656777.09]}}, {"type": "Feature", "properties": {"of": "UUID_cc3eba9f-9a84-401c-b51f-4fab8951db69", "kind": "yes", "nx": 0.0401, "ny": -0.9992, "w": 1.2, "h": 2.5, "z": 112.81}, "geometry": {"type": "Point", "coordinates": [414229.78, 5656777.84]}}, {"type": "Feature", "properties": {"of": "DESNATPU1000D7my", "kind": "yes", "nx": -0.0565, "ny": 0.9984, "w": 1.2, "h": 2.5, "z": 113.58}, "geometry": {"type": "Point", "coordinates": [414512.61, 5656784.17]}}, {"type": "Feature", "properties": {"of": "DESNATPU1000D7my", "kind": "main", "nx": -0.0565, "ny": 0.9984, "w": 1.8, "h": 3.0, "z": 113.54}, "geometry": {"type": "Point", "coordinates": [414516.6, 5656784.4]}}, {"type": "Feature", "properties": {"of": "UUID_06452c51-3a6d-403e-bc6a-1a2a3a82afdd", "kind": "emergency", "nx": 0.2126, "ny": -0.9771, "w": 1.0, "h": 2.2, "z": 112.98}, "geometry": {"type": "Point", "coordinates": [414823.76, 5656786.38]}}, {"type": "Feature", "properties": {"of": "UUID_ef385cfe-98de-4006-845e-53229df4644c", "kind": "yes", "nx": -0.041, "ny": 0.9992, "w": 1.2, "h": 2.5, "z": 114.19}, "geometry": {"type": "Point", "coordinates": [414203.77, 5656792.19]}}, {"type": "Feature", "properties": {"of": "UUID_cc3eba9f-9a84-401c-b51f-4fab8951db69", "kind": "yes", "nx": -0.0433, "ny": 0.9991, "w": 1.2, "h": 2.5, "z": 114.18}, "geometry": {"type": "Point", "coordinates": [414229.25, 5656793.19]}}, {"type": "Feature", "properties": {"of": "UUID_eaaa1e8c-0fb2-4db4-add1-794983eb8139", "kind": "yes", "nx": -0.9993, "ny": -0.0373, "w": 1.2, "h": 2.5, "z": 112.78}, "geometry": {"type": "Point", "coordinates": [414031.98, 5656793.56]}}, {"type": "Feature", "properties": {"of": "UUID_33474eb3-8ded-4e2a-acb2-e0dfa3b1d0b4", "kind": "service", "nx": -0.0283, "ny": -0.9996, "w": 1.1, "h": 2.3, "z": 112.9}, "geometry": {"type": "Point", "coordinates": [414843.38, 5656793.85]}}, {"type": "Feature", "properties": {"of": "UUID_d6003aeb-82be-49ef-be1c-97cbf2f61e65", "kind": "main", "nx": -0.9986, "ny": -0.0526, "w": 1.8, "h": 3.0, "z": 113.31}, "geometry": {"type": "Point", "coordinates": [414581.99, 5656797.0]}}, {"type": "Feature", "properties": {"of": "DESNATPU1000It1L", "kind": "main", "nx": -0.9997, "ny": 0.0224, "w": 1.64, "h": 3.0, "z": 113.03}, "geometry": {"type": "Point", "coordinates": [414914.85, 5656798.47]}}, {"type": "Feature", "properties": {"of": "UUID_eaaa1e8c-0fb2-4db4-add1-794983eb8139", "kind": "yes", "nx": -0.0373, "ny": 0.9993, "w": 1.2, "h": 2.5, "z": 113.06}, "geometry": {"type": "Point", "coordinates": [414038.69, 5656798.81]}}, {"type": "Feature", "properties": {"of": "UUID_eaaa1e8c-0fb2-4db4-add1-794983eb8139", "kind": "yes", "nx": -0.0373, "ny": 0.9993, "w": 1.2, "h": 2.5, "z": 113.54}, "geometry": {"type": "Point", "coordinates": [414045.16, 5656799.05]}}, {"type": "Feature", "properties": {"of": "DESNATPU1000I195", "kind": "yes", "nx": 0.9997, "ny": -0.024, "w": 1.2, "h": 2.5, "z": 113.4}, "geometry": {"type": "Point", "coordinates": [414699.12, 5656799.33]}}, {"type": "Feature", "properties": {"of": "DESNATPU1000I195", "kind": "main", "nx": -0.9998, "ny": 0.0209, "w": 1.8, "h": 3.0, "z": 113.55}, "geometry": {"type": "Point", "coordinates": [414674.79, 5656799.41]}}, {"type": "Feature", "properties": {"of": "UUID_eaaa1e8c-0fb2-4db4-add1-794983eb8139", "kind": "yes", "nx": -0.0373, "ny": 0.9993, "w": 1.2, "h": 2.5, "z": 113.52}, "geometry": {"type": "Point", "coordinates": [414057.31, 5656799.5]}}, {"type": "Feature", "properties": {"of": "UUID_33474eb3-8ded-4e2a-acb2-e0dfa3b1d0b4", "kind": "service", "nx": 0.0377, "ny": 0.9993, "w": 1.1, "h": 2.3, "z": 111.83}, "geometry": {"type": "Point", "coordinates": [414843.55, 5656802.11]}}, {"type": "Feature", "properties": {"of": "UUID_185fc157-98f8-4a4d-9f40-cebb6cc7a21e", "kind": "yes", "nx": 0.0395, "ny": -0.9992, "w": 1.2, "h": 2.5, "z": 113.32}, "geometry": {"type": "Point", "coordinates": [414369.14, 5656804.84]}}, {"type": "Feature", "properties": {"of": "UUID_ba35e35e-22fc-4aaa-9938-45bbd99c44fe", "kind": "yes", "nx": -0.0387, "ny": 0.9992, "w": 1.2, "h": 2.5, "z": 114.18}, "geometry": {"type": "Point", "coordinates": [414209.87, 5656805.42]}}, {"type": "Feature", "properties": {"of": "UUID_ba35e35e-22fc-4aaa-9938-45bbd99c44fe", "kind": "yes", "nx": -0.0387, "ny": 0.9992, "w": 1.2, "h": 2.5, "z": 114.15}, "geometry": {"type": "Point", "coordinates": [414218.98, 5656805.77]}}, {"type": "Feature", "properties": {"of": "DESNATPU1000GcbY", "kind": "yes", "nx": 0.047, "ny": -0.9989, "w": 1.2, "h": 2.5, "z": 113.5}, "geometry": {"type": "Point", "coordinates": [414402.33, 5656806.47]}}, {"type": "Feature", "properties": {"of": "DESNATPU1000E2G0", "kind": "yes", "nx": 0.0502, "ny": -0.9987, "w": 1.2, "h": 2.5, "z": 113.74}, "geometry": {"type": "Point", "coordinates": [414435.01, 5656808.38]}}, {"type": "Feature", "properties": {"of": "UUID_843ed011-b583-40a0-a1f5-c77a4c8aa41d", "kind": "service", "nx": -0.9993, "ny": 0.038, "w": 1.1, "h": 2.3, "z": 111.5}, "geometry": {"type": "Point", "coordinates": [414859.9, 5656809.51]}}, {"type": "Feature", "properties": {"of": "UUID_06452c51-3a6d-403e-bc6a-1a2a3a82afdd", "kind": "yes", "nx": 0.265, "ny": 0.9642, "w": 1.2, "h": 2.5, "z": 113.11}, "geometry": {"type": "Point", "coordinates": [414823.19, 5656809.7]}}, {"type": "Feature", "properties": {"of": "DESNATP1iT0000rX", "kind": "service", "nx": -0.9989, "ny": -0.0476, "w": 1.1, "h": 2.3, "z": 112.65}, "geometry": {"type": "Point", "coordinates": [414031.78, 5656811.42]}}, {"type": "Feature", "properties": {"of": "UUID_381452ca-51d5-4c77-859a-de7016441dff", "kind": "yes", "nx": -0.9992, "ny": -0.0405, "w": 1.2, "h": 2.5, "z": 111.18}, "geometry": {"type": "Point", "coordinates": [414149.03, 5656812.31]}}, {"type": "Feature", "properties": {"of": "UUID_381452ca-51d5-4c77-859a-de7016441dff", "kind": "yes", "nx": 0.9992, "ny": 0.0401, "w": 1.2, "h": 2.5, "z": 114.12}, "geometry": {"type": "Point", "coordinates": [414169.61, 5656812.31]}}, {"type": "Feature", "properties": {"of": "DESNATP1CX0001h2", "kind": "yes", "nx": -0.0373, "ny": 0.9993, "w": 1.2, "h": 2.5, "z": 113.56}, "geometry": {"type": "Point", "coordinates": [414084.37, 5656815.2]}}, {"type": "Feature", "properties": {"of": "UUID_194a95db-e62b-47cb-b7f0-60c8c7d2e73c", "kind": "yes", "nx": -0.9995, "ny": -0.0314, "w": 1.2, "h": 2.5, "z": 114.16}, "geometry": {"type": "Point", "coordinates": [414256.23, 5656817.76]}}, {"type": "Feature", "properties": {"of": "UUID_194a95db-e62b-47cb-b7f0-60c8c7d2e73c", "kind": "main", "nx": 0.9995, "ny": 0.0315, "w": 1.8, "h": 3.0, "z": 114.12}, "geometry": {"type": "Point", "coordinates": [414285.91, 5656820.16]}}, {"type": "Feature", "properties": {"of": "UUID_87c56a8f-a228-4858-897c-66d8bd7f05db", "kind": "yes", "nx": 0.0563, "ny": -0.9984, "w": 1.2, "h": 2.5, "z": 112.4}, "geometry": {"type": "Point", "coordinates": [414387.06, 5656831.31]}}, {"type": "Feature", "properties": {"of": "UUID_913d661b-f8a8-427b-8728-bc8a56e98e25", "kind": "yes", "nx": 0.0403, "ny": -0.9992, "w": 1.2, "h": 2.5, "z": 114.18}, "geometry": {"type": "Point", "coordinates": [414201.82, 5656832.96]}}, {"type": "Feature", "properties": {"of": "DESNATPU1000Fhl1", "kind": "secondary", "nx": -0.9662, "ny": -0.2579, "w": 1.2, "h": 2.5, "z": 113.73}, "geometry": {"type": "Point", "coordinates": [414808.14, 5656835.61]}}, {"type": "Feature", "properties": {"of": "DESNATPU1000HV4y", "kind": "main", "nx": -0.0514, "ny": 0.9987, "w": 1.8, "h": 3.0, "z": 113.8}, "geometry": {"type": "Point", "coordinates": [414483.58, 5656837.72]}}, {"type": "Feature", "properties": {"of": "DESNATPU1000Fhl1", "kind": "secondary", "nx": 0.9659, "ny": 0.2588, "w": 1.2, "h": 2.5, "z": 113.71}, "geometry": {"type": "Point", "coordinates": [414830.88, 5656841.72]}}, {"type": "Feature", "properties": {"of": "DESNATPU1000D11n", "kind": "main", "nx": 0.0659, "ny": -0.9978, "w": 1.8, "h": 3.0, "z": 113.44}, "geometry": {"type": "Point", "coordinates": [414588.95, 5656843.99]}}, {"type": "Feature", "properties": {"of": "UUID_381452ca-51d5-4c77-859a-de7016441dff", "kind": "yes", "nx": -0.9992, "ny": -0.0405, "w": 1.2, "h": 2.5, "z": 111.05}, "geometry": {"type": "Point", "coordinates": [414147.73, 5656844.42]}}, {"type": "Feature", "properties": {"of": "DESNATPU1000FJsD", "kind": "yes", "nx": -0.0456, "ny": 0.999, "w": 1.2, "h": 2.5, "z": 113.62}, "geometry": {"type": "Point", "coordinates": [414532.79, 5656846.33]}}, {"type": "Feature", "properties": {"of": "UUID_913d661b-f8a8-427b-8728-bc8a56e98e25", "kind": "yes", "nx": -0.0401, "ny": 0.9992, "w": 1.2, "h": 2.5, "z": 110.31}, "geometry": {"type": "Point", "coordinates": [414178.82, 5656852.62]}}, {"type": "Feature", "properties": {"of": "UUID_913d661b-f8a8-427b-8728-bc8a56e98e25", "kind": "yes", "nx": -0.0401, "ny": 0.9992, "w": 1.2, "h": 2.5, "z": 110.38}, "geometry": {"type": "Point", "coordinates": [414195.34, 5656853.28]}}, {"type": "Feature", "properties": {"of": "UUID_913d661b-f8a8-427b-8728-bc8a56e98e25", "kind": "yes", "nx": -0.0401, "ny": 0.9992, "w": 1.2, "h": 2.5, "z": 110.37}, "geometry": {"type": "Point", "coordinates": [414200.45, 5656853.49]}}, {"type": "Feature", "properties": {"of": "UUID_b52930de-00cc-4b22-aff8-4633b0d30668", "kind": "main", "nx": -0.0497, "ny": 0.9988, "w": 1.8, "h": 3.0, "z": 113.32}, "geometry": {"type": "Point", "coordinates": [414366.41, 5656853.97]}}, {"type": "Feature", "properties": {"of": "UUID_81afe4eb-0378-41a5-b6a9-9ec533613836", "kind": "yes", "nx": -0.0314, "ny": 0.9995, "w": 1.2, "h": 2.5, "z": 110.38}, "geometry": {"type": "Point", "coordinates": [414226.43, 5656854.62]}}, {"type": "Feature", "properties": {"of": "DESNATPU1000GcbY", "kind": "main", "nx": -0.0557, "ny": 0.9984, "w": 1.8, "h": 3.0, "z": 113.44}, "geometry": {"type": "Point", "coordinates": [414399.62, 5656855.78]}}, {"type": "Feature", "properties": {"of": "UUID_194a95db-e62b-47cb-b7f0-60c8c7d2e73c", "kind": "yes", "nx": -0.0314, "ny": 0.9995, "w": 1.2, "h": 2.5, "z": 110.43}, "geometry": {"type": "Point", "coordinates": [414266.82, 5656855.89]}}, {"type": "Feature", "properties": {"of": "DESNATPU1000E2G0", "kind": "main", "nx": -0.0549, "ny": 0.9985, "w": 1.18, "h": 3.0, "z": 113.72}, "geometry": {"type": "Point", "coordinates": [414432.11, 5656857.04]}}, {"type": "Feature", "properties": {"of": "DESNATPU1000E2G0", "kind": "main", "nx": -0.053, "ny": 0.9986, "w": 1.68, "h": 3.0, "z": 113.76}, "geometry": {"type": "Point", "coordinates": [414467.61, 5656858.95]}}, {"type": "Feature", "properties": {"of": "DESNATPU1000D11n", "kind": "main", "nx": -0.9988, "ny": -0.0489, "w": 1.8, "h": 3.0, "z": 113.27}, "geometry": {"type": "Point", "coordinates": [414577.35, 5656877.56]}}, {"type": "Feature", "properties": {"of": "UUID_9784af37-fa9a-4070-9811-89d64d736ff5", "kind": "yes", "nx": -0.9986, "ny": -0.0529, "w": 1.2, "h": 2.5, "z": 114.02}, "geometry": {"type": "Point", "coordinates": [414188.64, 5656880.41]}}, {"type": "Feature", "properties": {"of": "DESNATPU1000D11n", "kind": "emergency", "nx": -0.0495, "ny": 0.9988, "w": 1.0, "h": 2.2, "z": 113.46}, "geometry": {"type": "Point", "coordinates": [414626.84, 5656882.46]}}, {"type": "Feature", "properties": {"of": "DESNATPU1000D11n", "kind": "emergency", "nx": -0.0495, "ny": 0.9988, "w": 1.0, "h": 2.2, "z": 113.43}, "geometry": {"type": "Point", "coordinates": [414636.02, 5656882.92]}}, {"type": "Feature", "properties": {"of": "DESNATPU1000D11n", "kind": "emergency", "nx": -0.0495, "ny": 0.9988, "w": 1.0, "h": 2.2, "z": 113.46}, "geometry": {"type": "Point", "coordinates": [414645.21, 5656883.37]}}, {"type": "Feature", "properties": {"of": "DESNATPU1000D11n", "kind": "yes", "nx": -0.0503, "ny": 0.9987, "w": 1.2, "h": 2.5, "z": 113.34}, "geometry": {"type": "Point", "coordinates": [414607.91, 5656884.39]}}, {"type": "Feature", "properties": {"of": "DESNATPU1000D11n", "kind": "staircase", "nx": -0.0503, "ny": 0.9987, "w": 1.2, "h": 2.5, "z": 113.35}, "geometry": {"type": "Point", "coordinates": [414609.81, 5656884.49]}}, {"type": "Feature", "properties": {"of": "DESNATPU1000D11n", "kind": "emergency", "nx": -0.0493, "ny": 0.9988, "w": 1.0, "h": 2.2, "z": 113.45}, "geometry": {"type": "Point", "coordinates": [414679.4, 5656885.08]}}, {"type": "Feature", "properties": {"of": "DESNATPU1000D11n", "kind": "emergency", "nx": -0.0493, "ny": 0.9988, "w": 1.0, "h": 2.2, "z": 113.47}, "geometry": {"type": "Point", "coordinates": [414688.48, 5656885.53]}}, {"type": "Feature", "properties": {"of": "DESNATPU1000D11n", "kind": "emergency", "nx": -0.0493, "ny": 0.9988, "w": 1.0, "h": 2.2, "z": 113.47}, "geometry": {"type": "Point", "coordinates": [414697.56, 5656885.97]}}, {"type": "Feature", "properties": {"of": "DESNATPU1000D11n", "kind": "emergency", "nx": -0.05, "ny": 0.9987, "w": 1.0, "h": 2.2, "z": 113.4}, "geometry": {"type": "Point", "coordinates": [414660.44, 5656887.0]}}, {"type": "Feature", "properties": {"of": "DESNATPU1000D11n", "kind": "staircase", "nx": -0.05, "ny": 0.9987, "w": 1.2, "h": 2.5, "z": 113.42}, "geometry": {"type": "Point", "coordinates": [414662.44, 5656887.1]}}, {"type": "Feature", "properties": {"of": "DESNATPU1000D11n", "kind": "yes", "nx": -0.0488, "ny": 0.9988, "w": 1.2, "h": 2.5, "z": 113.07}, "geometry": {"type": "Point", "coordinates": [414712.81, 5656889.58]}}, {"type": "Feature", "properties": {"of": "DESNATPU1000D11n", "kind": "staircase", "nx": -0.0488, "ny": 0.9988, "w": 1.2, "h": 2.5, "z": 113.06}, "geometry": {"type": "Point", "coordinates": [414715.09, 5656889.69]}}, {"type": "Feature", "properties": {"of": "DESNATP1iT0000sp", "kind": "yes", "nx": 1.0, "ny": -0.0048, "w": 1.2, "h": 2.5, "z": 112.72}, "geometry": {"type": "Point", "coordinates": [414602.94, 5656896.0]}}, {"type": "Feature", "properties": {"of": "UUID_5dcefd45-e968-4659-996c-ce43b2000447", "kind": "yes", "nx": 0.9987, "ny": 0.0515, "w": 1.2, "h": 2.5, "z": 113.13}, "geometry": {"type": "Point", "coordinates": [414485.89, 5656897.71]}}, {"type": "Feature", "properties": {"of": "UUID_2601668b-567e-43be-b927-a8c42ca78492", "kind": "main", "nx": 1.0, "ny": -0.008, "w": 1.8, "h": 3.0, "z": 113.78}, "geometry": {"type": "Point", "coordinates": [414828.19, 5656901.28]}}, {"type": "Feature", "properties": {"of": "DESNATPU1000H9ZW", "kind": "main", "nx": 0.0428, "ny": -0.9991, "w": 1.08, "h": 3.0, "z": 113.63}, "geometry": {"type": "Point", "coordinates": [414715.58, 5656902.74]}}, {"type": "Feature", "properties": {"of": "DESNATP1iT0000m6", "kind": "yes", "nx": -0.0516, "ny": 0.9987, "w": 1.2, "h": 2.5, "z": 114.39}, "geometry": {"type": "Point", "coordinates": [414397.17, 5656912.39]}}, {"type": "Feature", "properties": {"of": "DESNATPU1000JHwz", "kind": "service", "nx": 0.9986, "ny": 0.0529, "w": 1.1, "h": 2.3, "z": 113.33}, "geometry": {"type": "Point", "coordinates": [414608.19, 5656913.84]}}, {"type": "Feature", "properties": {"of": "UUID_495324cc-d50c-4e2a-8827-ae9244840b59", "kind": "main", "nx": 0.9984, "ny": 0.0559, "w": 1.8, "h": 3.0, "z": 113.25}, "geometry": {"type": "Point", "coordinates": [414550.33, 5656921.02]}}, {"type": "Feature", "properties": {"of": "DESNATPU1000H9ZW", "kind": "secondary", "nx": 0.9992, "ny": 0.0405, "w": 1.2, "h": 2.5, "z": 112.76}, "geometry": {"type": "Point", "coordinates": [414747.38, 5656925.2]}}, {"type": "Feature", "properties": {"of": "UUID_495324cc-d50c-4e2a-8827-ae9244840b59", "kind": "service", "nx": 0.9984, "ny": 0.0559, "w": 1.1, "h": 2.3, "z": 110.58}, "geometry": {"type": "Point", "coordinates": [414549.36, 5656938.28]}}, {"type": "Feature", "properties": {"of": "DESNATPU1000JHwz", "kind": "main", "nx": -0.9986, "ny": -0.0529, "w": 1.8, "h": 3.0, "z": 113.4}, "geometry": {"type": "Point", "coordinates": [414590.45, 5656948.3]}}, {"type": "Feature", "properties": {"of": "DESNATPU1000JHwz", "kind": "main", "nx": 0.9986, "ny": 0.0527, "w": 1.8, "h": 3.0, "z": 113.62}, "geometry": {"type": "Point", "coordinates": [414606.84, 5656949.29]}}, {"type": "Feature", "properties": {"of": "DESNATPU1000H9ZW", "kind": "main", "nx": -0.9993, "ny": -0.0371, "w": 1.8, "h": 3.0, "z": 113.02}, "geometry": {"type": "Point", "coordinates": [414704.15, 5656949.44]}}, {"type": "Feature", "properties": {"of": "DESNATPU1000HcZf", "kind": "service", "nx": -0.9987, "ny": -0.0513, "w": 1.1, "h": 2.3, "z": 112.16}, "geometry": {"type": "Point", "coordinates": [414346.93, 5656952.8]}}, {"type": "Feature", "properties": {"of": "UUID_495324cc-d50c-4e2a-8827-ae9244840b59", "kind": "yes", "nx": -0.9985, "ny": -0.0546, "w": 1.2, "h": 2.5, "z": 114.69}, "geometry": {"type": "Point", "coordinates": [414470.51, 5656963.74]}}, {"type": "Feature", "properties": {"of": "DESNATPU1000H9ZW", "kind": "main", "nx": 0.9991, "ny": 0.0416, "w": 0.81, "h": 3.0, "z": 113.3}, "geometry": {"type": "Point", "coordinates": [414745.55, 5656970.77]}}, {"type": "Feature", "properties": {"of": "UUID_32fd7e9c-e5d6-4653-8bb0-fbacf9009648", "kind": "staircase", "nx": 0.2628, "ny": 0.9649, "w": 1.2, "h": 2.5, "z": 113.21}, "geometry": {"type": "Point", "coordinates": [415313.0, 5656984.85]}}, {"type": "Feature", "properties": {"of": "DESNATPU1000HcZf", "kind": "main", "nx": -0.9984, "ny": -0.0559, "w": 1.8, "h": 3.0, "z": 112.44}, "geometry": {"type": "Point", "coordinates": [414341.09, 5656994.63]}}, {"type": "Feature", "properties": {"of": "DESNATPU1000JHwz", "kind": "yes", "nx": -0.0386, "ny": 0.9993, "w": 1.2, "h": 2.5, "z": 114.65}, "geometry": {"type": "Point", "coordinates": [414585.8, 5656997.76]}}, {"type": "Feature", "properties": {"of": "DESNATPU1000INyM", "kind": "main", "nx": -0.9569, "ny": -0.2905, "w": 0.95, "h": 3.0, "z": 113.52}, "geometry": {"type": "Point", "coordinates": [414166.24, 5656997.83]}}, {"type": "Feature", "properties": {"of": "DESNATP1Ak0000Hm", "kind": "yes", "nx": 0.048, "ny": -0.9988, "w": 1.2, "h": 2.5, "z": 113.18}, "geometry": {"type": "Point", "coordinates": [414617.2, 5656999.86]}}, {"type": "Feature", "properties": {"of": "DESNATPU1000H9ZW", "kind": "main", "nx": -0.0383, "ny": 0.9993, "w": 1.8, "h": 3.0, "z": 113.5}, "geometry": {"type": "Point", "coordinates": [414709.7, 5657006.48]}}, {"type": "Feature", "properties": {"of": "UUID_495324cc-d50c-4e2a-8827-ae9244840b59", "kind": "service", "nx": -0.0541, "ny": 0.9985, "w": 1.1, "h": 2.3, "z": 112.96}, "geometry": {"type": "Point", "coordinates": [414501.32, 5657007.44]}}, {"type": "Feature", "properties": {"of": "UUID_a4249d80-7f86-4063-bf6f-fb4c47758d83", "kind": "yes", "nx": 0.7438, "ny": -0.6684, "w": 1.2, "h": 2.5, "z": 112.96}, "geometry": {"type": "Point", "coordinates": [414099.53, 5657009.73]}}, {"type": "Feature", "properties": {"of": "UUID_495324cc-d50c-4e2a-8827-ae9244840b59", "kind": "service", "nx": -0.9986, "ny": -0.053, "w": 1.1, "h": 2.3, "z": 114.99}, "geometry": {"type": "Point", "coordinates": [414518.69, 5657012.79]}}, {"type": "Feature", "properties": {"of": "UUID_0be1fa1b-5330-4a8c-80c1-6b243eec1203", "kind": "staircase", "nx": 0.9986, "ny": 0.052, "w": 1.2, "h": 2.5, "z": 113.06}, "geometry": {"type": "Point", "coordinates": [414592.1, 5657014.98]}}, {"type": "Feature", "properties": {"of": "UUID_9b982247-145c-46e8-b4af-eca9da9b2f86", "kind": "emergency", "nx": 0.05, "ny": -0.9987, "w": 1.0, "h": 2.2, "z": 111.3}, "geometry": {"type": "Point", "coordinates": [414620.53, 5657019.33]}}, {"type": "Feature", "properties": {"of": "UUID_9b982247-145c-46e8-b4af-eca9da9b2f86", "kind": "emergency", "nx": 0.05, "ny": -0.9987, "w": 1.0, "h": 2.2, "z": 111.35}, "geometry": {"type": "Point", "coordinates": [414628.89, 5657019.75]}}, {"type": "Feature", "properties": {"of": "DESNATPU1000INyM", "kind": "yes", "nx": 0.9561, "ny": 0.2929, "w": 1.2, "h": 2.5, "z": 113.36}, "geometry": {"type": "Point", "coordinates": [414252.2, 5657020.31]}}, {"type": "Feature", "properties": {"of": "UUID_0b03c22d-e0aa-4ae1-ac59-54af5f20bcff", "kind": "yes", "nx": 0.0501, "ny": -0.9987, "w": 1.2, "h": 2.5, "z": 111.3}, "geometry": {"type": "Point", "coordinates": [414645.6, 5657020.59]}}, {"type": "Feature", "properties": {"of": "DESNATPU1000INyM", "kind": "main", "nx": 0.9554, "ny": 0.2953, "w": 1.8, "h": 3.0, "z": 113.48}, "geometry": {"type": "Point", "coordinates": [414241.6, 5657021.06]}}, {"type": "Feature", "properties": {"of": "UUID_20ce3bfd-1e59-4cb8-90c9-afca3e715523", "kind": "emergency", "nx": 0.0498, "ny": -0.9988, "w": 1.0, "h": 2.2, "z": 111.32}, "geometry": {"type": "Point", "coordinates": [414671.03, 5657021.86]}}, {"type": "Feature", "properties": {"of": "UUID_93aabeb9-c313-4505-acdf-2131b74c2266", "kind": "emergency", "nx": 0.0498, "ny": -0.9988, "w": 1.0, "h": 2.2, "z": 111.3}, "geometry": {"type": "Point", "coordinates": [414710.34, 5657023.82]}}, {"type": "Feature", "properties": {"of": "UUID_9b982247-145c-46e8-b4af-eca9da9b2f86", "kind": "main", "nx": -0.9989, "ny": -0.0477, "w": 1.8, "h": 3.0, "z": 114.9}, "geometry": {"type": "Point", "coordinates": [414586.49, 5657024.39]}}, {"type": "Feature", "properties": {"of": "DESNATPU1000HcZf", "kind": "yes", "nx": 0.6699, "ny": 0.7425, "w": 1.2, "h": 2.5, "z": 113.9}, "geometry": {"type": "Point", "coordinates": [414386.89, 5657032.85]}}, {"type": "Feature", "properties": {"of": "DESNATPU1000HcZf", "kind": "yes", "nx": -0.7437, "ny": 0.6685, "w": 1.2, "h": 2.5, "z": 113.97}, "geometry": {"type": "Point", "coordinates": [414375.12, 5657032.9]}}, {"type": "Feature", "properties": {"of": "UUID_9b982247-145c-46e8-b4af-eca9da9b2f86", "kind": "yes", "nx": -0.9989, "ny": -0.0477, "w": 1.2, "h": 2.5, "z": 114.79}, "geometry": {"type": "Point", "coordinates": [414586.02, 5657034.27]}}, {"type": "Feature", "properties": {"of": "UUID_93aabeb9-c313-4505-acdf-2131b74c2266", "kind": "service", "nx": 0.9987, "ny": 0.0506, "w": 1.1, "h": 2.3, "z": 111.27}, "geometry": {"type": "Point", "coordinates": [414716.35, 5657035.42]}}, {"type": "Feature", "properties": {"of": "UUID_495324cc-d50c-4e2a-8827-ae9244840b59", "kind": "yes", "nx": 0.1103, "ny": -0.9939, "w": 1.2, "h": 2.5, "z": 114.13}, "geometry": {"type": "Point", "coordinates": [414431.72, 5657036.31]}}, {"type": "Feature", "properties": {"of": "UUID_495324cc-d50c-4e2a-8827-ae9244840b59", "kind": "yes", "nx": 0.1103, "ny": -0.9939, "w": 1.2, "h": 2.5, "z": 114.04}, "geometry": {"type": "Point", "coordinates": [414447.82, 5657037.26]}}, {"type": "Feature", "properties": {"of": "UUID_0b03c22d-e0aa-4ae1-ac59-54af5f20bcff", "kind": "emergency", "nx": -0.058, "ny": 0.9983, "w": 1.0, "h": 2.2, "z": 111.52}, "geometry": {"type": "Point", "coordinates": [414641.0, 5657039.58]}}, {"type": "Feature", "properties": {"of": "UUID_93aabeb9-c313-4505-acdf-2131b74c2266", "kind": "yes", "nx": 0.9987, "ny": 0.0506, "w": 1.2, "h": 2.5, "z": 111.25}, "geometry": {"type": "Point", "coordinates": [414716.02, 5657041.98]}}, {"type": "Feature", "properties": {"of": "UUID_7a4b2ef3-bdc0-44ce-a368-2768feb4f1e7", "kind": "main", "nx": 0.9998, "ny": -0.0206, "w": 1.8, "h": 3.0, "z": 113.73}, "geometry": {"type": "Point", "coordinates": [414833.26, 5657045.08]}}, {"type": "Feature", "properties": {"of": "DESNATPU1000GVaU", "kind": "main", "nx": -0.9993, "ny": -0.0371, "w": 1.8, "h": 3.0, "z": 113.59}, "geometry": {"type": "Point", "coordinates": [414743.82, 5657046.96]}}, {"type": "Feature", "properties": {"of": "UUID_495324cc-d50c-4e2a-8827-ae9244840b59", "kind": "yes", "nx": 0.1104, "ny": -0.9939, "w": 1.2, "h": 2.5, "z": 114.05}, "geometry": {"type": "Point", "coordinates": [414484.67, 5657048.76]}}, {"type": "Feature", "properties": {"of": "UUID_981af763-ef63-406b-a971-e8c0e8edfd19", "kind": "yes", "nx": -0.9989, "ny": -0.0478, "w": 1.2, "h": 2.5, "z": 112.34}, "geometry": {"type": "Point", "coordinates": [414585.28, 5657049.67]}}, {"type": "Feature", "properties": {"of": "UUID_495324cc-d50c-4e2a-8827-ae9244840b59", "kind": "main", "nx": -0.1089, "ny": 0.9941, "w": 1.8, "h": 3.0, "z": 113.61}, "geometry": {"type": "Point", "coordinates": [414445.02, 5657059.45]}}, {"type": "Feature", "properties": {"of": "UUID_1cebfe54-71b2-44b3-8110-22313cbc2cfa", "kind": "main", "nx": -0.9928, "ny": 0.1195, "w": 1.8, "h": 3.0, "z": 113.57}, "geometry": {"type": "Point", "coordinates": [414938.7, 5657084.89]}}, {"type": "Feature", "properties": {"of": "DESNATPU1000GVaU", "kind": "yes", "nx": -0.037, "ny": 0.9993, "w": 1.2, "h": 2.5, "z": 113.63}, "geometry": {"type": "Point", "coordinates": [414753.57, 5657092.61]}}, {"type": "Feature", "properties": {"of": "DESNATPU1000GVaU", "kind": "yes", "nx": -0.037, "ny": 0.9993, "w": 1.2, "h": 2.5, "z": 113.67}, "geometry": {"type": "Point", "coordinates": [414764.1, 5657093.0]}}, {"type": "Feature", "properties": {"of": "DESNATPU1000GVaU", "kind": "service", "nx": -0.037, "ny": 0.9993, "w": 1.1, "h": 2.3, "z": 113.63}, "geometry": {"type": "Point", "coordinates": [414777.72, 5657093.51]}}, {"type": "Feature", "properties": {"of": "UUID_f1b16352-cb6c-4664-ab3b-5def3db0fb16", "kind": "emergency", "nx": 0.9998, "ny": -0.022, "w": 1.0, "h": 2.2, "z": 110.66}, "geometry": {"type": "Point", "coordinates": [414825.78, 5657098.55]}}, {"type": "Feature", "properties": {"of": "UUID_df72b9e0-673d-4c95-953a-ffce49fcd828", "kind": "yes", "nx": -0.9891, "ny": 0.1474, "w": 1.2, "h": 2.5, "z": 113.3}, "geometry": {"type": "Point", "coordinates": [414942.87, 5657105.63]}}, {"type": "Feature", "properties": {"of": "DESNATP1iT0000M5", "kind": "main", "nx": 0.1082, "ny": -0.9941, "w": 1.8, "h": 3.0, "z": 113.25}, "geometry": {"type": "Point", "coordinates": [414750.58, 5657133.33]}}, {"type": "Feature", "properties": {"of": "DESNATP1iT0000M5", "kind": "yes", "nx": 0.1082, "ny": -0.9941, "w": 1.2, "h": 2.5, "z": 113.35}, "geometry": {"type": "Point", "coordinates": [414757.3, 5657134.06]}}, {"type": "Feature", "properties": {"of": "DESNATP1iT0000M5", "kind": "yes", "nx": -0.9941, "ny": -0.1089, "w": 1.2, "h": 2.5, "z": 113.48}, "geometry": {"type": "Point", "coordinates": [414682.25, 5657143.72]}}, {"type": "Feature", "properties": {"of": "DESNATPU1000JI1y", "kind": "main", "nx": -0.999, "ny": 0.0452, "w": 1.05, "h": 3.0, "z": 113.48}, "geometry": {"type": "Point", "coordinates": [414802.75, 5657145.43]}}, {"type": "Feature", "properties": {"of": "DESNATP1iT0000M5", "kind": "yes", "nx": 0.9941, "ny": 0.1084, "w": 1.2, "h": 2.5, "z": 113.52}, "geometry": {"type": "Point", "coordinates": [414771.09, 5657153.07]}}, {"type": "Feature", "properties": {"of": "UUID_4e3659cb-6260-4eb8-bfd6-e923eea5d2b5", "kind": "yes", "nx": 0.958, "ny": -0.2868, "w": 1.2, "h": 2.5, "z": 113.9}, "geometry": {"type": "Point", "coordinates": [414868.15, 5657161.06]}}, {"type": "Feature", "properties": {"of": "UUID_282e083d-864f-41e9-aba4-08b36f858902", "kind": "yes", "nx": -0.2787, "ny": -0.9604, "w": 1.0, "h": 2.5, "z": 113.61}, "geometry": {"type": "Point", "coordinates": [414920.95, 5657197.63]}}, {"type": "Feature", "properties": {"of": "UUID_4be3b7c6-dcf2-4c53-810f-7e28021f51de", "kind": "main", "nx": 0.9624, "ny": -0.2716, "w": 1.15, "h": 3.0, "z": 113.7}, "geometry": {"type": "Point", "coordinates": [414889.11, 5657222.32]}}, {"type": "Feature", "properties": {"of": "DESNATP1iT0000j0", "kind": "yes", "nx": -0.209, "ny": -0.9779, "w": 1.2, "h": 2.5, "z": 108.75}, "geometry": {"type": "Point", "coordinates": [415467.56, 5657615.55]}}, {"type": "Feature", "properties": {"of": "UUID_2de34f23-99e6-4501-896a-9a1a55505bb4", "kind": "shop", "nx": -0.441, "ny": -0.8975, "w": 1.2, "h": 2.5, "z": 155.62}, "geometry": {"type": "Point", "coordinates": [415784.41, 5657618.09]}}, {"type": "Feature", "properties": {"of": "UUID_2de34f23-99e6-4501-896a-9a1a55505bb4", "kind": "yes", "nx": 0.4418, "ny": 0.8971, "w": 1.2, "h": 2.5, "z": 155.68}, "geometry": {"type": "Point", "coordinates": [415787.38, 5657624.56]}}, {"type": "Feature", "properties": {"of": "UUID_9a61ab67-8bd3-4028-b747-417f8d37ad90", "kind": "main", "nx": -0.4423, "ny": -0.8969, "w": 1.8, "h": 3.0, "z": 155.48}, "geometry": {"type": "Point", "coordinates": [415773.51, 5657624.67]}}, {"type": "Feature", "properties": {"of": "UUID_e7d756d7-c5e9-4de9-be63-5ed8c7d50abc", "kind": "service", "nx": 0.8969, "ny": -0.4423, "w": 1.1, "h": 2.3, "z": 155.23}, "geometry": {"type": "Point", "coordinates": [415765.13, 5657641.08]}}, {"type": "Feature", "properties": {"of": "UUID_ac784369-eff3-45c6-8629-59fd1a31d964", "kind": "yes", "nx": -0.4468, "ny": -0.8946, "w": 1.2, "h": 2.5, "z": 155.92}, "geometry": {"type": "Point", "coordinates": [415714.66, 5657652.08]}}, {"type": "Feature", "properties": {"of": "UUID_ac784369-eff3-45c6-8629-59fd1a31d964", "kind": "yes", "nx": -0.8912, "ny": 0.4535, "w": 1.2, "h": 2.5, "z": 155.92}, "geometry": {"type": "Point", "coordinates": [415713.16, 5657657.03]}}, {"type": "Feature", "properties": {"of": "UUID_ac784369-eff3-45c6-8629-59fd1a31d964", "kind": "yes", "nx": 0.4261, "ny": 0.9047, "w": 1.2, "h": 2.5, "z": 155.96}, "geometry": {"type": "Point", "coordinates": [415717.83, 5657658.56]}}, {"type": "Feature", "properties": {"of": "UUID_503ef8b0-6e4f-4491-a6ec-b22de167a72c", "kind": "yes", "nx": 0.0691, "ny": 0.9976, "w": 1.2, "h": 2.5, "z": 132.74}, "geometry": {"type": "Point", "coordinates": [414930.07, 5657949.13]}}, {"type": "Feature", "properties": {"of": "UUID_503ef8b0-6e4f-4491-a6ec-b22de167a72c", "kind": "main", "nx": 0.0694, "ny": 0.9976, "w": 1.8, "h": 3.0, "z": 132.62}, "geometry": {"type": "Point", "coordinates": [414919.8, 5657949.85]}}, {"type": "Feature", "properties": {"of": "UUID_7e804d28-edca-4ac3-802b-7793499c5d71", "kind": "yes", "nx": 0.0707, "ny": 0.9975, "w": 1.2, "h": 2.5, "z": 132.6}, "geometry": {"type": "Point", "coordinates": [414895.72, 5657951.56]}}, {"type": "Feature", "properties": {"of": "UUID_7e804d28-edca-4ac3-802b-7793499c5d71", "kind": "main", "nx": 0.069, "ny": 0.9976, "w": 1.8, "h": 3.0, "z": 132.61}, "geometry": {"type": "Point", "coordinates": [414885.63, 5657952.26]}}, {"type": "Feature", "properties": {"of": "DESNATP1CX0001hn", "kind": "yes", "nx": -0.0187, "ny": -0.9998, "w": 1.2, "h": 2.5, "z": 133.37}, "geometry": {"type": "Point", "coordinates": [414573.86, 5657980.54]}}, {"type": "Feature", "properties": {"of": "DESNATP1CX0001hn", "kind": "yes", "nx": 0.2484, "ny": -0.9687, "w": 1.2, "h": 2.5, "z": 133.38}, "geometry": {"type": "Point", "coordinates": [414594.47, 5657983.46]}}]}