{"type": "FeatureCollection", "attribution": "\u00a9 OpenStreetMap contributors (ODbL)", "crs": {"type": "name", "properties": {"name": "urn:ogc:def:crs:EPSG::25833"}}, "features": [{"type": "Feature", "properties": {"k": "signal", "a": 120}, "geometry": {"type": "Point", "coordinates": [408259.09, 5659795.25]}}, {"type": "Feature", "properties": {"k": "bollard"}, "geometry": {"type": "Point", "coordinates": [409978.69, 5659970.5]}}, {"type": "Feature", "properties": {"k": "bollard"}, "geometry": {"type": "Point", "coordinates": [408855.0, 5659108.62]}}, {"type": "Feature", "properties": {"k": "bench", "back": false, "a": 114}, "geometry": {"type": "Point", "coordinates": [408861.47, 5658244.32]}}, {"type": "Feature", "properties": {"k": "bench", "back": false, "a": 123}, "geometry": {"type": "Point", "coordinates": [408853.83, 5658229.01]}}, {"type": "Feature", "properties": {"k": "bollard"}, "geometry": {"type": "Point", "coordinates": [408675.63, 5659851.92]}}, {"type": "Feature", "properties": {"k": "postbox", "a": 89}, "geometry": {"type": "Point", "coordinates": [409427.0, 5659979.5]}}, {"type": "Feature", "properties": {"k": "postbox", "a": 285}, "geometry": {"type": "Point", "coordinates": [408850.59, 5658493.87]}}, {"type": "Feature", "properties": {"k": "postbox", "a": 2}, "geometry": {"type": "Point", "coordinates": [408554.91, 5658732.76]}}, {"type": "Feature", "properties": {"k": "postbox", "a": 350}, "geometry": {"type": "Point", "coordinates": [408621.91, 5659940.04]}}, {"type": "Feature", "properties": {"k": "signal", "a": 86}, "geometry": {"type": "Point", "coordinates": [408569.1, 5659763.99]}}, {"type": "Feature", "properties": {"k": "bench", "a": 13}, "geometry": {"type": "Point", "coordinates": [409772.23, 5659773.25]}}, {"type": "Feature", "properties": {"k": "bench", "a": 175}, "geometry": {"type": "Point", "coordinates": [409766.41, 5659789.93]}}, {"type": "Feature", "properties": {"k": "bin"}, "geometry": {"type": "Point", "coordinates": [409771.49, 5659773.92]}}, {"type": "Feature", "properties": {"k": "bench", "a": 322}, "geometry": {"type": "Point", "coordinates": [409777.13, 5659774.1]}}, {"type": "Feature", "properties": {"k": "bin"}, "geometry": {"type": "Point", "coordinates": [409773.44, 5659773.13]}}, {"type": "Feature", "properties": {"k": "bin"}, "geometry": {"type": "Point", "coordinates": [409769.92, 5659776.0]}}, {"type": "Feature", "properties": {"k": "bench", "a": 75}, "geometry": {"type": "Point", "coordinates": [409769.38, 5659777.23]}}, {"type": "Feature", "properties": {"k": "bin"}, "geometry": {"type": "Point", "coordinates": [409775.99, 5659773.65]}}, {"type": "Feature", "properties": {"k": "bench", "a": 139}, "geometry": {"type": "Point", "coordinates": [409951.58, 5658981.92]}}, {"type": "Feature", "properties": {"k": "bike", "n": 12, "a": 188}, "geometry": {"type": "Point", "coordinates": [408643.02, 5659775.45]}}, {"type": "Feature", "properties": {"k": "bike", "n": 12, "a": 82}, "geometry": {"type": "Point", "coordinates": [408648.31, 5659798.51]}}, {"type": "Feature", "properties": {"k": "bollard", "metal": true}, "geometry": {"type": "Point", "coordinates": [408508.76, 5659847.08]}}, {"type": "Feature", "properties": {"k": "bike", "n": 12, "a": 173}, "geometry": {"type": "Point", "coordinates": [408654.49, 5659853.55]}}, {"type": "Feature", "properties": {"k": "bike", "n": 8, "a": 170}, "geometry": {"type": "Point", "coordinates": [408533.56, 5659932.75]}}, {"type": "Feature", "properties": {"k": "bike", "n": 12, "a": 350}, "geometry": {"type": "Point", "coordinates": [408602.64, 5659930.61]}}, {"type": "Feature", "properties": {"k": "postbox", "a": 170}, "geometry": {"type": "Point", "coordinates": [408620.24, 5659950.65]}}, {"type": "Feature", "properties": {"k": "bike", "n": 12, "a": 80}, "geometry": {"type": "Point", "coordinates": [408580.41, 5659972.23]}}, {"type": "Feature", "properties": {"k": "signal", "a": 332}, "geometry": {"type": "Point", "coordinates": [409941.91, 5659471.18]}}, {"type": "Feature", "properties": {"k": "bollard"}, "geometry": {"type": "Point", "coordinates": [408953.72, 5658829.1]}}, {"type": "Feature", "properties": {"k": "bollard"}, "geometry": {"type": "Point", "coordinates": [408976.52, 5658829.58]}}, {"type": "Feature", "properties": {"k": "bollard"}, "geometry": {"type": "Point", "coordinates": [408954.09, 5658841.55]}}, {"type": "Feature", "properties": {"k": "bollard"}, "geometry": {"type": "Point", "coordinates": [408976.26, 5658842.17]}}, {"type": "Feature", "properties": {"k": "bench", "back": false, "a": 120}, "geometry": {"type": "Point", "coordinates": [409666.62, 5659226.14]}}, {"type": "Feature", "properties": {"k": "bollard"}, "geometry": {"type": "Point", "coordinates": [408281.62, 5659238.55]}}, {"type": "Feature", "properties": {"k": "bollard"}, "geometry": {"type": "Point", "coordinates": [408882.34, 5659111.16]}}, {"type": "Feature", "properties": {"k": "bench", "back": false, "a": 169}, "geometry": {"type": "Point", "coordinates": [409624.43, 5659219.89]}}, {"type": "Feature", "properties": {"k": "bench", "back": false, "a": 168}, "geometry": {"type": "Point", "coordinates": [409653.9, 5659223.73]}}, {"type": "Feature", "properties": {"k": "postbox", "a": 245}, "geometry": {"type": "Point", "coordinates": [409886.08, 5659636.94]}}, {"type": "Feature", "properties": {"k": "signal", "a": 275}, "geometry": {"type": "Point", "coordinates": [408191.35, 5658641.18]}}, {"type": "Feature", "properties": {"k": "signal", "a": 38}, "geometry": {"type": "Point", "coordinates": [408299.48, 5659384.67]}}, {"type": "Feature", "properties": {"k": "signal", "a": 118}, "geometry": {"type": "Point", "coordinates": [408092.75, 5659943.81]}}, {"type": "Feature", "properties": {"k": "signal", "a": 120}, "geometry": {"type": "Point", "coordinates": [408319.6, 5659355.21]}}, {"type": "Feature", "properties": {"k": "signal", "a": 203}, "geometry": {"type": "Point", "coordinates": [408294.9, 5659332.36]}}, {"type": "Feature", "properties": {"k": "signal", "a": 298}, "geometry": {"type": "Point", "coordinates": [408266.65, 5659362.26]}}, {"type": "Feature", "properties": {"k": "bench", "a": 206}, "geometry": {"type": "Point", "coordinates": [409851.3, 5659613.49]}}, {"type": "Feature", "properties": {"k": "bench", "a": 206}, "geometry": {"type": "Point", "coordinates": [409853.92, 5659612.69]}}, {"type": "Feature", "properties": {"k": "bench", "a": 53}, "geometry": {"type": "Point", "coordinates": [409860.2, 5659622.98]}}, {"type": "Feature", "properties": {"k": "bollard"}, "geometry": {"type": "Point", "coordinates": [409624.22, 5659630.92]}}, {"type": "Feature", "properties": {"k": "bollard"}, "geometry": {"type": "Point", "coordinates": [408780.71, 5659776.79]}}, {"type": "Feature", "properties": {"k": "signal", "a": 158}, "geometry": {"type": "Point", "coordinates": [409969.1, 5659447.56]}}, {"type": "Feature", "properties": {"k": "signal", "a": 177}, "geometry": {"type": "Point", "coordinates": [408789.39, 5659225.8]}}, {"type": "Feature", "properties": {"k": "signal", "a": 294}, "geometry": {"type": "Point", "coordinates": [409213.2, 5659309.93]}}, {"type": "Feature", "properties": {"k": "shelter", "a": 26}, "geometry": {"type": "Point", "coordinates": [409867.25, 5659569.06]}}, {"type": "Feature", "properties": {"k": "shelter", "a": 169}, "geometry": {"type": "Point", "coordinates": [409951.59, 5659568.38]}}, {"type": "Feature", "properties": {"k": "signal", "a": 56}, "geometry": {"type": "Point", "coordinates": [408076.73, 5659955.19]}}, {"type": "Feature", "properties": {"k": "postbox", "a": 266}, "geometry": {"type": "Point", "coordinates": [408618.49, 5659255.16]}}, {"type": "Feature", "properties": {"k": "bench", "a": 185}, "geometry": {"type": "Point", "coordinates": [409947.63, 5658977.83]}}, {"type": "Feature", "properties": {"k": "signal", "a": 179}, "geometry": {"type": "Point", "coordinates": [408838.16, 5659770.69]}}, {"type": "Feature", "properties": {"k": "bench", "a": 209}, "geometry": {"type": "Point", "coordinates": [408329.76, 5659783.72]}}, {"type": "Feature", "properties": {"k": "bench", "a": 209}, "geometry": {"type": "Point", "coordinates": [408316.99, 5659790.94]}}, {"type": "Feature", "properties": {"k": "bench", "a": 29}, "geometry": {"type": "Point", "coordinates": [408334.5, 5659789.55]}}, {"type": "Feature", "properties": {"k": "bench", "a": 209}, "geometry": {"type": "Point", "coordinates": [408299.71, 5659800.69]}}, {"type": "Feature", "properties": {"k": "bench", "back": false, "a": 29}, "geometry": {"type": "Point", "coordinates": [408311.48, 5659802.35]}}, {"type": "Feature", "properties": {"k": "bench", "a": 29}, "geometry": {"type": "Point", "coordinates": [408303.32, 5659806.89]}}, {"type": "Feature", "properties": {"k": "bench", "a": 356}, "geometry": {"type": "Point", "coordinates": [408601.79, 5659741.02]}}, {"type": "Feature", "properties": {"k": "bench", "a": 356}, "geometry": {"type": "Point", "coordinates": [408625.83, 5659742.7]}}, {"type": "Feature", "properties": {"k": "bench", "a": 355}, "geometry": {"type": "Point", "coordinates": [408584.4, 5659747.53]}}, {"type": "Feature", "properties": {"k": "bench", "a": 355}, "geometry": {"type": "Point", "coordinates": [408602.04, 5659748.91]}}, {"type": "Feature", "properties": {"k": "bench", "a": 355}, "geometry": {"type": "Point", "coordinates": [408620.27, 5659750.35]}}, {"type": "Feature", "properties": {"k": "bench", "back": false, "a": 184}, "geometry": {"type": "Point", "coordinates": [409683.95, 5659223.64]}}, {"type": "Feature", "properties": {"k": "shelter", "a": 272}, "geometry": {"type": "Point", "coordinates": [408171.57, 5658321.18]}}, {"type": "Feature", "properties": {"k": "shelter", "a": 102}, "geometry": {"type": "Point", "coordinates": [408199.48, 5658329.18]}}, {"type": "Feature", "properties": {"k": "shelter", "a": 274}, "geometry": {"type": "Point", "coordinates": [408220.84, 5658805.73]}}, {"type": "Feature", "properties": {"k": "shelter", "a": 91}, "geometry": {"type": "Point", "coordinates": [408250.26, 5658883.04]}}, {"type": "Feature", "properties": {"k": "shelter", "a": 287}, "geometry": {"type": "Point", "coordinates": [408260.95, 5659315.95]}}, {"type": "Feature", "properties": {"k": "shelter", "a": 103}, "geometry": {"type": "Point", "coordinates": [408279.55, 5659288.02]}}, {"type": "Feature", "properties": {"k": "shelter", "a": 355}, "geometry": {"type": "Point", "coordinates": [408580.85, 5659747.24]}}, {"type": "Feature", "properties": {"k": "shelter", "a": 176}, "geometry": {"type": "Point", "coordinates": [408646.72, 5659745.36]}}, {"type": "Feature", "properties": {"k": "shelter", "a": 356}, "geometry": {"type": "Point", "coordinates": [408955.02, 5659771.57]}}, {"type": "Feature", "properties": {"k": "shelter", "a": 355}, "geometry": {"type": "Point", "coordinates": [409050.96, 5659789.05]}}, {"type": "Feature", "properties": {"k": "shelter", "a": 25}, "geometry": {"type": "Point", "coordinates": [409388.78, 5659798.05]}}, {"type": "Feature", "properties": {"k": "shelter", "a": 29}, "geometry": {"type": "Point", "coordinates": [409434.18, 5659756.95]}}, {"type": "Feature", "properties": {"k": "shelter", "a": 287}, "geometry": {"type": "Point", "coordinates": [409439.64, 5659798.97]}}, {"type": "Feature", "properties": {"k": "shelter", "a": 206}, "geometry": {"type": "Point", "coordinates": [409851.91, 5659602.43]}}, {"type": "Feature", "properties": {"k": "shelter", "a": 244}, "geometry": {"type": "Point", "coordinates": [409930.98, 5659529.08]}}, {"type": "Feature", "properties": {"k": "shelter", "a": 352}, "geometry": {"type": "Point", "coordinates": [409903.06, 5659444.92]}}, {"type": "Feature", "properties": {"k": "shelter", "a": 352}, "geometry": {"type": "Point", "coordinates": [409500.93, 5659389.58]}}, {"type": "Feature", "properties": {"k": "shelter", "a": 172}, "geometry": {"type": "Point", "coordinates": [409488.13, 5659395.35]}}, {"type": "Feature", "properties": {"k": "shelter", "a": 212}, "geometry": {"type": "Point", "coordinates": [408041.29, 5659947.15]}}, {"type": "Feature", "properties": {"k": "shelter", "a": 29}, "geometry": {"type": "Point", "coordinates": [408307.8, 5659804.4]}}, {"type": "Feature", "properties": {"k": "shelter", "a": 209}, "geometry": {"type": "Point", "coordinates": [408325.75, 5659785.99]}}, {"type": "Feature", "properties": {"k": "signal", "a": 184}, "geometry": {"type": "Point", "coordinates": [408242.05, 5658827.19]}}, {"type": "Feature", "properties": {"k": "signal", "a": 182}, "geometry": {"type": "Point", "coordinates": [408224.56, 5658867.0]}}, {"type": "Feature", "properties": {"k": "bollard"}, "geometry": {"type": "Point", "coordinates": [408224.48, 5659386.13]}}, {"type": "Feature", "properties": {"k": "bollard"}, "geometry": {"type": "Point", "coordinates": [408218.68, 5659387.79]}}, {"type": "Feature", "properties": {"k": "signal", "a": 339}, "geometry": {"type": "Point", "coordinates": [409860.78, 5659649.66]}}, {"type": "Feature", "properties": {"k": "signal", "a": 81}, "geometry": {"type": "Point", "coordinates": [408733.06, 5659764.68]}}, {"type": "Feature", "properties": {"k": "signal", "a": 278}, "geometry": {"type": "Point", "coordinates": [409902.07, 5658248.09]}}, {"type": "Feature", "properties": {"k": "signal", "a": 98}, "geometry": {"type": "Point", "coordinates": [409922.47, 5658263.05]}}, {"type": "Feature", "properties": {"k": "signal", "a": 275}, "geometry": {"type": "Point", "coordinates": [408170.95, 5658200.07]}}, {"type": "Feature", "properties": {"k": "signal", "a": 276}, "geometry": {"type": "Point", "coordinates": [408195.97, 5658336.51]}}, {"type": "Feature", "properties": {"k": "signal", "a": 92}, "geometry": {"type": "Point", "coordinates": [408211.75, 5658362.15]}}, {"type": "Feature", "properties": {"k": "signal", "a": 275}, "geometry": {"type": "Point", "coordinates": [408217.11, 5658662.75]}}, {"type": "Feature", "properties": {"k": "signal", "a": 90}, "geometry": {"type": "Point", "coordinates": [408261.89, 5658851.17]}}, {"type": "Feature", "properties": {"k": "signal", "a": 270}, "geometry": {"type": "Point", "coordinates": [408209.18, 5658845.1]}}, {"type": "Feature", "properties": {"k": "signal", "a": 296}, "geometry": {"type": "Point", "coordinates": [409885.36, 5659560.33]}}, {"type": "Feature", "properties": {"k": "signal", "a": 337}, "geometry": {"type": "Point", "coordinates": [409877.15, 5659601.31]}}, {"type": "Feature", "properties": {"k": "signal", "a": 80}, "geometry": {"type": "Point", "coordinates": [409932.37, 5659560.44]}}, {"type": "Feature", "properties": {"k": "signal", "a": 153}, "geometry": {"type": "Point", "coordinates": [409923.63, 5659538.25]}}, {"type": "Feature", "properties": {"k": "signal", "a": 1}, "geometry": {"type": "Point", "coordinates": [408862.64, 5659765.83]}}, {"type": "Feature", "properties": {"k": "signal", "a": 299}, "geometry": {"type": "Point", "coordinates": [408834.39, 5659784.28]}}, {"type": "Feature", "properties": {"k": "postbox", "a": 96}, "geometry": {"type": "Point", "coordinates": [409933.73, 5658366.61]}}, {"type": "Feature", "properties": {"k": "postbox", "a": 9}, "geometry": {"type": "Point", "coordinates": [408657.14, 5659208.13]}}, {"type": "Feature", "properties": {"k": "bench", "a": 194}, "geometry": {"type": "Point", "coordinates": [409995.12, 5659957.15]}}, {"type": "Feature", "properties": {"k": "bin"}, "geometry": {"type": "Point", "coordinates": [409993.59, 5659954.53]}}, {"type": "Feature", "properties": {"k": "bench", "back": false, "a": 292}, "geometry": {"type": "Point", "coordinates": [409476.98, 5659760.45]}}, {"type": "Feature", "properties": {"k": "bench", "back": false, "a": 292}, "geometry": {"type": "Point", "coordinates": [409478.05, 5659763.14]}}, {"type": "Feature", "properties": {"k": "signal", "a": 124}, "geometry": {"type": "Point", "coordinates": [408005.48, 5659981.6]}}, {"type": "Feature", "properties": {"k": "bike", "n": 8, "a": 36}, "geometry": {"type": "Point", "coordinates": [408161.41, 5659416.62]}}, {"type": "Feature", "properties": {"k": "postbox", "a": 245}, "geometry": {"type": "Point", "coordinates": [409886.21, 5659635.86]}}, {"type": "Feature", "properties": {"k": "signal", "a": 311}, "geometry": {"type": "Point", "coordinates": [408929.5, 5659238.9]}}, {"type": "Feature", "properties": {"k": "column"}, "geometry": {"type": "Point", "coordinates": [408035.4, 5659906.01]}}, {"type": "Feature", "properties": {"k": "signal", "a": 302}, "geometry": {"type": "Point", "coordinates": [408043.87, 5659940.0]}}, {"type": "Feature", "properties": {"k": "signal", "a": 175}, "geometry": {"type": "Point", "coordinates": [408670.69, 5659744.9]}}, {"type": "Feature", "properties": {"k": "signal", "a": 176}, "geometry": {"type": "Point", "coordinates": [408753.21, 5659435.57]}}, {"type": "Feature", "properties": {"k": "signal", "a": 356}, "geometry": {"type": "Point", "coordinates": [408731.48, 5659468.1]}}, {"type": "Feature", "properties": {"k": "signal", "a": 85}, "geometry": {"type": "Point", "coordinates": [408755.54, 5659456.54]}}, {"type": "Feature", "properties": {"k": "signal", "a": 266}, "geometry": {"type": "Point", "coordinates": [408730.01, 5659447.13]}}, {"type": "Feature", "properties": {"k": "signal", "a": 263}, "geometry": {"type": "Point", "coordinates": [408744.69, 5659305.72]}}, {"type": "Feature", "properties": {"k": "signal", "a": 86}, "geometry": {"type": "Point", "coordinates": [408772.0, 5659315.03]}}, {"type": "Feature", "properties": {"k": "signal", "a": 343}, "geometry": {"type": "Point", "coordinates": [409069.01, 5659265.14]}}, {"type": "Feature", "properties": {"k": "signal", "a": 351}, "geometry": {"type": "Point", "coordinates": [409073.78, 5659283.92]}}, {"type": "Feature", "properties": {"k": "signal", "a": 92}, "geometry": {"type": "Point", "coordinates": [408185.61, 5658154.72]}}, {"type": "Feature", "properties": {"k": "signal", "a": 272}, "geometry": {"type": "Point", "coordinates": [408149.57, 5658168.11]}}, {"type": "Feature", "properties": {"k": "bin"}, "geometry": {"type": "Point", "coordinates": [408201.14, 5658329.2]}}, {"type": "Feature", "properties": {"k": "signal", "a": 96}, "geometry": {"type": "Point", "coordinates": [408181.01, 5658382.38]}}, {"type": "Feature", "properties": {"k": "signal", "a": 177}, "geometry": {"type": "Point", "coordinates": [408760.26, 5659226.35]}}, {"type": "Feature", "properties": {"k": "signal", "a": 183}, "geometry": {"type": "Point", "coordinates": [408751.5, 5659205.39]}}, {"type": "Feature", "properties": {"k": "bike", "n": 5, "a": 264}, "geometry": {"type": "Point", "coordinates": [408890.85, 5659222.81]}}, {"type": "Feature", "properties": {"k": "signal", "a": 357}, "geometry": {"type": "Point", "coordinates": [408484.4, 5659750.59]}}, {"type": "Feature", "properties": {"k": "signal", "a": 195}, "geometry": {"type": "Point", "coordinates": [408431.23, 5659727.23]}}, {"type": "Feature", "properties": {"k": "signal", "a": 345}, "geometry": {"type": "Point", "coordinates": [408438.97, 5659765.3]}}, {"type": "Feature", "properties": {"k": "signal", "a": 178}, "geometry": {"type": "Point", "coordinates": [408475.76, 5659705.74]}}, {"type": "Feature", "properties": {"k": "signal", "a": 35}, "geometry": {"type": "Point", "coordinates": [408249.71, 5659809.89]}}, {"type": "Feature", "properties": {"k": "signal", "a": 209}, "geometry": {"type": "Point", "coordinates": [408286.2, 5659840.66]}}, {"type": "Feature", "properties": {"k": "signal", "a": 211}, "geometry": {"type": "Point", "coordinates": [408339.62, 5659767.41]}}, {"type": "Feature", "properties": {"k": "signal", "a": 7}, "geometry": {"type": "Point", "coordinates": [408214.56, 5658725.89]}}, {"type": "Feature", "properties": {"k": "signal", "a": 275}, "geometry": {"type": "Point", "coordinates": [408224.11, 5658623.4]}}, {"type": "Feature", "properties": {"k": "signal", "a": 95}, "geometry": {"type": "Point", "coordinates": [408203.86, 5658661.19]}}, {"type": "Feature", "properties": {"k": "signal", "a": 185}, "geometry": {"type": "Point", "coordinates": [408232.61, 5658705.3]}}, {"type": "Feature", "properties": {"k": "signal", "a": 98}, "geometry": {"type": "Point", "coordinates": [408236.61, 5658708.54]}}, {"type": "Feature", "properties": {"k": "signal", "a": 100}, "geometry": {"type": "Point", "coordinates": [408234.34, 5658711.55]}}, {"type": "Feature", "properties": {"k": "bollard"}, "geometry": {"type": "Point", "coordinates": [408252.82, 5658815.61]}}, {"type": "Feature", "properties": {"k": "postbox", "a": 276}, "geometry": {"type": "Point", "coordinates": [409953.36, 5658441.75]}}, {"type": "Feature", "properties": {"k": "signal", "a": 120}, "geometry": {"type": "Point", "coordinates": [409454.95, 5659757.3]}}, {"type": "Feature", "properties": {"k": "signal", "a": 300}, "geometry": {"type": "Point", "coordinates": [409442.8, 5659756.57]}}, {"type": "Feature", "properties": {"k": "hydrantsign", "a": 9}, "geometry": {"type": "Point", "coordinates": [408618.05, 5659241.67]}}, {"type": "Feature", "properties": {"k": "hydrantsign", "a": 266}, "geometry": {"type": "Point", "coordinates": [408614.1, 5659308.71]}}, {"type": "Feature", "properties": {"k": "hydrantsign", "a": 265}, "geometry": {"type": "Point", "coordinates": [408602.72, 5659451.27]}}, {"type": "Feature", "properties": {"k": "bike", "n": 1, "a": 356}, "geometry": {"type": "Point", "coordinates": [408556.8, 5659506.07]}}, {"type": "Feature", "properties": {"k": "bollard"}, "geometry": {"type": "Point", "coordinates": [408578.42, 5659594.92]}}, {"type": "Feature", "properties": {"k": "hydrantsign", "a": 176}, "geometry": {"type": "Point", "coordinates": [408686.06, 5659453.65]}}, {"type": "Feature", "properties": {"k": "bollard"}, "geometry": {"type": "Point", "coordinates": [409536.2, 5659314.8]}}, {"type": "Feature", "properties": {"k": "bollard"}, "geometry": {"type": "Point", "coordinates": [408180.32, 5659114.67]}}, {"type": "Feature", "properties": {"k": "bollard"}, "geometry": {"type": "Point", "coordinates": [408180.3, 5659113.54]}}, {"type": "Feature", "properties": {"k": "bollard"}, "geometry": {"type": "Point", "coordinates": [408180.28, 5659112.63]}}, {"type": "Feature", "properties": {"k": "bollard"}, "geometry": {"type": "Point", "coordinates": [408180.21, 5659112.08]}}, {"type": "Feature", "properties": {"k": "bollard"}, "geometry": {"type": "Point", "coordinates": [408180.2, 5659111.44]}}, {"type": "Feature", "properties": {"k": "bollard"}, "geometry": {"type": "Point", "coordinates": [408180.14, 5659110.96]}}, {"type": "Feature", "properties": {"k": "bike", "n": 3, "a": 187}, "geometry": {"type": "Point", "coordinates": [408715.14, 5658526.32]}}, {"type": "Feature", "properties": {"k": "signal", "a": 347}, "geometry": {"type": "Point", "coordinates": [408837.71, 5659791.64]}}, {"type": "Feature", "properties": {"k": "bollard"}, "geometry": {"type": "Point", "coordinates": [408199.37, 5659096.58]}}, {"type": "Feature", "properties": {"k": "bollard"}, "geometry": {"type": "Point", "coordinates": [408200.93, 5659096.54]}}, {"type": "Feature", "properties": {"k": "bollard"}, "geometry": {"type": "Point", "coordinates": [408202.54, 5659096.53]}}, {"type": "Feature", "properties": {"k": "bollard"}, "geometry": {"type": "Point", "coordinates": [408204.18, 5659096.53]}}, {"type": "Feature", "properties": {"k": "bollard"}, "geometry": {"type": "Point", "coordinates": [408206.0, 5659096.46]}}, {"type": "Feature", "properties": {"k": "bollard"}, "geometry": {"type": "Point", "coordinates": [408207.83, 5659096.44]}}, {"type": "Feature", "properties": {"k": "bin"}, "geometry": {"type": "Point", "coordinates": [409906.49, 5658431.97]}}, {"type": "Feature", "properties": {"k": "bench", "a": 186}, "geometry": {"type": "Point", "coordinates": [409903.88, 5658432.3]}}, {"type": "Feature", "properties": {"k": "bike", "n": 12, "a": 88}, "geometry": {"type": "Point", "coordinates": [409314.94, 5659594.8]}}, {"type": "Feature", "properties": {"k": "postbox", "a": 96}, "geometry": {"type": "Point", "coordinates": [408591.55, 5658759.38]}}, {"type": "Feature", "properties": {"k": "postbox", "a": 357}, "geometry": {"type": "Point", "coordinates": [409027.65, 5659745.73]}}, {"type": "Feature", "properties": {"k": "bike", "n": 3, "a": 357}, "geometry": {"type": "Point", "coordinates": [409010.47, 5659740.57]}}, {"type": "Feature", "properties": {"k": "bike", "n": 3, "a": 357}, "geometry": {"type": "Point", "coordinates": [408998.47, 5659739.18]}}, {"type": "Feature", "properties": {"k": "bike", "n": 3, "a": 355}, "geometry": {"type": "Point", "coordinates": [408985.73, 5659738.6]}}, {"type": "Feature", "properties": {"k": "bike", "n": 3, "a": 355}, "geometry": {"type": "Point", "coordinates": [408973.48, 5659737.72]}}, {"type": "Feature", "properties": {"k": "bike", "n": 3, "a": 355}, "geometry": {"type": "Point", "coordinates": [408961.44, 5659736.77]}}, {"type": "Feature", "properties": {"k": "bike", "n": 3, "a": 355}, "geometry": {"type": "Point", "coordinates": [408948.43, 5659735.35]}}, {"type": "Feature", "properties": {"k": "bike", "n": 3, "a": 355}, "geometry": {"type": "Point", "coordinates": [408941.14, 5659732.52]}}, {"type": "Feature", "properties": {"k": "bike", "n": 3, "a": 355}, "geometry": {"type": "Point", "coordinates": [408905.06, 5659729.78]}}, {"type": "Feature", "properties": {"k": "bike", "n": 3, "a": 355}, "geometry": {"type": "Point", "coordinates": [408913.12, 5659730.5]}}, {"type": "Feature", "properties": {"k": "bike", "n": 3, "a": 355}, "geometry": {"type": "Point", "coordinates": [408929.5, 5659731.56]}}, {"type": "Feature", "properties": {"k": "bin"}, "geometry": {"type": "Point", "coordinates": [408972.03, 5659706.7]}}, {"type": "Feature", "properties": {"k": "bench", "back": false, "a": 34}, "geometry": {"type": "Point", "coordinates": [408971.33, 5659707.19]}}, {"type": "Feature", "properties": {"k": "bin"}, "geometry": {"type": "Point", "coordinates": [409000.86, 5659717.8]}}, {"type": "Feature", "properties": {"k": "signal", "a": 172}, "geometry": {"type": "Point", "coordinates": [408728.76, 5659742.74]}}, {"type": "Feature", "properties": {"k": "signal", "a": 355}, "geometry": {"type": "Point", "coordinates": [408666.88, 5659760.01]}}, {"type": "Feature", "properties": {"k": "bench", "a": 175}, "geometry": {"type": "Point", "coordinates": [409030.38, 5659882.75]}}, {"type": "Feature", "properties": {"k": "bench", "a": 175}, "geometry": {"type": "Point", "coordinates": [409027.84, 5659882.8]}}, {"type": "Feature", "properties": {"k": "postbox", "a": 91}, "geometry": {"type": "Point", "coordinates": [408115.13, 5658705.75]}}, {"type": "Feature", "properties": {"k": "bench", "back": false, "a": 59}, "geometry": {"type": "Point", "coordinates": [408624.19, 5659120.99]}}, {"type": "Feature", "properties": {"k": "bench", "a": 177}, "geometry": {"type": "Point", "coordinates": [408682.45, 5659127.3]}}, {"type": "Feature", "properties": {"k": "bench", "a": 212}, "geometry": {"type": "Point", "coordinates": [408700.67, 5659157.34]}}, {"type": "Feature", "properties": {"k": "bench", "a": 181}, "geometry": {"type": "Point", "coordinates": [408588.67, 5658522.34]}}, {"type": "Feature", "properties": {"k": "bench", "a": 181}, "geometry": {"type": "Point", "coordinates": [408596.12, 5658522.05]}}, {"type": "Feature", "properties": {"k": "bench", "a": 356}, "geometry": {"type": "Point", "coordinates": [408590.07, 5658550.22]}}, {"type": "Feature", "properties": {"k": "bench", "a": 90}, "geometry": {"type": "Point", "coordinates": [408596.21, 5658550.36]}}, {"type": "Feature", "properties": {"k": "bin"}, "geometry": {"type": "Point", "coordinates": [408591.7, 5658550.19]}}, {"type": "Feature", "properties": {"k": "bin"}, "geometry": {"type": "Point", "coordinates": [408594.74, 5658550.39]}}, {"type": "Feature", "properties": {"k": "bin"}, "geometry": {"type": "Point", "coordinates": [408590.23, 5658522.4]}}, {"type": "Feature", "properties": {"k": "bike", "n": 1, "a": 186}, "geometry": {"type": "Point", "coordinates": [409785.46, 5658598.36]}}, {"type": "Feature", "properties": {"k": "bin"}, "geometry": {"type": "Point", "coordinates": [408190.5, 5658835.87]}}, {"type": "Feature", "properties": {"k": "bin"}, "geometry": {"type": "Point", "coordinates": [408189.97, 5658832.87]}}, {"type": "Feature", "properties": {"k": "bollard"}, "geometry": {"type": "Point", "coordinates": [408168.02, 5659110.48]}}, {"type": "Feature", "properties": {"k": "bollard"}, "geometry": {"type": "Point", "coordinates": [408168.01, 5659108.08]}}, {"type": "Feature", "properties": {"k": "bollard"}, "geometry": {"type": "Point", "coordinates": [408487.18, 5659918.63]}}, {"type": "Feature", "properties": {"k": "bench", "a": 198}, "geometry": {"type": "Point", "coordinates": [408508.44, 5659278.96]}}, {"type": "Feature", "properties": {"k": "bench", "a": 282}, "geometry": {"type": "Point", "coordinates": [409207.54, 5658400.7]}}, {"type": "Feature", "properties": {"k": "bench", "a": 92}, "geometry": {"type": "Point", "coordinates": [408936.08, 5658577.2]}}, {"type": "Feature", "properties": {"k": "bin"}, "geometry": {"type": "Point", "coordinates": [408935.18, 5658575.48]}}, {"type": "Feature", "properties": {"k": "bench", "back": false, "a": 352}, "geometry": {"type": "Point", "coordinates": [409920.08, 5659493.56]}}, {"type": "Feature", "properties": {"k": "bench", "back": false, "a": 352}, "geometry": {"type": "Point", "coordinates": [409911.94, 5659492.57]}}, {"type": "Feature", "properties": {"k": "bench", "back": false, "a": 261}, "geometry": {"type": "Point", "coordinates": [409909.65, 5659499.48]}}, {"type": "Feature", "properties": {"k": "bench", "back": false, "a": 172}, "geometry": {"type": "Point", "coordinates": [409914.64, 5659500.05]}}, {"type": "Feature", "properties": {"k": "bench", "back": false, "a": 81}, "geometry": {"type": "Point", "coordinates": [409905.13, 5659498.89]}}, {"type": "Feature", "properties": {"k": "bench", "back": false, "a": 60}, "geometry": {"type": "Point", "coordinates": [409923.69, 5659494.08]}}, {"type": "Feature", "properties": {"k": "bench", "back": false, "a": 352}, "geometry": {"type": "Point", "coordinates": [409916.1, 5659493.14]}}, {"type": "Feature", "properties": {"k": "bin"}, "geometry": {"type": "Point", "coordinates": [409766.31, 5659790.7]}}, {"type": "Feature", "properties": {"k": "hydrantsign", "a": 2}, "geometry": {"type": "Point", "coordinates": [408580.22, 5658729.68]}}, {"type": "Feature", "properties": {"k": "hydrantsign", "a": 167}, "geometry": {"type": "Point", "coordinates": [408795.89, 5658386.94]}}, {"type": "Feature", "properties": {"k": "hydrantsign", "a": 126}, "geometry": {"type": "Point", "coordinates": [408590.74, 5658725.73]}}, {"type": "Feature", "properties": {"k": "hydrantsign", "a": 96}, "geometry": {"type": "Point", "coordinates": [408574.05, 5658557.36]}}, {"type": "Feature", "properties": {"k": "hydrantsign", "a": 167}, "geometry": {"type": "Point", "coordinates": [408793.99, 5658386.36]}}, {"type": "Feature", "properties": {"k": "hydrantsign", "a": 276}, "geometry": {"type": "Point", "coordinates": [408569.94, 5658460.01]}}, {"type": "Feature", "properties": {"k": "hydrantsign", "a": 274}, "geometry": {"type": "Point", "coordinates": [408289.45, 5658350.35]}}, {"type": "Feature", "properties": {"k": "hydrantsign", "a": 179}, "geometry": {"type": "Point", "coordinates": [408561.06, 5658359.5]}}, {"type": "Feature", "properties": {"k": "hydrantsign", "a": 270}, "geometry": {"type": "Point", "coordinates": [408499.28, 5658762.13]}}, {"type": "Feature", "properties": {"k": "hydrantsign", "a": 94}, "geometry": {"type": "Point", "coordinates": [408282.85, 5658350.94]}}, {"type": "Feature", "properties": {"k": "hydrantsign", "a": 109}, "geometry": {"type": "Point", "coordinates": [408794.96, 5658371.05]}}, {"type": "Feature", "properties": {"k": "hydrantsign", "a": 96}, "geometry": {"type": "Point", "coordinates": [408580.14, 5658633.62]}}, {"type": "Feature", "properties": {"k": "hydrantsign", "a": 93}, "geometry": {"type": "Point", "coordinates": [408383.59, 5658350.07]}}, {"type": "Feature", "properties": {"k": "hydrantsign", "a": 179}, "geometry": {"type": "Point", "coordinates": [408561.91, 5658359.93]}}, {"type": "Feature", "properties": {"k": "hydrantsign", "a": 276}, "geometry": {"type": "Point", "coordinates": [408502.53, 5658731.89]}}, {"type": "Feature", "properties": {"k": "hydrantsign", "a": 167}, "geometry": {"type": "Point", "coordinates": [408778.09, 5658381.18]}}, {"type": "Feature", "properties": {"k": "column"}, "geometry": {"type": "Point", "coordinates": [408733.99, 5658869.03]}}, {"type": "Feature", "properties": {"k": "hydrantsign", "a": 210}, "geometry": {"type": "Point", "coordinates": [409457.53, 5659765.39]}}, {"type": "Feature", "properties": {"k": "hydrantsign", "a": 210}, "geometry": {"type": "Point", "coordinates": [409458.96, 5659767.55]}}, {"type": "Feature", "properties": {"k": "bin"}, "geometry": {"type": "Point", "coordinates": [408259.81, 5659322.36]}}, {"type": "Feature", "properties": {"k": "bollard"}, "geometry": {"type": "Point", "coordinates": [408690.04, 5658446.66]}}, {"type": "Feature", "properties": {"k": "bin"}, "geometry": {"type": "Point", "coordinates": [409958.98, 5659222.27]}}, {"type": "Feature", "properties": {"k": "bin"}, "geometry": {"type": "Point", "coordinates": [409957.72, 5659222.36]}}, {"type": "Feature", "properties": {"k": "bin"}, "geometry": {"type": "Point", "coordinates": [409842.64, 5659226.16]}}, {"type": "Feature", "properties": {"k": "bin"}, "geometry": {"type": "Point", "coordinates": [409843.63, 5659226.15]}}, {"type": "Feature", "properties": {"k": "bin"}, "geometry": {"type": "Point", "coordinates": [409628.33, 5659228.45]}}, {"type": "Feature", "properties": {"k": "bin"}, "geometry": {"type": "Point", "coordinates": [409671.67, 5659232.58]}}, {"type": "Feature", "properties": {"k": "bin"}, "geometry": {"type": "Point", "coordinates": [409596.74, 5659222.07]}}, {"type": "Feature", "properties": {"k": "bin"}, "geometry": {"type": "Point", "coordinates": [409543.97, 5659211.98]}}, {"type": "Feature", "properties": {"k": "bin"}, "geometry": {"type": "Point", "coordinates": [409734.82, 5659230.07]}}, {"type": "Feature", "properties": {"k": "water", "a": 26}, "geometry": {"type": "Point", "coordinates": [408912.99, 5659473.17]}}, {"type": "Feature", "properties": {"k": "bike", "n": 3, "a": 85}, "geometry": {"type": "Point", "coordinates": [409033.45, 5659703.83]}}, {"type": "Feature", "properties": {"k": "bike", "n": 3, "a": 85}, "geometry": {"type": "Point", "coordinates": [409035.22, 5659686.36]}}, {"type": "Feature", "properties": {"k": "bike", "n": 3, "a": 85}, "geometry": {"type": "Point", "coordinates": [409036.0, 5659674.12]}}, {"type": "Feature", "properties": {"k": "bike", "n": 3, "a": 85}, "geometry": {"type": "Point", "coordinates": [409036.6, 5659659.23]}}, {"type": "Feature", "properties": {"k": "bin"}, "geometry": {"type": "Point", "coordinates": [408944.63, 5659462.23]}}, {"type": "Feature", "properties": {"k": "bin"}, "geometry": {"type": "Point", "coordinates": [408914.04, 5659462.06]}}, {"type": "Feature", "properties": {"k": "stop", "a": 86}, "geometry": {"type": "Point", "coordinates": [408726.92, 5659525.57]}}, {"type": "Feature", "properties": {"k": "stop", "a": 0}, "geometry": {"type": "Point", "coordinates": [408305.1, 5658841.1]}}, {"type": "Feature", "properties": {"k": "stop", "a": 182}, "geometry": {"type": "Point", "coordinates": [408223.37, 5658363.81]}}, {"type": "Feature", "properties": {"k": "stop", "a": 266}, "geometry": {"type": "Point", "coordinates": [408750.68, 5659481.13]}}, {"type": "Feature", "properties": {"k": "stop", "a": 351}, "geometry": {"type": "Point", "coordinates": [408504.89, 5658866.37]}}, {"type": "Feature", "properties": {"k": "stop", "a": 179}, "geometry": {"type": "Point", "coordinates": [408514.12, 5658358.92]}}, {"type": "Feature", "properties": {"k": "stop", "a": 266}, "geometry": {"type": "Point", "coordinates": [408739.64, 5659642.18]}}, {"type": "Feature", "properties": {"k": "stop", "a": 301}, "geometry": {"type": "Point", "coordinates": [408895.75, 5659169.96]}}, {"type": "Feature", "properties": {"k": "stop", "a": 118}, "geometry": {"type": "Point", "coordinates": [408876.3, 5659164.89]}}, {"type": "Feature", "properties": {"k": "stop", "a": 280}, "geometry": {"type": "Point", "coordinates": [408829.28, 5658938.88]}}, {"type": "Feature", "properties": {"k": "stop", "a": 99}, "geometry": {"type": "Point", "coordinates": [408838.74, 5658948.7]}}, {"type": "Feature", "properties": {"k": "stop", "a": 277}, "geometry": {"type": "Point", "coordinates": [408591.62, 5658715.37]}}, {"type": "Feature", "properties": {"k": "stop", "a": 277}, "geometry": {"type": "Point", "coordinates": [408572.52, 5658531.89]}}, {"type": "Feature", "properties": {"k": "stop", "a": 212}, "geometry": {"type": "Point", "coordinates": [408037.14, 5659965.07]}}, {"type": "Feature", "properties": {"k": "stop", "a": 343}, "geometry": {"type": "Point", "coordinates": [409157.21, 5659317.21]}}, {"type": "Feature", "properties": {"k": "stop", "a": 163}, "geometry": {"type": "Point", "coordinates": [409163.58, 5659293.03]}}, {"type": "Feature", "properties": {"k": "stop", "a": 356}, "geometry": {"type": "Point", "coordinates": [408579.69, 5659764.33]}}, {"type": "Feature", "properties": {"k": "stop", "a": 175}, "geometry": {"type": "Point", "coordinates": [408583.26, 5659727.99]}}, {"type": "Feature", "properties": {"k": "playground"}, "geometry": {"type": "Polygon", "coordinates": [[[409993.95, 5659961.35], [409998.52, 5659962.53], [410003.21, 5659962.08], [410007.48, 5659960.06], [410010.94, 5659956.47], [410012.81, 5659952.16], [410013.09, 5659947.46], [410011.74, 5659942.95], [410008.92, 5659939.18], [410004.84, 5659936.52], [410000.3, 5659935.51], [409995.55, 5659936.08], [409991.24, 5659938.34], [409988.08, 5659941.83], [409986.31, 5659946.19], [409986.14, 5659950.9], [409987.59, 5659955.37], [409990.49, 5659959.09], [409993.95, 5659961.35]]]}}, {"type": "Feature", "properties": {"k": "playground"}, "geometry": {"type": "Polygon", "coordinates": [[[408418.61, 5659212.58], [408434.44, 5659206.39], [408419.89, 5659166.58], [408402.69, 5659173.83], [408405.17, 5659179.27], [408418.61, 5659212.58]]]}}, {"type": "Feature", "properties": {"k": "playground"}, "geometry": {"type": "Polygon", "coordinates": [[[409492.48, 5659325.31], [409490.06, 5659342.88], [409491.76, 5659343.41], [409493.99, 5659342.24], [409496.67, 5659339.67], [409497.33, 5659334.6], [409495.42, 5659327.41], [409492.48, 5659325.31]]]}}, {"type": "Feature", "properties": {"k": "playground"}, "geometry": {"type": "Polygon", "coordinates": [[[409574.45, 5659305.82], [409575.5, 5659298.41], [409589.27, 5659300.36], [409588.21, 5659307.77], [409574.45, 5659305.82]]]}}, {"type": "Feature", "properties": {"k": "playground"}, "geometry": {"type": "Polygon", "coordinates": [[[408739.45, 5659698.52], [408742.57, 5659653.08], [408776.69, 5659658.87], [408774.18, 5659700.79], [408739.45, 5659698.52]]]}}, {"type": "Feature", "properties": {"k": "playground"}, "geometry": {"type": "Polygon", "coordinates": [[[408779.97, 5659107.46], [408791.29, 5659115.41], [408798.84, 5659122.59], [408805.57, 5659131.19], [408806.92, 5659110.12], [408779.97, 5659107.46]]]}}, {"type": "Feature", "properties": {"k": "playground"}, "geometry": {"type": "Polygon", "coordinates": [[[409037.1, 5658848.35], [409046.49, 5658851.68], [409053.26, 5658862.48], [409044.43, 5658869.57], [409037.65, 5658860.7], [409034.17, 5658851.61], [409037.1, 5658848.35]]]}}, {"type": "Feature", "properties": {"k": "playground"}, "geometry": {"type": "Polygon", "coordinates": [[[409923.32, 5659291.59], [409925.65, 5659268.51], [409936.86, 5659269.64], [409934.51, 5659292.72], [409923.32, 5659291.59]]]}}, {"type": "Feature", "properties": {"k": "playground"}, "geometry": {"type": "Polygon", "coordinates": [[[409013.18, 5659392.64], [409019.22, 5659390.37], [409023.76, 5659380.28], [409010.84, 5659378.81], [409003.51, 5659384.93], [409013.18, 5659392.64]]]}}, {"type": "Feature", "properties": {"k": "playground"}, "geometry": {"type": "Polygon", "coordinates": [[[408618.67, 5658625.57], [408616.87, 5658608.9], [408622.15, 5658608.33], [408622.79, 5658614.36], [408626.05, 5658614.01], [408626.87, 5658621.6], [408621.82, 5658622.14], [408622.15, 5658625.19], [408618.67, 5658625.57]]]}}, {"type": "Feature", "properties": {"k": "sandpit"}, "geometry": {"type": "Point", "coordinates": [408920.41, 5659827.07]}}, {"type": "Feature", "properties": {"k": "sandpit"}, "geometry": {"type": "Polygon", "coordinates": [[[408692.37, 5659147.86], [408691.48, 5659143.81], [408695.49, 5659142.94], [408696.39, 5659146.98], [408692.37, 5659147.86]]]}}]}