{"type": "FeatureCollection", "attribution": "\u00a9 OpenStreetMap contributors (ODbL)", "crs": {"type": "name", "properties": {"name": "urn:ogc:def:crs:EPSG::25833"}}, "features": [{"type": "Feature", "properties": {"k": "postbox", "a": 114}, "geometry": {"type": "Point", "coordinates": [413010.56, 5658129.18]}}, {"type": "Feature", "properties": {"k": "postbox", "a": 32}, "geometry": {"type": "Point", "coordinates": [412443.29, 5658884.13]}}, {"type": "Feature", "properties": {"k": "postbox", "a": 116}, "geometry": {"type": "Point", "coordinates": [412530.45, 5659121.32]}}, {"type": "Feature", "properties": {"k": "postbox", "a": 34}, "geometry": {"type": "Point", "coordinates": [413355.21, 5659991.04]}}, {"type": "Feature", "properties": {"k": "bollard"}, "geometry": {"type": "Point", "coordinates": [413344.41, 5658576.63]}}, {"type": "Feature", "properties": {"k": "postbox", "a": 195}, "geometry": {"type": "Point", "coordinates": [412274.39, 5658574.84]}}, {"type": "Feature", "properties": {"k": "postbox", "a": 209}, "geometry": {"type": "Point", "coordinates": [413840.53, 5658534.89]}}, {"type": "Feature", "properties": {"k": "postbox", "a": 325}, "geometry": {"type": "Point", "coordinates": [413896.1, 5658111.08]}}, {"type": "Feature", "properties": {"k": "postbox", "a": 64}, "geometry": {"type": "Point", "coordinates": [412065.35, 5659735.6]}}, {"type": "Feature", "properties": {"k": "bollard"}, "geometry": {"type": "Point", "coordinates": [413143.2, 5658825.93]}}, {"type": "Feature", "properties": {"k": "postbox", "a": 16}, "geometry": {"type": "Point", "coordinates": [412389.17, 5658519.91]}}, {"type": "Feature", "properties": {"k": "bollard"}, "geometry": {"type": "Point", "coordinates": [412028.7, 5659399.77]}}, {"type": "Feature", "properties": {"k": "bollard"}, "geometry": {"type": "Point", "coordinates": [412883.05, 5658217.67]}}, {"type": "Feature", "properties": {"k": "bollard"}, "geometry": {"type": "Point", "coordinates": [412870.53, 5658231.6]}}, {"type": "Feature", "properties": {"k": "hydrantsign", "a": 186}, "geometry": {"type": "Point", "coordinates": [412275.1, 5658913.81]}}, {"type": "Feature", "properties": {"k": "bin"}, "geometry": {"type": "Point", "coordinates": [412131.75, 5659062.09]}}, {"type": "Feature", "properties": {"k": "bench", "a": 245}, "geometry": {"type": "Point", "coordinates": [412862.62, 5659097.05]}}, {"type": "Feature", "properties": {"k": "bench", "a": 132}, "geometry": {"type": "Point", "coordinates": [412924.63, 5659135.03]}}, {"type": "Feature", "properties": {"k": "bench", "a": 350}, "geometry": {"type": "Point", "coordinates": [412873.76, 5659088.48]}}, {"type": "Feature", "properties": {"k": "bin"}, "geometry": {"type": "Point", "coordinates": [412949.8, 5659071.33]}}, {"type": "Feature", "properties": {"k": "bench", "a": 124}, "geometry": {"type": "Point", "coordinates": [412921.53, 5659131.8]}}, {"type": "Feature", "properties": {"k": "bench", "a": 124}, "geometry": {"type": "Point", "coordinates": [412920.24, 5659127.83]}}, {"type": "Feature", "properties": {"k": "bench", "a": 30}, "geometry": {"type": "Point", "coordinates": [412947.9, 5659072.21]}}, {"type": "Feature", "properties": {"k": "bench", "a": 170}, "geometry": {"type": "Point", "coordinates": [412873.7, 5659093.7]}}, {"type": "Feature", "properties": {"k": "bin"}, "geometry": {"type": "Point", "coordinates": [412920.27, 5659125.86]}}, {"type": "Feature", "properties": {"k": "bike", "n": 5, "a": 303}, "geometry": {"type": "Point", "coordinates": [412546.19, 5658021.49]}}, {"type": "Feature", "properties": {"k": "bike", "n": 7, "a": 114}, "geometry": {"type": "Point", "coordinates": [412731.85, 5658070.5]}}, {"type": "Feature", "properties": {"k": "bench", "a": 90}, "geometry": {"type": "Point", "coordinates": [412251.04, 5659463.55]}}, {"type": "Feature", "properties": {"k": "bench", "a": 99}, "geometry": {"type": "Point", "coordinates": [412253.48, 5659483.03]}}, {"type": "Feature", "properties": {"k": "bench", "a": 94}, "geometry": {"type": "Point", "coordinates": [412191.02, 5659538.14]}}, {"type": "Feature", "properties": {"k": "bench", "a": 94}, "geometry": {"type": "Point", "coordinates": [412190.62, 5659541.03]}}, {"type": "Feature", "properties": {"k": "bench", "a": 249}, "geometry": {"type": "Point", "coordinates": [412196.83, 5659579.15]}}, {"type": "Feature", "properties": {"k": "bollard"}, "geometry": {"type": "Point", "coordinates": [413405.6, 5658432.25]}}, {"type": "Feature", "properties": {"k": "water", "a": 299}, "geometry": {"type": "Point", "coordinates": [413028.02, 5658295.28]}}, {"type": "Feature", "properties": {"k": "postbox", "a": 107}, "geometry": {"type": "Point", "coordinates": [412208.79, 5658045.93]}}, {"type": "Feature", "properties": {"k": "bike", "n": 4, "a": 302}, "geometry": {"type": "Point", "coordinates": [412688.09, 5658236.85]}}, {"type": "Feature", "properties": {"k": "postbox", "a": 62}, "geometry": {"type": "Point", "coordinates": [413437.41, 5658006.22]}}, {"type": "Feature", "properties": {"k": "bench", "back": false, "a": 305}, "geometry": {"type": "Point", "coordinates": [413431.86, 5658457.63]}}, {"type": "Feature", "properties": {"k": "bench", "a": 193}, "geometry": {"type": "Point", "coordinates": [412123.51, 5658586.98]}}, {"type": "Feature", "properties": {"k": "bike", "n": 10, "a": 256}, "geometry": {"type": "Point", "coordinates": [412165.46, 5658572.29]}}, {"type": "Feature", "properties": {"k": "bench", "a": 193}, "geometry": {"type": "Point", "coordinates": [412099.65, 5658593.01]}}, {"type": "Feature", "properties": {"k": "bench", "a": 2}, "geometry": {"type": "Point", "coordinates": [412117.1, 5658569.19]}}, {"type": "Feature", "properties": {"k": "bench", "a": 2}, "geometry": {"type": "Point", "coordinates": [412096.72, 5658570.1]}}, {"type": "Feature", "properties": {"k": "shelter", "a": 300}, "geometry": {"type": "Point", "coordinates": [412272.53, 5658174.18]}}, {"type": "Feature", "properties": {"k": "bike", "n": 3, "a": 30}, "geometry": {"type": "Point", "coordinates": [412973.88, 5659570.91]}}, {"type": "Feature", "properties": {"k": "postbox", "a": 291}, "geometry": {"type": "Point", "coordinates": [412981.8, 5659559.18]}}, {"type": "Feature", "properties": {"k": "bike", "n": 5, "a": 26}, "geometry": {"type": "Point", "coordinates": [412740.72, 5658366.01]}}, {"type": "Feature", "properties": {"k": "bollard"}, "geometry": {"type": "Point", "coordinates": [413039.07, 5658787.37]}}, {"type": "Feature", "properties": {"k": "bin"}, "geometry": {"type": "Point", "coordinates": [412414.35, 5658929.84]}}, {"type": "Feature", "properties": {"k": "column"}, "geometry": {"type": "Point", "coordinates": [412235.22, 5658548.85]}}, {"type": "Feature", "properties": {"k": "bench", "a": 232}, "geometry": {"type": "Point", "coordinates": [412061.82, 5659615.25]}}, {"type": "Feature", "properties": {"k": "bike", "n": 4, "a": 50}, "geometry": {"type": "Point", "coordinates": [412078.8, 5658708.39]}}, {"type": "Feature", "properties": {"k": "bike", "n": 4, "a": 98}, "geometry": {"type": "Point", "coordinates": [412072.25, 5658715.44]}}, {"type": "Feature", "properties": {"k": "postbox", "a": 79}, "geometry": {"type": "Point", "coordinates": [413537.12, 5658363.69]}}, {"type": "Feature", "properties": {"k": "postbox", "a": 210}, "geometry": {"type": "Point", "coordinates": [412413.01, 5659216.4]}}, {"type": "Feature", "properties": {"k": "signal", "a": 195}, "geometry": {"type": "Point", "coordinates": [412219.23, 5658580.12]}}, {"type": "Feature", "properties": {"k": "bin"}, "geometry": {"type": "Point", "coordinates": [413116.29, 5658361.14]}}, {"type": "Feature", "properties": {"k": "bollard"}, "geometry": {"type": "Point", "coordinates": [412436.93, 5659775.52]}}, {"type": "Feature", "properties": {"k": "bollard"}, "geometry": {"type": "Point", "coordinates": [412427.86, 5659791.51]}}, {"type": "Feature", "properties": {"k": "bench", "a": 120}, "geometry": {"type": "Point", "coordinates": [413027.36, 5659643.37]}}, {"type": "Feature", "properties": {"k": "bollard"}, "geometry": {"type": "Point", "coordinates": [412484.85, 5659041.35]}}, {"type": "Feature", "properties": {"k": "bench", "a": 149}, "geometry": {"type": "Point", "coordinates": [412418.91, 5658994.9]}}, {"type": "Feature", "properties": {"k": "bench", "a": 35}, "geometry": {"type": "Point", "coordinates": [412418.57, 5658991.63]}}, {"type": "Feature", "properties": {"k": "bollard"}, "geometry": {"type": "Point", "coordinates": [412587.52, 5658984.86]}}, {"type": "Feature", "properties": {"k": "bollard"}, "geometry": {"type": "Point", "coordinates": [412298.43, 5658671.93]}}, {"type": "Feature", "properties": {"k": "bench", "back": false, "a": 350}, "geometry": {"type": "Point", "coordinates": [412920.75, 5658609.98]}}, {"type": "Feature", "properties": {"k": "bench", "back": false, "a": 350}, "geometry": {"type": "Point", "coordinates": [412922.94, 5658614.89]}}, {"type": "Feature", "properties": {"k": "bin"}, "geometry": {"type": "Point", "coordinates": [412922.2, 5658609.5]}}, {"type": "Feature", "properties": {"k": "bench", "back": false, "a": 102}, "geometry": {"type": "Point", "coordinates": [412940.81, 5658600.52]}}, {"type": "Feature", "properties": {"k": "bin"}, "geometry": {"type": "Point", "coordinates": [412939.11, 5658601.26]}}, {"type": "Feature", "properties": {"k": "bench", "back": false, "a": 133}, "geometry": {"type": "Point", "coordinates": [412943.09, 5658605.5]}}, {"type": "Feature", "properties": {"k": "bench", "a": 205}, "geometry": {"type": "Point", "coordinates": [413325.97, 5658379.5]}}, {"type": "Feature", "properties": {"k": "bench", "a": 205}, "geometry": {"type": "Point", "coordinates": [413335.67, 5658374.94]}}, {"type": "Feature", "properties": {"k": "bollard"}, "geometry": {"type": "Point", "coordinates": [412704.8, 5658400.12]}}, {"type": "Feature", "properties": {"k": "postbox", "a": 207}, "geometry": {"type": "Point", "coordinates": [412872.43, 5658764.91]}}, {"type": "Feature", "properties": {"k": "signal", "a": 295}, "geometry": {"type": "Point", "coordinates": [413037.21, 5659353.93]}}, {"type": "Feature", "properties": {"k": "bench", "a": 110}, "geometry": {"type": "Point", "coordinates": [413002.94, 5659194.7]}}, {"type": "Feature", "properties": {"k": "bench", "a": 110}, "geometry": {"type": "Point", "coordinates": [413004.08, 5659197.34]}}, {"type": "Feature", "properties": {"k": "postbox", "a": 119}, "geometry": {"type": "Point", "coordinates": [412381.87, 5658856.13]}}, {"type": "Feature", "properties": {"k": "bike", "n": 2, "a": 152}, "geometry": {"type": "Point", "coordinates": [412687.17, 5659525.08]}}, {"type": "Feature", "properties": {"k": "bench", "a": 310}, "geometry": {"type": "Point", "coordinates": [413128.03, 5659012.56]}}, {"type": "Feature", "properties": {"k": "bin"}, "geometry": {"type": "Point", "coordinates": [413129.43, 5659018.22]}}, {"type": "Feature", "properties": {"k": "bench", "a": 280}, "geometry": {"type": "Point", "coordinates": [413129.62, 5659015.44]}}, {"type": "Feature", "properties": {"k": "bench", "a": 210}, "geometry": {"type": "Point", "coordinates": [413112.12, 5659060.08]}}, {"type": "Feature", "properties": {"k": "bin"}, "geometry": {"type": "Point", "coordinates": [413042.36, 5659021.29]}}, {"type": "Feature", "properties": {"k": "bench", "a": 247}, "geometry": {"type": "Point", "coordinates": [413099.81, 5659029.41]}}, {"type": "Feature", "properties": {"k": "bench", "a": 30}, "geometry": {"type": "Point", "coordinates": [413078.91, 5658995.25]}}, {"type": "Feature", "properties": {"k": "bench", "a": 209}, "geometry": {"type": "Point", "coordinates": [413071.73, 5659081.18]}}, {"type": "Feature", "properties": {"k": "bench", "a": 346}, "geometry": {"type": "Point", "coordinates": [413097.79, 5659025.56]}}, {"type": "Feature", "properties": {"k": "bench", "a": 29}, "geometry": {"type": "Point", "coordinates": [413039.49, 5659022.38]}}, {"type": "Feature", "properties": {"k": "bin"}, "geometry": {"type": "Point", "coordinates": [413070.02, 5659082.05]}}, {"type": "Feature", "properties": {"k": "shelter", "a": 209}, "geometry": {"type": "Point", "coordinates": [413878.54, 5658509.63]}}, {"type": "Feature", "properties": {"k": "shelter", "a": 209}, "geometry": {"type": "Point", "coordinates": [413805.42, 5658525.23]}}, {"type": "Feature", "properties": {"k": "shelter", "a": 209}, "geometry": {"type": "Point", "coordinates": [413555.21, 5658686.29]}}, {"type": "Feature", "properties": {"k": "shelter", "a": 209}, "geometry": {"type": "Point", "coordinates": [413479.33, 5658705.78]}}, {"type": "Feature", "properties": {"k": "shelter", "a": 209}, "geometry": {"type": "Point", "coordinates": [413192.57, 5658868.29]}}, {"type": "Feature", "properties": {"k": "shelter", "a": 209}, "geometry": {"type": "Point", "coordinates": [413173.12, 5658897.95]}}, {"type": "Feature", "properties": {"k": "shelter", "a": 209}, "geometry": {"type": "Point", "coordinates": [412856.03, 5659077.89]}}, {"type": "Feature", "properties": {"k": "shelter", "a": 207}, "geometry": {"type": "Point", "coordinates": [412852.94, 5659050.6]}}, {"type": "Feature", "properties": {"k": "shelter", "a": 118}, "geometry": {"type": "Point", "coordinates": [412473.75, 5659169.0]}}, {"type": "Feature", "properties": {"k": "shelter", "a": 210}, "geometry": {"type": "Point", "coordinates": [412433.71, 5659200.06]}}, {"type": "Feature", "properties": {"k": "shelter", "a": 334}, "geometry": {"type": "Point", "coordinates": [412130.38, 5659634.09]}}, {"type": "Feature", "properties": {"k": "bike", "n": 2, "a": 114}, "geometry": {"type": "Point", "coordinates": [413007.96, 5658114.33]}}, {"type": "Feature", "properties": {"k": "bike", "n": 2, "a": 114}, "geometry": {"type": "Point", "coordinates": [413015.58, 5658133.4]}}, {"type": "Feature", "properties": {"k": "bike", "n": 2, "a": 294}, "geometry": {"type": "Point", "coordinates": [413021.7, 5658130.24]}}, {"type": "Feature", "properties": {"k": "bike", "n": 1, "a": 114}, "geometry": {"type": "Point", "coordinates": [413046.54, 5658203.02]}}, {"type": "Feature", "properties": {"k": "bike", "n": 4, "a": 30}, "geometry": {"type": "Point", "coordinates": [412594.78, 5658093.95]}}, {"type": "Feature", "properties": {"k": "bike", "n": 7, "a": 303}, "geometry": {"type": "Point", "coordinates": [412603.27, 5658107.75]}}, {"type": "Feature", "properties": {"k": "bike", "n": 3, "a": 303}, "geometry": {"type": "Point", "coordinates": [412608.94, 5658115.54]}}, {"type": "Feature", "properties": {"k": "bike", "n": 6, "a": 123}, "geometry": {"type": "Point", "coordinates": [412609.09, 5658132.12]}}, {"type": "Feature", "properties": {"k": "bike", "n": 3, "a": 23}, "geometry": {"type": "Point", "coordinates": [412631.84, 5658151.38]}}, {"type": "Feature", "properties": {"k": "bike", "n": 2, "a": 303}, "geometry": {"type": "Point", "coordinates": [412683.55, 5658230.96]}}, {"type": "Feature", "properties": {"k": "bike", "n": 5, "a": 305}, "geometry": {"type": "Point", "coordinates": [412714.22, 5658281.1]}}, {"type": "Feature", "properties": {"k": "bollard"}, "geometry": {"type": "Point", "coordinates": [412685.42, 5659744.61]}}, {"type": "Feature", "properties": {"k": "bollard"}, "geometry": {"type": "Point", "coordinates": [413030.05, 5659285.23]}}, {"type": "Feature", "properties": {"k": "bike", "n": 2, "a": 294}, "geometry": {"type": "Point", "coordinates": [412962.96, 5658000.83]}}, {"type": "Feature", "properties": {"k": "shelter", "a": 290}, "geometry": {"type": "Point", "coordinates": [412238.8, 5658077.81]}}, {"type": "Feature", "properties": {"k": "shelter", "a": 170}, "geometry": {"type": "Point", "coordinates": [412485.64, 5658542.2]}}, {"type": "Feature", "properties": {"k": "hydrant"}, "geometry": {"type": "Point", "coordinates": [412376.36, 5658050.64]}}, {"type": "Feature", "properties": {"k": "shelter", "a": 15}, "geometry": {"type": "Point", "coordinates": [412206.8, 5658588.04]}}, {"type": "Feature", "properties": {"k": "shelter", "a": 194}, "geometry": {"type": "Point", "coordinates": [412211.75, 5658570.01]}}, {"type": "Feature", "properties": {"k": "shelter", "a": 206}, "geometry": {"type": "Point", "coordinates": [412779.51, 5658360.82]}}, {"type": "Feature", "properties": {"k": "bike", "n": 1, "a": 294}, "geometry": {"type": "Point", "coordinates": [413034.51, 5658156.51]}}, {"type": "Feature", "properties": {"k": "signal", "a": 299}, "geometry": {"type": "Point", "coordinates": [413500.23, 5658699.85]}}, {"type": "Feature", "properties": {"k": "signal", "a": 119}, "geometry": {"type": "Point", "coordinates": [413538.48, 5658686.3]}}, {"type": "Feature", "properties": {"k": "signal", "a": 299}, "geometry": {"type": "Point", "coordinates": [413828.85, 5658518.76]}}, {"type": "Feature", "properties": {"k": "signal", "a": 116}, "geometry": {"type": "Point", "coordinates": [412494.38, 5658498.16]}}, {"type": "Feature", "properties": {"k": "signal", "a": 31}, "geometry": {"type": "Point", "coordinates": [412480.45, 5658529.81]}}, {"type": "Feature", "properties": {"k": "signal", "a": 284}, "geometry": {"type": "Point", "coordinates": [412456.2, 5658508.16]}}, {"type": "Feature", "properties": {"k": "signal", "a": 210}, "geometry": {"type": "Point", "coordinates": [412467.64, 5658485.32]}}, {"type": "Feature", "properties": {"k": "signal", "a": 31}, "geometry": {"type": "Point", "coordinates": [412641.62, 5658800.24]}}, {"type": "Feature", "properties": {"k": "signal", "a": 211}, "geometry": {"type": "Point", "coordinates": [412635.87, 5658767.85]}}, {"type": "Feature", "properties": {"k": "bench", "a": 208}, "geometry": {"type": "Point", "coordinates": [413288.51, 5659503.2]}}, {"type": "Feature", "properties": {"k": "bench", "a": 208}, "geometry": {"type": "Point", "coordinates": [413284.99, 5659505.1]}}, {"type": "Feature", "properties": {"k": "bench", "a": 208}, "geometry": {"type": "Point", "coordinates": [413290.57, 5659506.98]}}, {"type": "Feature", "properties": {"k": "bench", "a": 208}, "geometry": {"type": "Point", "coordinates": [413287.05, 5659508.88]}}, {"type": "Feature", "properties": {"k": "bench", "a": 208}, "geometry": {"type": "Point", "coordinates": [413274.99, 5659510.88]}}, {"type": "Feature", "properties": {"k": "bench", "a": 208}, "geometry": {"type": "Point", "coordinates": [413271.47, 5659512.78]}}, {"type": "Feature", "properties": {"k": "bench", "a": 208}, "geometry": {"type": "Point", "coordinates": [413277.05, 5659514.66]}}, {"type": "Feature", "properties": {"k": "bench", "a": 208}, "geometry": {"type": "Point", "coordinates": [413273.53, 5659516.56]}}, {"type": "Feature", "properties": {"k": "bike", "n": 12, "a": 4}, "geometry": {"type": "Point", "coordinates": [413175.55, 5659405.39]}}, {"type": "Feature", "properties": {"k": "clock", "a": 26}, "geometry": {"type": "Point", "coordinates": [412244.38, 5658125.95]}}, {"type": "Feature", "properties": {"k": "bench", "a": 140}, "geometry": {"type": "Point", "coordinates": [413061.01, 5658337.64]}}, {"type": "Feature", "properties": {"k": "bench", "a": 320}, "geometry": {"type": "Point", "coordinates": [413074.35, 5658331.42]}}, {"type": "Feature", "properties": {"k": "bench", "a": 320}, "geometry": {"type": "Point", "coordinates": [413071.17, 5658332.78]}}, {"type": "Feature", "properties": {"k": "bench", "back": false, "a": 299}, "geometry": {"type": "Point", "coordinates": [413031.26, 5658295.4]}}, {"type": "Feature", "properties": {"k": "bench", "a": 118}, "geometry": {"type": "Point", "coordinates": [412811.92, 5658583.79]}}, {"type": "Feature", "properties": {"k": "bench", "a": 225}, "geometry": {"type": "Point", "coordinates": [412942.73, 5658304.59]}}, {"type": "Feature", "properties": {"k": "signal", "a": 202}, "geometry": {"type": "Point", "coordinates": [412254.43, 5658114.44]}}, {"type": "Feature", "properties": {"k": "signal", "a": 113}, "geometry": {"type": "Point", "coordinates": [412269.2, 5658131.85]}}, {"type": "Feature", "properties": {"k": "signal", "a": 286}, "geometry": {"type": "Point", "coordinates": [412233.16, 5658136.03]}}, {"type": "Feature", "properties": {"k": "signal", "a": 120}, "geometry": {"type": "Point", "coordinates": [412268.7, 5658144.29]}}, {"type": "Feature", "properties": {"k": "signal", "a": 115}, "geometry": {"type": "Point", "coordinates": [412840.82, 5658295.11]}}, {"type": "Feature", "properties": {"k": "signal", "a": 120}, "geometry": {"type": "Point", "coordinates": [412869.45, 5658313.04]}}, {"type": "Feature", "properties": {"k": "signal", "a": 295}, "geometry": {"type": "Point", "coordinates": [412823.77, 5658328.38]}}, {"type": "Feature", "properties": {"k": "hydrantsign", "a": 51}, "geometry": {"type": "Point", "coordinates": [413736.97, 5659670.01]}}, {"type": "Feature", "properties": {"k": "signal", "a": 205}, "geometry": {"type": "Point", "coordinates": [413175.53, 5659651.87]}}, {"type": "Feature", "properties": {"k": "signal", "a": 300}, "geometry": {"type": "Point", "coordinates": [413151.18, 5659686.27]}}, {"type": "Feature", "properties": {"k": "signal", "a": 25}, "geometry": {"type": "Point", "coordinates": [413172.68, 5659708.32]}}, {"type": "Feature", "properties": {"k": "signal", "a": 116}, "geometry": {"type": "Point", "coordinates": [413194.09, 5659688.36]}}, {"type": "Feature", "properties": {"k": "signal", "a": 25}, "geometry": {"type": "Point", "coordinates": [413068.88, 5659482.93]}}, {"type": "Feature", "properties": {"k": "signal", "a": 298}, "geometry": {"type": "Point", "coordinates": [413042.68, 5659461.99]}}, {"type": "Feature", "properties": {"k": "signal", "a": 31}, "geometry": {"type": "Point", "coordinates": [412798.2, 5659079.42]}}, {"type": "Feature", "properties": {"k": "signal", "a": 212}, "geometry": {"type": "Point", "coordinates": [412813.5, 5659061.19]}}, {"type": "Feature", "properties": {"k": "signal", "a": 300}, "geometry": {"type": "Point", "coordinates": [412798.04, 5659079.96]}}, {"type": "Feature", "properties": {"k": "signal", "a": 308}, "geometry": {"type": "Point", "coordinates": [412829.97, 5659110.06]}}, {"type": "Feature", "properties": {"k": "signal", "a": 121}, "geometry": {"type": "Point", "coordinates": [412843.29, 5659076.76]}}, {"type": "Feature", "properties": {"k": "signal", "a": 298}, "geometry": {"type": "Point", "coordinates": [412965.36, 5659001.25]}}, {"type": "Feature", "properties": {"k": "signal", "a": 28}, "geometry": {"type": "Point", "coordinates": [412993.14, 5659013.12]}}, {"type": "Feature", "properties": {"k": "signal", "a": 119}, "geometry": {"type": "Point", "coordinates": [413009.56, 5658984.03]}}, {"type": "Feature", "properties": {"k": "signal", "a": 209}, "geometry": {"type": "Point", "coordinates": [412981.23, 5658976.33]}}, {"type": "Feature", "properties": {"k": "signal", "a": 210}, "geometry": {"type": "Point", "coordinates": [413513.12, 5658677.38]}}, {"type": "Feature", "properties": {"k": "signal", "a": 29}, "geometry": {"type": "Point", "coordinates": [413526.43, 5658715.03]}}, {"type": "Feature", "properties": {"k": "signal", "a": 28}, "geometry": {"type": "Point", "coordinates": [413862.47, 5658512.16]}}, {"type": "Feature", "properties": {"k": "signal", "a": 27}, "geometry": {"type": "Point", "coordinates": [413854.15, 5658536.03]}}, {"type": "Feature", "properties": {"k": "postbox", "a": 295}, "geometry": {"type": "Point", "coordinates": [412850.29, 5658304.19]}}, {"type": "Feature", "properties": {"k": "bench", "a": 314}, "geometry": {"type": "Point", "coordinates": [412054.02, 5659698.67]}}, {"type": "Feature", "properties": {"k": "bike", "n": 12, "a": 96}, "geometry": {"type": "Point", "coordinates": [412183.35, 5658634.26]}}, {"type": "Feature", "properties": {"k": "bike", "n": 3, "a": 119}, "geometry": {"type": "Point", "coordinates": [412247.37, 5658588.71]}}, {"type": "Feature", "properties": {"k": "picnic", "a": 27}, "geometry": {"type": "Point", "coordinates": [412645.85, 5658308.88]}}, {"type": "Feature", "properties": {"k": "bench", "a": 358}, "geometry": {"type": "Point", "coordinates": [413840.98, 5658855.21]}}, {"type": "Feature", "properties": {"k": "postbox", "a": 207}, "geometry": {"type": "Point", "coordinates": [412874.95, 5658763.81]}}, {"type": "Feature", "properties": {"k": "bike", "n": 12, "a": 298}, "geometry": {"type": "Point", "coordinates": [413126.27, 5659450.34]}}, {"type": "Feature", "properties": {"k": "bin"}, "geometry": {"type": "Point", "coordinates": [412716.42, 5658275.07]}}, {"type": "Feature", "properties": {"k": "bin"}, "geometry": {"type": "Point", "coordinates": [412654.59, 5658189.13]}}, {"type": "Feature", "properties": {"k": "postbox", "a": 31}, "geometry": {"type": "Point", "coordinates": [412351.76, 5658275.31]}}, {"type": "Feature", "properties": {"k": "hydrantsign", "a": 211}, "geometry": {"type": "Point", "coordinates": [412990.42, 5659012.3]}}, {"type": "Feature", "properties": {"k": "hydrantsign", "a": 275}, "geometry": {"type": "Point", "coordinates": [412851.24, 5659090.52]}}, {"type": "Feature", "properties": {"k": "bin"}, "geometry": {"type": "Point", "coordinates": [412871.94, 5659088.32]}}, {"type": "Feature", "properties": {"k": "bin"}, "geometry": {"type": "Point", "coordinates": [412863.09, 5659095.84]}}, {"type": "Feature", "properties": {"k": "bin"}, "geometry": {"type": "Point", "coordinates": [412872.0, 5659093.5]}}, {"type": "Feature", "properties": {"k": "postbox", "a": 209}, "geometry": {"type": "Point", "coordinates": [413838.4, 5658535.63]}}, {"type": "Feature", "properties": {"k": "bike", "n": 10, "a": 249}, "geometry": {"type": "Point", "coordinates": [413095.15, 5659219.2]}}, {"type": "Feature", "properties": {"k": "bike", "n": 10, "a": 167}, "geometry": {"type": "Point", "coordinates": [413117.16, 5659208.7]}}, {"type": "Feature", "properties": {"k": "bike", "n": 1, "a": 32}, "geometry": {"type": "Point", "coordinates": [412774.59, 5658902.46]}}, {"type": "Feature", "properties": {"k": "bike", "n": 6, "a": 15}, "geometry": {"type": "Point", "coordinates": [412259.08, 5658572.84]}}, {"type": "Feature", "properties": {"k": "bin"}, "geometry": {"type": "Point", "coordinates": [412520.94, 5658020.5]}}, {"type": "Feature", "properties": {"k": "bike", "n": 2, "a": 96}, "geometry": {"type": "Point", "coordinates": [412197.78, 5658776.86]}}, {"type": "Feature", "properties": {"k": "signal", "a": 282}, "geometry": {"type": "Point", "coordinates": [412142.68, 5658585.72]}}, {"type": "Feature", "properties": {"k": "bike", "n": 12, "a": 206}, "geometry": {"type": "Point", "coordinates": [412902.46, 5658178.82]}}, {"type": "Feature", "properties": {"k": "bike", "n": 3, "a": 26}, "geometry": {"type": "Point", "coordinates": [412899.43, 5658172.59]}}, {"type": "Feature", "properties": {"k": "bin"}, "geometry": {"type": "Point", "coordinates": [412747.51, 5658104.77]}}, {"type": "Feature", "properties": {"k": "bike", "n": 3, "a": 27}, "geometry": {"type": "Point", "coordinates": [412574.36, 5658449.92]}}, {"type": "Feature", "properties": {"k": "bench", "back": false, "a": 208}, "geometry": {"type": "Point", "coordinates": [412707.8, 5658100.95]}}, {"type": "Feature", "properties": {"k": "bin"}, "geometry": {"type": "Point", "coordinates": [412705.61, 5658101.29]}}, {"type": "Feature", "properties": {"k": "bench", "a": 2}, "geometry": {"type": "Point", "coordinates": [412697.16, 5658508.51]}}, {"type": "Feature", "properties": {"k": "bench", "a": 2}, "geometry": {"type": "Point", "coordinates": [412700.18, 5658508.56]}}, {"type": "Feature", "properties": {"k": "bike", "n": 1, "a": 293}, "geometry": {"type": "Point", "coordinates": [413914.9, 5658203.67]}}, {"type": "Feature", "properties": {"k": "bench", "a": 189}, "geometry": {"type": "Point", "coordinates": [412855.88, 5658583.56]}}, {"type": "Feature", "properties": {"k": "bin"}, "geometry": {"type": "Point", "coordinates": [412853.47, 5658583.9]}}, {"type": "Feature", "properties": {"k": "bench", "a": 276}, "geometry": {"type": "Point", "coordinates": [412086.2, 5658575.15]}}, {"type": "Feature", "properties": {"k": "bench", "a": 275}, "geometry": {"type": "Point", "coordinates": [412087.26, 5658587.43]}}, {"type": "Feature", "properties": {"k": "bollard"}, "geometry": {"type": "Point", "coordinates": [412802.4, 5658034.04]}}, {"type": "Feature", "properties": {"k": "bench", "a": 339}, "geometry": {"type": "Point", "coordinates": [412774.61, 5658488.43]}}, {"type": "Feature", "properties": {"k": "bench", "a": 339}, "geometry": {"type": "Point", "coordinates": [412776.82, 5658489.28]}}, {"type": "Feature", "properties": {"k": "bike", "n": 5, "a": 294}, "geometry": {"type": "Point", "coordinates": [412746.27, 5658069.45]}}, {"type": "Feature", "properties": {"k": "bench", "a": 35}, "geometry": {"type": "Point", "coordinates": [412744.91, 5658498.09]}}, {"type": "Feature", "properties": {"k": "bench", "a": 28}, "geometry": {"type": "Point", "coordinates": [412742.98, 5658499.28]}}, {"type": "Feature", "properties": {"k": "bench", "a": 28}, "geometry": {"type": "Point", "coordinates": [412741.09, 5658500.3]}}, {"type": "Feature", "properties": {"k": "bench", "a": 28}, "geometry": {"type": "Point", "coordinates": [412739.04, 5658501.42]}}, {"type": "Feature", "properties": {"k": "bin"}, "geometry": {"type": "Point", "coordinates": [412665.17, 5658516.84]}}, {"type": "Feature", "properties": {"k": "bin"}, "geometry": {"type": "Point", "coordinates": [412742.03, 5658499.32]}}, {"type": "Feature", "properties": {"k": "bike", "n": 3, "a": 206}, "geometry": {"type": "Point", "coordinates": [413023.95, 5658235.55]}}, {"type": "Feature", "properties": {"k": "bike", "n": 8, "a": 195}, "geometry": {"type": "Point", "coordinates": [412221.49, 5658586.85]}}, {"type": "Feature", "properties": {"k": "bin"}, "geometry": {"type": "Point", "coordinates": [413048.56, 5658240.76]}}, {"type": "Feature", "properties": {"k": "bin"}, "geometry": {"type": "Point", "coordinates": [412729.16, 5658300.02]}}, {"type": "Feature", "properties": {"k": "bin"}, "geometry": {"type": "Point", "coordinates": [412472.59, 5659169.28]}}, {"type": "Feature", "properties": {"k": "bench", "a": 333}, "geometry": {"type": "Point", "coordinates": [412429.87, 5658173.17]}}, {"type": "Feature", "properties": {"k": "bench", "a": 226}, "geometry": {"type": "Point", "coordinates": [412431.04, 5658175.89]}}, {"type": "Feature", "properties": {"k": "bench", "a": 153}, "geometry": {"type": "Point", "coordinates": [412428.0, 5658176.33]}}, {"type": "Feature", "properties": {"k": "bench", "a": 115}, "geometry": {"type": "Point", "coordinates": [412408.68, 5658153.24]}}, {"type": "Feature", "properties": {"k": "bench", "a": 115}, "geometry": {"type": "Point", "coordinates": [412400.34, 5658164.58]}}, {"type": "Feature", "properties": {"k": "bench", "back": false, "a": 232}, "geometry": {"type": "Point", "coordinates": [412822.52, 5659909.39]}}, {"type": "Feature", "properties": {"k": "bike", "n": 2, "a": 1}, "geometry": {"type": "Point", "coordinates": [412144.41, 5658560.32]}}, {"type": "Feature", "properties": {"k": "bike", "n": 2, "a": 208}, "geometry": {"type": "Point", "coordinates": [412724.69, 5658430.02]}}, {"type": "Feature", "properties": {"k": "bench", "a": 134}, "geometry": {"type": "Point", "coordinates": [412713.84, 5658466.38]}}, {"type": "Feature", "properties": {"k": "bench", "a": 140}, "geometry": {"type": "Point", "coordinates": [412715.7, 5658468.6]}}, {"type": "Feature", "properties": {"k": "bench", "a": 159}, "geometry": {"type": "Point", "coordinates": [412721.16, 5658472.02]}}, {"type": "Feature", "properties": {"k": "bench", "a": 164}, "geometry": {"type": "Point", "coordinates": [412723.76, 5658472.78]}}, {"type": "Feature", "properties": {"k": "bike", "n": 2, "a": 304}, "geometry": {"type": "Point", "coordinates": [412736.24, 5658463.05]}}, {"type": "Feature", "properties": {"k": "bin"}, "geometry": {"type": "Point", "coordinates": [412734.79, 5658460.59]}}, {"type": "Feature", "properties": {"k": "bench", "a": 304}, "geometry": {"type": "Point", "coordinates": [412733.73, 5658459.25]}}, {"type": "Feature", "properties": {"k": "postbox", "a": 325}, "geometry": {"type": "Point", "coordinates": [413726.07, 5658114.64]}}, {"type": "Feature", "properties": {"k": "signal", "a": 210}, "geometry": {"type": "Point", "coordinates": [412586.68, 5659198.52]}}, {"type": "Feature", "properties": {"k": "signal", "a": 211}, "geometry": {"type": "Point", "coordinates": [412570.89, 5659229.62]}}, {"type": "Feature", "properties": {"k": "signal", "a": 121}, "geometry": {"type": "Point", "coordinates": [412613.95, 5659223.22]}}, {"type": "Feature", "properties": {"k": "bike", "n": 12, "a": 66}, "geometry": {"type": "Point", "coordinates": [412795.38, 5658029.38]}}, {"type": "Feature", "properties": {"k": "bike", "n": 1, "a": 128}, "geometry": {"type": "Point", "coordinates": [413805.54, 5659086.14]}}, {"type": "Feature", "properties": {"k": "bench", "a": 16}, "geometry": {"type": "Point", "coordinates": [413886.8, 5658257.5]}}, {"type": "Feature", "properties": {"k": "bench", "a": 16}, "geometry": {"type": "Point", "coordinates": [413888.48, 5658255.27]}}, {"type": "Feature", "properties": {"k": "bench", "a": 34}, "geometry": {"type": "Point", "coordinates": [413894.73, 5658212.9]}}, {"type": "Feature", "properties": {"k": "bench", "a": 195}, "geometry": {"type": "Point", "coordinates": [413916.48, 5658275.69]}}, {"type": "Feature", "properties": {"k": "bench", "a": 195}, "geometry": {"type": "Point", "coordinates": [413919.42, 5658275.08]}}, {"type": "Feature", "properties": {"k": "bike", "n": 6, "a": 220}, "geometry": {"type": "Point", "coordinates": [412072.17, 5658779.76]}}, {"type": "Feature", "properties": {"k": "bike", "n": 3, "a": 29}, "geometry": {"type": "Point", "coordinates": [412086.05, 5659500.21]}}, {"type": "Feature", "properties": {"k": "bike", "n": 1, "a": 209}, "geometry": {"type": "Point", "coordinates": [412097.97, 5659503.59]}}, {"type": "Feature", "properties": {"k": "bike", "n": 1, "a": 208}, "geometry": {"type": "Point", "coordinates": [412078.51, 5659513.8]}}, {"type": "Feature", "properties": {"k": "bench", "a": 272}, "geometry": {"type": "Point", "coordinates": [412406.36, 5658907.54]}}, {"type": "Feature", "properties": {"k": "bench", "a": 202}, "geometry": {"type": "Point", "coordinates": [412403.21, 5658912.69]}}, {"type": "Feature", "properties": {"k": "bench", "a": 153}, "geometry": {"type": "Point", "coordinates": [412397.58, 5658912.64]}}, {"type": "Feature", "properties": {"k": "bench", "a": 336}, "geometry": {"type": "Point", "coordinates": [412403.0, 5658900.47]}}, {"type": "Feature", "properties": {"k": "bench", "a": 301}, "geometry": {"type": "Point", "coordinates": [412399.86, 5658899.96]}}, {"type": "Feature", "properties": {"k": "bench", "a": 121}, "geometry": {"type": "Point", "coordinates": [412395.89, 5658901.59]}}, {"type": "Feature", "properties": {"k": "bench", "a": 66}, "geometry": {"type": "Point", "coordinates": [412394.17, 5658905.03]}}, {"type": "Feature", "properties": {"k": "bench", "a": 238}, "geometry": {"type": "Point", "coordinates": [413164.05, 5658936.12]}}, {"type": "Feature", "properties": {"k": "bench", "a": 172}, "geometry": {"type": "Point", "coordinates": [413140.09, 5658948.86]}}, {"type": "Feature", "properties": {"k": "bin"}, "geometry": {"type": "Point", "coordinates": [413081.66, 5658993.67]}}, {"type": "Feature", "properties": {"k": "bin"}, "geometry": {"type": "Point", "coordinates": [413109.38, 5659061.49]}}, {"type": "Feature", "properties": {"k": "bin"}, "geometry": {"type": "Point", "coordinates": [412979.66, 5659131.59]}}, {"type": "Feature", "properties": {"k": "bench", "a": 208}, "geometry": {"type": "Point", "coordinates": [412980.86, 5659130.18]}}, {"type": "Feature", "properties": {"k": "bench", "a": 209}, "geometry": {"type": "Point", "coordinates": [413017.69, 5659110.75]}}, {"type": "Feature", "properties": {"k": "bin"}, "geometry": {"type": "Point", "coordinates": [413014.78, 5659111.55]}}, {"type": "Feature", "properties": {"k": "bike", "n": 1, "a": 96}, "geometry": {"type": "Point", "coordinates": [412920.52, 5659361.63]}}, {"type": "Feature", "properties": {"k": "bike", "n": 1, "a": 312}, "geometry": {"type": "Point", "coordinates": [413495.08, 5658531.68]}}, {"type": "Feature", "properties": {"k": "bin"}, "geometry": {"type": "Point", "coordinates": [412758.98, 5659476.67]}}, {"type": "Feature", "properties": {"k": "bin"}, "geometry": {"type": "Point", "coordinates": [412770.35, 5659465.01]}}, {"type": "Feature", "properties": {"k": "bench", "a": 166}, "geometry": {"type": "Point", "coordinates": [412792.6, 5659456.88]}}, {"type": "Feature", "properties": {"k": "bench", "a": 237}, "geometry": {"type": "Point", "coordinates": [412763.13, 5659471.54]}}, {"type": "Feature", "properties": {"k": "bench", "a": 130}, "geometry": {"type": "Point", "coordinates": [412803.33, 5659461.63]}}, {"type": "Feature", "properties": {"k": "bench", "a": 206}, "geometry": {"type": "Point", "coordinates": [412779.58, 5659460.66]}}, {"type": "Feature", "properties": {"k": "bench", "a": 218}, "geometry": {"type": "Point", "coordinates": [412768.96, 5659466.5]}}, {"type": "Feature", "properties": {"k": "bench", "a": 284}, "geometry": {"type": "Point", "coordinates": [412808.17, 5659333.8]}}, {"type": "Feature", "properties": {"k": "bike", "n": 6, "a": 210}, "geometry": {"type": "Point", "coordinates": [412725.84, 5658123.02]}}, {"type": "Feature", "properties": {"k": "bin"}, "geometry": {"type": "Point", "coordinates": [412706.27, 5658124.64]}}, {"type": "Feature", "properties": {"k": "bin"}, "geometry": {"type": "Point", "coordinates": [412737.16, 5658080.17]}}, {"type": "Feature", "properties": {"k": "postbox", "a": 195}, "geometry": {"type": "Point", "coordinates": [412409.28, 5658538.12]}}, {"type": "Feature", "properties": {"k": "bin"}, "geometry": {"type": "Point", "coordinates": [412210.87, 5658568.97]}}, {"type": "Feature", "properties": {"k": "bin"}, "geometry": {"type": "Point", "coordinates": [412489.4, 5659080.37]}}, {"type": "Feature", "properties": {"k": "bench", "a": 180}, "geometry": {"type": "Point", "coordinates": [412471.53, 5659087.46]}}, {"type": "Feature", "properties": {"k": "bench", "a": 204}, "geometry": {"type": "Point", "coordinates": [412478.44, 5659086.01]}}, {"type": "Feature", "properties": {"k": "bench", "a": 204}, "geometry": {"type": "Point", "coordinates": [412490.29, 5659079.72]}}, {"type": "Feature", "properties": {"k": "bin"}, "geometry": {"type": "Point", "coordinates": [412473.25, 5659087.32]}}, {"type": "Feature", "properties": {"k": "bench", "a": 204}, "geometry": {"type": "Point", "coordinates": [412491.39, 5659079.18]}}, {"type": "Feature", "properties": {"k": "hydrantsign", "a": 251}, "geometry": {"type": "Point", "coordinates": [412945.61, 5659150.68]}}, {"type": "Feature", "properties": {"k": "bike", "n": 5, "a": 28}, "geometry": {"type": "Point", "coordinates": [413786.17, 5658811.23]}}, {"type": "Feature", "properties": {"k": "bench", "back": false, "a": 279}, "geometry": {"type": "Point", "coordinates": [413030.44, 5658291.63]}}, {"type": "Feature", "properties": {"k": "bench", "back": false, "a": 55}, "geometry": {"type": "Point", "coordinates": [413016.74, 5658297.13]}}, {"type": "Feature", "properties": {"k": "bench", "back": false, "a": 268}, "geometry": {"type": "Point", "coordinates": [413033.37, 5658286.59]}}, {"type": "Feature", "properties": {"k": "bench", "a": 201}, "geometry": {"type": "Point", "coordinates": [412874.16, 5658332.36]}}, {"type": "Feature", "properties": {"k": "bin"}, "geometry": {"type": "Point", "coordinates": [412872.72, 5658332.92]}}, {"type": "Feature", "properties": {"k": "bench", "a": 88}, "geometry": {"type": "Point", "coordinates": [413014.43, 5658286.57]}}, {"type": "Feature", "properties": {"k": "bench", "a": 88}, "geometry": {"type": "Point", "coordinates": [413018.21, 5658284.13]}}, {"type": "Feature", "properties": {"k": "bin"}, "geometry": {"type": "Point", "coordinates": [412986.98, 5659051.55]}}, {"type": "Feature", "properties": {"k": "bench", "a": 304}, "geometry": {"type": "Point", "coordinates": [413129.52, 5659013.76]}}, {"type": "Feature", "properties": {"k": "bench", "a": 305}, "geometry": {"type": "Point", "coordinates": [412857.63, 5659110.66]}}, {"type": "Feature", "properties": {"k": "bench", "a": 28}, "geometry": {"type": "Point", "coordinates": [412984.81, 5659052.8]}}, {"type": "Feature", "properties": {"k": "bin"}, "geometry": {"type": "Point", "coordinates": [413017.43, 5658298.38]}}, {"type": "Feature", "properties": {"k": "bench", "a": 260}, "geometry": {"type": "Point", "coordinates": [413046.73, 5658279.41]}}, {"type": "Feature", "properties": {"k": "bench", "a": 268}, "geometry": {"type": "Point", "coordinates": [413048.48, 5658282.55]}}, {"type": "Feature", "properties": {"k": "bin"}, "geometry": {"type": "Point", "coordinates": [413021.07, 5658281.72]}}, {"type": "Feature", "properties": {"k": "bin"}, "geometry": {"type": "Point", "coordinates": [413047.26, 5658280.45]}}, {"type": "Feature", "properties": {"k": "bin"}, "geometry": {"type": "Point", "coordinates": [412943.94, 5658303.77]}}, {"type": "Feature", "properties": {"k": "bin"}, "geometry": {"type": "Point", "coordinates": [413013.07, 5658352.99]}}, {"type": "Feature", "properties": {"k": "bench", "a": 344}, "geometry": {"type": "Point", "coordinates": [412965.29, 5658330.94]}}, {"type": "Feature", "properties": {"k": "bench", "a": 344}, "geometry": {"type": "Point", "coordinates": [412949.15, 5658327.97]}}, {"type": "Feature", "properties": {"k": "bench", "a": 220}, "geometry": {"type": "Point", "coordinates": [412962.91, 5658286.26]}}, {"type": "Feature", "properties": {"k": "bench", "a": 344}, "geometry": {"type": "Point", "coordinates": [412993.34, 5658339.05]}}, {"type": "Feature", "properties": {"k": "bench", "a": 171}, "geometry": {"type": "Point", "coordinates": [413014.76, 5658352.24]}}, {"type": "Feature", "properties": {"k": "bin"}, "geometry": {"type": "Point", "coordinates": [412965.32, 5658285.11]}}, {"type": "Feature", "properties": {"k": "bin"}, "geometry": {"type": "Point", "coordinates": [413003.88, 5658357.25]}}, {"type": "Feature", "properties": {"k": "column"}, "geometry": {"type": "Point", "coordinates": [412446.8, 5658482.82]}}, {"type": "Feature", "properties": {"k": "bike", "n": 1}, "geometry": {"type": "Point", "coordinates": [412737.09, 5659214.31]}}, {"type": "Feature", "properties": {"k": "bike", "n": 12, "a": 211}, "geometry": {"type": "Point", "coordinates": [412733.77, 5659162.63]}}, {"type": "Feature", "properties": {"k": "bike", "n": 12, "a": 211}, "geometry": {"type": "Point", "coordinates": [412797.22, 5659124.63]}}, {"type": "Feature", "properties": {"k": "bike", "n": 4, "a": 198}, "geometry": {"type": "Point", "coordinates": [412253.34, 5658026.39]}}, {"type": "Feature", "properties": {"k": "bike", "n": 5, "a": 30}, "geometry": {"type": "Point", "coordinates": [412963.01, 5659577.52]}}, {"type": "Feature", "properties": {"k": "bin"}, "geometry": {"type": "Point", "coordinates": [412416.48, 5658038.6]}}, {"type": "Feature", "properties": {"k": "bin"}, "geometry": {"type": "Point", "coordinates": [412418.43, 5658030.01]}}, {"type": "Feature", "properties": {"k": "bike", "n": 10, "a": 294}, "geometry": {"type": "Point", "coordinates": [412836.47, 5658089.26]}}, {"type": "Feature", "properties": {"k": "bench", "a": 296}, "geometry": {"type": "Point", "coordinates": [413972.82, 5658634.82]}}, {"type": "Feature", "properties": {"k": "bench", "a": 27}, "geometry": {"type": "Point", "coordinates": [413990.77, 5658343.6]}}, {"type": "Feature", "properties": {"k": "bench", "a": 27}, "geometry": {"type": "Point", "coordinates": [413992.49, 5658339.86]}}, {"type": "Feature", "properties": {"k": "bike", "n": 1, "a": 27}, "geometry": {"type": "Point", "coordinates": [412611.73, 5658428.64]}}, {"type": "Feature", "properties": {"k": "column"}, "geometry": {"type": "Point", "coordinates": [412628.85, 5658439.29]}}, {"type": "Feature", "properties": {"k": "bike", "n": 4, "a": 298}, "geometry": {"type": "Point", "coordinates": [412824.04, 5659274.24]}}, {"type": "Feature", "properties": {"k": "bike", "n": 2, "a": 298}, "geometry": {"type": "Point", "coordinates": [412830.02, 5659283.73]}}, {"type": "Feature", "properties": {"k": "bike", "n": 6, "a": 118}, "geometry": {"type": "Point", "coordinates": [412864.66, 5659275.53]}}, {"type": "Feature", "properties": {"k": "bench", "a": 91}, "geometry": {"type": "Point", "coordinates": [412810.13, 5659340.8]}}, {"type": "Feature", "properties": {"k": "bench", "a": 163}, "geometry": {"type": "Point", "coordinates": [412810.03, 5659349.75]}}, {"type": "Feature", "properties": {"k": "bench", "a": 104}, "geometry": {"type": "Point", "coordinates": [412806.96, 5659342.18]}}, {"type": "Feature", "properties": {"k": "bench", "a": 183}, "geometry": {"type": "Point", "coordinates": [412813.13, 5659347.97]}}, {"type": "Feature", "properties": {"k": "bike", "n": 1, "a": 104}, "geometry": {"type": "Point", "coordinates": [413162.28, 5658783.88]}}, {"type": "Feature", "properties": {"k": "column"}, "geometry": {"type": "Point", "coordinates": [412345.84, 5658300.71]}}, {"type": "Feature", "properties": {"k": "column"}, "geometry": {"type": "Point", "coordinates": [412994.16, 5659316.46]}}, {"type": "Feature", "properties": {"k": "column"}, "geometry": {"type": "Point", "coordinates": [412427.7, 5658932.41]}}, {"type": "Feature", "properties": {"k": "bike", "n": 2, "a": 294}, "geometry": {"type": "Point", "coordinates": [413013.07, 5658111.75]}}, {"type": "Feature", "properties": {"k": "bin"}, "geometry": {"type": "Point", "coordinates": [412387.16, 5659255.37]}}, {"type": "Feature", "properties": {"k": "bin"}, "geometry": {"type": "Point", "coordinates": [412395.29, 5659251.22]}}, {"type": "Feature", "properties": {"k": "hydrantsign", "a": 203}, "geometry": {"type": "Point", "coordinates": [412343.37, 5658226.94]}}, {"type": "Feature", "properties": {"k": "hydrantsign", "a": 295}, "geometry": {"type": "Point", "coordinates": [412421.95, 5658125.96]}}, {"type": "Feature", "properties": {"k": "hydrantsign", "a": 203}, "geometry": {"type": "Point", "coordinates": [412407.13, 5658199.84]}}, {"type": "Feature", "properties": {"k": "bike", "n": 6, "a": 287}, "geometry": {"type": "Point", "coordinates": [412226.67, 5658037.44]}}, {"type": "Feature", "properties": {"k": "bike", "n": 7, "a": 290}, "geometry": {"type": "Point", "coordinates": [412238.6, 5658076.46]}}, {"type": "Feature", "properties": {"k": "hydrantsign", "a": 115}, "geometry": {"type": "Point", "coordinates": [412392.22, 5658075.98]}}, {"type": "Feature", "properties": {"k": "bin"}, "geometry": {"type": "Point", "coordinates": [413972.17, 5658633.46]}}, {"type": "Feature", "properties": {"k": "bollard", "metal": true}, "geometry": {"type": "Point", "coordinates": [413971.12, 5658646.7]}}, {"type": "Feature", "properties": {"k": "bench", "a": 193}, "geometry": {"type": "Point", "coordinates": [412725.05, 5658519.11]}}, {"type": "Feature", "properties": {"k": "bench", "a": 193}, "geometry": {"type": "Point", "coordinates": [412729.11, 5658519.88]}}, {"type": "Feature", "properties": {"k": "bench", "a": 193}, "geometry": {"type": "Point", "coordinates": [412733.26, 5658520.85]}}, {"type": "Feature", "properties": {"k": "bench", "back": false, "a": 190}, "geometry": {"type": "Point", "coordinates": [412743.37, 5658624.16]}}, {"type": "Feature", "properties": {"k": "bench", "a": 190}, "geometry": {"type": "Point", "coordinates": [412743.94, 5658626.77]}}, {"type": "Feature", "properties": {"k": "bench", "a": 190}, "geometry": {"type": "Point", "coordinates": [412744.4, 5658629.2]}}, {"type": "Feature", "properties": {"k": "bike", "n": 1, "a": 172}, "geometry": {"type": "Point", "coordinates": [412741.77, 5658623.55]}}, {"type": "Feature", "properties": {"k": "bike", "n": 1, "a": 172}, "geometry": {"type": "Point", "coordinates": [412741.01, 5658623.47]}}, {"type": "Feature", "properties": {"k": "bike", "n": 1, "a": 172}, "geometry": {"type": "Point", "coordinates": [412740.26, 5658623.36]}}, {"type": "Feature", "properties": {"k": "bike", "n": 1, "a": 172}, "geometry": {"type": "Point", "coordinates": [412739.46, 5658623.26]}}, {"type": "Feature", "properties": {"k": "bike", "n": 1, "a": 206}, "geometry": {"type": "Point", "coordinates": [412679.01, 5658353.93]}}, {"type": "Feature", "properties": {"k": "bin"}, "geometry": {"type": "Point", "coordinates": [412245.08, 5658585.18]}}, {"type": "Feature", "properties": {"k": "bike", "n": 4, "a": 114}, "geometry": {"type": "Point", "coordinates": [412767.28, 5658061.21]}}, {"type": "Feature", "properties": {"k": "bin"}, "geometry": {"type": "Point", "coordinates": [413883.94, 5658284.99]}}, {"type": "Feature", "properties": {"k": "bike", "n": 4, "a": 29}, "geometry": {"type": "Point", "coordinates": [413716.3, 5658848.28]}}, {"type": "Feature", "properties": {"k": "bike", "n": 2, "a": 119}, "geometry": {"type": "Point", "coordinates": [413725.26, 5658797.89]}}, {"type": "Feature", "properties": {"k": "bike", "n": 2, "a": 119}, "geometry": {"type": "Point", "coordinates": [413727.95, 5658801.75]}}, {"type": "Feature", "properties": {"k": "bike", "n": 2, "a": 119}, "geometry": {"type": "Point", "coordinates": [413724.16, 5658726.77]}}, {"type": "Feature", "properties": {"k": "bike", "n": 2, "a": 299}, "geometry": {"type": "Point", "coordinates": [413662.87, 5658788.85]}}, {"type": "Feature", "properties": {"k": "bike", "n": 2, "a": 29}, "geometry": {"type": "Point", "coordinates": [413703.44, 5658780.89]}}, {"type": "Feature", "properties": {"k": "bike", "n": 2, "a": 299}, "geometry": {"type": "Point", "coordinates": [413656.0, 5658777.1]}}, {"type": "Feature", "properties": {"k": "bench", "a": 295}, "geometry": {"type": "Point", "coordinates": [413957.49, 5658610.84]}}, {"type": "Feature", "properties": {"k": "bike", "n": 2, "a": 29}, "geometry": {"type": "Point", "coordinates": [413696.18, 5658784.77]}}, {"type": "Feature", "properties": {"k": "bin"}, "geometry": {"type": "Point", "coordinates": [413956.24, 5658607.92]}}, {"type": "Feature", "properties": {"k": "bike", "n": 2, "a": 298}, "geometry": {"type": "Point", "coordinates": [413724.89, 5658770.1]}}, {"type": "Feature", "properties": {"k": "bike", "n": 2, "a": 299}, "geometry": {"type": "Point", "coordinates": [413746.04, 5658807.32]}}, {"type": "Feature", "properties": {"k": "bike", "n": 2, "a": 119}, "geometry": {"type": "Point", "coordinates": [413696.4, 5658739.84]}}, {"type": "Feature", "properties": {"k": "bike", "n": 2, "a": 298}, "geometry": {"type": "Point", "coordinates": [413715.94, 5658754.0]}}, {"type": "Feature", "properties": {"k": "bike", "n": 2, "a": 117}, "geometry": {"type": "Point", "coordinates": [413781.42, 5658761.1]}}, {"type": "Feature", "properties": {"k": "bike", "n": 2, "a": 300}, "geometry": {"type": "Point", "coordinates": [413737.19, 5658719.45]}}, {"type": "Feature", "properties": {"k": "bike", "n": 2, "a": 119}, "geometry": {"type": "Point", "coordinates": [413689.79, 5658728.73]}}, {"type": "Feature", "properties": {"k": "bike", "n": 2, "a": 28}, "geometry": {"type": "Point", "coordinates": [413722.48, 5658845.92]}}, {"type": "Feature", "properties": {"k": "bike", "n": 2, "a": 299}, "geometry": {"type": "Point", "coordinates": [413736.15, 5658790.5]}}, {"type": "Feature", "properties": {"k": "bike", "n": 3, "a": 299}, "geometry": {"type": "Point", "coordinates": [413801.93, 5658772.03]}}, {"type": "Feature", "properties": {"k": "bike", "n": 5, "a": 28}, "geometry": {"type": "Point", "coordinates": [413656.56, 5658752.9]}}, {"type": "Feature", "properties": {"k": "bench", "a": 159}, "geometry": {"type": "Point", "coordinates": [412281.78, 5659588.14]}}, {"type": "Feature", "properties": {"k": "bench", "a": 116}, "geometry": {"type": "Point", "coordinates": [413148.97, 5658806.29]}}, {"type": "Feature", "properties": {"k": "bin"}, "geometry": {"type": "Point", "coordinates": [412236.88, 5659409.91]}}, {"type": "Feature", "properties": {"k": "bench", "a": 250}, "geometry": {"type": "Point", "coordinates": [412237.32, 5659406.07]}}, {"type": "Feature", "properties": {"k": "bench", "a": 333}, "geometry": {"type": "Point", "coordinates": [412247.48, 5659406.35]}}, {"type": "Feature", "properties": {"k": "signal", "a": 303}, "geometry": {"type": "Point", "coordinates": [412586.18, 5659237.03]}}, {"type": "Feature", "properties": {"k": "signal", "a": 120}, "geometry": {"type": "Point", "coordinates": [412601.43, 5659228.43]}}, {"type": "Feature", "properties": {"k": "hydrantsign", "a": 243}, "geometry": {"type": "Point", "coordinates": [413901.93, 5658122.15]}}, {"type": "Feature", "properties": {"k": "hydrantsign", "a": 326}, "geometry": {"type": "Point", "coordinates": [413732.33, 5658006.75]}}, {"type": "Feature", "properties": {"k": "hydrantsign", "a": 145}, "geometry": {"type": "Point", "coordinates": [413876.07, 5658101.09]}}, {"type": "Feature", "properties": {"k": "hydrantsign", "a": 325}, "geometry": {"type": "Point", "coordinates": [413846.16, 5658099.13]}}, {"type": "Feature", "properties": {"k": "hydrantsign", "a": 146}, "geometry": {"type": "Point", "coordinates": [413947.22, 5658150.58]}}, {"type": "Feature", "properties": {"k": "hydrantsign", "a": 325}, "geometry": {"type": "Point", "coordinates": [413823.66, 5658083.55]}}, {"type": "Feature", "properties": {"k": "hydrantsign", "a": 245}, "geometry": {"type": "Point", "coordinates": [413729.68, 5658001.54]}}, {"type": "Feature", "properties": {"k": "hydrantsign", "a": 65}, "geometry": {"type": "Point", "coordinates": [413943.58, 5658022.99]}}, {"type": "Feature", "properties": {"k": "hydrantsign", "a": 145}, "geometry": {"type": "Point", "coordinates": [413711.54, 5658012.02]}}, {"type": "Feature", "properties": {"k": "hydrantsign", "a": 145}, "geometry": {"type": "Point", "coordinates": [413787.43, 5658038.55]}}, {"type": "Feature", "properties": {"k": "hydrantsign", "a": 242}, "geometry": {"type": "Point", "coordinates": [413855.48, 5658212.15]}}, {"type": "Feature", "properties": {"k": "hydrantsign", "a": 205}, "geometry": {"type": "Point", "coordinates": [413423.18, 5658038.3]}}, {"type": "Feature", "properties": {"k": "hydrantsign", "a": 143}, "geometry": {"type": "Point", "coordinates": [413545.81, 5658119.32]}}, {"type": "Feature", "properties": {"k": "hydrantsign", "a": 292}, "geometry": {"type": "Point", "coordinates": [413550.62, 5658338.49]}}, {"type": "Feature", "properties": {"k": "hydrantsign", "a": 15}, "geometry": {"type": "Point", "coordinates": [413763.81, 5658280.85]}}, {"type": "Feature", "properties": {"k": "hydrantsign", "a": 143}, "geometry": {"type": "Point", "coordinates": [413467.57, 5658060.31]}}, {"type": "Feature", "properties": {"k": "hydrantsign", "a": 292}, "geometry": {"type": "Point", "coordinates": [413518.04, 5658253.26]}}, {"type": "Feature", "properties": {"k": "hydrantsign", "a": 324}, "geometry": {"type": "Point", "coordinates": [413436.38, 5658031.09]}}, {"type": "Feature", "properties": {"k": "hydrantsign", "a": 326}, "geometry": {"type": "Point", "coordinates": [413688.06, 5658093.67]}}, {"type": "Feature", "properties": {"k": "hydrantsign", "a": 245}, "geometry": {"type": "Point", "coordinates": [413702.37, 5658064.56]}}, {"type": "Feature", "properties": {"k": "hydrantsign", "a": 292}, "geometry": {"type": "Point", "coordinates": [413550.5, 5658338.73]}}, {"type": "Feature", "properties": {"k": "hydrantsign", "a": 143}, "geometry": {"type": "Point", "coordinates": [413635.62, 5658188.13]}}, {"type": "Feature", "properties": {"k": "bollard"}, "geometry": {"type": "Point", "coordinates": [413436.82, 5658032.28]}}, {"type": "Feature", "properties": {"k": "hydrantsign", "a": 29}, "geometry": {"type": "Point", "coordinates": [413505.88, 5658683.08]}}, {"type": "Feature", "properties": {"k": "hydrantsign", "a": 30}, "geometry": {"type": "Point", "coordinates": [413505.03, 5658684.7]}}, {"type": "Feature", "properties": {"k": "hydrantsign", "a": 28}, "geometry": {"type": "Point", "coordinates": [413515.22, 5658679.98]}}, {"type": "Feature", "properties": {"k": "bollard"}, "geometry": {"type": "Point", "coordinates": [413708.98, 5658738.09]}}, {"type": "Feature", "properties": {"k": "bollard"}, "geometry": {"type": "Point", "coordinates": [413755.35, 5658712.76]}}, {"type": "Feature", "properties": {"k": "hydrantsign", "a": 210}, "geometry": {"type": "Point", "coordinates": [413661.85, 5658601.64]}}, {"type": "Feature", "properties": {"k": "bench", "a": 27}, "geometry": {"type": "Point", "coordinates": [413989.2, 5658338.67]}}, {"type": "Feature", "properties": {"k": "hydrantsign", "a": 209}, "geometry": {"type": "Point", "coordinates": [413871.68, 5658493.22]}}, {"type": "Feature", "properties": {"k": "hydrantsign", "a": 29}, "geometry": {"type": "Point", "coordinates": [413872.56, 5658489.28]}}, {"type": "Feature", "properties": {"k": "hydrantsign", "a": 294}, "geometry": {"type": "Point", "coordinates": [412812.39, 5658046.81]}}, {"type": "Feature", "properties": {"k": "bin"}, "geometry": {"type": "Point", "coordinates": [413594.99, 5659778.25]}}, {"type": "Feature", "properties": {"k": "bin"}, "geometry": {"type": "Point", "coordinates": [413587.67, 5659771.76]}}, {"type": "Feature", "properties": {"k": "bollard"}, "geometry": {"type": "Point", "coordinates": [413563.91, 5659770.4]}}, {"type": "Feature", "properties": {"k": "bin"}, "geometry": {"type": "Point", "coordinates": [413594.25, 5659768.33]}}, {"type": "Feature", "properties": {"k": "bin"}, "geometry": {"type": "Point", "coordinates": [413570.94, 5659780.91]}}, {"type": "Feature", "properties": {"k": "bench", "a": 97}, "geometry": {"type": "Point", "coordinates": [412434.17, 5659044.38]}}, {"type": "Feature", "properties": {"k": "bench", "a": 97}, "geometry": {"type": "Point", "coordinates": [412433.36, 5659039.25]}}, {"type": "Feature", "properties": {"k": "bench", "a": 210}, "geometry": {"type": "Point", "coordinates": [412416.13, 5658929.41]}}, {"type": "Feature", "properties": {"k": "bike", "n": 12, "a": 299}, "geometry": {"type": "Point", "coordinates": [413804.46, 5658655.73]}}, {"type": "Feature", "properties": {"k": "bike", "n": 1, "a": 29}, "geometry": {"type": "Point", "coordinates": [413849.89, 5658776.95]}}, {"type": "Feature", "properties": {"k": "bench", "a": 29}, "geometry": {"type": "Point", "coordinates": [413704.93, 5658686.94]}}, {"type": "Feature", "properties": {"k": "bench", "a": 29}, "geometry": {"type": "Point", "coordinates": [413713.08, 5658682.83]}}, {"type": "Feature", "properties": {"k": "bench", "a": 209}, "geometry": {"type": "Point", "coordinates": [413717.94, 5658687.13]}}, {"type": "Feature", "properties": {"k": "bench", "a": 209}, "geometry": {"type": "Point", "coordinates": [413706.53, 5658693.68]}}, {"type": "Feature", "properties": {"k": "bench", "a": 299}, "geometry": {"type": "Point", "coordinates": [413699.46, 5658711.68]}}, {"type": "Feature", "properties": {"k": "bench", "a": 299}, "geometry": {"type": "Point", "coordinates": [413697.51, 5658710.83]}}, {"type": "Feature", "properties": {"k": "bench", "a": 299}, "geometry": {"type": "Point", "coordinates": [413225.47, 5659473.65]}}, {"type": "Feature", "properties": {"k": "bench", "a": 299}, "geometry": {"type": "Point", "coordinates": [413222.56, 5659467.84]}}, {"type": "Feature", "properties": {"k": "bench", "a": 28}, "geometry": {"type": "Point", "coordinates": [413251.42, 5659454.05]}}, {"type": "Feature", "properties": {"k": "bench", "a": 207}, "geometry": {"type": "Point", "coordinates": [413250.3, 5659451.88]}}, {"type": "Feature", "properties": {"k": "bench", "a": 180}, "geometry": {"type": "Point", "coordinates": [412065.41, 5658507.42]}}, {"type": "Feature", "properties": {"k": "bin"}, "geometry": {"type": "Point", "coordinates": [412374.48, 5658526.88]}}, {"type": "Feature", "properties": {"k": "bench", "a": 230}, "geometry": {"type": "Point", "coordinates": [412448.49, 5659060.52]}}, {"type": "Feature", "properties": {"k": "bench", "a": 241}, "geometry": {"type": "Point", "coordinates": [412445.71, 5659056.95]}}, {"type": "Feature", "properties": {"k": "bin"}, "geometry": {"type": "Point", "coordinates": [412447.47, 5659059.15]}}, {"type": "Feature", "properties": {"k": "bench", "a": 23}, "geometry": {"type": "Point", "coordinates": [412441.3, 5659079.26]}}, {"type": "Feature", "properties": {"k": "bench", "a": 23}, "geometry": {"type": "Point", "coordinates": [412443.39, 5659079.2]}}, {"type": "Feature", "properties": {"k": "bin"}, "geometry": {"type": "Point", "coordinates": [412444.67, 5659079.17]}}, {"type": "Feature", "properties": {"k": "bollard"}, "geometry": {"type": "Point", "coordinates": [413444.98, 5658720.3]}}, {"type": "Feature", "properties": {"k": "bollard"}, "geometry": {"type": "Point", "coordinates": [412460.79, 5658521.68]}}, {"type": "Feature", "properties": {"k": "bin"}, "geometry": {"type": "Point", "coordinates": [412460.27, 5658520.71]}}, {"type": "Feature", "properties": {"k": "signal", "a": 106}, "geometry": {"type": "Point", "coordinates": [412226.57, 5658577.81]}}, {"type": "Feature", "properties": {"k": "bin"}, "geometry": {"type": "Point", "coordinates": [412695.15, 5658508.86]}}, {"type": "Feature", "properties": {"k": "bin"}, "geometry": {"type": "Point", "coordinates": [412773.12, 5658488.21]}}, {"type": "Feature", "properties": {"k": "postbox", "a": 139}, "geometry": {"type": "Point", "coordinates": [412699.11, 5658101.74]}}, {"type": "Feature", "properties": {"k": "picnic", "a": 124}, "geometry": {"type": "Point", "coordinates": [412762.94, 5658462.84]}}, {"type": "Feature", "properties": {"k": "stop", "a": 80}, "geometry": {"type": "Point", "coordinates": [413495.66, 5658607.82]}}, {"type": "Feature", "properties": {"k": "stop", "a": 80}, "geometry": {"type": "Point", "coordinates": [413524.85, 5658448.78]}}, {"type": "Feature", "properties": {"k": "stop", "a": 2}, "geometry": {"type": "Point", "coordinates": [412078.98, 5658166.59]}}, {"type": "Feature", "properties": {"k": "stop", "a": 119}, "geometry": {"type": "Point", "coordinates": [412586.7, 5659194.67]}}, {"type": "Feature", "properties": {"k": "stop", "a": 119}, "geometry": {"type": "Point", "coordinates": [412569.26, 5659184.96]}}, {"type": "Feature", "properties": {"k": "stop", "a": 252}, "geometry": {"type": "Point", "coordinates": [412244.37, 5659322.23]}}, {"type": "Feature", "properties": {"k": "stop", "a": 72}, "geometry": {"type": "Point", "coordinates": [412235.61, 5659374.31]}}, {"type": "Feature", "properties": {"k": "stop", "a": 245}, "geometry": {"type": "Point", "coordinates": [412116.41, 5659641.0]}}, {"type": "Feature", "properties": {"k": "stop", "a": 295}, "geometry": {"type": "Point", "coordinates": [413163.85, 5659649.19]}}, {"type": "Feature", "properties": {"k": "stop", "a": 115}, "geometry": {"type": "Point", "coordinates": [413147.81, 5659638.67]}}, {"type": "Feature", "properties": {"k": "stop", "a": 311}, "geometry": {"type": "Point", "coordinates": [412884.0, 5659181.07]}}, {"type": "Feature", "properties": {"k": "stop", "a": 131}, "geometry": {"type": "Point", "coordinates": [412917.82, 5659191.87]}}, {"type": "Feature", "properties": {"k": "stop", "a": 13}, "geometry": {"type": "Point", "coordinates": [412184.69, 5658146.25]}}, {"type": "Feature", "properties": {"k": "bench", "a": 30, "l": 6.1, "back": false}, "geometry": {"type": "Point", "coordinates": [413605.38, 5659776.31]}}, {"type": "Feature", "properties": {"k": "bench", "a": 29, "l": 5.5, "back": false}, "geometry": {"type": "Point", "coordinates": [413581.65, 5659788.92]}}, {"type": "Feature", "properties": {"k": "bench", "a": 301, "l": 5.1, "back": false}, "geometry": {"type": "Point", "coordinates": [413593.32, 5659775.12]}}, {"type": "Feature", "properties": {"k": "bench", "a": 121, "l": 5.1, "back": false}, "geometry": {"type": "Point", "coordinates": [413592.6, 5659765.2]}}, {"type": "Feature", "properties": {"k": "bench", "a": 119, "l": 5.3, "back": false}, "geometry": {"type": "Point", "coordinates": [413586.01, 5659768.55]}}, {"type": "Feature", "properties": {"k": "bench", "a": 120, "l": 5.1, "back": false}, "geometry": {"type": "Point", "coordinates": [413569.27, 5659777.77]}}, {"type": "Feature", "properties": {"k": "playground"}, "geometry": {"type": "Polygon", "coordinates": [[[412696.23, 5658426.53], [412708.66, 5658420.77], [412717.99, 5658440.76], [412705.58, 5658446.53], [412696.23, 5658426.53]]]}}, {"type": "Feature", "properties": {"k": "playground"}, "geometry": {"type": "Polygon", "coordinates": [[[412718.7, 5658443.13], [412734.57, 5658467.27], [412733.83, 5658469.44], [412730.38, 5658470.69], [412725.23, 5658471.1], [412719.67, 5658468.82], [412713.88, 5658462.8], [412706.72, 5658448.76], [412718.7, 5658443.13]]]}}, {"type": "Feature", "properties": {"k": "playground"}, "geometry": {"type": "Polygon", "coordinates": [[[412385.28, 5658149.14], [412416.19, 5658134.48], [412436.05, 5658176.93], [412426.16, 5658181.27], [412422.15, 5658172.76], [412414.58, 5658176.32], [412413.16, 5658173.07], [412412.78, 5658173.23], [412411.86, 5658171.45], [412408.8, 5658170.33], [412405.67, 5658171.7], [412402.19, 5658164.74], [412394.07, 5658168.59], [412385.28, 5658149.14]]]}}, {"type": "Feature", "properties": {"k": "playground"}, "geometry": {"type": "Polygon", "coordinates": [[[412152.42, 5659010.66], [412156.14, 5659013.09], [412166.16, 5659012.12], [412164.11, 5658996.82], [412158.72, 5658997.43], [412155.7, 5658999.96], [412155.1, 5659003.21], [412151.33, 5659003.7], [412152.42, 5659010.66]]]}}, {"type": "Feature", "properties": {"k": "playground"}, "geometry": {"type": "Polygon", "coordinates": [[[412889.99, 5658175.16], [412911.79, 5658164.56], [412901.0, 5658141.82], [412879.21, 5658152.42], [412889.99, 5658175.16]]]}}, {"type": "Feature", "properties": {"k": "playground"}, "geometry": {"type": "Polygon", "coordinates": [[[412207.06, 5658738.8], [412226.15, 5658737.25], [412224.88, 5658716.06], [412204.74, 5658717.86], [412206.54, 5658734.54], [412207.75, 5658736.35], [412206.76, 5658737.19], [412207.06, 5658738.8]]]}}, {"type": "Feature", "properties": {"k": "playground"}, "geometry": {"type": "Polygon", "coordinates": [[[412824.11, 5658023.49], [412832.43, 5658017.91], [412825.11, 5657998.34], [412815.81, 5658003.46], [412824.11, 5658023.49]]]}}, {"type": "Feature", "properties": {"k": "playground"}, "geometry": {"type": "Polygon", "coordinates": [[[412094.24, 5659580.66], [412090.58, 5659578.77], [412087.86, 5659576.94], [412084.78, 5659573.54], [412083.27, 5659570.78], [412081.74, 5659566.6], [412081.73, 5659562.67], [412083.23, 5659558.61], [412085.84, 5659556.31], [412090.67, 5659554.93], [412095.22, 5659555.83], [412098.71, 5659557.87], [412102.97, 5659560.97], [412106.22, 5659565.33], [412108.12, 5659569.06], [412108.81, 5659574.1], [412107.9, 5659578.06], [412105.72, 5659580.3], [412101.97, 5659581.44], [412098.03, 5659581.39], [412094.24, 5659580.66]]]}}, {"type": "Feature", "properties": {"k": "playground"}, "geometry": {"type": "Polygon", "coordinates": [[[412054.38, 5659024.39], [412052.58, 5659005.46], [412072.21, 5659003.61], [412071.11, 5658992.01], [412095.92, 5658989.66], [412097.23, 5659003.32], [412098.13, 5659003.22], [412098.98, 5659011.78], [412104.26, 5659011.41], [412100.7, 5658974.07], [412087.74, 5658976.45], [412087.23, 5658975.64], [412067.79, 5658979.13], [412068.14, 5658983.25], [412059.52, 5658984.61], [412059.88, 5658989.11], [412048.37, 5658990.6], [412051.35, 5659024.68], [412054.38, 5659024.39]]]}}, {"type": "Feature", "properties": {"k": "playground"}, "geometry": {"type": "Polygon", "coordinates": [[[412720.64, 5658510.81], [412721.13, 5658513.82], [412722.67, 5658516.05], [412725.5, 5658516.37], [412728.96, 5658515.76], [412733.85, 5658516.23], [412738.01, 5658517.75], [412741.63, 5658519.95], [412744.17, 5658520.56], [412746.23, 5658520.15], [412749.87, 5658518.59], [412751.12, 5658514.63], [412754.5, 5658508.95], [412754.19, 5658506.65], [412749.64, 5658499.43], [412739.45, 5658505.1], [412728.13, 5658509.15], [412720.64, 5658510.81]]]}}, {"type": "Feature", "properties": {"k": "playground"}, "geometry": {"type": "Polygon", "coordinates": [[[412169.16, 5659129.71], [412189.86, 5659128.02], [412188.0, 5659105.42], [412167.3, 5659107.12], [412169.16, 5659129.71]]]}}, {"type": "Feature", "properties": {"k": "playground"}, "geometry": {"type": "Polygon", "coordinates": [[[412158.62, 5659137.4], [412138.59, 5659139.7], [412141.62, 5659174.99], [412162.16, 5659173.06], [412158.62, 5659137.4]]]}}, {"type": "Feature", "properties": {"k": "playground"}, "geometry": {"type": "Polygon", "coordinates": [[[412140.86, 5659133.34], [412140.04, 5659120.93], [412154.61, 5659119.97], [412155.44, 5659132.38], [412140.86, 5659133.34]]]}}, {"type": "Feature", "properties": {"k": "playground"}, "geometry": {"type": "Polygon", "coordinates": [[[412735.7, 5658609.17], [412737.52, 5658611.15], [412740.67, 5658609.89], [412733.09, 5658591.16], [412730.29, 5658592.59], [412731.83, 5658594.81], [412731.08, 5658598.16], [412730.99, 5658600.1], [412732.02, 5658603.08], [412735.13, 5658606.07], [412737.46, 5658607.7], [412735.7, 5658609.17]]]}}, {"type": "Feature", "properties": {"k": "playground"}, "geometry": {"type": "Polygon", "coordinates": [[[413675.75, 5658683.57], [413676.92, 5658680.03], [413722.49, 5658654.82], [413724.93, 5658656.33], [413743.84, 5658691.52], [413696.37, 5658717.32], [413685.1, 5658699.49], [413675.75, 5658683.57]]]}}, {"type": "Feature", "properties": {"k": "playground"}, "geometry": {"type": "Polygon", "coordinates": [[[413980.35, 5658351.21], [413988.23, 5658346.85], [413984.02, 5658339.29], [413976.14, 5658343.64], [413980.35, 5658351.21]]]}}, {"type": "Feature", "properties": {"k": "climb"}, "geometry": {"type": "Point", "coordinates": [412741.57, 5658511.51]}}, {"type": "Feature", "properties": {"k": "slide"}, "geometry": {"type": "Point", "coordinates": [412424.63, 5658165.8]}}, {"type": "Feature", "properties": {"k": "seesaw"}, "geometry": {"type": "Point", "coordinates": [412414.58, 5658148.2]}}, {"type": "Feature", "properties": {"k": "swing"}, "geometry": {"type": "Point", "coordinates": [412412.91, 5658144.99]}}, {"type": "Feature", "properties": {"k": "swing"}, "geometry": {"type": "Point", "coordinates": [412874.47, 5659377.68]}}, {"type": "Feature", "properties": {"k": "climb", "a": 27}, "geometry": {"type": "Point", "coordinates": [412731.71, 5658602.46]}}, {"type": "Feature", "properties": {"k": "sandpit"}, "geometry": {"type": "Polygon", "coordinates": [[[412434.85, 5659074.95], [412441.95, 5659058.35], [412448.0, 5659070.16], [412434.85, 5659074.95]]]}}, {"type": "Feature", "properties": {"k": "sandpit"}, "geometry": {"type": "Polygon", "coordinates": [[[413698.21, 5658702.22], [413698.88, 5658700.62], [413701.14, 5658699.09], [413703.72, 5658698.2], [413705.93, 5658699.01], [413709.69, 5658697.8], [413712.96, 5658696.25], [413723.88, 5658687.82], [413725.22, 5658684.87], [413731.6, 5658681.68], [413732.9, 5658681.7], [413734.85, 5658682.56], [413738.17, 5658687.18], [413738.0, 5658689.03], [413736.3, 5658691.39], [413733.6, 5658694.12], [413708.37, 5658707.75], [413706.57, 5658707.78], [413702.52, 5658706.96], [413700.25, 5658705.41], [413698.21, 5658702.22]]]}}]}