{"type": "FeatureCollection", "attribution": "Quelle: GeoSN, dl-de/by-2-0", "crs": {"type": "name", "properties": {"name": "urn:ogc:def:crs:EPSG::25833"}}, "features": [{"type": "Feature", "properties": {}, "geometry": {"type": "LineString", "coordinates": [[414000.49, 5658074.08], [414003.42, 5658075.2], [414079.59, 5658110.8], [414080.57, 5658111.01], [414080.9, 5658110.84], [414081.54, 5658110.07], [414082.76, 5658105.96], [414110.7, 5658000.49]]}}, {"type": "Feature", "properties": {}, "geometry": {"type": "LineString", "coordinates": [[414000.49, 5658193.81], [414030.04, 5658213.38], [414039.55, 5658219.21], [414047.36, 5658223.82], [414048.34, 5658223.97], [414049.27, 5658223.14], [414052.61, 5658215.33], [414079.54, 5658117.68], [414079.41, 5658116.7], [414078.61, 5658116.02], [414073.73, 5658113.52], [414000.49, 5658079.45]]}}, {"type": "Feature", "properties": {}, "geometry": {"type": "LineString", "coordinates": [[414000.49, 5658411.47], [414003.42, 5658410.13], [414066.89, 5658374.75], [414119.63, 5658342.8], [414150.92, 5658325.68], [414152.19, 5658324.71], [414152.83, 5658323.73], [414157.93, 5658312.99], [414160.16, 5658306.15], [414160.6, 5658304.2], [414160.64, 5658302.25], [414160.6, 5658298.34], [414159.9, 5658294.43], [414156.97, 5658287.6], [414155.76, 5658286.21], [414154.79, 5658285.77], [414143.07, 5658282.95], [414133.3, 5658279.7], [414129.39, 5658278.08], [414115.72, 5658271.24], [414082.52, 5658252.41], [414048.34, 5658230.31], [414027.83, 5658217.93], [414000.49, 5658199.89]]}}, {"type": "Feature", "properties": {}, "geometry": {"type": "LineString", "coordinates": [[414000.49, 5658637.06], [414011.23, 5658631.35], [414012.21, 5658631.01], [414013.18, 5658631.04], [414014.16, 5658631.65], [414015.38, 5658633.3], [414036.16, 5658671.39], [414039.55, 5658677.22], [414041.5, 5658678.87], [414044.43, 5658680.26], [414046.39, 5658680.65], [414048.34, 5658680.38], [414149.92, 5658635.25], [414184.08, 5658620.82], [414254.39, 5658590.33], [414259.28, 5658587.9], [414280.76, 5658578.12], [414289.55, 5658573.73], [414298.34, 5658569.09], [414312.99, 5658560.51], [414340.82, 5658541.5], [414341.96, 5658540.53], [414342.15, 5658539.55], [414338.04, 5658531.74], [414337.4, 5658529.79], [414335.91, 5658526.86], [414332.55, 5658521.97], [414309.05, 5658479.0], [414302.25, 5658471.65], [414288.57, 5658460.67], [414287.39, 5658459.47], [414286.81, 5658458.5], [414286.81, 5658457.52], [414287.4, 5658456.54], [414288.57, 5658455.74], [414289.55, 5658455.63], [414290.53, 5658455.96], [414304.2, 5658466.66], [414310.79, 5658473.14], [414313.12, 5658476.07], [414345.21, 5658534.67], [414346.19, 5658536.15], [414347.17, 5658536.52], [414348.14, 5658536.11], [414353.03, 5658532.36], [414361.82, 5658525.26], [414421.39, 5658479.14], [414439.94, 5658463.6], [414442.23, 5658461.43], [414442.23, 5658460.45], [414436.04, 5658454.37], [414433.85, 5658452.64], [414430.45, 5658448.73], [414426.62, 5658443.85], [414423.37, 5658438.96], [414421.88, 5658436.04], [414419.69, 5658430.18], [414416.39, 5658415.53], [414414.55, 5658409.68], [414412.6, 5658406.69], [414410.64, 5658405.3], [414408.69, 5658404.42], [414403.81, 5658403.33], [414401.86, 5658403.2], [414399.9, 5658403.56], [414394.04, 5658405.63], [414385.25, 5658412.08], [414381.35, 5658414.06], [414377.44, 5658414.99], [414372.56, 5658415.52], [414368.65, 5658415.48], [414367.68, 5658415.27], [414360.84, 5658412.81], [414358.89, 5658411.62], [414356.93, 5658410.05], [414352.28, 5658404.79], [414349.61, 5658402.83], [414348.14, 5658402.01], [414342.29, 5658400.57], [414339.36, 5658400.88], [414329.59, 5658400.92], [414327.64, 5658401.32], [414324.71, 5658401.38], [414321.78, 5658401.85], [414318.85, 5658401.87], [414315.92, 5658402.33], [414312.99, 5658402.39], [414311.04, 5658402.79], [414307.13, 5658402.88], [414303.22, 5658403.45], [414291.5, 5658405.99], [414290.53, 5658406.06], [414289.55, 5658405.72], [414288.5, 5658404.79], [414288.2, 5658403.81], [414288.57, 5658402.5], [414289.55, 5658401.53], [414292.48, 5658400.64], [414305.18, 5658398.08], [414309.08, 5658397.9], [414311.04, 5658397.51], [414314.94, 5658397.41], [414316.89, 5658397.02], [414319.82, 5658396.96], [414322.75, 5658396.5], [414325.68, 5658396.47], [414329.59, 5658395.77], [414330.35, 5658395.02], [414331.54, 5658391.11], [414332.47, 5658387.21], [414333.31, 5658381.35], [414333.06, 5658379.39], [414332.96, 5658374.51], [414331.94, 5658370.61], [414331.5, 5658369.63], [414330.57, 5658368.54], [414326.66, 5658366.62], [414262.21, 5658347.85], [414261.1, 5658347.17], [414260.43, 5658346.19], [414260.32, 5658345.21], [414260.66, 5658344.24], [414261.23, 5658343.57], [414262.21, 5658342.96], [414263.18, 5658342.92], [414267.09, 5658344.0], [414325.68, 5658361.09], [414330.57, 5658362.8], [414334.47, 5658365.11], [414335.9, 5658366.7], [414336.66, 5658368.65], [414337.84, 5658373.54], [414337.94, 5658377.44], [414338.33, 5658379.39], [414338.33, 5658382.32], [414337.28, 5658389.16], [414336.01, 5658394.04], [414336.23, 5658395.02], [414337.4, 5658395.45], [414343.26, 5658395.56], [414349.12, 5658397.09], [414351.07, 5658397.82], [414355.59, 5658400.88], [414359.86, 5658405.99], [414361.82, 5658407.55], [414363.77, 5658408.6], [414368.65, 5658410.24], [414370.61, 5658410.63], [414376.46, 5658410.03], [414379.39, 5658409.38], [414383.3, 5658407.36], [414392.09, 5658400.91], [414400.88, 5658398.0], [414405.76, 5658398.56], [414409.67, 5658399.53], [414411.62, 5658400.18], [414413.57, 5658401.21], [414415.53, 5658402.61], [414416.72, 5658403.81], [414418.13, 5658405.76], [414419.16, 5658407.71], [414421.27, 5658414.55], [414424.08, 5658427.25], [414426.06, 5658433.11], [414427.98, 5658437.01], [414432.13, 5658442.87], [414436.04, 5658447.49], [414440.92, 5658452.36], [414442.87, 5658453.89], [414445.8, 5658456.68], [414446.78, 5658456.9], [414447.32, 5658456.54], [414449.93, 5658453.61], [414469.72, 5658426.27], [414484.84, 5658402.83], [414487.22, 5658398.93], [414487.31, 5658397.95], [414486.29, 5658396.97], [414482.91, 5658395.27], [414459.47, 5658384.27], [414425.29, 5658367.81], [414422.36, 5658364.91], [414420.93, 5658362.79], [414419.03, 5658358.89], [414416.5, 5658352.06], [414415.53, 5658351.38], [414412.6, 5658351.61], [414400.88, 5658353.47], [414397.95, 5658353.5], [414393.07, 5658352.9], [414383.3, 5658350.47], [414374.51, 5658347.57], [414306.15, 5658323.49], [414258.3, 5658309.82], [414220.21, 5658301.42], [414219.24, 5658301.52], [414218.5, 5658302.25], [414216.52, 5658310.06], [414214.6, 5658313.96], [414213.13, 5658315.92], [414209.47, 5658319.55], [414192.87, 5658332.66], [414185.06, 5658337.86], [414181.15, 5658340.3], [414163.57, 5658349.64], [414006.35, 5658437.47], [414000.49, 5658440.57]]}}, {"type": "Feature", "properties": {}, "geometry": {"type": "LineString", "coordinates": [[414000.49, 5658525.73], [414002.44, 5658524.87], [414069.82, 5658487.54], [414082.74, 5658479.98], [414083.7, 5658479.0], [414083.98, 5658477.05], [414083.54, 5658474.12], [414083.49, 5658470.21], [414083.03, 5658467.29], [414083.13, 5658466.31], [414085.25, 5658456.54], [414089.85, 5658448.73], [414094.51, 5658442.87], [414096.19, 5658441.44], [414105.27, 5658436.04], [414115.72, 5658431.78], [414118.65, 5658431.63], [414121.58, 5658431.16], [414128.42, 5658431.2], [414130.37, 5658431.59], [414133.3, 5658431.77], [414142.09, 5658434.49], [414144.04, 5658435.39], [414151.86, 5658440.21], [414152.83, 5658440.45], [414153.81, 5658440.17], [414169.43, 5658430.91], [414252.44, 5658385.01], [414253.42, 5658384.58], [414254.39, 5658384.47], [414255.96, 5658385.25], [414256.65, 5658386.23], [414256.68, 5658387.21], [414256.35, 5658388.06], [414255.37, 5658389.1], [414251.46, 5658391.35], [414170.41, 5658436.06], [414150.88, 5658447.73], [414088.38, 5658482.45], [414071.78, 5658492.16], [414003.42, 5658530.03], [414000.49, 5658531.39]]}}, {"type": "Feature", "properties": {}, "geometry": {"type": "LineString", "coordinates": [[414000.49, 5658642.71], [414010.25, 5658637.49], [414011.23, 5658637.32], [414012.21, 5658638.0], [414034.21, 5658678.22], [414036.11, 5658681.15], [414039.55, 5658683.57], [414043.46, 5658685.26], [414045.41, 5658685.55], [414049.32, 5658685.41], [414152.83, 5658639.44], [414189.94, 5658623.75], [414248.54, 5658598.36], [414283.69, 5658582.27], [414300.24, 5658573.73], [414314.94, 5658565.1], [414346.19, 5658543.94], [414424.32, 5658483.13], [414447.75, 5658463.6], [414453.26, 5658457.52], [414468.89, 5658436.04], [414475.74, 5658426.27], [414491.37, 5658401.86], [414492.68, 5658400.33], [414493.65, 5658400.01], [414504.39, 5658402.71], [414514.16, 5658404.25], [414544.43, 5658404.31], [414547.36, 5658404.77], [414556.15, 5658404.8], [414557.13, 5658405.01], [414557.93, 5658405.76], [414560.79, 5658415.53], [414568.27, 5658436.04], [414613.2, 5658568.85], [414614.1, 5658570.8], [414616.57, 5658574.71], [414619.63, 5658577.85], [414622.56, 5658580.21], [414649.9, 5658595.73], [414662.6, 5658603.87], [414666.5, 5658606.79], [414674.48, 5658612.79], [414679.2, 5658617.4], [414681.15, 5658618.92], [414686.04, 5658623.75], [414687.99, 5658625.27], [414691.89, 5658629.15], [414694.56, 5658631.35], [414698.73, 5658635.5], [414701.66, 5658637.94], [414705.57, 5658641.84], [414708.23, 5658644.04], [414712.24, 5658647.95], [414713.38, 5658648.63], [414714.36, 5658648.87], [414715.33, 5658648.75], [414716.38, 5658647.95], [414716.74, 5658646.97], [414716.74, 5658646.0], [414716.4, 5658645.02], [414715.57, 5658644.04], [414712.4, 5658641.36], [414708.23, 5658637.21], [414705.83, 5658635.25], [414701.66, 5658631.13], [414699.71, 5658629.61], [414694.82, 5658624.78], [414692.87, 5658623.26], [414687.99, 5658618.43], [414686.04, 5658616.92], [414681.15, 5658612.09], [414679.2, 5658610.57], [414676.27, 5658607.77], [414664.55, 5658599.15], [414653.81, 5658592.31], [414625.49, 5658576.14], [414621.45, 5658572.75], [414619.96, 5658570.8], [414618.28, 5658567.87], [414614.75, 5658557.85], [414571.86, 5658431.15], [414565.06, 5658412.6], [414563.34, 5658405.76], [414563.68, 5658404.79], [414564.94, 5658404.34], [414572.75, 5658404.25], [414575.68, 5658403.81], [414582.52, 5658403.8], [414585.45, 5658403.33], [414593.26, 5658403.31], [414596.19, 5658402.84], [414603.03, 5658402.83], [414606.93, 5658402.35], [414613.77, 5658402.33], [414616.7, 5658401.87], [414623.54, 5658401.85], [414627.44, 5658401.37], [414634.28, 5658401.37], [414637.21, 5658400.92], [414645.02, 5658400.87], [414647.95, 5658400.4], [414654.79, 5658400.39], [414658.69, 5658399.9], [414665.53, 5658399.89], [414668.46, 5658399.43], [414676.27, 5658399.41], [414680.18, 5658398.93], [414687.99, 5658398.92], [414690.92, 5658398.45], [414699.71, 5658398.44], [414703.61, 5658397.95], [414713.38, 5658397.94], [414716.31, 5658397.47], [414726.07, 5658397.46], [414728.03, 5658397.28], [414733.89, 5658397.59], [414735.84, 5658398.34], [414737.79, 5658399.77], [414738.91, 5658400.88], [414740.08, 5658402.83], [414740.71, 5658405.76], [414740.77, 5658423.34], [414741.79, 5658427.25], [414743.52, 5658431.15], [414746.91, 5658437.01], [414753.28, 5658446.78], [414762.48, 5658458.5], [414765.9, 5658462.4], [414771.7, 5658468.26], [414782.01, 5658479.98], [414801.54, 5658499.51], [414820.8, 5658515.27], [414853.03, 5658541.01], [414868.65, 5658551.73], [414910.64, 5658576.41], [414928.22, 5658585.2], [414931.15, 5658586.43], [414981.93, 5658611.32], [414984.86, 5658612.55], [414999.51, 5658619.87], [415043.46, 5658640.63], [415054.2, 5658646.0], [415084.47, 5658662.36], [415098.57, 5658670.41], [415116.26, 5658682.13], [415116.71, 5658683.11], [415115.45, 5658687.01], [415090.61, 5658751.46], [415088.92, 5658756.35], [415088.99, 5658759.28], [415089.65, 5658762.21], [415090.83, 5658764.16], [415093.26, 5658767.21], [415094.24, 5658767.78], [415111.82, 5658775.0], [415113.22, 5658775.88], [415113.56, 5658776.86], [415113.35, 5658777.83], [415110.27, 5658786.62], [415109.01, 5658791.5], [415108.45, 5658794.43], [415108.56, 5658799.32], [415107.65, 5658800.29], [415104.0, 5658801.22], [415101.07, 5658801.71], [415096.19, 5658801.62], [415093.26, 5658800.26], [415089.36, 5658796.66], [415088.38, 5658796.02], [415051.27, 5658782.97], [415050.29, 5658782.82], [415049.32, 5658783.06], [415048.5, 5658783.69], [415048.01, 5658784.67], [415048.0, 5658785.64], [415048.41, 5658786.62], [415049.32, 5658787.44], [415050.29, 5658787.84], [415084.47, 5658799.89], [415086.43, 5658801.05], [415089.36, 5658803.84], [415094.24, 5658806.36], [415099.12, 5658807.07], [415103.03, 5658806.51], [415108.89, 5658805.23], [415109.86, 5658805.28], [415110.84, 5658805.9], [415117.52, 5658818.85], [415159.34, 5658884.28], [415174.18, 5658905.76], [415176.27, 5658907.96], [415179.2, 5658910.29], [415181.15, 5658911.34], [415188.96, 5658914.46], [415255.37, 5658940.29], [415262.21, 5658940.43], [415265.14, 5658940.74], [415270.02, 5658939.37], [415274.34, 5658937.01], [415277.83, 5658934.32], [415279.03, 5658933.11], [415280.43, 5658931.15], [415282.63, 5658927.25], [415290.44, 5658906.74], [415292.56, 5658900.88], [415294.19, 5658895.02], [415294.86, 5658889.16], [415289.68, 5658864.75], [415289.5, 5658860.84], [415289.11, 5658858.89], [415289.07, 5658854.98], [415291.13, 5658844.24], [415297.57, 5658825.68], [415301.14, 5658812.99], [415302.15, 5658804.2], [415301.15, 5658799.32], [415300.17, 5658796.39], [415300.18, 5658795.41], [415302.25, 5658795.12], [415303.22, 5658794.53], [415304.2, 5658794.44], [415305.18, 5658794.73], [415320.8, 5658800.54], [415323.73, 5658802.14], [415326.66, 5658802.65], [415340.33, 5658807.54], [415355.96, 5658812.37], [415357.91, 5658812.35], [415358.89, 5658811.78], [415359.37, 5658811.04], [415359.57, 5658810.06], [415359.28, 5658809.08], [415357.91, 5658807.9], [415351.07, 5658805.58], [415297.36, 5658788.65], [415296.39, 5658788.18], [415295.41, 5658787.35], [415290.53, 5658782.01], [415287.6, 5658779.65], [415283.69, 5658777.11], [415274.9, 5658772.74], [415241.7, 5658758.51], [415235.84, 5658755.61], [415200.68, 5658735.81], [415174.32, 5658718.26], [415146.97, 5658699.36], [415121.15, 5658679.2], [415120.49, 5658678.22], [415121.09, 5658676.27], [415124.27, 5658670.41], [415130.53, 5658660.64], [415131.55, 5658658.69], [415133.26, 5658652.83], [415133.74, 5658649.9], [415133.91, 5658646.0], [415133.18, 5658642.09], [415131.75, 5658637.21], [415123.32, 5658616.7], [415122.07, 5658612.79], [415120.15, 5658604.98], [415119.19, 5658599.12], [415119.19, 5658594.24], [415119.75, 5658590.33], [415121.86, 5658583.5], [415124.3, 5658577.64], [415126.22, 5658573.73], [415150.57, 5658533.69], [415151.86, 5658532.6], [415152.83, 5658532.78], [415178.22, 5658546.87], [415181.15, 5658548.25], [415185.06, 5658549.55], [415187.99, 5658549.8], [415191.89, 5658549.27], [415199.71, 5658546.75], [415209.21, 5658539.55], [415215.38, 5658533.69], [415217.04, 5658531.74], [415222.87, 5658525.88], [415230.12, 5658517.09], [415248.4, 5658491.7], [415249.51, 5658490.35], [415250.49, 5658489.94], [415251.46, 5658490.52], [415253.66, 5658492.68], [415263.94, 5658504.39], [415266.82, 5658507.32], [415268.34, 5658509.28], [415288.57, 5658529.54], [415312.99, 5658550.16], [415313.36, 5658551.27], [415310.68, 5658555.18], [415286.0, 5658587.4], [415282.71, 5658592.29], [415266.95, 5658613.77], [415265.95, 5658615.72], [415266.21, 5658616.7], [415267.09, 5658617.5], [415268.07, 5658617.77], [415269.04, 5658617.59], [415270.22, 5658616.7], [415286.98, 5658594.24], [415315.92, 5658556.47], [415316.89, 5658555.26], [415317.87, 5658554.74], [415318.85, 5658555.07], [415330.57, 5658565.16], [415451.66, 5658663.93], [415507.32, 5658711.07], [415534.67, 5658733.13], [415581.54, 5658769.88], [415695.8, 5658862.79], [415738.77, 5658894.69], [415789.55, 5658928.55], [415888.18, 5658990.08], [415894.04, 5658994.0], [415924.96, 5659016.11], [415944.82, 5659032.5], [415950.9, 5659038.57], [415952.42, 5659040.53], [415962.4, 5659051.11], [415973.28, 5659063.96], [415976.21, 5659067.87], [415986.81, 5659082.52], [415998.38, 5659100.1], [415999.51, 5659101.41]]}}, {"type": "Feature", "properties": {}, "geometry": {"type": "LineString", "coordinates": [[414000.49, 5659167.47], [414014.16, 5659165.54], [414017.09, 5659165.52], [414021.0, 5659165.04], [414028.81, 5659165.04], [414031.74, 5659165.48], [414034.67, 5659165.57], [414043.46, 5659167.4], [414051.27, 5659170.93], [414057.13, 5659174.08], [414060.69, 5659176.27], [414067.6, 5659182.13], [414075.16, 5659190.92], [414079.34, 5659197.75], [414084.19, 5659207.52], [414103.31, 5659255.37], [414149.99, 5659370.61], [414187.22, 5659461.43], [414220.0, 5659542.48], [414234.49, 5659576.66], [414240.26, 5659587.4], [414247.56, 5659598.79], [414278.81, 5659634.61], [414307.97, 5659673.34], [414321.05, 5659688.96], [414333.5, 5659701.41], [414336.43, 5659703.86], [414343.26, 5659710.59], [414404.79, 5659754.89], [414408.69, 5659758.08], [414417.48, 5659765.95], [414423.95, 5659774.9], [414433.51, 5659798.34], [414434.04, 5659800.29], [414435.01, 5659806.15], [414435.07, 5659810.06], [414435.55, 5659813.96], [414435.55, 5659834.47], [414435.1, 5659837.4], [414435.05, 5659845.21], [414434.58, 5659848.14], [414434.52, 5659853.03], [414431.51, 5659873.54], [414414.83, 5659911.62], [414391.68, 5659980.96], [414385.34, 5659997.56], [414384.82, 5659999.51]]}}, {"type": "Feature", "properties": {}, "geometry": {"type": "LineString", "coordinates": [[414000.49, 5659172.36], [414002.44, 5659172.32], [414015.14, 5659170.42], [414019.04, 5659170.4], [414022.95, 5659169.92], [414027.83, 5659169.93], [414030.76, 5659170.4], [414033.69, 5659170.46], [414041.5, 5659172.01], [414048.34, 5659175.05], [414055.18, 5659178.74], [414058.11, 5659180.67], [414062.99, 5659184.81], [414066.16, 5659187.99], [414070.44, 5659192.87], [414075.68, 5659201.24], [414078.83, 5659207.52], [414091.59, 5659239.75], [414146.57, 5659375.49], [414183.02, 5659464.36], [414215.42, 5659544.43], [414229.01, 5659576.66], [414233.89, 5659586.38], [414237.33, 5659592.29], [414243.03, 5659601.07], [414274.55, 5659637.21], [414303.09, 5659675.29], [414318.6, 5659693.85], [414322.75, 5659698.0], [414325.68, 5659700.44], [414337.4, 5659712.13], [414340.33, 5659714.57], [414402.83, 5659759.63], [414411.62, 5659767.36], [414414.28, 5659770.02], [414419.81, 5659777.83], [414428.91, 5659800.29], [414430.17, 5659808.11], [414430.19, 5659812.01], [414430.65, 5659814.94], [414430.66, 5659827.64], [414430.19, 5659831.54], [414430.13, 5659843.26], [414429.74, 5659845.21], [414429.64, 5659852.05], [414427.12, 5659869.63], [414426.47, 5659872.56], [414425.29, 5659875.47], [414410.24, 5659909.67], [414387.78, 5659977.05], [414379.44, 5659999.51]]}}, {"type": "Feature", "properties": {}, "geometry": {"type": "LineString", "coordinates": [[414181.53, 5658000.49], [414184.12, 5658001.46], [414197.75, 5658004.98], [414238.77, 5658016.26], [414242.68, 5658016.4], [414244.63, 5658016.76], [414246.58, 5658016.55], [414247.32, 5658016.11], [414243.65, 5658015.45], [414231.93, 5658012.6], [414195.8, 5658002.71], [414188.84, 5658000.49]]}}, {"type": "Feature", "properties": {}, "geometry": {"type": "LineString", "coordinates": [[414213.75, 5658000.49], [414219.24, 5658002.32], [414229.0, 5658004.65], [414243.65, 5658008.66], [414250.49, 5658010.21], [414257.32, 5658010.77], [414258.3, 5658010.72], [414258.91, 5658010.25], [414259.25, 5658009.28], [414260.69, 5658000.49]]}}, {"type": "Feature", "properties": {}, "geometry": {"type": "LineString", "coordinates": [[414285.21, 5658000.49], [414285.6, 5658002.44], [414286.26, 5658009.28], [414286.62, 5658009.95], [414287.6, 5658010.29], [414293.46, 5658008.7], [414312.01, 5658001.67], [414314.5, 5658000.49]]}}, {"type": "Feature", "properties": {}, "geometry": {"type": "LineString", "coordinates": [[414325.31, 5658000.49], [414325.68, 5658001.47], [414326.66, 5658001.62], [414329.65, 5658000.49]]}}, {"type": "Feature", "properties": {}, "geometry": {"type": "LineString", "coordinates": [[414349.2, 5658000.49], [414333.5, 5658005.29], [414309.08, 5658013.59], [414291.5, 5658020.11], [414289.63, 5658021.0], [414289.16, 5658021.97], [414291.5, 5658026.01], [414292.48, 5658026.67], [414294.43, 5658026.86], [414295.41, 5658027.48], [414296.39, 5658027.74], [414304.2, 5658026.87], [414307.13, 5658026.81], [414309.08, 5658026.42], [414312.01, 5658026.35], [414314.94, 5658025.89], [414317.87, 5658025.83], [414319.82, 5658025.44], [414323.73, 5658025.34], [414325.68, 5658024.95], [414334.47, 5658024.37], [414336.43, 5658023.97], [414340.33, 5658023.88], [414342.29, 5658023.49], [414346.19, 5658023.39], [414348.14, 5658022.99], [414352.05, 5658022.9], [414354.0, 5658022.51], [414357.91, 5658022.41], [414359.86, 5658022.02], [414363.77, 5658021.93], [414364.75, 5658021.69], [414365.84, 5658021.0], [414366.11, 5658020.02], [414362.45, 5658000.49]]}}, {"type": "Feature", "properties": {}, "geometry": {"type": "LineString", "coordinates": [[414376.02, 5658000.49], [414375.27, 5658002.44], [414375.18, 5658003.42], [414378.67, 5658017.09], [414379.39, 5658018.65], [414380.37, 5658019.66], [414381.35, 5658020.22], [414383.3, 5658020.5], [414385.25, 5658020.25], [414390.14, 5658018.79], [414396.97, 5658016.51], [414400.88, 5658014.86], [414411.62, 5658009.77], [414428.25, 5658000.49]]}}, {"type": "Feature", "properties": {}, "geometry": {"type": "LineString", "coordinates": [[414460.1, 5658000.49], [414458.97, 5658001.46], [414447.75, 5658008.79], [414427.25, 5658023.11], [414414.55, 5658030.27], [414403.81, 5658035.64], [414397.95, 5658038.3], [414377.44, 5658045.78], [414365.72, 5658048.7], [414354.0, 5658050.91], [414345.21, 5658052.86], [414342.29, 5658053.63], [414341.31, 5658054.1], [414340.89, 5658055.18], [414341.3, 5658058.11], [414341.35, 5658062.01], [414341.8, 5658064.94], [414341.78, 5658080.57], [414341.24, 5658082.52], [414340.33, 5658083.41], [414339.36, 5658083.69], [414338.38, 5658083.43], [414337.4, 5658082.62], [414336.97, 5658081.54], [414336.9, 5658077.64], [414336.44, 5658074.71], [414336.42, 5658060.06], [414335.88, 5658056.15], [414335.45, 5658055.09], [414334.47, 5658054.75], [414333.5, 5658054.74], [414331.54, 5658055.13], [414327.64, 5658055.22], [414325.68, 5658055.62], [414321.78, 5658055.65], [414318.85, 5658055.19], [414314.94, 5658055.13], [414312.99, 5658054.74], [414309.08, 5658054.68], [414306.15, 5658054.21], [414304.2, 5658054.15], [414286.62, 5658051.71], [414273.93, 5658047.97], [414271.97, 5658047.7], [414271.21, 5658048.34], [414270.56, 5658052.25], [414263.54, 5658110.84], [414256.39, 5658158.69], [414256.41, 5658160.64], [414257.32, 5658161.5], [414260.25, 5658161.98], [414263.18, 5658162.16], [414269.04, 5658163.04], [414279.79, 5658164.11], [414294.43, 5658166.0], [414296.39, 5658166.06], [414322.75, 5658169.39], [414330.57, 5658170.0], [414340.33, 5658166.14], [414366.7, 5658159.31], [414411.62, 5658149.36], [414425.64, 5658146.0], [414428.22, 5658145.59], [414443.85, 5658141.73], [414496.58, 5658129.76], [414501.46, 5658128.51], [414502.44, 5658127.97], [414502.77, 5658127.44], [414503.42, 5658123.54], [414503.42, 5658100.1], [414503.9, 5658096.19], [414503.91, 5658072.75], [414504.39, 5658068.85], [414504.35, 5658062.01], [414503.91, 5658059.08], [414503.9, 5658047.36], [414503.42, 5658043.46], [414503.41, 5658031.74], [414502.4, 5658022.95], [414501.34, 5658017.09], [414495.75, 5658000.49]]}}, {"type": "Feature", "properties": {}, "geometry": {"type": "LineString", "coordinates": [[414501.03, 5658000.49], [414506.09, 5658015.14], [414507.28, 5658021.97], [414508.25, 5658029.79], [414508.3, 5658039.55], [414508.79, 5658043.46], [414508.79, 5658055.18], [414509.28, 5658059.08], [414509.27, 5658075.68], [414508.79, 5658079.59], [414508.78, 5658103.03], [414508.31, 5658105.96], [414508.3, 5658130.37], [414507.81, 5658134.28], [414507.8, 5658157.71], [414507.32, 5658161.62], [414507.33, 5658170.41], [414507.81, 5658174.32], [414507.81, 5658231.93], [414508.3, 5658235.84], [414508.3, 5658250.49], [414508.78, 5658254.39], [414508.3, 5658256.23], [414507.32, 5658257.26], [414506.35, 5658257.62], [414505.37, 5658257.5], [414504.39, 5658256.8], [414503.68, 5658255.37], [414503.42, 5658253.42], [414503.41, 5658245.61], [414502.94, 5658242.68], [414502.93, 5658188.96], [414502.44, 5658184.08], [414502.44, 5658154.79], [414502.93, 5658150.88], [414502.92, 5658136.23], [414502.61, 5658134.28], [414501.46, 5658133.82], [414500.49, 5658133.92], [414489.75, 5658136.36], [414442.87, 5658147.1], [414438.96, 5658148.09], [414438.16, 5658148.93], [414438.14, 5658149.9], [414438.72, 5658152.83], [414459.43, 5658247.56], [414459.48, 5658249.51], [414459.95, 5658252.44], [414459.91, 5658256.35], [414459.71, 5658257.32], [414457.0, 5658265.14], [414453.61, 5658271.0], [414451.18, 5658275.88], [414449.14, 5658280.76], [414446.82, 5658288.57], [414446.77, 5658291.5], [414446.31, 5658294.43], [414446.77, 5658297.36], [414446.9, 5658301.27], [414448.73, 5658308.83], [414449.8, 5658312.01], [414456.82, 5658329.59], [414457.52, 5658331.04], [414458.5, 5658331.73], [414460.45, 5658331.3], [414563.96, 5658296.79], [414620.61, 5658281.0], [414623.54, 5658280.04], [414623.89, 5658279.79], [414624.29, 5658278.81], [414553.96, 5658049.32], [414550.42, 5658033.69], [414547.9, 5658015.14], [414547.84, 5658012.21], [414547.37, 5658009.28], [414547.35, 5658006.35], [414546.89, 5658003.42], [414546.88, 5658000.49]]}}, {"type": "Feature", "properties": {}, "geometry": {"type": "LineString", "coordinates": [[414551.76, 5658000.49], [414551.81, 5658002.44], [414552.2, 5658004.39], [414552.29, 5658008.3], [414552.69, 5658010.25], [414552.75, 5658013.18], [414554.74, 5658028.81], [414555.3, 5658032.71], [414558.36, 5658046.39], [414628.34, 5658274.9], [414629.39, 5658277.56], [414630.37, 5658278.15], [414636.23, 5658276.86], [414683.11, 5658264.65], [414701.66, 5658260.01], [414710.45, 5658258.05], [414712.68, 5658257.32], [414713.17, 5658256.35], [414711.91, 5658253.42], [414710.21, 5658250.49], [414701.41, 5658232.91], [414699.71, 5658229.98], [414691.89, 5658214.36], [414690.19, 5658211.43], [414681.39, 5658193.85], [414679.69, 5658190.92], [414671.39, 5658174.32], [414669.22, 5658170.41], [414630.01, 5658050.29], [414629.44, 5658046.39], [414629.4, 5658043.46], [414631.14, 5658036.62], [414651.22, 5658000.49]]}}, {"type": "Feature", "properties": {}, "geometry": {"type": "LineString", "coordinates": [[414656.88, 5658000.49], [414653.29, 5658007.32], [414636.23, 5658037.6], [414635.38, 5658039.55], [414634.34, 5658044.43], [414635.17, 5658050.29], [414672.22, 5658163.57], [414672.36, 5658163.85], [414673.34, 5658164.3], [414680.9, 5658159.67], [414746.58, 5658117.35], [414750.42, 5658114.75], [414751.08, 5658113.77], [414750.94, 5658112.79], [414746.1, 5658103.03], [414744.87, 5658100.1], [414701.66, 5658010.71], [414698.86, 5658004.39], [414698.24, 5658000.49]]}}, {"type": "Feature", "properties": {}, "geometry": {"type": "LineString", "coordinates": [[414703.18, 5658000.49], [414703.9, 5658003.42], [414705.08, 5658006.35], [414710.44, 5658017.09], [414717.78, 5658032.71], [414741.94, 5658082.52], [414743.17, 5658085.45], [414748.53, 5658096.19], [414749.76, 5658099.12], [414755.37, 5658110.47], [414756.35, 5658111.42], [414757.32, 5658111.37], [414762.21, 5658109.77], [414840.33, 5658082.11], [414863.77, 5658072.75], [414878.88, 5658065.92], [414884.28, 5658063.15], [414901.86, 5658052.41], [414925.29, 5658036.62], [414926.56, 5658035.64], [414926.98, 5658034.67], [414926.73, 5658033.69], [414912.46, 5658000.49]]}}, {"type": "Feature", "properties": {}, "geometry": {"type": "LineString", "coordinates": [[414922.23, 5658000.49], [414936.53, 5658033.69], [414949.7, 5658061.04], [414977.55, 5658124.51], [414979.0, 5658127.59], [414979.98, 5658128.62], [414980.96, 5658128.59], [414984.86, 5658126.63], [415071.78, 5658071.94], [415087.15, 5658062.01], [415171.39, 5658006.83], [415174.93, 5658003.42], [415176.58, 5658000.49]]}}, {"type": "Feature", "properties": {}, "geometry": {"type": "LineString", "coordinates": [[415181.81, 5658000.49], [415181.15, 5658002.44], [415179.2, 5658006.0], [415176.27, 5658009.41], [415173.83, 5658011.23], [415079.59, 5658072.91], [414986.82, 5658131.32], [414982.72, 5658133.3], [414982.22, 5658134.28], [414982.44, 5658135.25], [414990.02, 5658152.83], [415003.42, 5658178.17], [415016.47, 5658196.78], [415025.52, 5658207.52], [415040.8, 5658227.05], [415133.3, 5658337.45], [415134.28, 5658337.79], [415135.25, 5658337.38], [415142.09, 5658332.55], [415154.79, 5658325.23], [415156.74, 5658324.47], [415161.62, 5658323.42], [415162.6, 5658323.51], [415168.38, 5658325.68], [415169.64, 5658326.66], [415174.32, 5658333.02], [415175.29, 5658334.78], [415178.18, 5658344.24], [415178.1, 5658349.12], [415176.72, 5658354.0], [415174.45, 5658356.93], [415169.6, 5658361.82], [415161.05, 5658368.65], [415160.54, 5658369.63], [415160.96, 5658370.61], [415229.22, 5658449.71], [415254.39, 5658480.14], [415269.26, 5658496.58], [415270.78, 5658498.54], [415273.65, 5658501.46], [415275.18, 5658503.42], [415294.7, 5658522.95], [415333.5, 5658555.84], [415334.47, 5658556.27], [415335.45, 5658555.84], [415398.93, 5658500.27], [415408.69, 5658491.97], [415411.62, 5658489.75], [415419.43, 5658484.62], [415425.29, 5658482.07], [415430.18, 5658481.0], [415431.15, 5658481.0], [415434.08, 5658481.73], [415437.99, 5658484.62], [415439.66, 5658486.82], [415440.78, 5658489.75], [415440.87, 5658492.68], [415439.91, 5658495.61], [415438.61, 5658497.56], [415437.01, 5658499.16], [415434.08, 5658500.89], [415432.13, 5658501.42], [415429.2, 5658501.81], [415428.22, 5658501.81], [415419.43, 5658500.05], [415415.53, 5658499.52], [415410.64, 5658500.13], [415405.76, 5658501.71], [415404.2, 5658502.44], [415351.07, 5658548.96], [415342.29, 5658556.42], [415339.48, 5658559.08], [415339.1, 5658560.06], [415339.36, 5658560.41], [415342.29, 5658563.13], [415457.52, 5658657.09], [415513.18, 5658704.24], [415540.53, 5658726.29], [415587.4, 5658763.05], [415701.66, 5658855.96], [415744.63, 5658887.86], [415796.64, 5658922.36], [415895.02, 5658983.73], [415930.82, 5659009.28], [415950.68, 5659025.66], [415957.52, 5659032.48], [415959.25, 5659034.67], [415964.08, 5659039.55], [415980.12, 5659058.11], [415992.32, 5659074.71], [415998.54, 5659083.97], [415999.51, 5659085.1]]}}, {"type": "Feature", "properties": {}, "geometry": {"type": "LineString", "coordinates": [[414053.46, 5658227.05], [414054.07, 5658228.03], [414055.43, 5658229.0], [414087.4, 5658249.48], [414117.68, 5658266.57], [414133.3, 5658274.41], [414143.07, 5658277.72], [414156.74, 5658281.13], [414200.68, 5658291.75], [414205.57, 5658292.85], [414206.54, 5658292.98], [414207.52, 5658292.69], [414208.63, 5658291.5], [414213.35, 5658284.67], [414224.0, 5658265.14], [414229.4, 5658253.42], [414234.61, 5658238.77], [414239.62, 5658216.31], [414247.43, 5658169.43], [414247.88, 5658165.53], [414247.07, 5658164.55], [414244.63, 5658163.69], [414094.24, 5658120.86], [414085.45, 5658118.58], [414084.47, 5658119.22], [414083.61, 5658121.58], [414058.34, 5658213.38], [414056.85, 5658218.26], [414053.53, 5658226.07], [414053.46, 5658227.05]]}}, {"type": "Feature", "properties": {}, "geometry": {"type": "LineString", "coordinates": [[414086.31, 5658112.79], [414087.4, 5658113.73], [414089.36, 5658114.34], [414120.61, 5658123.28], [414244.63, 5658158.57], [414247.56, 5658159.33], [414248.54, 5658159.11], [414249.38, 5658156.74], [414250.44, 5658148.93], [414250.53, 5658146.97], [414255.33, 5658111.82], [414255.42, 5658109.86], [414256.22, 5658104.98], [414264.04, 5658044.43], [414263.4, 5658043.46], [414262.21, 5658042.97], [414247.56, 5658039.3], [414183.11, 5658020.62], [414122.56, 5658004.51], [414116.7, 5658003.07], [414115.72, 5658003.13], [414114.89, 5658004.39], [414113.05, 5658011.23], [414086.54, 5658110.84], [414086.31, 5658112.79]]}}, {"type": "Feature", "properties": {}, "geometry": {"type": "LineString", "coordinates": [[414088.26, 5658467.29], [414088.42, 5658472.17], [414089.11, 5658475.1], [414089.36, 5658475.5], [414090.33, 5658475.5], [414093.26, 5658474.09], [414144.04, 5658445.77], [414146.75, 5658443.85], [414146.36, 5658442.87], [414144.04, 5658441.25], [414140.14, 5658439.05], [414132.32, 5658436.77], [414127.44, 5658436.08], [414123.54, 5658436.05], [414120.61, 5658436.51], [414117.68, 5658436.57], [414115.72, 5658437.1], [414108.89, 5658439.86], [414098.82, 5658445.8], [414096.95, 5658447.75], [414095.21, 5658450.03], [414093.29, 5658452.64], [414089.96, 5658458.5], [414088.41, 5658465.33], [414088.26, 5658467.29]]}}, {"type": "Feature", "properties": {}, "geometry": {"type": "LineString", "coordinates": [[414221.84, 5658295.41], [414221.99, 5658296.39], [414223.14, 5658296.86], [414260.25, 5658305.18], [414307.13, 5658318.61], [414380.37, 5658344.32], [414384.28, 5658345.59], [414394.04, 5658348.02], [414398.93, 5658348.57], [414400.88, 5658348.19], [414403.81, 5658348.1], [414416.5, 5658345.95], [414421.39, 5658344.48], [414450.68, 5658334.55], [414452.58, 5658333.5], [414452.57, 5658332.52], [414451.87, 5658330.57], [414444.46, 5658312.01], [414442.51, 5658305.18], [414441.94, 5658302.25], [414441.85, 5658295.41], [414441.42, 5658292.48], [414441.62, 5658290.53], [414440.92, 5658289.42], [414413.57, 5658281.02], [414405.76, 5658278.89], [414402.83, 5658277.75], [414396.97, 5658276.25], [414385.25, 5658272.7], [414383.13, 5658271.97], [414380.37, 5658270.51], [414377.44, 5658269.62], [414374.51, 5658269.26], [414369.63, 5658267.81], [414364.75, 5658266.19], [414361.82, 5658264.77], [414354.0, 5658262.93], [414346.19, 5658260.49], [414342.29, 5658258.71], [414339.36, 5658257.94], [414337.4, 5658257.69], [414330.57, 5658255.61], [414326.66, 5658254.31], [414320.8, 5658251.84], [414317.36, 5658249.51], [414316.69, 5658248.54], [414315.56, 5658245.61], [414315.48, 5658238.77], [414318.8, 5658214.36], [414319.38, 5658208.5], [414320.07, 5658204.59], [414320.71, 5658202.64], [414321.78, 5658201.44], [414323.73, 5658200.2], [414328.61, 5658198.17], [414329.59, 5658197.12], [414330.02, 5658195.8], [414329.6, 5658192.87], [414329.54, 5658188.96], [414329.15, 5658187.01], [414329.05, 5658183.11], [414328.66, 5658181.15], [414328.46, 5658176.27], [414327.64, 5658175.11], [414326.66, 5658174.84], [414257.32, 5658166.52], [414256.35, 5658166.64], [414255.37, 5658167.45], [414254.52, 5658171.39], [414244.01, 5658243.65], [414242.07, 5658251.46], [414239.75, 5658260.16], [414239.23, 5658261.23], [414238.77, 5658262.01], [414237.79, 5658261.95], [414236.82, 5658262.56], [414232.91, 5658270.95], [414228.22, 5658278.81], [414227.91, 5658279.79], [414229.65, 5658282.71], [414229.46, 5658283.69], [414227.38, 5658287.6], [414221.84, 5658295.41]]}}, {"type": "Feature", "properties": {}, "geometry": {"type": "LineString", "coordinates": [[414296.95, 5658042.48], [414303.22, 5658043.79], [414308.11, 5658044.42], [414311.04, 5658044.44], [414313.96, 5658044.91], [414333.5, 5658044.91], [414336.43, 5658044.44], [414339.36, 5658044.42], [414342.29, 5658043.96], [414345.21, 5658043.82], [414363.77, 5658040.77], [414365.72, 5658039.93], [414366.19, 5658038.57], [414366.15, 5658037.6], [414365.72, 5658036.53], [414364.75, 5658035.82], [414363.77, 5658035.7], [414361.82, 5658036.08], [414358.89, 5658036.15], [414355.96, 5658036.61], [414353.03, 5658036.63], [414350.1, 5658037.1], [414347.17, 5658037.16], [414345.21, 5658037.55], [414336.43, 5658038.13], [414334.47, 5658038.53], [414331.54, 5658038.58], [414328.61, 5658039.05], [414325.68, 5658039.07], [414322.75, 5658039.54], [414319.82, 5658039.56], [414316.89, 5658040.03], [414313.96, 5658040.05], [414311.04, 5658040.52], [414308.11, 5658040.54], [414305.18, 5658041.04], [414302.25, 5658041.08], [414297.36, 5658042.09], [414296.95, 5658042.48]]}}, {"type": "Feature", "properties": {}, "geometry": {"type": "LineString", "coordinates": [[414320.31, 5658241.7], [414320.57, 5658244.63], [414320.96, 5658245.61], [414321.78, 5658246.55], [414323.73, 5658247.77], [414326.66, 5658248.94], [414336.43, 5658252.19], [414383.3, 5658266.84], [414387.21, 5658267.78], [414388.09, 5658267.09], [414387.58, 5658264.16], [414370.0, 5658193.85], [414363.52, 5658168.46], [414362.79, 5658166.33], [414361.82, 5658165.8], [414360.84, 5658165.95], [414343.26, 5658170.53], [414335.45, 5658173.43], [414334.01, 5658174.32], [414333.56, 5658175.29], [414333.5, 5658178.22], [414333.94, 5658181.15], [414334.0, 5658185.06], [414334.46, 5658187.99], [414334.48, 5658190.92], [414334.95, 5658193.85], [414334.72, 5658197.75], [414334.18, 5658199.71], [414333.5, 5658200.82], [414330.57, 5658202.84], [414326.28, 5658204.59], [414325.13, 5658205.57], [414324.76, 5658206.54], [414320.31, 5658241.7]]}}, {"type": "Feature", "properties": {}, "geometry": {"type": "LineString", "coordinates": [[414368.0, 5658165.53], [414391.23, 5658258.3], [414394.04, 5658268.99], [414394.61, 5658270.02], [414396.0, 5658270.74], [414440.92, 5658284.08], [414441.89, 5658284.24], [414442.82, 5658283.69], [414446.56, 5658273.93], [414448.98, 5658269.04], [414452.39, 5658263.18], [414453.86, 5658259.28], [414454.94, 5658255.37], [414454.6, 5658252.44], [414454.54, 5658248.54], [414447.14, 5658214.36], [414446.36, 5658211.43], [414445.8, 5658210.3], [414444.82, 5658209.89], [414443.85, 5658210.0], [414438.07, 5658211.43], [414425.29, 5658213.95], [414424.32, 5658214.05], [414423.68, 5658213.38], [414445.8, 5658208.01], [414447.75, 5658207.18], [414448.3, 5658206.54], [414448.35, 5658205.57], [414447.17, 5658200.68], [414433.11, 5658147.8], [414432.13, 5658146.6], [414431.15, 5658146.46], [414429.2, 5658146.86], [414393.07, 5658155.37], [414391.97, 5658155.76], [414391.11, 5658156.29], [414390.85, 5658156.74], [414390.89, 5658158.69], [414392.66, 5658166.5], [414403.55, 5658211.43], [414404.79, 5658216.11], [414405.58, 5658217.29], [414405.65, 5658218.26], [414403.81, 5658218.92], [414402.83, 5658219.03], [414401.86, 5658218.28], [414401.51, 5658217.29], [414389.62, 5658160.64], [414389.16, 5658160.05], [414388.18, 5658159.67], [414378.42, 5658161.75], [414369.63, 5658163.84], [414368.2, 5658164.55], [414368.0, 5658165.53]]}}, {"type": "Feature", "properties": {}, "geometry": {"type": "LineString", "coordinates": [[414372.27, 5658036.62], [414372.56, 5658037.77], [414373.54, 5658037.99], [414377.44, 5658037.03], [414390.14, 5658032.44], [414396.0, 5658030.0], [414403.81, 5658026.36], [414420.41, 5658017.25], [414431.63, 5658009.28], [414432.82, 5658008.3], [414433.31, 5658007.32], [414433.11, 5658007.15], [414431.94, 5658007.32], [414414.55, 5658016.61], [414399.9, 5658023.43], [414385.25, 5658028.07], [414374.51, 5658030.42], [414373.54, 5658031.03], [414373.15, 5658031.74], [414372.27, 5658036.62]]}}, {"type": "Feature", "properties": {}, "geometry": {"type": "LineString", "coordinates": [[414412.26, 5658163.57], [414412.35, 5658162.6], [414413.57, 5658161.68], [414423.34, 5658159.69], [414424.32, 5658159.84], [414425.29, 5658160.43], [414427.76, 5658162.6], [414428.42, 5658163.57], [414428.95, 5658165.53], [414431.6, 5658178.22], [414431.73, 5658180.18], [414431.15, 5658180.85], [414419.43, 5658183.47], [414417.48, 5658183.67], [414416.55, 5658183.11], [414415.28, 5658178.22], [414412.26, 5658163.57]]}}, {"type": "Feature", "properties": {}, "geometry": {"type": "LineString", "coordinates": [[414412.59, 5658216.31], [414413.57, 5658216.36], [414414.84, 5658216.31], [414414.55, 5658216.13], [414412.59, 5658216.31]]}}, {"type": "Feature", "properties": {}, "geometry": {"type": "LineString", "coordinates": [[414415.72, 5658215.33], [414416.5, 5658215.56], [414419.32, 5658215.33], [414418.46, 5658214.97], [414415.72, 5658215.33]]}}, {"type": "Feature", "properties": {}, "geometry": {"type": "LineString", "coordinates": [[414420.07, 5658214.36], [414420.41, 5658214.56], [414423.98, 5658214.36], [414423.34, 5658213.75], [414420.07, 5658214.36]]}}, {"type": "Feature", "properties": {}, "geometry": {"type": "LineString", "coordinates": [[414421.65, 5658350.1], [414421.67, 5658351.07], [414422.94, 5658354.98], [414425.05, 5658359.86], [414426.52, 5658361.82], [414429.2, 5658364.23], [414491.7, 5658394.04], [414501.46, 5658396.86], [414506.35, 5658397.9], [414512.21, 5658398.88], [414515.14, 5658398.97], [414518.07, 5658399.41], [414553.22, 5658399.41], [414557.13, 5658399.89], [414559.08, 5658399.89], [414562.01, 5658399.43], [414569.82, 5658399.4], [414572.75, 5658398.94], [414579.59, 5658398.92], [414583.5, 5658398.44], [414590.33, 5658398.43], [414593.26, 5658397.96], [414600.1, 5658397.95], [414603.03, 5658397.51], [414610.84, 5658397.46], [414613.77, 5658397.02], [414621.58, 5658396.96], [414624.51, 5658396.5], [414631.35, 5658396.48], [414634.28, 5658396.04], [414642.09, 5658396.0], [414645.02, 5658395.56], [414652.83, 5658395.5], [414655.76, 5658395.03], [414662.6, 5658395.02], [414665.53, 5658394.58], [414671.39, 5658394.52], [414672.9, 5658394.04], [414673.82, 5658393.07], [414730.82, 5658316.89], [414732.91, 5658314.85], [414733.89, 5658314.57], [414734.86, 5658314.78], [414735.84, 5658315.66], [414736.26, 5658316.89], [414736.16, 5658317.87], [414735.67, 5658318.85], [414681.51, 5658391.11], [414680.36, 5658393.07], [414681.15, 5658393.88], [414685.06, 5658394.03], [414687.99, 5658393.57], [414696.78, 5658393.54], [414699.71, 5658393.08], [414709.47, 5658393.07], [414713.38, 5658392.58], [414723.14, 5658392.57], [414727.05, 5658392.09], [414734.86, 5658392.63], [414737.79, 5658393.07], [414753.42, 5658393.08], [414756.35, 5658393.54], [414767.09, 5658393.57], [414779.79, 5658395.01], [414782.71, 5658395.07], [414789.55, 5658395.95], [414792.48, 5658396.04], [414799.32, 5658396.93], [414807.13, 5658397.51], [414809.08, 5658397.9], [414812.01, 5658397.96], [414814.94, 5658398.43], [414827.64, 5658399.54], [414831.54, 5658400.05], [414832.84, 5658400.88], [414833.35, 5658401.86], [414833.43, 5658402.83], [414833.06, 5658403.81], [414832.52, 5658404.35], [414831.54, 5658404.73], [414828.61, 5658404.78], [414825.68, 5658404.35], [414822.75, 5658404.25], [414820.8, 5658403.85], [414817.87, 5658403.76], [414815.92, 5658403.37], [414812.99, 5658403.27], [414811.04, 5658402.88], [414808.11, 5658402.79], [414806.15, 5658402.39], [414803.22, 5658402.33], [414800.29, 5658401.87], [414798.34, 5658401.85], [414790.53, 5658400.89], [414783.69, 5658400.38], [414780.76, 5658399.91], [414777.83, 5658399.86], [414771.0, 5658398.97], [414768.07, 5658398.88], [414766.11, 5658398.49], [414751.46, 5658398.43], [414748.54, 5658397.96], [414744.63, 5658398.16], [414743.97, 5658398.93], [414744.83, 5658400.88], [414745.6, 5658404.79], [414745.65, 5658422.36], [414746.38, 5658425.29], [414747.68, 5658428.22], [414749.51, 5658431.37], [414750.49, 5658431.86], [414757.32, 5658430.71], [414760.25, 5658430.71], [414905.76, 5658449.15], [414907.16, 5658448.73], [414907.91, 5658447.75], [414908.15, 5658446.78], [414908.68, 5658442.87], [414908.7, 5658438.96], [414909.62, 5658433.11], [414909.71, 5658431.15], [414910.33, 5658428.22], [414911.62, 5658426.93], [414913.57, 5658426.93], [414914.55, 5658427.7], [414914.87, 5658428.22], [414914.99, 5658430.18], [414912.12, 5658451.66], [414912.65, 5658455.57], [414913.57, 5658457.4], [414915.53, 5658458.96], [414963.38, 5658488.93], [414966.31, 5658491.03], [414966.88, 5658491.7], [414967.18, 5658492.68], [414966.99, 5658493.65], [414966.31, 5658495.05], [414954.75, 5658514.16], [414919.27, 5658569.82], [414917.57, 5658572.75], [414917.48, 5658573.77], [414918.49, 5658574.71], [414933.11, 5658582.02], [414936.04, 5658583.25], [414949.71, 5658590.09], [414952.64, 5658591.31], [415004.39, 5658616.69], [415047.36, 5658636.96], [415056.15, 5658641.36], [415087.4, 5658658.23], [415094.24, 5658662.14], [415103.03, 5658667.32], [415114.75, 5658674.94], [415115.72, 5658674.93], [415116.7, 5658674.04], [415120.15, 5658667.48], [415124.0, 5658661.62], [415126.87, 5658656.74], [415127.81, 5658653.81], [415128.78, 5658648.93], [415128.78, 5658645.02], [415127.16, 5658639.16], [415117.68, 5658615.72], [415114.79, 5658604.0], [415114.26, 5658599.12], [415114.31, 5658592.29], [415115.0, 5658588.38], [415116.82, 5658582.52], [415121.09, 5658572.75], [415145.02, 5658533.14], [415146.4, 5658530.76], [415146.52, 5658529.79], [415145.02, 5658528.35], [415098.14, 5658501.44], [415031.99, 5658461.43], [415019.04, 5658452.28], [415016.11, 5658449.95], [415013.22, 5658446.78], [415011.36, 5658441.89], [415010.31, 5658435.06], [415011.27, 5658429.2], [415012.05, 5658427.25], [415014.65, 5658423.34], [415016.11, 5658421.63], [415019.04, 5658418.73], [415043.46, 5658399.06], [415050.29, 5658393.29], [415054.46, 5658389.16], [415056.83, 5658387.21], [415067.74, 5658372.56], [415068.69, 5658371.58], [415076.99, 5658364.75], [415107.91, 5658340.95], [415116.2, 5658334.47], [415117.15, 5658333.5], [415117.21, 5658332.52], [415115.94, 5658330.57], [415034.88, 5658233.89], [415033.69, 5658232.9], [415032.71, 5658232.87], [415031.74, 5658233.4], [415023.92, 5658238.77], [415021.97, 5658239.82], [415016.11, 5658241.57], [415008.3, 5658243.12], [415001.46, 5658243.18], [414998.54, 5658243.64], [414990.72, 5658243.66], [414987.79, 5658244.13], [414979.98, 5658244.15], [414977.05, 5658244.62], [414969.24, 5658244.64], [414966.31, 5658245.1], [414958.5, 5658245.13], [414955.57, 5658245.6], [414947.75, 5658245.62], [414944.82, 5658246.08], [414937.99, 5658246.11], [414935.06, 5658246.57], [414930.18, 5658246.59], [414927.25, 5658247.06], [414922.36, 5658247.08], [414919.43, 5658247.55], [414914.55, 5658247.57], [414911.62, 5658248.03], [414906.74, 5658248.06], [414903.81, 5658248.52], [414898.93, 5658248.55], [414896.0, 5658249.01], [414891.11, 5658249.04], [414888.18, 5658249.5], [414883.3, 5658249.52], [414880.37, 5658249.99], [414875.49, 5658250.01], [414872.56, 5658250.48], [414867.68, 5658250.5], [414864.75, 5658250.96], [414859.86, 5658250.99], [414856.93, 5658251.45], [414852.05, 5658251.48], [414849.12, 5658251.94], [414844.24, 5658251.97], [414841.31, 5658252.43], [414836.43, 5658252.45], [414833.5, 5658252.92], [414828.61, 5658252.94], [414825.68, 5658253.41], [414820.8, 5658253.43], [414817.87, 5658253.89], [414813.96, 5658253.92], [414811.04, 5658254.38], [414808.11, 5658254.44], [414806.15, 5658254.83], [414796.39, 5658255.42], [414794.43, 5658255.81], [414791.5, 5658255.87], [414788.57, 5658256.34], [414785.64, 5658256.36], [414782.71, 5658256.82], [414779.79, 5658256.88], [414777.83, 5658257.28], [414773.93, 5658257.37], [414771.97, 5658257.76], [414767.09, 5658257.86], [414765.14, 5658258.25], [414760.25, 5658258.35], [414758.3, 5658258.74], [414753.42, 5658258.84], [414751.46, 5658259.23], [414746.58, 5658259.32], [414744.63, 5658259.72], [414739.75, 5658259.81], [414737.79, 5658260.21], [414732.91, 5658260.3], [414730.96, 5658260.69], [414726.07, 5658260.79], [414724.12, 5658261.18], [414719.24, 5658261.28], [414698.73, 5658265.87], [414628.42, 5658283.94], [414564.94, 5658301.68], [414446.78, 5658341.06], [414423.34, 5658349.04], [414421.65, 5658350.1]]}}, {"type": "Feature", "properties": {}, "geometry": {"type": "LineString", "coordinates": [[414674.96, 5658170.41], [414705.33, 5658229.98], [414707.03, 5658232.91], [414715.33, 5658249.51], [414718.26, 5658254.86], [414719.24, 5658256.04], [414720.21, 5658256.32], [414722.17, 5658256.3], [414724.12, 5658255.91], [414729.0, 5658255.81], [414730.96, 5658255.42], [414735.84, 5658255.33], [414737.79, 5658254.93], [414742.68, 5658254.83], [414744.63, 5658254.44], [414749.51, 5658254.35], [414751.46, 5658253.95], [414756.35, 5658253.86], [414758.3, 5658253.46], [414763.18, 5658253.41], [414766.11, 5658252.94], [414770.02, 5658252.92], [414772.95, 5658252.45], [414775.88, 5658252.4], [414777.83, 5658252.0], [414787.6, 5658251.42], [414789.55, 5658251.02], [414792.48, 5658250.96], [414795.41, 5658250.5], [414798.34, 5658250.48], [414801.27, 5658250.01], [414804.2, 5658249.95], [414806.15, 5658249.56], [414810.06, 5658249.46], [414811.04, 5658249.14], [414811.69, 5658248.54], [414811.93, 5658247.56], [414811.57, 5658245.61], [414811.51, 5658241.7], [414810.75, 5658236.82], [414793.7, 5658201.66], [414792.47, 5658198.73], [414786.63, 5658187.01], [414785.4, 5658184.08], [414780.03, 5658173.34], [414778.8, 5658170.41], [414772.96, 5658158.69], [414771.73, 5658155.76], [414766.36, 5658145.02], [414765.13, 5658142.09], [414759.28, 5658130.37], [414758.06, 5658127.44], [414754.39, 5658120.18], [414753.42, 5658119.31], [414752.44, 5658119.52], [414748.54, 5658121.91], [414681.15, 5658165.37], [414675.29, 5658169.36], [414674.96, 5658170.41]]}}, {"type": "Feature", "properties": {}, "geometry": {"type": "LineString", "coordinates": [[414753.62, 5658437.01], [414753.69, 5658437.99], [414757.33, 5658443.85], [414766.47, 5658455.57], [414777.56, 5658467.29], [414787.87, 5658479.0], [414803.22, 5658494.38], [414817.87, 5658506.48], [414852.05, 5658533.81], [414853.03, 5658534.24], [414854.0, 5658533.95], [414855.63, 5658531.74], [414889.55, 5658477.05], [414891.11, 5658475.89], [414892.09, 5658475.79], [414893.07, 5658476.24], [414893.7, 5658477.05], [414893.98, 5658478.03], [414893.91, 5658479.0], [414893.52, 5658479.98], [414862.63, 5658529.79], [414858.45, 5658536.62], [414858.18, 5658537.6], [414858.89, 5658538.83], [414870.61, 5658547.03], [414879.39, 5658552.18], [414880.59, 5658552.25], [414881.35, 5658551.62], [414886.23, 5658544.18], [414914.41, 5658500.49], [414915.53, 5658499.42], [414916.5, 5658499.09], [414917.48, 5658499.2], [414918.01, 5658499.51], [414918.88, 5658500.49], [414919.14, 5658501.46], [414918.43, 5658503.42], [414886.23, 5658553.22], [414885.64, 5658554.2], [414885.41, 5658555.18], [414886.24, 5658556.15], [414887.21, 5658556.8], [414909.24, 5658569.82], [414911.62, 5658571.03], [414912.6, 5658570.78], [414914.71, 5658567.87], [414948.89, 5658514.16], [414960.62, 5658494.63], [414960.67, 5658493.65], [414959.47, 5658492.36], [414911.62, 5658462.4], [414909.67, 5658460.68], [414908.72, 5658459.47], [414907.85, 5658457.52], [414907.56, 5658455.57], [414906.74, 5658454.4], [414895.02, 5658452.68], [414830.57, 5658444.78], [414821.78, 5658443.49], [414759.28, 5658435.68], [414758.3, 5658435.61], [414755.37, 5658436.18], [414753.62, 5658437.01]]}}, {"type": "Feature", "properties": {}, "geometry": {"type": "LineString", "coordinates": [[414758.79, 5658116.7], [414758.85, 5658117.68], [414762.94, 5658126.46], [414775.87, 5658152.83], [414777.1, 5658155.76], [414803.22, 5658209.47], [414811.04, 5658226.07], [414812.99, 5658229.94], [414813.96, 5658231.01], [414814.94, 5658230.57], [414816.16, 5658229.0], [414849.48, 5658184.08], [414853.76, 5658179.2], [414857.91, 5658175.07], [414861.18, 5658172.36], [414864.02, 5658170.41], [414868.7, 5658167.48], [414880.37, 5658161.71], [414969.24, 5658133.02], [414970.45, 5658132.32], [414970.69, 5658131.35], [414941.62, 5658064.94], [414930.39, 5658041.5], [414929.2, 5658040.45], [414927.25, 5658041.34], [414904.79, 5658056.48], [414889.16, 5658066.08], [414885.25, 5658068.36], [414875.49, 5658072.97], [414862.78, 5658078.61], [414845.21, 5658085.66], [414760.25, 5658115.65], [414758.79, 5658116.7]]}}, {"type": "Feature", "properties": {}, "geometry": {"type": "LineString", "coordinates": [[414816.24, 5658237.79], [414816.45, 5658243.65], [414817.01, 5658247.56], [414817.87, 5658248.48], [414823.73, 5658248.52], [414826.66, 5658248.06], [414831.54, 5658248.03], [414834.47, 5658247.57], [414839.36, 5658247.55], [414842.29, 5658247.08], [414847.17, 5658247.06], [414850.1, 5658246.59], [414854.98, 5658246.57], [414857.91, 5658246.11], [414862.79, 5658246.08], [414865.72, 5658245.62], [414870.61, 5658245.6], [414873.54, 5658245.13], [414878.42, 5658245.1], [414881.35, 5658244.64], [414886.23, 5658244.62], [414889.16, 5658244.15], [414894.04, 5658244.13], [414896.97, 5658243.66], [414901.86, 5658243.64], [414904.79, 5658243.18], [414909.67, 5658243.15], [414912.6, 5658242.69], [414917.48, 5658242.67], [414920.41, 5658242.2], [414925.29, 5658242.14], [414927.25, 5658241.75], [414933.11, 5658241.65], [414935.06, 5658241.26], [414942.87, 5658241.16], [414945.8, 5658240.72], [414953.61, 5658240.68], [414956.54, 5658240.24], [414963.38, 5658240.23], [414967.29, 5658239.75], [414975.1, 5658239.7], [414978.03, 5658239.26], [414984.86, 5658239.26], [414988.77, 5658238.77], [414996.58, 5658238.72], [414999.51, 5658238.28], [415006.35, 5658238.27], [415015.14, 5658236.69], [415020.02, 5658235.23], [415028.81, 5658229.28], [415029.64, 5658228.03], [415028.56, 5658226.07], [415020.24, 5658215.33], [415008.16, 5658200.68], [414995.94, 5658183.11], [414981.94, 5658156.74], [414973.75, 5658138.18], [414973.14, 5658137.54], [414972.17, 5658137.38], [414882.32, 5658166.42], [414871.58, 5658171.64], [414866.7, 5658174.65], [414863.06, 5658177.25], [414858.84, 5658181.15], [414854.36, 5658186.04], [414821.64, 5658229.98], [414816.68, 5658236.82], [414816.24, 5658237.79]]}}, {"type": "Feature", "properties": {}, "geometry": {"type": "LineString", "coordinates": [[415015.5, 5658435.06], [415015.75, 5658437.99], [415016.37, 5658440.92], [415017.1, 5658442.87], [415018.34, 5658444.82], [415021.33, 5658447.75], [415034.67, 5658457.19], [415097.17, 5658495.09], [415106.51, 5658500.49], [415155.76, 5658528.78], [415180.18, 5658542.23], [415183.11, 5658543.67], [415186.04, 5658544.55], [415187.01, 5658544.74], [415190.92, 5658544.39], [415196.78, 5658542.47], [415199.71, 5658540.67], [415203.61, 5658537.73], [415209.47, 5658532.47], [415216.04, 5658525.88], [415225.32, 5658515.14], [415242.32, 5658491.7], [415246.34, 5658485.84], [415246.47, 5658484.86], [415245.84, 5658483.89], [415222.39, 5658455.57], [415150.66, 5658372.56], [415125.63, 5658342.29], [415121.58, 5658337.7], [415120.61, 5658337.57], [415118.65, 5658338.87], [415079.59, 5658369.01], [415073.73, 5658373.81], [415070.8, 5658376.8], [415061.66, 5658389.16], [415056.15, 5658394.77], [415045.41, 5658403.95], [415021.0, 5658423.71], [415018.07, 5658427.25], [415016.28, 5658430.18], [415015.5, 5658435.06]]}}, {"type": "Feature", "properties": {}, "geometry": {"type": "LineString", "coordinates": [[415093.26, 5658758.3], [415093.55, 5658760.25], [415094.0, 5658761.23], [415095.22, 5658763.18], [415096.19, 5658764.25], [415107.91, 5658768.63], [415112.79, 5658770.11], [415113.98, 5658770.02], [415113.88, 5658769.04], [415111.82, 5658768.16], [415111.31, 5658767.09], [415113.2, 5658761.23], [415128.29, 5658719.24], [415128.31, 5658718.26], [415126.77, 5658716.31], [415127.07, 5658714.36], [415128.38, 5658709.47], [415129.39, 5658708.5], [415132.32, 5658709.13], [415133.3, 5658709.63], [415133.89, 5658710.45], [415133.79, 5658711.43], [415132.1, 5658715.33], [415132.32, 5658716.41], [415133.3, 5658716.23], [415134.28, 5658713.77], [415134.86, 5658711.43], [415136.08, 5658708.5], [415136.8, 5658704.59], [415136.63, 5658702.64], [415135.84, 5658700.68], [415133.3, 5658698.03], [415122.56, 5658690.43], [415119.63, 5658688.73], [415118.65, 5658689.16], [415118.28, 5658689.94], [415114.88, 5658698.73], [415114.85, 5658699.71], [415116.03, 5658700.68], [415121.57, 5658702.64], [415122.24, 5658703.61], [415122.04, 5658704.59], [415105.68, 5658749.51], [415104.51, 5658752.44], [415104.0, 5658753.27], [415103.55, 5658753.42], [415103.03, 5658753.52], [415096.19, 5658751.25], [415095.21, 5658751.78], [415093.67, 5658755.37], [415093.26, 5658758.3]]}}, {"type": "Feature", "properties": {}, "geometry": {"type": "LineString", "coordinates": [[415113.55, 5658797.36], [415114.02, 5658800.29], [415114.75, 5658802.25], [415119.63, 5658811.98], [415120.61, 5658813.03], [415121.58, 5658813.03], [415125.49, 5658812.06], [415129.39, 5658811.8], [415130.37, 5658812.03], [415178.22, 5658830.48], [415179.2, 5658830.96], [415182.13, 5658833.28], [415183.96, 5658835.45], [415185.01, 5658839.36], [415185.13, 5658843.26], [415184.65, 5658845.21], [415172.27, 5658878.42], [415171.39, 5658879.9], [415166.2, 5658884.28], [415166.14, 5658885.25], [415176.76, 5658900.88], [415179.2, 5658903.71], [415181.15, 5658905.49], [415183.11, 5658906.73], [415188.96, 5658909.09], [415256.35, 5658935.29], [415258.3, 5658935.55], [415264.16, 5658935.55], [415267.09, 5658935.06], [415271.0, 5658933.27], [415275.02, 5658930.18], [415277.02, 5658927.25], [415278.52, 5658924.32], [415280.55, 5658918.46], [415287.68, 5658899.9], [415289.51, 5658893.07], [415289.51, 5658888.18], [415284.79, 5658865.72], [415284.62, 5658862.79], [415284.23, 5658860.84], [415284.09, 5658854.98], [415286.39, 5658842.29], [415293.2, 5658822.75], [415296.26, 5658812.01], [415296.43, 5658809.08], [415296.83, 5658807.13], [415296.83, 5658803.22], [415296.25, 5658800.29], [415292.85, 5658792.48], [415289.79, 5658788.57], [415284.67, 5658783.56], [415275.88, 5658778.6], [415237.79, 5658762.21], [415233.89, 5658760.23], [415201.66, 5658742.16], [415197.75, 5658739.91], [415172.61, 5658723.14], [415146.97, 5658705.55], [415146.0, 5658705.68], [415145.02, 5658707.3], [415119.72, 5658774.9], [415114.87, 5658788.57], [415113.9, 5658792.48], [415113.55, 5658797.36]]}}, {"type": "Feature", "properties": {}, "geometry": {"type": "LineString", "coordinates": [[415137.12, 5658826.66], [415138.18, 5658826.53], [415142.09, 5658827.92], [415170.41, 5658839.36], [415171.95, 5658840.33], [415172.17, 5658841.31], [415171.13, 5658845.21], [415164.55, 5658865.44], [415163.57, 5658866.96], [415162.6, 5658866.54], [415161.3, 5658864.75], [415140.14, 5658832.27], [415137.37, 5658827.64], [415137.12, 5658826.66]]}}, {"type": "Feature", "properties": {}, "geometry": {"type": "LineString", "coordinates": [[415142.82, 5658341.31], [415143.07, 5658340.81], [415144.04, 5658340.53], [415145.02, 5658341.42], [415151.05, 5658350.1], [415150.88, 5658350.6], [415149.9, 5658350.05], [415148.93, 5658349.02], [415148.4, 5658348.14], [415143.99, 5658343.26], [415142.82, 5658341.31]]}}, {"type": "Feature", "properties": {}, "geometry": {"type": "LineString", "coordinates": [[415147.04, 5658338.38], [415147.18, 5658337.4], [415148.06, 5658336.43], [415160.64, 5658331.19], [415162.6, 5658331.1], [415163.57, 5658331.34], [415165.53, 5658332.39], [415166.5, 5658333.27], [415168.66, 5658336.43], [415168.9, 5658337.4], [415168.93, 5658340.33], [415168.47, 5658343.26], [415167.84, 5658351.07], [415166.66, 5658354.0], [415164.55, 5658356.66], [415162.6, 5658358.03], [415161.62, 5658358.3], [415160.64, 5658358.11], [415158.69, 5658356.78], [415157.25, 5658354.98], [415147.75, 5658340.33], [415147.04, 5658338.38]]}}, {"type": "Feature", "properties": {}, "geometry": {"type": "LineString", "coordinates": [[415415.29, 5658493.65], [415415.53, 5658494.05], [415416.5, 5658494.5], [415427.25, 5658496.54], [415430.18, 5658496.57], [415432.13, 5658496.17], [415434.08, 5658495.01], [415435.21, 5658493.65], [415435.74, 5658492.68], [415435.94, 5658491.7], [415435.06, 5658488.88], [415434.08, 5658487.81], [415432.13, 5658486.45], [415430.18, 5658486.14], [415426.27, 5658487.1], [415422.36, 5658488.78], [415417.73, 5658491.7], [415415.29, 5658493.65]]}}]}