{"type":"FeatureCollection","attribution":"Quelle: GeoSN, dl-de/by-2-0 (laser scan); \u00a9 OpenStreetMap contributors (ODbL)","crs":{"type":"name","properties":{"name":"urn:ogc:def:crs:EPSG::25833"}},"features":[{"type":"Feature","properties":{"kind":"hedge","h":1.5,"w":1.0,"src":"osm"},"geometry":{"type":"LineString","coordinates":[[413607.0,5656853.6],[413607.9,5656851.7],[413628.7,5656858.3],[413628.2,5656859.9]]}},{"type":"Feature","properties":{"kind":"hedge","h":1.5,"w":1.0,"src":"osm"},"geometry":{"type":"LineString","coordinates":[[413659.6,5656871.1],[413660.7,5656868.9],[413690.3,5656878.3],[413691.3,5656880.9],[413673.8,5656910.8]]}},{"type":"Feature","properties":{"kind":"hedge","h":1.5,"w":1.0,"src":"osm"},"geometry":{"type":"LineString","coordinates":[[413632.3,5656861.3],[413632.9,5656859.4],[413655.9,5656866.8],[413655.1,5656868.7]]}},{"type":"Feature","properties":{"kind":"hedge","h":1.5,"w":1.0,"src":"osm"},"geometry":{"type":"LineString","coordinates":[[413579.1,5656845.2],[413580.0,5656842.9],[413602.0,5656850.0],[413601.4,5656851.7]]}},{"type":"Feature","properties":{"kind":"hedge","h":1.5,"w":1.0,"src":"osm"},"geometry":{"type":"LineString","coordinates":[[413552.2,5656841.9],[413560.8,5656837.0],[413576.7,5656841.6],[413573.5,5656848.8]]}},{"type":"Feature","properties":{"kind":"hedge","h":1.5,"w":1.0,"src":"osm"},"geometry":{"type":"LineString","coordinates":[[413101.9,5656417.5],[413106.2,5656416.7],[413112.4,5656415.7],[413124.0,5656413.6]]}},{"type":"Feature","properties":{"kind":"hedge","h":1.5,"w":1.0,"src":"osm"},"geometry":{"type":"LineString","coordinates":[[413109.4,5656432.9],[413108.3,5656427.8]]}},{"type":"Feature","properties":{"kind":"hedge","h":1.5,"w":1.0,"src":"osm+lsc"},"geometry":{"type":"LineString","coordinates":[[413104.1,5656405.4],[413103.1,5656400.9]]}},{"type":"Feature","properties":{"kind":"hedge","h":1.5,"w":1.0,"src":"osm"},"geometry":{"type":"LineString","coordinates":[[413106.2,5656416.7],[413105.3,5656411.7]]}},{"type":"Feature","properties":{"kind":"hedge","h":1.5,"w":1.0,"src":"osm"},"geometry":{"type":"LineString","coordinates":[[413107.2,5656421.8],[413106.2,5656416.7]]}},{"type":"Feature","properties":{"kind":"hedge","h":1.4,"w":1.0,"src":"osm+lsc"},"geometry":{"type":"LineString","coordinates":[[413103.3,5656422.5],[413101.9,5656417.5],[413100.7,5656412.4]]}},{"type":"Feature","properties":{"kind":"hedge","h":1.5,"w":1.0,"src":"osm"},"geometry":{"type":"LineString","coordinates":[[413125.2,5656420.4],[413124.0,5656413.6],[413122.8,5656406.6]]}},{"type":"Feature","properties":{"kind":"hedge","h":1.5,"w":1.0,"src":"osm"},"geometry":{"type":"LineString","coordinates":[[413104.9,5656428.4],[413106.2,5656433.5],[413109.4,5656432.9],[413115.7,5656431.7],[413126.9,5656429.7],[413125.7,5656423.1]]}},{"type":"Feature","properties":{"kind":"hedge","h":1.6,"w":1.0,"src":"osm+lsc"},"geometry":{"type":"LineString","coordinates":[[413099.2,5656406.9],[413098.1,5656401.9],[413103.1,5656400.9],[413108.5,5656399.9],[413109.6,5656399.7],[413121.2,5656397.4],[413122.3,5656403.7]]}},{"type":"Feature","properties":{"kind":"hedge","h":1.5,"w":1.0,"src":"osm+lsc"},"geometry":{"type":"LineString","coordinates":[[413742.5,5657115.2],[413745.4,5657113.5],[413749.0,5657120.1],[413745.3,5657122.1]]}},{"type":"Feature","properties":{"kind":"hedge","h":2.0,"w":1.0,"src":"osm+lsc"},"geometry":{"type":"LineString","coordinates":[[413733.8,5657100.1],[413736.2,5657098.9],[413737.7,5657099.4],[413743.8,5657110.7],[413741.1,5657112.1]]}},{"type":"Feature","properties":{"kind":"hedge","h":1.6,"w":2.2,"src":"osm+lsc"},"geometry":{"type":"LineString","coordinates":[[412856.0,5656084.1],[412772.1,5656112.0],[412770.2,5656106.3]]}},{"type":"Feature","properties":{"kind":"hedge","h":2.3,"w":2.0,"src":"osm+lsc"},"geometry":{"type":"LineString","coordinates":[[412170.7,5657370.0],[412172.4,5657365.8],[412181.8,5657342.7],[412188.1,5657341.4]]}},{"type":"Feature","properties":{"kind":"hedge","h":1.8,"w":2.0,"src":"osm+lsc"},"geometry":{"type":"LineString","coordinates":[[412071.0,5657028.5],[412070.3,5657029.2],[412069.3,5657031.1],[412069.1,5657032.9],[412069.6,5657034.9],[412070.8,5657036.6],[412072.9,5657037.8],[412074.7,5657038.0]]}},{"type":"Feature","properties":{"kind":"hedge","h":1.5,"w":1.0,"src":"osm"},"geometry":{"type":"LineString","coordinates":[[412076.2,5657230.3],[412085.9,5657223.6],[412086.9,5657223.4],[412087.6,5657223.5]]}},{"type":"Feature","properties":{"kind":"hedge","h":1.4,"w":1.0,"src":"osm+lsc"},"geometry":{"type":"LineString","coordinates":[[413026.4,5657321.7],[413037.2,5657328.6]]}},{"type":"Feature","properties":{"kind":"hedge","h":2.1,"w":1.8,"src":"osm+lsc"},"geometry":{"type":"LineString","coordinates":[[412974.4,5657288.4],[412977.1,5657290.2],[413021.1,5657318.1]]}},{"type":"Feature","properties":{"kind":"hedge","h":1.5,"w":1.0,"src":"osm"},"geometry":{"type":"LineString","coordinates":[[412402.7,5657539.3],[412398.7,5657547.3]]}},{"type":"Feature","properties":{"kind":"hedge","h":1.5,"w":1.0,"src":"osm"},"geometry":{"type":"LineString","coordinates":[[413097.9,5656964.3],[413017.1,5656916.1]]}},{"type":"Feature","properties":{"kind":"hedge","h":1.5,"w":1.0,"src":"osm"},"geometry":{"type":"LineString","coordinates":[[413197.6,5657021.6],[413099.5,5656965.1]]}},{"type":"Feature","properties":{"kind":"hedge","h":1.5,"w":1.0,"src":"osm"},"geometry":{"type":"LineString","coordinates":[[413359.5,5657103.7],[413346.5,5657097.6],[413340.8,5657110.0]]}},{"type":"Feature","properties":{"kind":"hedge","h":1.5,"w":1.0,"src":"osm"},"geometry":{"type":"LineString","coordinates":[[413642.6,5657186.1],[413642.9,5657182.3],[413642.9,5657177.5],[413642.6,5657172.4],[413641.9,5657167.3],[413640.7,5657161.8],[413639.8,5657158.4],[413638.3,5657154.1],[413636.5,5657149.5],[413633.4,5657143.9],[413631.0,5657140.1],[413627.6,5657135.4],[413624.0,5657131.3],[413620.0,5657127.2],[413616.1,5657123.9],[413610.8,5657120.1],[413607.5,5657118.1],[413603.4,5657115.9],[413596.8,5657113.0],[413577.9,5657155.3],[413581.2,5657157.9],[413584.1,5657161.4],[413585.3,5657164.8],[413585.2,5657168.4],[413642.6,5657186.1]]}},{"type":"Feature","properties":{"kind":"hedge","h":1.5,"w":1.0,"src":"osm"},"geometry":{"type":"LineString","coordinates":[[413542.7,5657154.0],[413545.4,5657150.5],[413550.3,5657148.8],[413553.6,5657148.1],[413557.2,5657148.4],[413574.2,5657106.0],[413571.8,5657105.3],[413565.4,5657104.1],[413558.0,5657103.2],[413550.8,5657103.1],[413544.0,5657103.6],[413537.3,5657104.7],[413531.0,5657106.6],[413525.0,5657109.1],[413519.2,5657112.2],[413513.7,5657115.8],[413508.5,5657120.1],[413503.5,5657125.1],[413499.5,5657130.1],[413495.1,5657135.9],[413542.7,5657154.0]]}},{"type":"Feature","properties":{"kind":"hedge","h":1.8,"w":2.0,"src":"osm+lsc"},"geometry":{"type":"LineString","coordinates":[[413266.8,5656538.1],[413265.2,5656528.7],[413260.0,5656529.0],[413257.1,5656532.2],[413257.7,5656542.1],[413266.8,5656538.1]]}},{"type":"Feature","properties":{"kind":"hedge","h":2.2,"w":2.0,"src":"osm+lsc"},"geometry":{"type":"LineString","coordinates":[[413266.8,5656538.1],[413274.2,5656537.1],[413271.5,5656517.6],[413273.6,5656502.4],[413277.7,5656474.0],[413261.3,5656474.2],[413244.0,5656474.4],[413242.4,5656474.4],[413240.5,5656474.5],[413232.2,5656481.8],[413231.3,5656487.7],[413230.6,5656493.4],[413229.3,5656506.4]]}},{"type":"Feature","properties":{"kind":"hedge","h":1.5,"w":2.0,"src":"osm+lsc"},"geometry":{"type":"LineString","coordinates":[[413134.0,5656412.1],[413138.0,5656433.6]]}},{"type":"Feature","properties":{"kind":"hedge","h":1.7,"w":1.0,"src":"osm+lsc"},"geometry":{"type":"LineString","coordinates":[[413172.4,5656411.9],[413169.9,5656398.8]]}},{"type":"Feature","properties":{"kind":"hedge","h":1.7,"w":2.0,"src":"osm+lsc"},"geometry":{"type":"LineString","coordinates":[[413135.1,5656379.8],[413155.4,5656376.4]]}},{"type":"Feature","properties":{"kind":"hedge","h":1.4,"w":1.0,"src":"osm+lsc"},"geometry":{"type":"LineString","coordinates":[[414000.0,5656814.9],[413998.8,5656836.2],[414000.0,5656836.2]]}},{"type":"Feature","properties":{"kind":"hedge","h":2.2,"w":1.0,"src":"osm+lsc"},"geometry":{"type":"LineString","coordinates":[[413863.7,5657054.6],[413853.6,5657051.7]]}},{"type":"Feature","properties":{"kind":"hedge","h":1.5,"w":1.0,"src":"osm"},"geometry":{"type":"LineString","coordinates":[[413959.7,5656743.0],[413936.3,5656741.7]]}},{"type":"Feature","properties":{"kind":"hedge","h":1.9,"w":2.0,"src":"osm+lsc"},"geometry":{"type":"LineString","coordinates":[[413963.6,5656743.0],[413973.7,5656743.4]]}},{"type":"Feature","properties":{"kind":"hedge","h":2.6,"w":1.0,"src":"osm+lsc"},"geometry":{"type":"LineString","coordinates":[[412681.6,5656260.7],[412680.8,5656257.6],[412684.7,5656256.6]]}},{"type":"Feature","properties":{"kind":"hedge","h":1.9,"w":2.2,"src":"osm+lsc"},"geometry":{"type":"LineString","coordinates":[[412759.2,5657418.7],[412767.7,5657422.7],[412766.8,5657424.1],[412766.3,5657425.1],[412766.3,5657425.7],[412766.3,5657426.4],[412767.5,5657427.2],[412776.1,5657431.5]]}},{"type":"Feature","properties":{"kind":"hedge","h":1.7,"w":1.0,"src":"osm"},"geometry":{"type":"LineString","coordinates":[[412758.6,5657418.5],[412756.1,5657417.3],[412750.7,5657424.5]]}},{"type":"Feature","properties":{"kind":"hedge","h":1.5,"w":1.0,"src":"osm"},"geometry":{"type":"LineString","coordinates":[[412807.8,5657499.7],[412831.7,5657458.5]]}},{"type":"Feature","properties":{"kind":"hedge","h":1.6,"w":1.4,"src":"osm+lsc"},"geometry":{"type":"LineString","coordinates":[[412796.9,5657338.6],[412782.6,5657328.7],[412785.9,5657323.9]]}},{"type":"Feature","properties":{"kind":"hedge","h":1.6,"w":2.0,"src":"osm+lsc"},"geometry":{"type":"LineString","coordinates":[[412788.0,5657320.9],[412790.5,5657317.1],[412798.7,5657322.5]]}},{"type":"Feature","properties":{"kind":"hedge","h":1.5,"w":1.7,"src":"osm+lsc"},"geometry":{"type":"LineString","coordinates":[[412790.5,5657317.1],[412797.1,5657307.0]]}},{"type":"Feature","properties":{"kind":"hedge","h":2.0,"w":1.8,"src":"osm+lsc"},"geometry":{"type":"LineString","coordinates":[[412967.0,5657304.7],[412977.1,5657290.2]]}},{"type":"Feature","properties":{"kind":"hedge","h":2.0,"w":1.0,"src":"osm+lsc"},"geometry":{"type":"LineString","coordinates":[[412963.9,5657309.5],[412953.8,5657325.1]]}},{"type":"Feature","properties":{"kind":"hedge","h":1.5,"w":1.0,"src":"osm"},"geometry":{"type":"LineString","coordinates":[[412950.9,5657323.5],[412953.8,5657325.1],[412999.3,5657352.0]]}},{"type":"Feature","properties":{"kind":"hedge","h":1.5,"w":1.0,"src":"osm"},"geometry":{"type":"LineString","coordinates":[[413002.2,5657353.7],[413007.3,5657356.8],[413011.3,5657351.0]]}},{"type":"Feature","properties":{"kind":"hedge","h":1.5,"w":1.0,"src":"osm"},"geometry":{"type":"LineString","coordinates":[[412946.7,5657321.0],[412946.4,5657320.9],[412944.4,5657319.6],[412822.9,5657246.5]]}},{"type":"Feature","properties":{"kind":"hedge","h":1.5,"w":1.0,"src":"osm"},"geometry":{"type":"LineString","coordinates":[[412822.9,5657246.5],[412823.6,5657245.1]]}},{"type":"Feature","properties":{"kind":"hedge","h":1.5,"w":1.0,"src":"osm"},"geometry":{"type":"LineString","coordinates":[[412798.9,5657227.3],[412793.3,5657228.5]]}},{"type":"Feature","properties":{"kind":"hedge","h":1.5,"w":1.0,"src":"osm"},"geometry":{"type":"LineString","coordinates":[[412793.3,5657228.5],[412747.3,5657200.6],[412670.9,5657154.1]]}},{"type":"Feature","properties":{"kind":"hedge","h":1.5,"w":1.0,"src":"osm"},"geometry":{"type":"LineString","coordinates":[[412668.7,5657152.7],[412628.3,5657128.1],[412627.4,5657126.7],[412640.3,5657107.7]]}},{"type":"Feature","properties":{"kind":"hedge","h":1.8,"w":1.4,"src":"osm+lsc"},"geometry":{"type":"LineString","coordinates":[[412958.3,5657299.5],[412968.2,5657284.8],[412970.0,5657286.1]]}},{"type":"Feature","properties":{"kind":"hedge","h":1.5,"w":1.0,"src":"osm"},"geometry":{"type":"LineString","coordinates":[[412644.5,5657101.8],[412658.1,5657083.9]]}},{"type":"Feature","properties":{"kind":"hedge","h":1.4,"w":1.4,"src":"osm+lsc"},"geometry":{"type":"LineString","coordinates":[[413261.3,5656474.2],[413260.4,5656486.9],[413265.6,5656488.7],[413264.9,5656494.0],[413263.3,5656505.7],[413263.7,5656519.8],[413261.4,5656522.5],[413257.1,5656522.9],[413254.4,5656521.0]]}},{"type":"Feature","properties":{"kind":"hedge","h":1.5,"w":1.4,"src":"osm+lsc"},"geometry":{"type":"LineString","coordinates":[[413251.0,5656495.2],[413255.5,5656492.2],[413256.0,5656489.7],[413257.7,5656487.8],[413260.4,5656486.9],[413265.6,5656488.7],[413264.9,5656494.0],[413263.0,5656496.0],[413260.5,5656496.8],[413257.9,5656495.9],[413254.6,5656497.8]]}},{"type":"Feature","properties":{"kind":"hedge","h":1.5,"w":1.0,"src":"osm"},"geometry":{"type":"LineString","coordinates":[[413887.8,5656419.5],[413876.3,5656418.0]]}},{"type":"Feature","properties":{"kind":"hedge","h":1.5,"w":1.0,"src":"osm"},"geometry":{"type":"LineString","coordinates":[[413814.5,5656425.9],[413819.9,5656417.5],[413823.7,5656408.5],[413825.6,5656400.5]]}},{"type":"Feature","properties":{"kind":"hedge","h":1.8,"w":1.0,"src":"osm+lsc"},"geometry":{"type":"LineString","coordinates":[[412271.2,5658000.0],[412274.1,5657999.2]]}},{"type":"Feature","properties":{"kind":"hedge","h":1.5,"w":1.0,"src":"osm"},"geometry":{"type":"LineString","coordinates":[[413055.2,5657602.3],[413058.2,5657587.9],[413061.4,5657572.2],[413061.5,5657571.9]]}},{"type":"Feature","properties":{"kind":"hedge","h":2.2,"w":1.0,"src":"osm+lsc"},"geometry":{"type":"LineString","coordinates":[[412872.5,5657660.4],[412868.1,5657651.1]]}},{"type":"Feature","properties":{"kind":"hedge","h":1.0,"w":1.0,"src":"osm+lsc"},"geometry":{"type":"LineString","coordinates":[[412708.1,5657688.3],[412701.3,5657671.5]]}},{"type":"Feature","properties":{"kind":"hedge","h":1.5,"w":1.0,"src":"osm"},"geometry":{"type":"LineString","coordinates":[[412687.4,5657641.6],[412683.2,5657631.5],[412662.1,5657640.9],[412663.8,5657644.6]]}},{"type":"Feature","properties":{"kind":"hedge","h":1.5,"w":1.0,"src":"osm"},"geometry":{"type":"LineString","coordinates":[[412678.5,5657621.1],[412681.9,5657628.9]]}},{"type":"Feature","properties":{"kind":"hedge","h":1.5,"w":1.0,"src":"osm"},"geometry":{"type":"LineString","coordinates":[[412655.0,5657632.7],[412657.9,5657639.1],[412679.5,5657629.8]]}},{"type":"Feature","properties":{"kind":"hedge","h":1.7,"w":1.4,"src":"osm+lsc"},"geometry":{"type":"LineString","coordinates":[[413014.4,5657405.7],[413019.4,5657397.4],[413025.9,5657386.6],[413051.5,5657401.4]]}},{"type":"Feature","properties":{"kind":"hedge","h":1.5,"w":1.0,"src":"osm"},"geometry":{"type":"LineString","coordinates":[[412955.1,5657303.2],[412944.4,5657319.6]]}},{"type":"Feature","properties":{"kind":"hedge","h":2.1,"w":2.1,"src":"osm+lsc"},"geometry":{"type":"LineString","coordinates":[[412659.3,5657301.7],[412670.0,5657280.9],[412673.9,5657283.0],[412690.7,5657291.9],[412703.7,5657271.1],[412709.1,5657274.3]]}},{"type":"Feature","properties":{"kind":"hedge","h":2.1,"w":2.1,"src":"osm+lsc"},"geometry":{"type":"LineString","coordinates":[[412643.2,5657292.0],[412644.2,5657267.1],[412670.0,5657280.9]]}},{"type":"Feature","properties":{"kind":"hedge","h":1.8,"w":2.8,"src":"osm+lsc"},"geometry":{"type":"LineString","coordinates":[[413883.5,5656046.0],[413884.9,5656050.7],[413894.5,5656047.8]]}},{"type":"Feature","properties":{"kind":"hedge","h":1.7,"w":2.0,"src":"osm+lsc"},"geometry":{"type":"LineString","coordinates":[[413871.0,5656054.8],[413874.5,5656053.8],[413873.2,5656049.2]]}},{"type":"Feature","properties":{"kind":"hedge","h":1.8,"w":2.1,"src":"osm+lsc"},"geometry":{"type":"LineString","coordinates":[[413864.5,5656051.7],[413865.9,5656056.3],[413869.5,5656055.3]]}},{"type":"Feature","properties":{"kind":"hedge","h":1.5,"w":1.0,"src":"osm"},"geometry":{"type":"LineString","coordinates":[[413873.5,5656035.3],[413866.9,5656037.2],[413869.5,5656046.0]]}},{"type":"Feature","properties":{"kind":"hedge","h":1.5,"w":1.0,"src":"osm"},"geometry":{"type":"LineString","coordinates":[[413873.9,5656044.7],[413880.5,5656042.8],[413877.9,5656034.0]]}},{"type":"Feature","properties":{"kind":"hedge","h":2.1,"w":1.0,"src":"osm+lsc"},"geometry":{"type":"LineString","coordinates":[[412382.4,5657125.5],[412378.1,5657130.7],[412380.2,5657132.4]]}},{"type":"Feature","properties":{"kind":"hedge","h":1.5,"w":1.0,"src":"osm"},"geometry":{"type":"LineString","coordinates":[[412381.7,5657133.7],[412385.8,5657128.4]]}},{"type":"Feature","properties":{"kind":"hedge","h":1.5,"w":1.0,"src":"osm"},"geometry":{"type":"LineString","coordinates":[[413960.0,5656568.6],[413960.4,5656566.1],[413961.6,5656563.8],[413963.4,5656561.9],[413965.7,5656560.6],[413968.3,5656560.1],[413971.6,5656560.6],[413974.6,5656562.4],[413976.6,5656565.1],[413977.4,5656568.4],[413976.9,5656571.8],[413975.1,5656574.7],[413972.4,5656576.7],[413969.1,5656577.5],[413966.3,5656577.1],[413963.7,5656575.9],[413961.7,5656573.9],[413960.4,5656571.4],[413960.0,5656568.6]]}},{"type":"Feature","properties":{"kind":"hedge","h":1.5,"w":1.0,"src":"osm"},"geometry":{"type":"LineString","coordinates":[[412093.3,5657233.1],[412093.5,5657227.5],[412093.3,5657226.4],[412092.3,5657225.4],[412090.2,5657223.9]]}},{"type":"Feature","properties":{"kind":"hedge","h":1.5,"w":1.0,"src":"osm"},"geometry":{"type":"LineString","coordinates":[[412093.0,5657243.7],[412092.9,5657242.3],[412093.1,5657238.3]]}},{"type":"Feature","properties":{"kind":"hedge","h":2.2,"w":1.0,"src":"osm+lsc"},"geometry":{"type":"LineString","coordinates":[[413288.8,5656834.8],[413270.2,5656825.5],[413272.4,5656821.8]]}},{"type":"Feature","properties":{"kind":"hedge","h":1.5,"w":1.0,"src":"osm"},"geometry":{"type":"LineString","coordinates":[[413279.7,5656813.7],[413295.8,5656821.1]]}},{"type":"Feature","properties":{"kind":"hedge","h":1.0,"w":1.0,"src":"osm"},"geometry":{"type":"LineString","coordinates":[[412103.7,5657581.4],[412103.4,5657579.1],[412103.4,5657576.6],[412104.0,5657573.7],[412105.5,5657570.4],[412106.7,5657568.5],[412108.1,5657567.0],[412110.5,5657565.1],[412113.5,5657564.0],[412116.9,5657563.6],[412119.5,5657563.8],[412122.7,5657564.2],[412123.9,5657563.9],[412124.6,5657563.2],[412124.9,5657561.8],[412124.4,5657560.5],[412106.1,5657532.9],[412103.6,5657530.3],[412099.4,5657529.0],[412096.5,5657529.2],[412093.7,5657530.3],[412091.5,5657532.0],[412089.3,5657535.5],[412087.8,5657538.5],[412085.8,5657544.8],[412084.6,5657552.8],[412084.6,5657561.9],[412085.3,5657568.6],[412087.4,5657576.4],[412089.7,5657583.5],[412093.3,5657590.6],[412095.1,5657593.1],[412104.2,5657583.1],[412103.7,5657581.4]]}},{"type":"Feature","properties":{"kind":"hedge","h":1.0,"w":1.0,"src":"osm"},"geometry":{"type":"LineString","coordinates":[[412097.9,5657597.0],[412106.4,5657587.1],[412107.8,5657588.9],[412109.5,5657590.3],[412111.8,5657591.6],[412114.0,5657592.4],[412115.8,5657592.8],[412117.9,5657592.8],[412120.7,5657592.6],[412123.9,5657591.5],[412125.5,5657590.4],[412126.9,5657589.3],[412129.6,5657586.6],[412131.1,5657584.2],[412131.9,5657580.8],[412132.5,5657578.6],[412133.7,5657577.6],[412135.2,5657577.5],[412136.5,5657578.3],[412160.8,5657614.6],[412160.8,5657616.8],[412159.9,5657618.2],[412155.9,5657619.8],[412150.4,5657620.8],[412145.4,5657621.2],[412135.4,5657620.2],[412127.5,5657618.7],[412121.9,5657616.8],[412115.7,5657613.3],[412110.2,5657609.5],[412103.0,5657603.1],[412099.4,5657599.0],[412098.6,5657598.0],[412097.9,5657597.0]]}},{"type":"Feature","properties":{"kind":"hedge","h":1.0,"w":1.0,"src":"osm"},"geometry":{"type":"LineString","coordinates":[[412174.5,5657538.4],[412182.4,5657532.0],[412177.9,5657526.4],[412173.5,5657521.6],[412167.8,5657517.0],[412161.3,5657512.8],[412154.6,5657510.3],[412147.9,5657508.3],[412141.0,5657507.1],[412133.7,5657506.8],[412128.9,5657507.7],[412126.7,5657509.0],[412125.1,5657511.5],[412124.4,5657514.5],[412124.6,5657517.2],[412125.4,5657520.1],[412144.2,5657547.6],[412145.6,5657548.5],[412147.2,5657548.3],[412148.3,5657547.2],[412149.1,5657545.1],[412149.8,5657541.8],[412151.3,5657538.9],[412154.2,5657536.2],[412157.9,5657534.2],[412161.9,5657533.2],[412166.1,5657533.5],[412169.8,5657534.9],[412172.5,5657536.6],[412174.5,5657538.4]]}},{"type":"Feature","properties":{"kind":"hedge","h":1.0,"w":1.0,"src":"osm"},"geometry":{"type":"LineString","coordinates":[[412171.0,5657560.4],[412174.3,5657557.7],[412176.1,5657555.2],[412177.2,5657551.6],[412177.5,5657548.4],[412177.4,5657545.2],[412176.7,5657542.6],[412185.2,5657536.6],[412188.7,5657542.6],[412190.8,5657547.9],[412193.7,5657555.8],[412195.6,5657564.4],[412196.2,5657571.3],[412196.0,5657578.3],[412194.8,5657583.7],[412192.8,5657588.2],[412190.3,5657591.0],[412188.8,5657592.4],[412186.8,5657591.3],[412184.5,5657591.0],[412181.9,5657591.6],[412179.8,5657592.6],[412178.7,5657593.3],[412176.0,5657589.2],[412174.1,5657590.4],[412155.9,5657565.0],[412155.8,5657563.7],[412156.5,5657562.5],[412157.7,5657562.0],[412160.8,5657562.4],[412164.6,5657562.4],[412168.6,5657561.5],[412171.0,5657560.4]]}},{"type":"Feature","properties":{"kind":"hedge","h":1.6,"w":1.4,"src":"osm+lsc"},"geometry":{"type":"LineString","coordinates":[[413636.0,5657015.6],[413647.0,5656996.8]]}},{"type":"Feature","properties":{"kind":"hedge","h":1.7,"w":1.4,"src":"osm+lsc"},"geometry":{"type":"LineString","coordinates":[[413545.6,5656855.3],[413547.1,5656851.6]]}},{"type":"Feature","properties":{"kind":"hedge","h":1.5,"w":1.0,"src":"osm"},"geometry":{"type":"LineString","coordinates":[[412720.3,5657220.4],[412705.5,5657245.1]]}},{"type":"Feature","properties":{"kind":"hedge","h":1.5,"w":1.0,"src":"osm"},"geometry":{"type":"LineString","coordinates":[[412260.6,5657470.1],[412296.3,5657446.4]]}},{"type":"Feature","properties":{"kind":"hedge","h":3.3,"w":1.0,"src":"osm+lsc"},"geometry":{"type":"LineString","coordinates":[[413410.2,5657576.5],[413387.8,5657567.6]]}},{"type":"Feature","properties":{"kind":"hedge","h":1.5,"w":1.0,"src":"osm"},"geometry":{"type":"LineString","coordinates":[[413494.9,5657625.2],[413528.4,5657649.0]]}},{"type":"Feature","properties":{"kind":"hedge","h":2.3,"w":2.0,"src":"osm+lsc"},"geometry":{"type":"LineString","coordinates":[[413939.8,5657938.6],[413983.4,5657937.9],[413993.4,5657926.0],[414000.0,5657921.0]]}},{"type":"Feature","properties":{"kind":"hedge","h":2.0,"w":1.3,"src":"osm+lsc"},"geometry":{"type":"LineString","coordinates":[[413754.2,5657879.6],[413777.2,5657889.6]]}},{"type":"Feature","properties":{"kind":"hedge","h":1.9,"w":1.4,"src":"osm+lsc"},"geometry":{"type":"LineString","coordinates":[[413557.9,5657797.2],[413574.2,5657762.4],[413559.9,5657756.0],[413565.6,5657743.5],[413576.2,5657720.1]]}},{"type":"Feature","properties":{"kind":"hedge","h":2.3,"w":2.0,"src":"osm+lsc"},"geometry":{"type":"LineString","coordinates":[[413516.0,5657778.9],[413538.5,5657730.8],[413541.1,5657730.0],[413544.6,5657730.0],[413547.9,5657729.3],[413550.3,5657728.2],[413552.5,5657726.6],[413555.2,5657725.7],[413557.1,5657726.0],[413578.0,5657682.2]]}},{"type":"Feature","properties":{"kind":"hedge","h":1.5,"w":1.0,"src":"osm"},"geometry":{"type":"LineString","coordinates":[[413440.7,5657793.8],[413415.0,5657775.9]]}},{"type":"Feature","properties":{"kind":"hedge","h":1.5,"w":1.0,"src":"osm"},"geometry":{"type":"LineString","coordinates":[[413503.3,5657838.5],[413509.1,5657842.5]]}},{"type":"Feature","properties":{"kind":"hedge","h":1.5,"w":1.0,"src":"osm"},"geometry":{"type":"LineString","coordinates":[[413516.3,5657847.6],[413511.0,5657843.9]]}},{"type":"Feature","properties":{"kind":"hedge","h":1.5,"w":1.0,"src":"osm"},"geometry":{"type":"LineString","coordinates":[[413520.4,5657846.6],[413523.5,5657840.6]]}},{"type":"Feature","properties":{"kind":"hedge","h":1.5,"w":1.0,"src":"osm"},"geometry":{"type":"LineString","coordinates":[[413524.1,5657839.3],[413527.8,5657832.1]]}},{"type":"Feature","properties":{"kind":"hedge","h":1.5,"w":1.0,"src":"osm"},"geometry":{"type":"LineString","coordinates":[[413536.6,5657814.6],[413530.4,5657826.9]]}},{"type":"Feature","properties":{"kind":"hedge","h":1.5,"w":1.0,"src":"osm"},"geometry":{"type":"LineString","coordinates":[[413535.1,5657809.3],[413528.9,5657806.5]]}},{"type":"Feature","properties":{"kind":"hedge","h":1.5,"w":1.0,"src":"osm"},"geometry":{"type":"LineString","coordinates":[[413518.4,5657801.8],[413526.5,5657805.4]]}},{"type":"Feature","properties":{"kind":"hedge","h":1.5,"w":1.0,"src":"osm"},"geometry":{"type":"LineString","coordinates":[[413645.5,5657859.2],[413634.9,5657885.7]]}},{"type":"Feature","properties":{"kind":"hedge","h":1.5,"w":1.0,"src":"osm"},"geometry":{"type":"LineString","coordinates":[[413649.7,5657863.5],[413656.4,5657858.1],[413670.6,5657863.8]]}},{"type":"Feature","properties":{"kind":"hedge","h":1.3,"w":1.0,"src":"osm+lsc"},"geometry":{"type":"LineString","coordinates":[[413680.6,5657868.3],[413700.2,5657877.6]]}},{"type":"Feature","properties":{"kind":"hedge","h":1.4,"w":1.0,"src":"osm+lsc"},"geometry":{"type":"LineString","coordinates":[[413705.7,5657881.1],[413721.3,5657888.2]]}},{"type":"Feature","properties":{"kind":"hedge","h":1.5,"w":1.0,"src":"osm"},"geometry":{"type":"LineString","coordinates":[[413735.6,5657961.9],[413739.1,5657954.7]]}},{"type":"Feature","properties":{"kind":"hedge","h":1.8,"w":1.0,"src":"osm+lsc"},"geometry":{"type":"LineString","coordinates":[[413740.2,5657952.8],[413743.7,5657945.4]]}},{"type":"Feature","properties":{"kind":"hedge","h":1.5,"w":1.0,"src":"osm"},"geometry":{"type":"LineString","coordinates":[[413683.7,5657919.5],[413682.0,5657924.2],[413675.5,5657940.3],[413669.7,5657954.7]]}},{"type":"Feature","properties":{"kind":"hedge","h":1.5,"w":1.0,"src":"osm"},"geometry":{"type":"LineString","coordinates":[[413672.7,5657914.2],[413665.7,5657910.3],[413663.7,5657909.1]]}},{"type":"Feature","properties":{"kind":"hedge","h":1.5,"w":1.0,"src":"osm"},"geometry":{"type":"LineString","coordinates":[[413781.8,5657914.1],[413799.5,5657920.2]]}},{"type":"Feature","properties":{"kind":"hedge","h":1.9,"w":1.2,"src":"osm+lsc"},"geometry":{"type":"LineString","coordinates":[[413899.9,5657948.4],[413921.2,5657954.3]]}},{"type":"Feature","properties":{"kind":"hedge","h":1.8,"w":1.0,"src":"osm+lsc"},"geometry":{"type":"LineString","coordinates":[[413273.3,5657914.2],[413283.8,5657909.0]]}},{"type":"Feature","properties":{"kind":"hedge","h":1.5,"w":1.0,"src":"osm"},"geometry":{"type":"LineString","coordinates":[[413251.4,5657893.2],[413271.5,5657884.0]]}}]}