{"type": "FeatureCollection", "attribution": "Quelle: GeoSN, dl-de/by-2-0 (laser scan); \u00a9 OpenStreetMap contributors (ODbL)", "crs": {"type": "name", "properties": {"name": "urn:ogc:def:crs:EPSG::25833"}}, "features": [{"type": "Feature", "properties": {"kind": "hedge", "h": 1.0, "w": 2.0, "src": "osm+lsc"}, "geometry": {"type": "LineString", "coordinates": [[414299.2, 5658025.0], [414297.2, 5658018.9]]}}, {"type": "Feature", "properties": {"kind": "hedge", "h": 1.1, "w": 2.0, "src": "osm+lsc"}, "geometry": {"type": "LineString", "coordinates": [[414304.8, 5658025.0], [414302.1, 5658017.5]]}}, {"type": "Feature", "properties": {"kind": "hedge", "h": 1.1, "w": 1.0, "src": "osm+lsc"}, "geometry": {"type": "LineString", "coordinates": [[414311.0, 5658021.7], [414308.4, 5658015.1]]}}, {"type": "Feature", "properties": {"kind": "hedge", "h": 1.1, "w": 1.0, "src": "osm+lsc"}, "geometry": {"type": "LineString", "coordinates": [[414317.1, 5658019.2], [414314.8, 5658012.6]]}}, {"type": "Feature", "properties": {"kind": "hedge", "h": 1.2, "w": 1.0, "src": "osm+lsc"}, "geometry": {"type": "LineString", "coordinates": [[414322.1, 5658014.0], [414321.1, 5658010.7]]}}, {"type": "Feature", "properties": {"kind": "hedge", "h": 0.9, "w": 1.0, "src": "osm+lsc"}, "geometry": {"type": "LineString", "coordinates": [[414328.3, 5658012.7], [414327.1, 5658009.0]]}}, {"type": "Feature", "properties": {"kind": "hedge", "h": 1.0, "w": 1.0, "src": "osm+lsc"}, "geometry": {"type": "LineString", "coordinates": [[414334.5, 5658009.9], [414333.4, 5658006.5]]}}, {"type": "Feature", "properties": {"kind": "hedge", "h": 1.2, "w": 1.0, "src": "osm+lsc"}, "geometry": {"type": "LineString", "coordinates": [[414340.6, 5658008.7], [414339.4, 5658004.5]]}}, {"type": "Feature", "properties": {"kind": "hedge", "h": 1.2, "w": 1.0, "src": "osm+lsc"}, "geometry": {"type": "LineString", "coordinates": [[414347.5, 5658008.9], [414345.6, 5658002.6]]}}, {"type": "Feature", "properties": {"kind": "hedge", "h": 1.5, "w": 1.0, "src": "osm+lsc"}, "geometry": {"type": "LineString", "coordinates": [[414360.0, 5658008.9], [414357.7, 5658000.6]]}}, {"type": "Feature", "properties": {"kind": "hedge", "h": 1.1, "w": 1.0, "src": "osm+lsc"}, "geometry": {"type": "LineString", "coordinates": [[414388.5, 5658002.5], [414388.1, 5658000.0]]}}, {"type": "Feature", "properties": {"kind": "hedge", "h": 2.1, "w": 1.2, "src": "osm+lsc"}, "geometry": {"type": "LineString", "coordinates": [[414919.4, 5658382.5], [414918.8, 5658379.5], [414918.8, 5658376.7], [414920.0, 5658373.6], [414922.1, 5658371.2], [414924.1, 5658370.0], [414926.9, 5658369.1], [414929.8, 5658368.9], [414932.9, 5658369.8], [414934.4, 5658370.6], [414936.7, 5658372.3], [414939.0, 5658374.7], [414940.6, 5658376.7], [414942.2, 5658379.5], [414943.0, 5658382.4], [414942.9, 5658385.8], [414942.0, 5658388.3], [414941.0, 5658390.1]]}}, {"type": "Feature", "properties": {"kind": "hedge", "h": 1.8, "w": 1.4, "src": "osm+lsc"}, "geometry": {"type": "LineString", "coordinates": [[414947.5, 5658380.5], [414945.8, 5658377.5], [414943.3, 5658373.7], [414940.4, 5658369.8], [414936.8, 5658367.0], [414935.7, 5658365.6], [414935.2, 5658364.2], [414935.1, 5658362.8], [414935.4, 5658360.3], [414935.9, 5658358.7], [414936.5, 5658357.0], [414936.5, 5658354.3], [414935.8, 5658352.1], [414934.9, 5658350.2], [414933.4, 5658348.1]]}}, {"type": "Feature", "properties": {"kind": "hedge", "h": 1.9, "w": 1.2, "src": "osm+lsc"}, "geometry": {"type": "LineString", "coordinates": [[414943.8, 5658350.3], [414940.5, 5658351.1], [414938.5, 5658350.8], [414935.4, 5658349.6], [414933.4, 5658348.1], [414931.8, 5658346.5], [414929.9, 5658343.5], [414928.6, 5658340.2], [414928.5, 5658337.7], [414928.5, 5658334.7], [414928.8, 5658331.8]]}}, {"type": "Feature", "properties": {"kind": "hedge", "h": 1.7, "w": 1.0, "src": "osm+lsc"}, "geometry": {"type": "LineString", "coordinates": [[414931.2, 5658325.0], [414934.0, 5658323.3], [414936.4, 5658322.8], [414939.4, 5658322.9], [414942.1, 5658323.8], [414943.9, 5658325.1], [414945.5, 5658326.9], [414946.3, 5658328.7], [414946.8, 5658330.6]]}}, {"type": "Feature", "properties": {"kind": "hedge", "h": 1.5, "w": 1.4, "src": "osm+lsc"}, "geometry": {"type": "LineString", "coordinates": [[414960.3, 5658396.0], [414959.0, 5658386.5], [414955.6, 5658386.7]]}}, {"type": "Feature", "properties": {"kind": "hedge", "h": 1.9, "w": 1.4, "src": "osm+lsc"}, "geometry": {"type": "LineString", "coordinates": [[414955.6, 5658386.7], [414952.3, 5658388.4], [414949.7, 5658390.7], [414948.4, 5658392.7], [414947.2, 5658395.4], [414946.8, 5658397.2], [414946.8, 5658398.5], [414945.1, 5658399.5], [414943.5, 5658400.9], [414942.8, 5658401.9], [414942.3, 5658404.3], [414942.5, 5658406.7], [414944.2, 5658409.4], [414946.5, 5658410.7], [414948.7, 5658410.8], [414950.0, 5658410.4]]}}, {"type": "Feature", "properties": {"kind": "hedge", "h": 2.3, "w": 1.0, "src": "osm+lsc"}, "geometry": {"type": "LineString", "coordinates": [[414904.8, 5658382.7], [414904.0, 5658380.6], [414901.3, 5658378.5], [414897.2, 5658376.3], [414892.8, 5658375.6]]}}, {"type": "Feature", "properties": {"kind": "hedge", "h": 1.9, "w": 1.4, "src": "osm+lsc"}, "geometry": {"type": "LineString", "coordinates": [[414904.7, 5658353.7], [414901.3, 5658350.6], [414898.1, 5658348.0], [414894.1, 5658345.7], [414890.4, 5658343.8]]}}, {"type": "Feature", "properties": {"kind": "hedge", "h": 1.5, "w": 1.0, "src": "osm"}, "geometry": {"type": "LineString", "coordinates": [[414889.1, 5658346.5], [414890.4, 5658343.8], [414892.9, 5658338.2]]}}, {"type": "Feature", "properties": {"kind": "hedge", "h": 1.7, "w": 1.0, "src": "osm+lsc"}, "geometry": {"type": "LineString", "coordinates": [[414893.5, 5658317.2], [414911.5, 5658316.5], [414918.4, 5658320.8]]}}, {"type": "Feature", "properties": {"kind": "hedge", "h": 1.3, "w": 1.0, "src": "osm+lsc"}, "geometry": {"type": "LineString", "coordinates": [[414967.1, 5658358.1], [414965.5, 5658356.2], [414964.5, 5658354.4], [414964.3, 5658352.7], [414965.0, 5658350.6]]}}, {"type": "Feature", "properties": {"kind": "hedge", "h": 1.5, "w": 1.0, "src": "osm"}, "geometry": {"type": "LineString", "coordinates": [[414908.6, 5658337.1], [414911.1, 5658338.2], [414913.9, 5658338.4], [414916.4, 5658338.4]]}}, {"type": "Feature", "properties": {"kind": "hedge", "h": 1.5, "w": 1.0, "src": "osm"}, "geometry": {"type": "LineString", "coordinates": [[414303.6, 5658176.7], [414284.6, 5658174.5]]}}, {"type": "Feature", "properties": {"kind": "hedge", "h": 1.9, "w": 1.0, "src": "osm+lsc"}, "geometry": {"type": "LineString", "coordinates": [[415167.1, 5658897.9], [415173.5, 5658906.4]]}}, {"type": "Feature", "properties": {"kind": "hedge", "h": 1.5, "w": 1.4, "src": "osm+lsc"}, "geometry": {"type": "LineString", "coordinates": [[414767.3, 5658451.0], [414760.6, 5658441.5]]}}, {"type": "Feature", "properties": {"kind": "hedge", "h": 1.5, "w": 1.0, "src": "osm"}, "geometry": {"type": "LineString", "coordinates": [[414774.5, 5658439.2], [414770.0, 5658438.6]]}}, {"type": "Feature", "properties": {"kind": "hedge", "h": 1.6, "w": 2.0, "src": "osm+lsc"}, "geometry": {"type": "LineString", "coordinates": [[414875.4, 5658458.1], [414875.7, 5658456.4], [414877.1, 5658456.0], [414900.6, 5658458.6], [414902.8, 5658460.9], [414906.0, 5658467.0]]}}, {"type": "Feature", "properties": {"kind": "hedge", "h": 1.9, "w": 2.0, "src": "osm+lsc"}, "geometry": {"type": "LineString", "coordinates": [[415055.0, 5658478.2], [415039.5, 5658468.7]]}}, {"type": "Feature", "properties": {"kind": "hedge", "h": 1.5, "w": 1.0, "src": "osm"}, "geometry": {"type": "LineString", "coordinates": [[415085.3, 5658298.5], [415054.1, 5658324.9]]}}, {"type": "Feature", "properties": {"kind": "hedge", "h": 2.6, "w": 2.0, "src": "osm+lsc"}, "geometry": {"type": "LineString", "coordinates": [[415115.9, 5658582.2], [415097.5, 5658565.8], [415088.8, 5658559.8]]}}, {"type": "Feature", "properties": {"kind": "hedge", "h": 2.6, "w": 2.0, "src": "osm+lsc"}, "geometry": {"type": "LineString", "coordinates": [[415097.5, 5658565.8], [415105.6, 5658552.8]]}}, {"type": "Feature", "properties": {"kind": "hedge", "h": 2.7, "w": 2.0, "src": "osm+lsc"}, "geometry": {"type": "LineString", "coordinates": [[415144.0, 5658532.3], [415123.6, 5658520.6], [415121.8, 5658522.5], [415116.4, 5658531.0]]}}, {"type": "Feature", "properties": {"kind": "hedge", "h": 1.5, "w": 1.0, "src": "osm"}, "geometry": {"type": "LineString", "coordinates": [[414243.4, 5658154.2], [414244.7, 5658144.5]]}}, {"type": "Feature", "properties": {"kind": "hedge", "h": 1.5, "w": 1.0, "src": "osm"}, "geometry": {"type": "LineString", "coordinates": [[414236.3, 5658152.6], [414229.2, 5658150.6]]}}, {"type": "Feature", "properties": {"kind": "hedge", "h": 1.4, "w": 2.0, "src": "osm+lsc"}, "geometry": {"type": "LineString", "coordinates": [[414462.3, 5658349.4], [414460.8, 5658344.7], [414452.5, 5658347.6], [414459.2, 5658367.7]]}}, {"type": "Feature", "properties": {"kind": "hedge", "h": 1.5, "w": 1.0, "src": "osm"}, "geometry": {"type": "LineString", "coordinates": [[414608.1, 5658393.8], [414620.8, 5658393.3]]}}, {"type": "Feature", "properties": {"kind": "hedge", "h": 1.3, "w": 1.0, "src": "osm+lsc"}, "geometry": {"type": "LineString", "coordinates": [[414606.4, 5658393.9], [414593.9, 5658394.5]]}}, {"type": "Feature", "properties": {"kind": "hedge", "h": 1.5, "w": 1.0, "src": "osm"}, "geometry": {"type": "LineString", "coordinates": [[414592.2, 5658394.6], [414579.7, 5658395.2]]}}, {"type": "Feature", "properties": {"kind": "hedge", "h": 1.3, "w": 1.0, "src": "osm+lsc"}, "geometry": {"type": "LineString", "coordinates": [[414577.5, 5658395.3], [414562.7, 5658395.8]]}}, {"type": "Feature", "properties": {"kind": "hedge", "h": 1.3, "w": 1.0, "src": "osm+lsc"}, "geometry": {"type": "LineString", "coordinates": [[414554.8, 5658396.0], [414546.1, 5658396.1], [414535.9, 5658396.4], [414531.2, 5658381.2]]}}, {"type": "Feature", "properties": {"kind": "hedge", "h": 1.4, "w": 1.0, "src": "osm+lsc"}, "geometry": {"type": "LineString", "coordinates": [[414562.7, 5658395.8], [414562.0, 5658394.5], [414561.8, 5658391.6]]}}, {"type": "Feature", "properties": {"kind": "hedge", "h": 1.5, "w": 1.0, "src": "osm"}, "geometry": {"type": "LineString", "coordinates": [[414554.8, 5658396.0], [414555.7, 5658395.1], [414555.8, 5658392.2]]}}, {"type": "Feature", "properties": {"kind": "hedge", "h": 1.3, "w": 1.0, "src": "osm+lsc"}, "geometry": {"type": "LineString", "coordinates": [[414622.8, 5658393.4], [414635.2, 5658392.9], [414633.9, 5658384.1]]}}, {"type": "Feature", "properties": {"kind": "hedge", "h": 1.1, "w": 1.0, "src": "osm+lsc"}, "geometry": {"type": "LineString", "coordinates": [[414652.1, 5658390.7], [414670.8, 5658389.7]]}}, {"type": "Feature", "properties": {"kind": "hedge", "h": 1.5, "w": 1.0, "src": "osm"}, "geometry": {"type": "LineString", "coordinates": [[414367.1, 5658506.4], [414359.1, 5658512.1]]}}, {"type": "Feature", "properties": {"kind": "hedge", "h": 1.1, "w": 1.0, "src": "osm+lsc"}, "geometry": {"type": "LineString", "coordinates": [[414246.0, 5658577.9], [414234.6, 5658556.7]]}}, {"type": "Feature", "properties": {"kind": "hedge", "h": 1.5, "w": 1.0, "src": "osm"}, "geometry": {"type": "LineString", "coordinates": [[414232.5, 5658553.3], [414211.2, 5658513.8], [414208.9, 5658514.4], [414204.4, 5658505.8]]}}, {"type": "Feature", "properties": {"kind": "hedge", "h": 1.5, "w": 1.0, "src": "osm"}, "geometry": {"type": "LineString", "coordinates": [[414465.0, 5658347.9], [414463.6, 5658343.7], [414476.6, 5658339.3], [414478.0, 5658343.8]]}}, {"type": "Feature", "properties": {"kind": "hedge", "h": 1.5, "w": 1.0, "src": "osm"}, "geometry": {"type": "LineString", "coordinates": [[414481.4, 5658342.3], [414480.0, 5658338.2], [414493.1, 5658333.7], [414494.4, 5658338.0]]}}, {"type": "Feature", "properties": {"kind": "hedge", "h": 1.5, "w": 1.0, "src": "osm"}, "geometry": {"type": "LineString", "coordinates": [[414497.0, 5658332.5], [414504.3, 5658330.1]]}}, {"type": "Feature", "properties": {"kind": "hedge", "h": 1.5, "w": 1.0, "src": "osm"}, "geometry": {"type": "LineString", "coordinates": [[414459.2, 5658367.7], [414502.4, 5658390.2]]}}, {"type": "Feature", "properties": {"kind": "hedge", "h": 1.2, "w": 1.0, "src": "osm+lsc"}, "geometry": {"type": "LineString", "coordinates": [[414658.8, 5658375.3], [414664.8, 5658373.5], [414664.9, 5658371.8]]}}, {"type": "Feature", "properties": {"kind": "hedge", "h": 1.1, "w": 1.0, "src": "osm+lsc"}, "geometry": {"type": "LineString", "coordinates": [[414664.9, 5658365.4], [414664.8, 5658362.8], [414662.7, 5658363.0], [414662.4, 5658351.7]]}}, {"type": "Feature", "properties": {"kind": "hedge", "h": 1.1, "w": 1.0, "src": "osm+lsc"}, "geometry": {"type": "LineString", "coordinates": [[414662.4, 5658351.7], [414671.4, 5658351.4], [414671.3, 5658356.3], [414678.5, 5658356.4]]}}, {"type": "Feature", "properties": {"kind": "hedge", "h": 1.5, "w": 1.0, "src": "osm"}, "geometry": {"type": "LineString", "coordinates": [[414364.8, 5658236.2], [414364.5, 5658237.7], [414377.7, 5658241.8], [414374.5, 5658227.7], [414366.2, 5658229.4], [414366.4, 5658231.0]]}}, {"type": "Feature", "properties": {"kind": "hedge", "h": 1.5, "w": 1.0, "src": "osm+lsc"}, "geometry": {"type": "LineString", "coordinates": [[414879.8, 5658452.1], [414871.3, 5658450.9]]}}, {"type": "Feature", "properties": {"kind": "hedge", "h": 1.5, "w": 1.0, "src": "osm"}, "geometry": {"type": "LineString", "coordinates": [[414772.2, 5658457.5], [414778.6, 5658466.1], [414797.3, 5658485.8], [414815.3, 5658501.7], [414825.9, 5658510.1]]}}, {"type": "Feature", "properties": {"kind": "hedge", "h": 1.8, "w": 1.0, "src": "osm+lsc"}, "geometry": {"type": "LineString", "coordinates": [[415058.1, 5658480.2], [415062.9, 5658483.3]]}}, {"type": "Feature", "properties": {"kind": "hedge", "h": 1.8, "w": 1.0, "src": "osm+lsc"}, "geometry": {"type": "LineString", "coordinates": [[415062.9, 5658483.3], [415062.2, 5658484.4]]}}, {"type": "Feature", "properties": {"kind": "hedge", "h": 1.9, "w": 1.0, "src": "osm+lsc"}, "geometry": {"type": "LineString", "coordinates": [[415058.1, 5658480.2], [415057.2, 5658481.6]]}}, {"type": "Feature", "properties": {"kind": "hedge", "h": 1.8, "w": 1.0, "src": "osm+lsc"}, "geometry": {"type": "LineString", "coordinates": [[415056.3, 5658483.7], [415055.6, 5658484.8], [415059.9, 5658487.7], [415060.7, 5658486.4]]}}, {"type": "Feature", "properties": {"kind": "hedge", "h": 2.1, "w": 2.0, "src": "osm+lsc"}, "geometry": {"type": "LineString", "coordinates": [[415078.4, 5658494.2], [415079.1, 5658493.1], [415071.8, 5658488.6], [415070.7, 5658488.1], [415069.8, 5658488.1], [415068.6, 5658488.8], [415063.2, 5658497.5]]}}, {"type": "Feature", "properties": {"kind": "hedge", "h": 2.1, "w": 2.0, "src": "osm+lsc"}, "geometry": {"type": "LineString", "coordinates": [[415144.0, 5658532.3], [415142.9, 5658534.0]]}}, {"type": "Feature", "properties": {"kind": "hedge", "h": 2.2, "w": 1.9, "src": "osm+lsc"}, "geometry": {"type": "LineString", "coordinates": [[415114.5, 5658515.2], [415096.1, 5658504.3]]}}, {"type": "Feature", "properties": {"kind": "hedge", "h": 1.5, "w": 1.0, "src": "osm"}, "geometry": {"type": "LineString", "coordinates": [[414552.2, 5658415.1], [414548.1, 5658408.8], [414534.4, 5658408.5]]}}, {"type": "Feature", "properties": {"kind": "hedge", "h": 2.4, "w": 1.0, "src": "osm+lsc"}, "geometry": {"type": "LineString", "coordinates": [[415113.5, 5658569.8], [415118.3, 5658572.8], [415118.6, 5658574.8], [415115.9, 5658582.2]]}}, {"type": "Feature", "properties": {"kind": "hedge", "h": 1.5, "w": 1.0, "src": "osm"}, "geometry": {"type": "LineString", "coordinates": [[414763.1, 5658425.5], [414778.2, 5658427.5]]}}, {"type": "Feature", "properties": {"kind": "hedge", "h": 1.3, "w": 1.0, "src": "osm+lsc"}, "geometry": {"type": "LineString", "coordinates": [[414779.2, 5658427.8], [414794.3, 5658429.7]]}}, {"type": "Feature", "properties": {"kind": "hedge", "h": 1.5, "w": 1.0, "src": "osm"}, "geometry": {"type": "LineString", "coordinates": [[414796.0, 5658430.1], [414811.1, 5658432.1]]}}, {"type": "Feature", "properties": {"kind": "hedge", "h": 1.5, "w": 1.0, "src": "osm"}, "geometry": {"type": "LineString", "coordinates": [[414826.9, 5658434.3], [414812.9, 5658432.6]]}}, {"type": "Feature", "properties": {"kind": "hedge", "h": 1.5, "w": 1.0, "src": "osm"}, "geometry": {"type": "LineString", "coordinates": [[414828.4, 5658434.7], [414845.1, 5658436.9]]}}, {"type": "Feature", "properties": {"kind": "hedge", "h": 1.7, "w": 1.9, "src": "osm+lsc"}, "geometry": {"type": "LineString", "coordinates": [[414657.4, 5658483.5], [414659.1, 5658502.9], [414656.0, 5658511.7], [414658.5, 5658513.3], [414649.3, 5658552.6]]}}, {"type": "Feature", "properties": {"kind": "hedge", "h": 1.5, "w": 1.0, "src": "osm"}, "geometry": {"type": "LineString", "coordinates": [[414097.7, 5658031.9], [414080.7, 5658027.4], [414076.4, 5658026.2]]}}, {"type": "Feature", "properties": {"kind": "hedge", "h": 1.5, "w": 1.0, "src": "osm"}, "geometry": {"type": "LineString", "coordinates": [[414132.9, 5658090.0], [414120.7, 5658092.1], [414119.9, 5658094.3]]}}, {"type": "Feature", "properties": {"kind": "hedge", "h": 2.6, "w": 1.4, "src": "osm+lsc"}, "geometry": {"type": "LineString", "coordinates": [[414118.4, 5658008.7], [414113.2, 5658028.1]]}}, {"type": "Feature", "properties": {"kind": "hedge", "h": 2.0, "w": 1.0, "src": "osm+lsc"}, "geometry": {"type": "LineString", "coordinates": [[414110.9, 5658035.0], [414135.4, 5658041.5]]}}, {"type": "Feature", "properties": {"kind": "hedge", "h": 1.5, "w": 1.0, "src": "osm"}, "geometry": {"type": "LineString", "coordinates": [[414118.4, 5658008.7], [414151.2, 5658017.8]]}}, {"type": "Feature", "properties": {"kind": "hedge", "h": 1.5, "w": 1.0, "src": "osm"}, "geometry": {"type": "LineString", "coordinates": [[414118.8, 5658111.5], [414125.0, 5658113.2]]}}, {"type": "Feature", "properties": {"kind": "hedge", "h": 1.6, "w": 2.0, "src": "osm+lsc"}, "geometry": {"type": "LineString", "coordinates": [[414118.6, 5658115.6], [414129.1, 5658118.4]]}}, {"type": "Feature", "properties": {"kind": "hedge", "h": 1.5, "w": 1.0, "src": "osm"}, "geometry": {"type": "LineString", "coordinates": [[414057.2, 5658177.2], [414049.7, 5658205.5]]}}, {"type": "Feature", "properties": {"kind": "hedge", "h": 1.5, "w": 1.0, "src": "osm"}, "geometry": {"type": "LineString", "coordinates": [[414016.5, 5658193.8], [414032.8, 5658169.8]]}}, {"type": "Feature", "properties": {"kind": "hedge", "h": 1.5, "w": 1.0, "src": "osm"}, "geometry": {"type": "LineString", "coordinates": [[414011.5, 5658159.6], [414025.1, 5658140.0]]}}, {"type": "Feature", "properties": {"kind": "hedge", "h": 1.5, "w": 1.0, "src": "osm"}, "geometry": {"type": "LineString", "coordinates": [[414072.5, 5658175.8], [414073.4, 5658172.5], [414107.7, 5658181.9]]}}, {"type": "Feature", "properties": {"kind": "hedge", "h": 1.5, "w": 1.0, "src": "osm"}, "geometry": {"type": "LineString", "coordinates": [[414107.7, 5658181.9], [414114.4, 5658156.7]]}}, {"type": "Feature", "properties": {"kind": "hedge", "h": 2.7, "w": 1.4, "src": "osm+lsc"}, "geometry": {"type": "LineString", "coordinates": [[414114.4, 5658156.7], [414121.3, 5658132.7]]}}, {"type": "Feature", "properties": {"kind": "hedge", "h": 2.8, "w": 1.0, "src": "osm+lsc"}, "geometry": {"type": "LineString", "coordinates": [[414190.2, 5658153.3], [414207.3, 5658158.2]]}}, {"type": "Feature", "properties": {"kind": "hedge", "h": 1.5, "w": 1.0, "src": "osm"}, "geometry": {"type": "LineString", "coordinates": [[414639.5, 5658289.3], [414646.5, 5658314.9], [414623.7, 5658321.7]]}}, {"type": "Feature", "properties": {"kind": "hedge", "h": 1.5, "w": 1.0, "src": "osm"}, "geometry": {"type": "LineString", "coordinates": [[414448.0, 5658266.9], [414448.9, 5658265.2], [414447.7, 5658264.6], [414446.9, 5658266.3], [414448.0, 5658266.9]]}}, {"type": "Feature", "properties": {"kind": "hedge", "h": 1.5, "w": 1.0, "src": "osm"}, "geometry": {"type": "LineString", "coordinates": [[414451.0, 5658261.6], [414451.5, 5658260.5], [414450.4, 5658259.9], [414449.8, 5658260.9], [414451.0, 5658261.6]]}}]}