{"type": "FeatureCollection", "attribution": "Quelle: GeoSN, dl-de/by-2-0 (laser scan); \u00a9 OpenStreetMap contributors (ODbL)", "crs": {"type": "name", "properties": {"name": "urn:ogc:def:crs:EPSG::25833"}}, "features": [{"type": "Feature", "properties": {"kind": "hedge", "h": 1.5, "w": 1.0, "src": "osm"}, "geometry": {"type": "LineString", "coordinates": [[412243.0, 5654288.6], [412233.9, 5654268.3]]}}, {"type": "Feature", "properties": {"kind": "hedge", "h": 1.5, "w": 1.0, "src": "osm"}, "geometry": {"type": "LineString", "coordinates": [[413328.0, 5654884.4], [413305.1, 5654899.2], [413276.5, 5654897.1], [413252.5, 5654862.4]]}}, {"type": "Feature", "properties": {"kind": "hedge", "h": 1.5, "w": 1.0, "src": "osm"}, "geometry": {"type": "LineString", "coordinates": [[413349.2, 5654871.3], [413376.6, 5654852.4], [413375.0, 5654828.0], [413355.4, 5654793.7]]}}, {"type": "Feature", "properties": {"kind": "hedge", "h": 1.5, "w": 1.0, "src": "osm"}, "geometry": {"type": "LineString", "coordinates": [[412301.3, 5655840.9], [412322.4, 5655876.1]]}}, {"type": "Feature", "properties": {"kind": "hedge", "h": 1.5, "w": 1.0, "src": "osm"}, "geometry": {"type": "LineString", "coordinates": [[412390.9, 5655743.4], [412387.6, 5655734.1]]}}, {"type": "Feature", "properties": {"kind": "hedge", "h": 1.5, "w": 1.0, "src": "osm"}, "geometry": {"type": "LineString", "coordinates": [[412386.9, 5655732.1], [412380.2, 5655713.7]]}}, {"type": "Feature", "properties": {"kind": "hedge", "h": 1.1, "w": 1.2, "src": "osm+lsc"}, "geometry": {"type": "LineString", "coordinates": [[412378.7, 5655709.5], [412378.4, 5655708.5], [412375.4, 5655699.8], [412368.7, 5655703.6]]}}, {"type": "Feature", "properties": {"kind": "hedge", "h": 1.5, "w": 1.0, "src": "osm"}, "geometry": {"type": "LineString", "coordinates": [[412344.8, 5655713.5], [412341.7, 5655708.0]]}}, {"type": "Feature", "properties": {"kind": "hedge", "h": 1.5, "w": 1.0, "src": "osm"}, "geometry": {"type": "LineString", "coordinates": [[412356.1, 5655707.0], [412353.0, 5655701.7]]}}, {"type": "Feature", "properties": {"kind": "hedge", "h": 1.5, "w": 1.0, "src": "osm"}, "geometry": {"type": "LineString", "coordinates": [[412367.4, 5655700.4], [412364.6, 5655695.2]]}}, {"type": "Feature", "properties": {"kind": "hedge", "h": 1.5, "w": 1.0, "src": "osm"}, "geometry": {"type": "LineString", "coordinates": [[412332.6, 5655718.7], [412330.3, 5655714.5]]}}, {"type": "Feature", "properties": {"kind": "hedge", "h": 1.5, "w": 1.0, "src": "osm"}, "geometry": {"type": "LineString", "coordinates": [[412322.0, 5655725.0], [412319.4, 5655720.8]]}}, {"type": "Feature", "properties": {"kind": "hedge", "h": 1.5, "w": 1.0, "src": "osm"}, "geometry": {"type": "LineString", "coordinates": [[412307.8, 5655733.1], [412305.6, 5655729.0]]}}, {"type": "Feature", "properties": {"kind": "hedge", "h": 1.5, "w": 1.0, "src": "osm"}, "geometry": {"type": "LineString", "coordinates": [[412295.0, 5655740.5], [412292.6, 5655736.2]]}}, {"type": "Feature", "properties": {"kind": "hedge", "h": 1.5, "w": 1.0, "src": "osm"}, "geometry": {"type": "LineString", "coordinates": [[412275.9, 5655753.3], [412274.4, 5655750.8], [412272.9, 5655748.2]]}}, {"type": "Feature", "properties": {"kind": "hedge", "h": 1.5, "w": 1.0, "src": "osm"}, "geometry": {"type": "LineString", "coordinates": [[412747.6, 5655355.8], [412744.4, 5655350.9]]}}, {"type": "Feature", "properties": {"kind": "hedge", "h": 1.5, "w": 1.0, "src": "osm"}, "geometry": {"type": "LineString", "coordinates": [[412757.0, 5655370.8], [412750.4, 5655360.7]]}}, {"type": "Feature", "properties": {"kind": "hedge", "h": 1.5, "w": 1.0, "src": "osm"}, "geometry": {"type": "LineString", "coordinates": [[412727.9, 5655369.1], [412725.0, 5655364.4]]}}, {"type": "Feature", "properties": {"kind": "hedge", "h": 1.5, "w": 1.0, "src": "osm"}, "geometry": {"type": "LineString", "coordinates": [[412723.6, 5655392.9], [412717.0, 5655382.6]]}}, {"type": "Feature", "properties": {"kind": "hedge", "h": 1.5, "w": 1.0, "src": "osm"}, "geometry": {"type": "LineString", "coordinates": [[412718.4, 5655396.3], [412711.6, 5655385.5]]}}, {"type": "Feature", "properties": {"kind": "hedge", "h": 1.5, "w": 1.0, "src": "osm"}, "geometry": {"type": "LineString", "coordinates": [[412760.2, 5655369.0], [412753.8, 5655359.0]]}}, {"type": "Feature", "properties": {"kind": "hedge", "h": 1.5, "w": 1.0, "src": "osm"}, "geometry": {"type": "LineString", "coordinates": [[412680.5, 5655420.9], [412674.0, 5655410.7]]}}, {"type": "Feature", "properties": {"kind": "hedge", "h": 1.5, "w": 1.0, "src": "osm"}, "geometry": {"type": "LineString", "coordinates": [[412640.5, 5655447.1], [412633.8, 5655436.8]]}}, {"type": "Feature", "properties": {"kind": "hedge", "h": 1.5, "w": 1.0, "src": "osm"}, "geometry": {"type": "LineString", "coordinates": [[412697.0, 5655410.4], [412690.5, 5655400.2]]}}, {"type": "Feature", "properties": {"kind": "hedge", "h": 1.5, "w": 1.0, "src": "osm"}, "geometry": {"type": "LineString", "coordinates": [[412704.0, 5655384.7], [412701.1, 5655380.3]]}}, {"type": "Feature", "properties": {"kind": "hedge", "h": 1.5, "w": 1.0, "src": "osm"}, "geometry": {"type": "LineString", "coordinates": [[412630.6, 5655432.0], [412627.8, 5655427.6]]}}, {"type": "Feature", "properties": {"kind": "hedge", "h": 1.5, "w": 1.0, "src": "osm"}, "geometry": {"type": "LineString", "coordinates": [[412633.8, 5655430.0], [412630.9, 5655425.6]]}}, {"type": "Feature", "properties": {"kind": "hedge", "h": 1.5, "w": 1.0, "src": "osm"}, "geometry": {"type": "LineString", "coordinates": [[412777.7, 5655357.8], [412771.2, 5655347.8]]}}, {"type": "Feature", "properties": {"kind": "hedge", "h": 1.5, "w": 1.0, "src": "osm"}, "geometry": {"type": "LineString", "coordinates": [[412753.7, 5655351.8], [412750.9, 5655347.4]]}}, {"type": "Feature", "properties": {"kind": "hedge", "h": 1.5, "w": 1.0, "src": "osm"}, "geometry": {"type": "LineString", "coordinates": [[412654.8, 5655416.4], [412651.9, 5655412.1]]}}, {"type": "Feature", "properties": {"kind": "hedge", "h": 1.5, "w": 1.0, "src": "osm"}, "geometry": {"type": "LineString", "coordinates": [[412744.5, 5655357.8], [412741.2, 5655352.7]]}}, {"type": "Feature", "properties": {"kind": "hedge", "h": 1.5, "w": 1.0, "src": "osm"}, "geometry": {"type": "LineString", "coordinates": [[412643.7, 5655445.1], [412637.0, 5655434.8]]}}, {"type": "Feature", "properties": {"kind": "hedge", "h": 1.5, "w": 1.0, "src": "osm"}, "geometry": {"type": "LineString", "coordinates": [[412745.5, 5655378.2], [412739.0, 5655368.3]]}}, {"type": "Feature", "properties": {"kind": "hedge", "h": 1.5, "w": 1.0, "src": "osm"}, "geometry": {"type": "LineString", "coordinates": [[412736.2, 5655363.9], [412733.2, 5655359.0]]}}, {"type": "Feature", "properties": {"kind": "hedge", "h": 1.5, "w": 1.0, "src": "osm"}, "geometry": {"type": "LineString", "coordinates": [[412754.0, 5655372.3], [412747.5, 5655362.6]]}}, {"type": "Feature", "properties": {"kind": "hedge", "h": 1.5, "w": 1.0, "src": "osm"}, "geometry": {"type": "LineString", "coordinates": [[412664.3, 5655430.9], [412658.0, 5655421.4]]}}, {"type": "Feature", "properties": {"kind": "hedge", "h": 1.5, "w": 1.0, "src": "osm"}, "geometry": {"type": "LineString", "coordinates": [[412713.9, 5655378.0], [412711.2, 5655373.6]]}}, {"type": "Feature", "properties": {"kind": "hedge", "h": 1.5, "w": 1.0, "src": "osm"}, "geometry": {"type": "LineString", "coordinates": [[412763.4, 5655367.2], [412756.7, 5655356.9]]}}, {"type": "Feature", "properties": {"kind": "hedge", "h": 1.5, "w": 1.0, "src": "osm"}, "geometry": {"type": "LineString", "coordinates": [[412638.1, 5655426.9], [412635.3, 5655422.5]]}}, {"type": "Feature", "properties": {"kind": "hedge", "h": 1.5, "w": 1.0, "src": "osm"}, "geometry": {"type": "LineString", "coordinates": [[412770.5, 5655362.3], [412763.8, 5655352.1]]}}, {"type": "Feature", "properties": {"kind": "hedge", "h": 1.5, "w": 1.0, "src": "osm"}, "geometry": {"type": "LineString", "coordinates": [[412671.2, 5655405.8], [412668.3, 5655401.5]]}}, {"type": "Feature", "properties": {"kind": "hedge", "h": 1.5, "w": 1.0, "src": "osm"}, "geometry": {"type": "LineString", "coordinates": [[412647.9, 5655442.5], [412641.2, 5655431.9]]}}, {"type": "Feature", "properties": {"kind": "hedge", "h": 1.5, "w": 1.0, "src": "osm"}, "geometry": {"type": "LineString", "coordinates": [[412709.0, 5655381.1], [412706.3, 5655377.0]]}}, {"type": "Feature", "properties": {"kind": "hedge", "h": 1.5, "w": 1.0, "src": "osm"}, "geometry": {"type": "LineString", "coordinates": [[412687.6, 5655395.2], [412684.7, 5655390.9]]}}, {"type": "Feature", "properties": {"kind": "hedge", "h": 1.5, "w": 1.0, "src": "osm"}, "geometry": {"type": "LineString", "coordinates": [[412750.6, 5655353.8], [412747.7, 5655349.2]]}}, {"type": "Feature", "properties": {"kind": "hedge", "h": 1.5, "w": 1.0, "src": "osm"}, "geometry": {"type": "LineString", "coordinates": [[412637.3, 5655449.2], [412630.7, 5655438.8]]}}, {"type": "Feature", "properties": {"kind": "hedge", "h": 1.5, "w": 1.0, "src": "osm"}, "geometry": {"type": "LineString", "coordinates": [[412713.9, 5655399.7], [412707.2, 5655389.4]]}}, {"type": "Feature", "properties": {"kind": "hedge", "h": 1.5, "w": 1.0, "src": "osm"}, "geometry": {"type": "LineString", "coordinates": [[412737.4, 5655383.9], [412730.9, 5655373.5]]}}, {"type": "Feature", "properties": {"kind": "hedge", "h": 1.5, "w": 1.0, "src": "osm"}, "geometry": {"type": "LineString", "coordinates": [[412627.5, 5655433.9], [412624.7, 5655429.6]]}}, {"type": "Feature", "properties": {"kind": "hedge", "h": 1.5, "w": 1.0, "src": "osm"}, "geometry": {"type": "LineString", "coordinates": [[412728.4, 5655389.9], [412721.8, 5655379.6]]}}, {"type": "Feature", "properties": {"kind": "hedge", "h": 1.5, "w": 1.0, "src": "osm"}, "geometry": {"type": "LineString", "coordinates": [[412718.7, 5655375.0], [412716.0, 5655370.6]]}}, {"type": "Feature", "properties": {"kind": "hedge", "h": 1.5, "w": 1.0, "src": "osm"}, "geometry": {"type": "LineString", "coordinates": [[412761.0, 5655347.4], [412758.2, 5655342.9]]}}, {"type": "Feature", "properties": {"kind": "hedge", "h": 3.0, "w": 2.0, "src": "osm+lsc"}, "geometry": {"type": "LineString", "coordinates": [[413417.8, 5654578.8], [413415.0, 5654573.6], [413404.2, 5654580.1]]}}, {"type": "Feature", "properties": {"kind": "hedge", "h": 1.5, "w": 1.0, "src": "osm"}, "geometry": {"type": "LineString", "coordinates": [[413918.0, 5655886.3], [413936.2, 5655879.2]]}}, {"type": "Feature", "properties": {"kind": "hedge", "h": 1.5, "w": 1.0, "src": "osm"}, "geometry": {"type": "LineString", "coordinates": [[413913.7, 5655888.0], [413886.8, 5655898.5]]}}, {"type": "Feature", "properties": {"kind": "hedge", "h": 1.4, "w": 2.0, "src": "osm+lsc"}, "geometry": {"type": "LineString", "coordinates": [[412434.0, 5654411.7], [412423.8, 5654392.7]]}}, {"type": "Feature", "properties": {"kind": "hedge", "h": 1.2, "w": 1.0, "src": "osm+lsc"}, "geometry": {"type": "LineString", "coordinates": [[413489.9, 5655573.6], [413476.2, 5655552.4], [413474.1, 5655553.7]]}}, {"type": "Feature", "properties": {"kind": "hedge", "h": 1.3, "w": 1.0, "src": "osm+lsc"}, "geometry": {"type": "LineString", "coordinates": [[413658.8, 5655666.2], [413648.3, 5655648.4]]}}, {"type": "Feature", "properties": {"kind": "hedge", "h": 1.5, "w": 1.0, "src": "osm"}, "geometry": {"type": "LineString", "coordinates": [[412416.8, 5654111.9], [412417.4, 5654117.8]]}}, {"type": "Feature", "properties": {"kind": "hedge", "h": 2.5, "w": 1.0, "src": "osm+lsc"}, "geometry": {"type": "LineString", "coordinates": [[412429.9, 5654122.6], [412430.3, 5654129.0]]}}, {"type": "Feature", "properties": {"kind": "hedge", "h": 1.7, "w": 1.9, "src": "osm+lsc"}, "geometry": {"type": "LineString", "coordinates": [[412260.8, 5654255.8], [412276.3, 5654292.2], [412257.5, 5654300.4]]}}, {"type": "Feature", "properties": {"kind": "hedge", "h": 1.5, "w": 1.0, "src": "osm"}, "geometry": {"type": "LineString", "coordinates": [[413710.4, 5655419.2], [413728.1, 5655407.9]]}}, {"type": "Feature", "properties": {"kind": "hedge", "h": 1.4, "w": 1.2, "src": "osm+lsc"}, "geometry": {"type": "LineString", "coordinates": [[413365.6, 5654654.2], [413424.7, 5654615.9], [413426.1, 5654618.2], [413427.2, 5654619.0], [413428.8, 5654619.6], [413430.4, 5654619.4], [413433.9, 5654617.4], [413435.3, 5654619.8], [413441.7, 5654615.4], [413445.5, 5654613.7], [413449.5, 5654612.7], [413453.1, 5654612.4], [413456.5, 5654612.5], [413460.9, 5654613.3], [413464.9, 5654615.0], [413467.7, 5654616.5], [413469.7, 5654618.1], [413473.2, 5654621.2], [413474.8, 5654623.6], [413476.4, 5654626.7], [413477.3, 5654629.3]]}}, {"type": "Feature", "properties": {"kind": "hedge", "h": 1.2, "w": 1.4, "src": "osm+lsc"}, "geometry": {"type": "LineString", "coordinates": [[413397.7, 5654714.2], [413338.9, 5654752.6], [413336.6, 5654749.7], [413335.3, 5654749.2], [413333.9, 5654749.2], [413333.1, 5654749.4], [413329.8, 5654751.5], [413318.5, 5654734.6]]}}, {"type": "Feature", "properties": {"kind": "hedge", "h": 1.3, "w": 1.5, "src": "osm+lsc"}, "geometry": {"type": "LineString", "coordinates": [[413477.6, 5654630.3], [413478.3, 5654632.8], [413478.7, 5654636.4], [413478.6, 5654639.4], [413478.0, 5654642.2], [413476.6, 5654646.4], [413475.5, 5654648.9], [413473.6, 5654651.8], [413470.5, 5654655.1], [413468.0, 5654657.2], [413463.9, 5654659.9], [413463.4, 5654659.4], [413461.2, 5654660.9], [413462.7, 5654663.2], [413460.7, 5654665.0], [413459.8, 5654665.8], [413459.4, 5654666.8], [413459.2, 5654667.7], [413459.3, 5654668.8], [413459.8, 5654670.1], [413461.6, 5654672.5], [413403.1, 5654710.9]]}}, {"type": "Feature", "properties": {"kind": "hedge", "h": 1.3, "w": 2.0, "src": "osm+lsc"}, "geometry": {"type": "LineString", "coordinates": [[413310.4, 5654722.0], [413300.7, 5654707.6], [413301.2, 5654707.0], [413299.7, 5654704.8], [413302.4, 5654703.1], [413303.3, 5654702.3], [413303.8, 5654701.2], [413304.0, 5654700.2], [413303.7, 5654699.0], [413301.9, 5654695.9], [413360.7, 5654657.6]]}}, {"type": "Feature", "properties": {"kind": "hedge", "h": 1.5, "w": 1.0, "src": "osm"}, "geometry": {"type": "LineString", "coordinates": [[412486.5, 5655280.0], [412505.5, 5655268.0], [412503.3, 5655264.7], [412484.5, 5655277.0], [412484.3, 5655278.0], [412484.7, 5655279.1], [412485.4, 5655279.7], [412486.5, 5655280.0]]}}, {"type": "Feature", "properties": {"kind": "hedge", "h": 1.5, "w": 1.0, "src": "osm"}, "geometry": {"type": "LineString", "coordinates": [[412509.7, 5655265.1], [412530.7, 5655251.6], [412528.5, 5655248.2], [412507.6, 5655261.7], [412509.7, 5655265.1]]}}, {"type": "Feature", "properties": {"kind": "hedge", "h": 1.5, "w": 1.0, "src": "osm"}, "geometry": {"type": "LineString", "coordinates": [[412502.0, 5655253.4], [412523.0, 5655239.6], [412520.9, 5655236.4], [412499.9, 5655250.1], [412502.0, 5655253.4]]}}, {"type": "Feature", "properties": {"kind": "hedge", "h": 1.5, "w": 1.0, "src": "osm"}, "geometry": {"type": "LineString", "coordinates": [[412478.9, 5655268.3], [412498.0, 5655255.8], [412495.9, 5655252.6], [412476.8, 5655265.2], [412476.7, 5655266.2], [412477.1, 5655267.3], [412477.8, 5655267.9], [412478.9, 5655268.3]]}}]}