{"type": "FeatureCollection", "attribution": "Quelle: GeoSN, dl-de/by-2-0", "crs": {"type": "name", "properties": {"name": "urn:ogc:def:crs:EPSG::25833"}}, "features": [{"type": "Feature", "properties": {"kind": "statue", "source": "dlm+osm", "name": "K\u00f6nig-Albert-Denkmal", "form": "obelisk", "height": 13.0, "material": "Granit"}, "geometry": {"type": "Point", "coordinates": [416136.26, 5658148.61]}}, {"type": "Feature", "properties": {"kind": "statue", "source": "osm", "form": "statue", "material": "Holz"}, "geometry": {"type": "Point", "coordinates": [416498.44, 5658934.54]}}, {"type": "Feature", "properties": {"kind": "stone", "source": "dlm", "name": "Martin-Luther-Gedenkstein"}, "geometry": {"type": "Point", "coordinates": [416398.06, 5658775.1]}}, {"type": "Feature", "properties": {"kind": "stone", "source": "osm", "name": "Luthereiche", "form": "stone", "material": "Stein"}, "geometry": {"type": "Point", "coordinates": [416400.24, 5658812.11]}}, {"type": "Feature", "properties": {"kind": "stone", "source": "dlm", "name": "N-Stein"}, "geometry": {"type": "Point", "coordinates": [417443.99, 5659012.74]}}]}