{"type": "FeatureCollection", "attribution": "Quelle: GeoSN, dl-de/by-2-0; \u00a9 OpenStreetMap contributors (ODbL)", "crs": {"type": "name", "properties": {"name": "urn:ogc:def:crs:EPSG::25833"}}, "features": [{"type": "Feature", "properties": {"kind": "fountain", "source": "osm", "style": "basin", "figure": false}, "geometry": {"type": "Point", "coordinates": [409759.52, 5656235.58]}}, {"type": "Feature", "properties": {"kind": "fountain", "source": "osm", "style": "basin", "figure": false}, "geometry": {"type": "Point", "coordinates": [409954.2, 5657805.62]}}, {"type": "Feature", "properties": {"kind": "statue", "source": "dlm", "name": "Mahnmal"}, "geometry": {"type": "Point", "coordinates": [408794.54, 5656488.05]}}, {"type": "Feature", "properties": {"kind": "statue", "source": "dlm", "name": "Mahnmal", "relief": {"west": 408855.0, "north": 5657482.0, "cols": 7, "rows": 7, "dm": [0, 0, 0, 0, 0, 0, 0, 0, 0, 16, 0, 0, 0, 0, 0, 8, 0, 7, 9, 0, 0, 0, 12, 0, 0, 0, 16, 0, 0, 0, 8, 11, 7, 0, 0, 0, 8, 0, 0, 0, 0, 0, 0, 0, 0, 0, 0, 0, 0]}}, "geometry": {"type": "Point", "coordinates": [408856.59, 5657481.76]}}, {"type": "Feature", "properties": {"kind": "statue", "source": "dlm", "name": "Mahnmal"}, "geometry": {"type": "Point", "coordinates": [408887.48, 5657524.53]}}, {"type": "Feature", "properties": {"kind": "statue", "source": "dlm", "name": "Kriegsdenkmal"}, "geometry": {"type": "Point", "coordinates": [408982.75, 5657559.99]}}, {"type": "Feature", "properties": {"kind": "statue", "source": "dlm", "name": "Ehrenmal"}, "geometry": {"type": "Point", "coordinates": [409119.88, 5657479.66]}}, {"type": "Feature", "properties": {"kind": "statue", "source": "dlm", "name": "K\u00f6nig-Anton-Denkmal"}, "geometry": {"type": "Point", "coordinates": [409919.98, 5657133.56]}}]}