{"type": "FeatureCollection", "attribution": "Quelle: GeoSN, dl-de/by-2-0; \u00a9 OpenStreetMap contributors (ODbL)", "crs": {"type": "name", "properties": {"name": "urn:ogc:def:crs:EPSG::25833"}}, "features": [{"type": "Feature", "properties": {"kind": "fountain", "source": "dlm+osm", "name": "Junge Naturforscher", "style": "basin", "figure": true, "relief": {"west": 410590.0, "north": 5654783.0, "cols": 4, "rows": 5, "dm": [0, 0, 0, 0, 0, 8, 0, 0, 0, 34, 19, 0, 0, 24, 13, 0, 0, 0, 0, 0]}}, "geometry": {"type": "Point", "coordinates": [410592.28, 5654780.6]}}, {"type": "Feature", "properties": {"kind": "fountain", "source": "osm", "name": "Primavera II", "style": "basin", "figure": false}, "geometry": {"type": "Point", "coordinates": [410854.28, 5654999.83]}}, {"type": "Feature", "properties": {"kind": "fountain", "source": "osm", "style": "basin", "figure": false}, "geometry": {"type": "Polygon", "coordinates": [[[410947.34, 5654028.52], [410947.58, 5654026.46], [410945.88, 5654027.71], [410947.34, 5654028.52]], [[410947.05, 5654027.96], [410947.14, 5654027.22], [410946.53, 5654027.67], [410947.05, 5654027.96]]]}}, {"type": "Feature", "properties": {"kind": "fountain", "source": "osm", "style": "basin", "figure": false}, "geometry": {"type": "Point", "coordinates": [411051.08, 5655187.49]}}, {"type": "Feature", "properties": {"kind": "fountain", "source": "osm", "style": "basin", "figure": false}, "geometry": {"type": "Point", "coordinates": [411143.16, 5655137.35]}}, {"type": "Feature", "properties": {"kind": "fountain", "source": "osm", "name": "Schalenbrunnen", "style": "basin", "figure": false}, "geometry": {"type": "Polygon", "coordinates": [[[411200.26, 5655837.05], [411210.69, 5655839.56], [411216.05, 5655817.38], [411205.62, 5655814.87], [411200.26, 5655837.05]], [[411200.68, 5655836.79], [411210.44, 5655839.14], [411215.63, 5655817.63], [411205.88, 5655815.3], [411200.68, 5655836.79]]]}}, {"type": "Feature", "properties": {"kind": "fountain", "source": "dlm+osm", "name": "Marie-Heinze-Gey-Denkmal", "style": "basin", "figure": true, "relief": {"west": 411204.0, "north": 5654897.0, "cols": 5, "rows": 5, "dm": [0, 0, 0, 0, 0, 0, 0, 7, 0, 0, 0, 11, 15, 7, 0, 0, 0, 9, 0, 0, 0, 0, 0, 0, 0]}}, "geometry": {"type": "Point", "coordinates": [411206.11, 5654894.74]}}, {"type": "Feature", "properties": {"kind": "fountain", "source": "osm", "name": "Pusteblume", "style": "basin", "figure": false}, "geometry": {"type": "Polygon", "coordinates": [[[411313.13, 5655366.43], [411316.71, 5655377.74], [411323.85, 5655375.49], [411320.28, 5655364.18], [411313.13, 5655366.43]], [[411313.57, 5655366.66], [411316.94, 5655377.3], [411323.41, 5655375.26], [411320.05, 5655364.62], [411313.57, 5655366.66]]]}}, {"type": "Feature", "properties": {"kind": "fountain", "source": "osm", "style": "basin", "figure": false}, "geometry": {"type": "Polygon", "coordinates": [[[411321.95, 5655388.99], [411330.69, 5655416.17], [411334.49, 5655414.99], [411325.84, 5655387.78], [411321.95, 5655388.99]], [[411322.39, 5655389.22], [411330.92, 5655415.74], [411334.05, 5655414.76], [411325.61, 5655388.22], [411322.39, 5655389.22]]]}}, {"type": "Feature", "properties": {"kind": "fountain", "source": "osm", "style": "basin", "figure": false}, "geometry": {"type": "Polygon", "coordinates": [[[411332.58, 5655422.51], [411336.09, 5655433.94], [411340.0, 5655432.74], [411336.49, 5655421.31], [411332.58, 5655422.51]], [[411333.02, 5655422.75], [411336.32, 5655433.51], [411339.56, 5655432.51], [411336.26, 5655421.75], [411333.02, 5655422.75]]]}}, {"type": "Feature", "properties": {"kind": "fountain", "source": "osm", "style": "basin", "figure": false}, "geometry": {"type": "Polygon", "coordinates": [[[411352.13, 5655484.71], [411355.6, 5655495.3], [411359.24, 5655494.11], [411355.77, 5655483.53], [411352.13, 5655484.71]], [[411352.58, 5655484.94], [411355.83, 5655494.86], [411358.79, 5655493.89], [411355.54, 5655483.97], [411352.58, 5655484.94]]]}}, {"type": "Feature", "properties": {"kind": "fountain", "source": "osm", "style": "basin", "figure": false}, "geometry": {"type": "Polygon", "coordinates": [[[411356.87, 5655500.3], [411363.75, 5655522.18], [411367.58, 5655520.98], [411360.7, 5655499.1], [411356.87, 5655500.3]], [[411357.31, 5655500.53], [411363.98, 5655521.74], [411367.14, 5655520.75], [411360.47, 5655499.54], [411357.31, 5655500.53]]]}}, {"type": "Feature", "properties": {"kind": "fountain", "source": "osm", "style": "basin", "figure": false}, "geometry": {"type": "Point", "coordinates": [411362.03, 5655510.82]}}, {"type": "Feature", "properties": {"kind": "fountain", "source": "osm", "name": "Brunnenwand", "style": "basin", "figure": false}, "geometry": {"type": "Point", "coordinates": [411380.57, 5655919.11]}}, {"type": "Feature", "properties": {"kind": "fountain", "source": "osm", "style": "basin", "figure": false}, "geometry": {"type": "Point", "coordinates": [411408.84, 5655538.11]}}, {"type": "Feature", "properties": {"kind": "fountain", "source": "osm", "name": "Hietzigbrunnen", "style": "basin", "figure": false}, "geometry": {"type": "Point", "coordinates": [411660.49, 5655960.64]}}, {"type": "Feature", "properties": {"kind": "fountain", "source": "osm", "name": "Dinglingerbrunnen", "style": "basin", "figure": false}, "geometry": {"type": "Point", "coordinates": [411805.34, 5655999.46]}}, {"type": "Feature", "properties": {"kind": "fountain", "source": "dlm+osm", "name": "Mozartbrunnen", "style": "basin", "figure": true}, "geometry": {"type": "Polygon", "coordinates": [[[411814.0, 5655431.18], [411820.3, 5655432.48], [411820.9, 5655432.37], [411821.18, 5655431.9], [411821.96, 5655428.32], [411819.26, 5655427.84], [411818.8, 5655428.59], [411818.31, 5655428.91], [411817.47, 5655429.06], [411816.73, 5655428.66], [411816.44, 5655428.24], [411816.29, 5655427.67], [411816.37, 5655427.22], [411813.96, 5655426.66], [411813.22, 5655430.23], [411813.4, 5655430.8], [411814.0, 5655431.18]], [[411814.14, 5655430.85], [411820.31, 5655432.13], [411820.68, 5655432.06], [411820.85, 5655431.77], [411821.54, 5655428.6], [411819.43, 5655428.23], [411819.06, 5655428.84], [411818.44, 5655429.25], [411817.42, 5655429.43], [411816.49, 5655428.93], [411816.11, 5655428.39], [411815.94, 5655427.68], [411815.97, 5655427.49], [411814.23, 5655427.08], [411813.58, 5655430.22], [411813.69, 5655430.57], [411814.14, 5655430.85]]]}}, {"type": "Feature", "properties": {"kind": "fountain", "source": "osm", "style": "basin", "figure": false}, "geometry": {"type": "Point", "coordinates": [411907.58, 5655189.24]}}, {"type": "Feature", "properties": {"kind": "fountain", "source": "osm", "style": "basin", "figure": false}, "geometry": {"type": "Point", "coordinates": [411995.41, 5655463.67]}}, {"type": "Feature", "properties": {"kind": "statue", "source": "dlm+osm", "name": "M\u00e4rtyrerdenkmal"}, "geometry": {"type": "Point", "coordinates": [410110.89, 5654242.49]}}, {"type": "Feature", "properties": {"kind": "statue", "source": "dlm+osm", "name": "Satyrgruppe", "form": "sculpture", "material": "Metall", "artist": "Karl Sch\u00f6nherr"}, "geometry": {"type": "Point", "coordinates": [410382.22, 5655196.9]}}, {"type": "Feature", "properties": {"kind": "statue", "source": "dlm+osm", "name": "Lesendes M\u00e4dchen", "form": "statue", "material": "Stein", "artist": "Heinz Mamat"}, "geometry": {"type": "Point", "coordinates": [410437.02, 5654306.16]}}, {"type": "Feature", "properties": {"kind": "statue", "source": "osm", "name": "Kleine Liegende", "form": "statue", "material": "Stein", "artist": "Vinzenz Wanitschke"}, "geometry": {"type": "Point", "coordinates": [410466.45, 5654342.0]}}, {"type": "Feature", "properties": {"kind": "statue", "source": "osm", "form": "sculpture"}, "geometry": {"type": "Point", "coordinates": [410474.02, 5654682.03]}}, {"type": "Feature", "properties": {"kind": "statue", "source": "osm", "form": "sculpture"}, "geometry": {"type": "Point", "coordinates": [410481.26, 5654677.32]}}, {"type": "Feature", "properties": {"kind": "statue", "source": "osm", "form": "statue", "material": "Bronze", "wikidata": "Q111177820"}, "geometry": {"type": "Point", "coordinates": [410683.96, 5654915.35]}}, {"type": "Feature", "properties": {"kind": "statue", "source": "osm", "form": "sculpture"}, "geometry": {"type": "Point", "coordinates": [410710.2, 5655795.41]}}, {"type": "Feature", "properties": {"kind": "statue", "source": "osm", "name": "Zweierbeziehung", "form": "sculpture", "height": 2.0, "artist": "Ulrich Ei\u00dfner"}, "geometry": {"type": "Point", "coordinates": [410963.18, 5654008.69]}}, {"type": "Feature", "properties": {"kind": "statue", "source": "osm", "name": "Turm", "form": "sculpture", "artist": "Prapatti Susanne Starke"}, "geometry": {"type": "Point", "coordinates": [410987.03, 5654704.3]}}, {"type": "Feature", "properties": {"kind": "statue", "source": "osm", "name": "Saxonia", "form": "statue", "material": "Metall", "artist": "Friedrich Rentsch"}, "geometry": {"type": "Point", "coordinates": [411177.96, 5655026.78]}}, {"type": "Feature", "properties": {"kind": "statue", "source": "dlm", "name": "Friedrich-List-Denkmal"}, "geometry": {"type": "Point", "coordinates": [411242.13, 5654798.63]}}, {"type": "Feature", "properties": {"kind": "statue", "source": "osm", "name": "Merkur", "form": "statue", "material": "Holz", "artist": "Carsten B\u00fcrger"}, "geometry": {"type": "Point", "coordinates": [411265.15, 5655851.93]}}, {"type": "Feature", "properties": {"kind": "statue", "source": "osm", "form": "statue"}, "geometry": {"type": "Point", "coordinates": [411280.38, 5655433.83]}}, {"type": "Feature", "properties": {"kind": "statue", "source": "osm", "name": "Figur vom zerst\u00f6rten Trompeterschl\u00f6sschen", "form": "sculpture"}, "geometry": {"type": "Point", "coordinates": [411284.81, 5655745.05]}}, {"type": "Feature", "properties": {"kind": "statue", "source": "osm", "name": "Figur vom zerst\u00f6rten Trompeterschl\u00f6sschen", "form": "sculpture"}, "geometry": {"type": "Point", "coordinates": [411285.92, 5655751.96]}}, {"type": "Feature", "properties": {"kind": "statue", "source": "osm", "form": "statue"}, "geometry": {"type": "Point", "coordinates": [411287.13, 5655455.42]}}, {"type": "Feature", "properties": {"kind": "statue", "source": "osm", "name": "Tischlein, deck dich", "form": "sculpture", "material": "Bronze", "artist": "Karl Sch\u00f6nherr"}, "geometry": {"type": "Point", "coordinates": [411313.6, 5655323.95]}}, {"type": "Feature", "properties": {"kind": "statue", "source": "dlm+osm", "name": "Sonne-Mond", "artist": "N/V"}, "geometry": {"type": "Point", "coordinates": [411334.03, 5655866.42]}}, {"type": "Feature", "properties": {"kind": "statue", "source": "dlm+osm", "name": "V\u00f6lkerfreundschaft", "form": "sculpture", "artist": "Wolf-Eike Kuntsche"}, "geometry": {"type": "Point", "coordinates": [411374.96, 5655550.83]}}, {"type": "Feature", "properties": {"kind": "statue", "source": "osm", "form": "sculpture", "material": "Metall", "artist": "Karl Sch\u00f6nherr"}, "geometry": {"type": "Point", "coordinates": [411447.25, 5655191.79]}}, {"type": "Feature", "properties": {"kind": "statue", "source": "dlm"}, "geometry": {"type": "Point", "coordinates": [411492.19, 5655366.25]}}, {"type": "Feature", "properties": {"kind": "statue", "source": "osm", "name": "Sonnenuhr Struvecarr\u00e9", "form": "sculpture", "material": "Stein", "artist": "Ingenieurgemeinschaft Froebel + Trautmann"}, "geometry": {"type": "Point", "coordinates": [411523.87, 5655175.35]}}, {"type": "Feature", "properties": {"kind": "statue", "source": "dlm+osm", "name": "Zwei Frauen", "form": "statue", "artist": "Wieland F\u00f6rster"}, "geometry": {"type": "Point", "coordinates": [411572.57, 5655453.8]}}, {"type": "Feature", "properties": {"kind": "statue", "source": "dlm+osm", "name": "Julius-Otto-Denkmal", "form": "statue"}, "geometry": {"type": "Point", "coordinates": [411581.89, 5655988.12]}}, {"type": "Feature", "properties": {"kind": "statue", "source": "osm", "form": "sculpture"}, "geometry": {"type": "Point", "coordinates": [411737.6, 5654979.1]}}, {"type": "Feature", "properties": {"kind": "statue", "source": "osm", "name": "Breslauer Zwerg", "form": "sculpture", "height": 0.3, "material": "Bronze"}, "geometry": {"type": "Point", "coordinates": [411756.1, 5655865.8]}}, {"type": "Feature", "properties": {"kind": "statue", "source": "dlm+osm", "name": "Thalestris", "form": "sculpture"}, "geometry": {"type": "Point", "coordinates": [411777.45, 5655533.53]}}, {"type": "Feature", "properties": {"kind": "statue", "source": "dlm+osm", "name": "Alcibiades", "form": "sculpture", "material": "Stein"}, "geometry": {"type": "Point", "coordinates": [411779.91, 5655478.3]}}, {"type": "Feature", "properties": {"kind": "statue", "source": "dlm+osm", "name": "Schildl\u00f6we", "form": "statue", "relief": {"west": 411780.0, "north": 5655892.0, "cols": 4, "rows": 3, "dm": [0, 0, 0, 0, 0, 9, 27, 0, 0, 0, 0, 0]}}, "geometry": {"type": "Point", "coordinates": [411782.12, 5655891.29]}}, {"type": "Feature", "properties": {"kind": "statue", "source": "dlm+osm", "name": "Schildl\u00f6we", "form": "statue", "material": "Bronze", "wikidata": "Q110682504", "relief": {"west": 411787.0, "north": 5655904.0, "cols": 4, "rows": 3, "dm": [0, 0, 0, 0, 0, 7, 20, 0, 0, 0, 0, 0]}}, "geometry": {"type": "Point", "coordinates": [411788.88, 5655903.16]}}, {"type": "Feature", "properties": {"kind": "statue", "source": "dlm+osm", "name": "Theodor-K\u00f6rner-Denkmal", "form": "statue"}, "geometry": {"type": "Point", "coordinates": [411797.8, 5655684.21]}}, {"type": "Feature", "properties": {"kind": "statue", "source": "dlm+osm", "name": "Bacchus", "form": "statue"}, "geometry": {"type": "Point", "coordinates": [411799.17, 5655931.49]}}, {"type": "Feature", "properties": {"kind": "statue", "source": "dlm+osm", "name": "Mucius Scaevola", "form": "statue"}, "geometry": {"type": "Point", "coordinates": [411801.13, 5655538.13]}}, {"type": "Feature", "properties": {"kind": "statue", "source": "dlm+osm", "name": "Perikles", "form": "sculpture"}, "geometry": {"type": "Point", "coordinates": [411809.47, 5655486.92]}}, {"type": "Feature", "properties": {"kind": "statue", "source": "osm", "form": "statue"}, "geometry": {"type": "Point", "coordinates": [411814.7, 5655422.6]}}, {"type": "Feature", "properties": {"kind": "statue", "source": "dlm+osm", "name": "Tr\u00fcmmerfrau", "form": "statue", "material": "Bronze", "artist": "Walter Reinhold"}, "geometry": {"type": "Point", "coordinates": [411823.08, 5655875.5]}}, {"type": "Feature", "properties": {"kind": "statue", "source": "dlm+osm", "form": "sculpture", "relief": {"west": 411849.0, "north": 5655333.0, "cols": 5, "rows": 4, "dm": [0, 0, 0, 0, 0, 0, 32, 42, 36, 0, 0, 0, 42, 22, 0, 0, 0, 0, 0, 0]}}, "geometry": {"type": "Point", "coordinates": [411851.86, 5655331.45]}}, {"type": "Feature", "properties": {"kind": "statue", "source": "dlm", "name": "Venus und Amor"}, "geometry": {"type": "Point", "coordinates": [411866.22, 5655292.18]}}, {"type": "Feature", "properties": {"kind": "statue", "source": "dlm+osm", "form": "sculpture"}, "geometry": {"type": "Point", "coordinates": [411874.88, 5655218.97]}}, {"type": "Feature", "properties": {"kind": "statue", "source": "dlm+osm", "name": "Zwei M\u00fctter", "form": "sculpture"}, "geometry": {"type": "Point", "coordinates": [411928.36, 5655162.22]}}, {"type": "Feature", "properties": {"kind": "statue", "source": "dlm+osm", "name": "Otto-Ludwig-Denkmal", "form": "bust"}, "geometry": {"type": "Point", "coordinates": [411971.13, 5655015.39]}}, {"type": "Feature", "properties": {"kind": "statue", "source": "dlm", "relief": {"west": 411983.0, "north": 5655774.0, "cols": 5, "rows": 7, "dm": [0, 0, 0, 0, 0, 0, 7, 15, 0, 0, 0, 28, 40, 13, 0, 0, 15, 15, 19, 0, 0, 0, 0, 12, 0, 0, 0, 0, 35, 0, 0, 0, 0, 0, 0]}}, "geometry": {"type": "Point", "coordinates": [411987.16, 5655772.39]}}, {"type": "Feature", "properties": {"kind": "statue", "source": "dlm"}, "geometry": {"type": "Point", "coordinates": [411996.93, 5655273.77]}}, {"type": "Feature", "properties": {"kind": "stone", "source": "osm", "form": "stele", "material": "Bronze"}, "geometry": {"type": "Point", "coordinates": [410264.44, 5654081.58]}}, {"type": "Feature", "properties": {"kind": "stone", "source": "dlm+osm", "name": "Siegfried-Schade-Gedenkstein", "form": "stele", "material": "Stein"}, "geometry": {"type": "Point", "coordinates": [411077.69, 5654648.7]}}, {"type": "Feature", "properties": {"kind": "stone", "source": "osm", "name": "Friedrich-List-Denkmal", "form": "stele", "material": "Stein"}, "geometry": {"type": "Point", "coordinates": [411248.49, 5654780.15]}}, {"type": "Feature", "properties": {"kind": "stone", "source": "osm", "form": "stone"}, "geometry": {"type": "Point", "coordinates": [411367.14, 5654663.63]}}, {"type": "Feature", "properties": {"kind": "stone", "source": "dlm+osm", "name": "Steine des Ansto\u00dfes", "material": "Granit", "wikidata": "Q110677953", "relief": {"west": 411619.0, "north": 5655973.0, "cols": 4, "rows": 4, "dm": [0, 0, 0, 0, 0, 16, 24, 0, 0, 0, 27, 0, 0, 0, 0, 0]}}, "geometry": {"type": "Point", "coordinates": [411621.49, 5655971.71]}}, {"type": "Feature", "properties": {"kind": "stone", "source": "osm", "name": "Berliner Mauer", "form": "stele", "material": "Stein"}, "geometry": {"type": "Point", "coordinates": [411636.28, 5654648.25]}}, {"type": "Feature", "properties": {"kind": "stone", "source": "dlm", "name": "Weichbildstein"}, "geometry": {"type": "Point", "coordinates": [411682.36, 5655851.1]}}, {"type": "Feature", "properties": {"kind": "stone", "source": "dlm+osm", "name": "Labyrinthstein", "form": "stone", "material": "Stein", "artist": "Agnes Barmettler"}, "geometry": {"type": "Point", "coordinates": [411765.09, 5655619.85]}}]}