{"type": "FeatureCollection", "attribution": "Quelle: GeoSN, dl-de/by-2-0", "crs": {"type": "name", "properties": {"name": "urn:ogc:def:crs:EPSG::25833"}}, "features": [{"type": "Feature", "properties": {"kind": "column", "source": "osm", "name": "Hochkreuz", "form": "obelisk"}, "geometry": {"type": "Point", "coordinates": [414245.42, 5659425.22]}}, {"type": "Feature", "properties": {"kind": "statue", "source": "dlm+osm", "name": "Ehrenmal", "artist": "Johannes Friedrich Rogge"}, "geometry": {"type": "Point", "coordinates": [414020.98, 5659270.51]}}, {"type": "Feature", "properties": {"kind": "statue", "source": "dlm+osm", "name": "Ehrenmal", "form": "obelisk", "artist": "Emil Leibold (Entwurf), Friedrich Press (Bildhauer)"}, "geometry": {"type": "Point", "coordinates": [414039.66, 5659212.3]}}, {"type": "Feature", "properties": {"kind": "statue", "source": "dlm", "name": "Ehrenmal"}, "geometry": {"type": "Point", "coordinates": [414103.44, 5659313.89]}}, {"type": "Feature", "properties": {"kind": "statue", "source": "dlm", "name": "Ehrenmal"}, "geometry": {"type": "Point", "coordinates": [414430.32, 5659406.46]}}, {"type": "Feature", "properties": {"kind": "statue", "source": "dlm+osm", "name": "Karl-B\u00f6hmert-Denkmal", "form": "stone"}, "geometry": {"type": "Point", "coordinates": [415160.58, 5658345.35]}}, {"type": "Feature", "properties": {"kind": "statue", "source": "dlm", "name": "Julius-Hans-von-Th\u00fcmmel-Denkmal"}, "geometry": {"type": "Point", "coordinates": [415369.93, 5658287.45]}}, {"type": "Feature", "properties": {"kind": "statue", "source": "osm", "form": "statue"}, "geometry": {"type": "Point", "coordinates": [415527.42, 5658665.88]}}, {"type": "Feature", "properties": {"kind": "statue", "source": "osm", "form": "statue"}, "geometry": {"type": "Point", "coordinates": [415576.88, 5658696.18]}}, {"type": "Feature", "properties": {"kind": "stone", "source": "osm", "name": "Gedenke der Soldaten", "form": "stele", "material": "Stein"}, "geometry": {"type": "Point", "coordinates": [414226.91, 5659279.11]}}, {"type": "Feature", "properties": {"kind": "stone", "source": "osm", "form": "stele", "material": "Stein"}, "geometry": {"type": "Point", "coordinates": [414269.84, 5659319.97]}}]}