{"type": "FeatureCollection", "attribution": "Quelle: GeoSN, dl-de/by-2-0; \u00a9 OpenStreetMap contributors (ODbL)", "crs": {"type": "name", "properties": {"name": "urn:ogc:def:crs:EPSG::25833"}}, "features": [{"type": "Feature", "properties": {"kind": "fountain", "source": "osm", "style": "basin", "figure": false}, "geometry": {"type": "Point", "coordinates": [416134.94, 5655935.23]}}, {"type": "Feature", "properties": {"kind": "fountain", "source": "osm", "style": "basin", "figure": false}, "geometry": {"type": "Polygon", "coordinates": [[[417244.12, 5654445.34], [417244.72, 5654445.81], [417244.93, 5654446.54], [417244.66, 5654447.26], [417244.02, 5654447.67], [417243.6, 5654447.7], [417242.85, 5654447.36], [417242.5, 5654446.6], [417242.71, 5654445.8], [417243.35, 5654445.33], [417244.12, 5654445.34]], [[417244.0, 5654445.69], [417243.46, 5654445.69], [417243.01, 5654446.01], [417242.87, 5654446.57], [417243.11, 5654447.09], [417243.67, 5654447.34], [417243.91, 5654447.33], [417244.37, 5654447.03], [417244.56, 5654446.53], [417244.42, 5654446.02], [417244.0, 5654445.69]]]}}, {"type": "Feature", "properties": {"kind": "fountain", "source": "osm", "style": "basin", "figure": false}, "geometry": {"type": "Point", "coordinates": [417271.55, 5654441.86]}}, {"type": "Feature", "properties": {"kind": "fountain", "source": "osm", "style": "basin", "figure": false}, "geometry": {"type": "Polygon", "coordinates": [[[417283.76, 5654383.34], [417282.78, 5654383.72], [417282.22, 5654383.65], [417281.87, 5654383.34], [417281.84, 5654382.81], [417282.23, 5654382.31], [417282.74, 5654382.05], [417283.29, 5654381.9], [417283.85, 5654382.03], [417284.13, 5654382.37], [417284.1, 5654382.91], [417283.76, 5654383.34]], [[417283.54, 5654383.05], [417283.76, 5654382.78], [417283.77, 5654382.49], [417283.65, 5654382.34], [417283.3, 5654382.26], [417282.87, 5654382.38], [417282.45, 5654382.59], [417282.19, 5654382.92], [417282.21, 5654383.17], [417282.37, 5654383.31], [417282.73, 5654383.36], [417283.54, 5654383.05]]]}}, {"type": "Feature", "properties": {"kind": "fountain", "source": "osm", "style": "basin", "figure": false}, "geometry": {"type": "Polygon", "coordinates": [[[417291.02, 5654516.92], [417291.29, 5654517.21], [417291.5, 5654517.94], [417291.23, 5654518.65], [417290.6, 5654519.07], [417290.17, 5654519.1], [417289.42, 5654518.74], [417289.07, 5654517.99], [417289.28, 5654517.2], [417289.58, 5654516.89], [417290.31, 5654516.67], [417291.02, 5654516.92]], [[417290.83, 5654517.23], [417290.3, 5654517.04], [417289.77, 5654517.2], [417289.6, 5654517.38], [417289.44, 5654517.96], [417289.68, 5654518.48], [417290.24, 5654518.74], [417290.48, 5654518.72], [417290.95, 5654518.42], [417291.13, 5654517.92], [417290.98, 5654517.39], [417290.83, 5654517.23]]]}}, {"type": "Feature", "properties": {"kind": "fountain", "source": "osm", "style": "basin", "figure": false}, "geometry": {"type": "Point", "coordinates": [417306.88, 5654494.32]}}, {"type": "Feature", "properties": {"kind": "fountain", "source": "osm", "style": "basin", "figure": false}, "geometry": {"type": "Polygon", "coordinates": [[[417344.72, 5654398.29], [417345.14, 5654398.91], [417345.19, 5654399.3], [417344.92, 5654400.01], [417344.28, 5654400.43], [417343.86, 5654400.46], [417343.11, 5654400.1], [417342.76, 5654399.35], [417342.97, 5654398.56], [417343.27, 5654398.25], [417344.0, 5654398.03], [417344.72, 5654398.29]], [[417344.49, 5654398.58], [417343.99, 5654398.4], [417343.45, 5654398.56], [417343.28, 5654398.74], [417343.13, 5654399.32], [417343.38, 5654399.84], [417343.93, 5654400.1], [417344.17, 5654400.09], [417344.63, 5654399.78], [417344.83, 5654399.26], [417344.8, 5654399.04], [417344.49, 5654398.58]]]}}, {"type": "Feature", "properties": {"kind": "fountain", "source": "osm", "style": "basin", "figure": false}, "geometry": {"type": "Polygon", "coordinates": [[[417378.13, 5654449.81], [417378.56, 5654450.43], [417378.6, 5654450.82], [417378.33, 5654451.53], [417377.7, 5654451.95], [417377.28, 5654451.98], [417376.53, 5654451.63], [417376.17, 5654450.88], [417376.38, 5654450.08], [417377.03, 5654449.61], [417377.79, 5654449.62], [417378.13, 5654449.81]], [[417377.89, 5654450.07], [417377.7, 5654449.97], [417377.14, 5654449.96], [417376.69, 5654450.29], [417376.54, 5654450.85], [417376.79, 5654451.37], [417377.34, 5654451.62], [417377.58, 5654451.61], [417378.05, 5654451.3], [417378.25, 5654450.78], [417378.22, 5654450.56], [417377.89, 5654450.07]]]}}, {"type": "Feature", "properties": {"kind": "fountain", "source": "osm", "style": "basin", "figure": false}, "geometry": {"type": "Point", "coordinates": [417780.28, 5655458.18]}}, {"type": "Feature", "properties": {"kind": "statue", "source": "dlm", "name": "Kriegsdenkmal"}, "geometry": {"type": "Point", "coordinates": [416406.14, 5655917.64]}}, {"type": "Feature", "properties": {"kind": "statue", "source": "dlm", "name": "Kriegsdenkmal"}, "geometry": {"type": "Point", "coordinates": [417352.65, 5655610.48]}}, {"type": "Feature", "properties": {"kind": "statue", "source": "dlm", "name": "Kriegsdenkmal", "relief": {"west": 417430.0, "north": 5655628.0, "cols": 4, "rows": 3, "dm": [0, 0, 0, 0, 0, 17, 14, 0, 0, 0, 0, 0]}}, "geometry": {"type": "Point", "coordinates": [417432.03, 5655626.89]}}, {"type": "Feature", "properties": {"kind": "statue", "source": "dlm", "name": "Kriegsdenkmal"}, "geometry": {"type": "Point", "coordinates": [417486.66, 5654076.33]}}, {"type": "Feature", "properties": {"kind": "stone", "source": "dlm", "name": "Gedenkstein"}, "geometry": {"type": "Point", "coordinates": [417194.28, 5654407.43]}}, {"type": "Feature", "properties": {"kind": "stone", "source": "dlm", "name": "Gedenkstein", "relief": {"west": 417252.0, "north": 5654682.0, "cols": 5, "rows": 5, "dm": [0, 0, 0, 0, 0, 0, 11, 10, 0, 0, 0, 0, 15, 0, 0, 0, 0, 0, 9, 0, 0, 0, 0, 0, 0]}}, "geometry": {"type": "Point", "coordinates": [417254.53, 5654679.37]}}, {"type": "Feature", "properties": {"kind": "stone", "source": "dlm", "name": "Gedenkstein"}, "geometry": {"type": "Point", "coordinates": [417276.04, 5654368.87]}}, {"type": "Feature", "properties": {"kind": "stone", "source": "dlm", "name": "Gedenkstein"}, "geometry": {"type": "Point", "coordinates": [417320.33, 5654564.2]}}, {"type": "Feature", "properties": {"kind": "stone", "source": "dlm", "name": "Kilometerstein"}, "geometry": {"type": "Point", "coordinates": [417534.71, 5655472.26]}}, {"type": "Feature", "properties": {"kind": "stone", "source": "dlm", "name": "Kilometerstein"}, "geometry": {"type": "Point", "coordinates": [417552.96, 5655416.44]}}, {"type": "Feature", "properties": {"kind": "stone", "source": "dlm", "name": "Kilometerstein"}, "geometry": {"type": "Point", "coordinates": [417604.82, 5655294.99]}}, {"type": "Feature", "properties": {"kind": "stone", "source": "dlm", "name": "Kilometerstein"}, "geometry": {"type": "Point", "coordinates": [417648.06, 5655189.95]}}, {"type": "Feature", "properties": {"kind": "stone", "source": "dlm", "name": "Kilometerstein"}, "geometry": {"type": "Point", "coordinates": [417659.96, 5655152.01]}}, {"type": "Feature", "properties": {"kind": "stone", "source": "dlm", "name": "Wegestein"}, "geometry": {"type": "Point", "coordinates": [417732.83, 5654167.45]}}]}