{"type": "FeatureCollection", "attribution": "\u00a9 OpenStreetMap contributors (ODbL)", "crs": {"type": "name", "properties": {"name": "urn:ogc:def:crs:EPSG::25833"}}, "features": [{"type": "Feature", "properties": {}, "geometry": {"type": "LineString", "coordinates": [[414367.3, 5658032.75], [414307.84, 5658038.23], [414300.97, 5658038.89], [414294.63, 5658039.92]]}}, {"type": "Feature", "properties": {}, "geometry": {"type": "LineString", "coordinates": [[414292.9, 5658030.44], [414298.67, 5658030.91], [414351.67, 5658026.31], [414361.35, 5658025.5], [414366.15, 5658023.54]]}}]}