{"type": "FeatureCollection", "attribution": "\u00a9 OpenStreetMap contributors (ODbL)", "crs": {"type": "name", "properties": {"name": "urn:ogc:def:crs:EPSG::25833"}}, "features": [{"type": "Feature", "properties": {}, "geometry": {"type": "LineString", "coordinates": [[412608.01, 5655734.35], [412688.28, 5655701.83], [412691.4, 5655699.55]]}}, {"type": "Feature", "properties": {}, "geometry": {"type": "LineString", "coordinates": [[412706.2, 5655659.93], [412701.25, 5655653.05], [412667.61, 5655602.86]]}}, {"type": "Feature", "properties": {}, "geometry": {"type": "LineString", "coordinates": [[412638.61, 5655411.6], [412711.08, 5655365.36]]}}, {"type": "Feature", "properties": {}, "geometry": {"type": "LineString", "coordinates": [[412634.78, 5655405.25], [412706.36, 5655358.78]]}}, {"type": "Feature", "properties": {}, "geometry": {"type": "LineString", "coordinates": [[413283.97, 5654315.66], [413275.83, 5654315.14], [413265.12, 5654315.78], [413261.08, 5654316.6], [413243.27, 5654322.44], [413211.37, 5654338.55]]}}, {"type": "Feature", "properties": {}, "geometry": {"type": "LineString", "coordinates": [[413578.05, 5654529.67], [413563.44, 5654538.44], [413545.15, 5654550.18], [413532.24, 5654554.53], [413521.15, 5654555.27], [413512.66, 5654553.54]]}}, {"type": "Feature", "properties": {}, "geometry": {"type": "LineString", "coordinates": [[412416.71, 5655842.58], [412413.85, 5655844.25], [412327.81, 5655894.57]]}}, {"type": "Feature", "properties": {}, "geometry": {"type": "LineString", "coordinates": [[413804.84, 5655706.47], [413859.11, 5655705.82]]}}, {"type": "Feature", "properties": {}, "geometry": {"type": "LineString", "coordinates": [[413791.76, 5655716.48], [413804.4, 5655713.6], [413821.62, 5655712.12], [413858.88, 5655712.14]]}}, {"type": "Feature", "properties": {}, "geometry": {"type": "LineString", "coordinates": [[412834.16, 5655635.71], [412747.19, 5655680.6]]}}, {"type": "Feature", "properties": {}, "geometry": {"type": "LineString", "coordinates": [[412419.85, 5655848.08], [412416.58, 5655850.0], [412330.99, 5655899.99]]}}, {"type": "Feature", "properties": {}, "geometry": {"type": "LineString", "coordinates": [[412737.24, 5655727.38], [412761.17, 5655780.01]]}}, {"type": "Feature", "properties": {}, "geometry": {"type": "LineString", "coordinates": [[412507.43, 5655361.48], [412477.72, 5655316.13]]}}, {"type": "Feature", "properties": {}, "geometry": {"type": "LineString", "coordinates": [[412436.7, 5655264.5], [412403.91, 5655214.83]]}}, {"type": "Feature", "properties": {}, "geometry": {"type": "LineString", "coordinates": [[412039.6, 5654780.99], [412040.19, 5654781.4], [412095.56, 5654821.22], [412098.24, 5654823.15]]}}, {"type": "Feature", "properties": {}, "geometry": {"type": "LineString", "coordinates": [[412894.7, 5654415.7], [412926.87, 5654394.68], [412939.02, 5654386.82]]}}, {"type": "Feature", "properties": {}, "geometry": {"type": "LineString", "coordinates": [[413917.66, 5654941.95], [413849.69, 5654985.83]]}}, {"type": "Feature", "properties": {}, "geometry": {"type": "LineString", "coordinates": [[413902.78, 5654918.89], [413835.83, 5654962.74]]}}, {"type": "Feature", "properties": {}, "geometry": {"type": "LineString", "coordinates": [[413612.16, 5655108.66], [413545.76, 5655151.57]]}}, {"type": "Feature", "properties": {}, "geometry": {"type": "LineString", "coordinates": [[413443.02, 5655250.46], [413508.88, 5655208.64]]}}, {"type": "Feature", "properties": {}, "geometry": {"type": "LineString", "coordinates": [[412247.27, 5654198.7], [412269.19, 5654250.67]]}}, {"type": "Feature", "properties": {}, "geometry": {"type": "LineString", "coordinates": [[412260.46, 5654213.57], [412278.76, 5654257.49]]}}, {"type": "Feature", "properties": {}, "geometry": {"type": "LineString", "coordinates": [[412102.11, 5654817.84], [412099.49, 5654815.95], [412043.93, 5654775.92], [412043.4, 5654775.54]]}}, {"type": "Feature", "properties": {}, "geometry": {"type": "LineString", "coordinates": [[412749.97, 5655685.67], [412836.73, 5655640.67]]}}, {"type": "Feature", "properties": {}, "geometry": {"type": "LineString", "coordinates": [[412743.94, 5655673.62], [412750.67, 5655670.65], [412830.65, 5655629.03]]}}, {"type": "Feature", "properties": {}, "geometry": {"type": "LineString", "coordinates": [[412951.81, 5654392.21], [412946.53, 5654394.45], [412914.88, 5654414.79], [412903.69, 5654421.72], [412900.69, 5654424.73]]}}, {"type": "Feature", "properties": {}, "geometry": {"type": "LineString", "coordinates": [[413272.76, 5655756.13], [413306.2, 5655759.86], [413339.65, 5655763.58]]}}, {"type": "Feature", "properties": {}, "geometry": {"type": "LineString", "coordinates": [[413273.85, 5655746.42], [413307.58, 5655750.18], [413341.14, 5655753.92]]}}]}