{"type": "FeatureCollection", "attribution": "\u00a9 OpenStreetMap contributors (ODbL)", "crs": {"type": "name", "properties": {"name": "urn:ogc:def:crs:EPSG::25833"}}, "features": [{"type": "Feature", "properties": {}, "geometry": {"type": "LineString", "coordinates": [[416260.18, 5656308.11], [416206.57, 5656312.66], [416199.81, 5656313.29], [416194.95, 5656314.79]]}}, {"type": "Feature", "properties": {}, "geometry": {"type": "LineString", "coordinates": [[416194.63, 5656306.35], [416198.58, 5656306.57], [416249.49, 5656301.68], [416259.22, 5656300.81]]}}]}