{"type": "FeatureCollection", "crs": {"type": "name", "properties": {"name": "urn:ogc:def:crs:EPSG::25833"}}, "features": [{"type": "Feature", "properties": {"of": "DESNATP13q0001Cf", "g": [234.97, 234.82, 234.55, 234.49], "top": [236.05, 236.0, 235.68, 235.75]}, "geometry": {"type": "MultiLineString", "coordinates": [[[417470.5, 5658039.8], [417463.8, 5658039.8]], [[417463.8, 5658039.8], [417463.74, 5658033.92]], [[417463.74, 5658033.92], [417470.56, 5658033.78]], [[417470.56, 5658033.78], [417470.5, 5658039.8]]]}}]}