{"type": "FeatureCollection", "crs": {"type": "name", "properties": {"name": "urn:ogc:def:crs:EPSG::25833"}}, "features": [{"type": "Feature", "properties": {}, "geometry": {"type": "Polygon", "coordinates": [[[409964.17, 5658645.05], [409966.2, 5658661.46], [409968.49, 5658690.65], [409970.8, 5658706.51], [409972.84, 5658716.73], [409975.91, 5658722.36], [409982.06, 5658727.99], [409989.73, 5658731.57], [409997.91, 5658732.59], [410000.0, 5658732.12], [410000.0, 5658672.78], [409992.79, 5658670.19], [409984.61, 5658665.59], [409964.17, 5658645.05]]]}}]}