{"type": "FeatureCollection", "crs": {"type": "name", "properties": {"name": "urn:ogc:def:crs:EPSG::25833"}}, "features": [{"type": "Feature", "properties": {}, "geometry": {"type": "Polygon", "coordinates": [[[410224.54, 5656025.88], [410224.11, 5656050.95], [410224.61, 5656064.88], [410225.44, 5656087.7], [410227.29, 5656136.06], [410230.4, 5656166.92], [410229.67, 5656200.0], [410229.06, 5656226.54], [410224.84, 5656248.4], [410221.77, 5656269.67], [410221.73, 5656277.25], [410224.22, 5656281.99], [410223.56, 5656285.81], [410223.21, 5656288.8], [410216.89, 5656289.42], [410210.33, 5656312.58], [410205.27, 5656327.2], [410209.63, 5656329.28], [410203.74, 5656350.7], [410191.23, 5656379.89], [410179.44, 5656395.85], [410159.89, 5656419.28], [410156.01, 5656418.85], [410141.92, 5656432.08], [410127.11, 5656441.71], [410115.42, 5656446.27], [410109.19, 5656451.83], [410111.68, 5656459.21], [410096.05, 5656469.32], [410110.6, 5656479.65], [410101.71, 5656486.1], [410122.3, 5656503.34], [410128.91, 5656509.19], [410151.37, 5656488.37], [410155.41, 5656484.62], [410205.3, 5656432.43], [410215.81, 5656426.56], [410210.22, 5656412.84], [410225.86, 5656373.63], [410234.48, 5656348.04], [410253.61, 5656340.47], [410278.74, 5656397.5], [410299.0, 5656444.62], [410337.42, 5656536.42], [410350.32, 5656531.26], [410353.13, 5656535.26], [410355.14, 5656540.0], [410349.31, 5656543.89], [410354.96, 5656552.04], [410359.85, 5656560.09], [410357.06, 5656565.36], [410354.48, 5656565.56], [410342.7, 5656557.41], [410337.42, 5656553.77], [410335.7, 5656555.3], [410341.16, 5656566.99], [410342.55, 5656574.12], [410348.2, 5656578.43], [410361.31, 5656588.86], [410363.01, 5656590.21], [410368.05, 5656595.78], [410380.12, 5656608.43], [410391.03, 5656622.3], [410400.96, 5656634.57], [410413.16, 5656651.94], [410425.88, 5656671.86], [410482.82, 5656756.87], [410493.31, 5656768.83], [410499.65, 5656776.52], [410497.87, 5656778.3], [410507.64, 5656790.34], [410567.61, 5656860.23], [410578.77, 5656870.44], [410608.76, 5656904.2], [410650.23, 5656947.25], [410668.71, 5656965.42], [410677.5, 5656974.21], [410689.59, 5656985.73], [410699.99, 5656996.43], [410724.17, 5657022.66], [410764.2, 5657067.63], [410765.04, 5657068.58], [410772.85, 5657076.81], [410779.63, 5657083.95], [410780.87, 5657085.44], [410808.58, 5657118.58], [410830.0, 5657144.2], [410853.96, 5657172.83], [410872.59, 5657199.85], [410880.16, 5657210.2], [410888.64, 5657222.9], [410894.3, 5657231.42], [410918.02, 5657268.9], [410937.92, 5657299.13], [410957.8, 5657321.5], [410971.14, 5657333.4], [411007.27, 5657362.1], [411021.1, 5657371.94], [411032.9, 5657379.96], [411062.04, 5657395.56], [411119.43, 5657423.24], [411119.51, 5657423.28], [411199.82, 5657463.97], [411269.13, 5657500.46], [411290.15, 5657511.07], [411291.34, 5657511.82], [411336.6, 5657540.38], [411341.04, 5657543.72], [411365.93, 5657562.43], [411386.17, 5657580.75], [411400.25, 5657593.48], [411429.77, 5657621.86], [411454.92, 5657645.15], [411472.91, 5657660.91], [411486.36, 5657673.98], [411512.46, 5657706.65], [411532.51, 5657727.93], [411542.4, 5657740.08], [411552.88, 5657754.05], [411564.61, 5657778.19], [411579.78, 5657809.32], [411593.44, 5657838.17], [411598.21, 5657840.11], [411604.38, 5657864.94], [411599.88, 5657860.08], [411605.17, 5657883.53], [411608.77, 5657899.54], [411613.54, 5657928.64], [411616.45, 5657959.33], [411616.97, 5657971.24], [411616.16, 5657985.06], [411615.28, 5658000.0], [411626.95, 5658000.0], [411628.04, 5657990.28], [411629.19, 5657973.32], [411629.09, 5657954.63], [411628.14, 5657941.78], [411626.32, 5657928.84], [411623.63, 5657914.85], [411618.7, 5657896.53], [411617.21, 5657890.98], [411611.25, 5657870.92], [411619.73, 5657878.28], [411653.14, 5657891.68], [411656.97, 5657899.71], [411658.22, 5657905.87], [411667.3, 5657905.65], [411673.31, 5657906.88], [411680.34, 5657909.93], [411721.58, 5657950.52], [411752.91, 5657979.79], [411736.59, 5657995.63], [411741.19, 5658000.0], [411918.52, 5658000.0], [411924.47, 5657994.37], [411928.22, 5657991.41], [411912.83, 5657977.75], [411919.3, 5657973.15], [411870.33, 5657924.65], [411815.53, 5657868.94], [411741.4, 5657797.52], [411718.14, 5657822.32], [411709.54, 5657813.29], [411699.87, 5657804.52], [411649.08, 5657757.06], [411589.84, 5657710.02], [411580.65, 5657701.48], [411569.31, 5657691.78], [411512.38, 5657643.9], [411495.25, 5657629.7], [411479.84, 5657617.02], [411464.08, 5657602.3], [411429.0, 5657572.78], [411403.76, 5657552.06], [411387.21, 5657538.08], [411352.32, 5657512.4], [411306.28, 5657484.77], [411283.23, 5657473.33], [411211.14, 5657437.58], [411073.43, 5657367.74], [411048.72, 5657356.55], [411034.94, 5657348.18], [411021.03, 5657337.75], [411009.13, 5657329.95], [411000.37, 5657322.78], [410983.2, 5657305.19], [410971.14, 5657292.22], [410961.37, 5657280.69], [410941.02, 5657252.21], [410918.5, 5657217.59], [410923.61, 5657213.01], [410887.12, 5657162.14], [410861.86, 5657125.08], [410833.08, 5657089.97], [410803.63, 5657059.69], [410790.66, 5657043.06], [410750.49, 5656995.63], [410717.82, 5656958.54], [410708.55, 5656947.77], [410698.71, 5656935.29], [410611.13, 5656834.03], [410606.19, 5656827.25], [410545.07, 5656758.59], [410546.02, 5656757.68], [410542.93, 5656754.15], [410541.86, 5656755.1], [410534.25, 5656746.78], [410527.52, 5656739.25], [410517.21, 5656726.47], [410482.06, 5656683.04], [410443.76, 5656635.2], [410432.88, 5656619.22], [410423.72, 5656605.26], [410397.15, 5656561.04], [410378.32, 5656523.1], [410354.29, 5656475.67], [410334.88, 5656432.77], [410313.07, 5656384.73], [410302.53, 5656360.53], [410291.5, 5656330.45], [410284.7, 5656306.62], [410279.28, 5656283.25], [410274.61, 5656258.45], [410270.66, 5656232.81], [410269.22, 5656209.21], [410267.66, 5656190.03], [410266.82, 5656164.04], [410266.1, 5656105.69], [410265.57, 5656100.95], [410264.78, 5656076.63], [410265.17, 5656062.4], [410268.81, 5656029.9], [410270.62, 5656000.0], [410225.91, 5656000.0], [410224.52, 5656014.83], [410224.54, 5656025.88]], [[410391.91, 5656621.89], [410392.72, 5656621.52], [410391.03, 5656622.3], [410391.91, 5656621.89]], [[411298.01, 5657498.59], [411293.96, 5657506.11], [411296.0, 5657502.3], [411298.01, 5657498.59]], [[411303.25, 5657489.82], [411303.58, 5657489.27], [411303.25, 5657489.82], [411298.01, 5657498.59], [411303.25, 5657489.82]], [[411850.35, 5657947.99], [411856.01, 5657942.34], [411862.43, 5657948.76], [411856.78, 5657954.42], [411850.35, 5657947.99]]]}}, {"type": "Feature", "properties": {}, "geometry": {"type": "Polygon", "coordinates": [[[410002.41, 5656573.0], [410037.01, 5656561.86], [410121.64, 5656540.8], [410111.28, 5656531.36], [410077.68, 5656503.99], [410067.44, 5656494.29], [410060.68, 5656486.03], [410025.51, 5656512.65], [410015.83, 5656520.47], [410000.0, 5656527.17], [410000.0, 5656574.31], [410002.41, 5656573.0]]]}}, {"type": "Feature", "properties": {}, "geometry": {"type": "Polygon", "coordinates": [[[410010.76, 5657600.79], [410014.72, 5657600.42], [410010.8, 5657582.36], [410003.13, 5657580.56], [410000.0, 5657570.29], [410000.0, 5657601.85], [410010.76, 5657600.79]]]}}]}