{"type": "FeatureCollection", "attribution": "\u00a9 OpenStreetMap contributors (ODbL)", "crs": {"type": "name", "properties": {"name": "urn:ogc:def:crs:EPSG::25833"}}, "features": [{"type": "Feature", "properties": {"k": "pontoon", "len": 113.2, "bank": [417270.43, 5654916.27]}, "geometry": {"type": "Polygon", "coordinates": [[[417305.09, 5654939.23], [417276.09, 5654920.15], [417274.44, 5654922.66], [417300.53, 5654939.82], [417263.95, 5654980.78], [417229.7, 5655024.86], [417232.07, 5655026.7], [417266.25, 5654982.7], [417305.09, 5654939.23]]]}}, {"type": "Feature", "properties": {"k": "pontoon", "len": 21.6, "bank": [417192.36, 5655037.39]}, "geometry": {"type": "Polygon", "coordinates": [[[417204.68, 5655057.45], [417207.25, 5655059.01], [417215.17, 5655046.03], [417195.43, 5655037.23], [417194.21, 5655039.97], [417210.83, 5655047.38], [417204.68, 5655057.45]]]}}, {"type": "Feature", "properties": {"k": "pier", "deck": 106.51}, "geometry": {"type": "Polygon", "coordinates": [[[416775.29, 5656000.99], [416776.72, 5655998.36], [416761.5, 5655990.1], [416760.07, 5655992.74], [416775.29, 5656000.99]]]}}, {"type": "Feature", "properties": {"k": "pier", "deck": 107.3}, "geometry": {"type": "Polygon", "coordinates": [[[416962.87, 5655622.6], [416963.88, 5655619.77], [416944.0, 5655612.74], [416943.0, 5655615.57], [416962.87, 5655622.6]]]}}, {"type": "Feature", "properties": {"k": "pier", "deck": 107.79}, "geometry": {"type": "Polygon", "coordinates": [[[416874.39, 5655796.32], [416875.81, 5655793.68], [416853.95, 5655781.84], [416852.52, 5655784.48], [416874.39, 5655796.32]]]}}, {"type": "Feature", "properties": {"k": "pier", "deck": 106.37}, "geometry": {"type": "Polygon", "coordinates": [[[416876.79, 5655788.77], [416867.0, 5655806.74], [416869.64, 5655808.17], [416879.42, 5655790.21], [416876.79, 5655788.77]]]}}, {"type": "Feature", "properties": {"k": "pontoon", "len": 21.0, "bank": [416803.22, 5655886.01]}, "geometry": {"type": "Polygon", "coordinates": [[[416806.33, 5655907.65], [416809.01, 5655909.0], [416818.5, 5655890.28], [416804.69, 5655883.31], [416804.2, 5655885.25], [416803.71, 5655885.25], [416803.71, 5655885.74], [416803.22, 5655885.93], [416814.47, 5655891.6], [416806.33, 5655907.65]]]}}, {"type": "Feature", "properties": {"k": "pier", "deck": 106.45}, "geometry": {"type": "Polygon", "coordinates": [[[416963.8, 5655615.52], [416955.6, 5655638.56], [416958.42, 5655639.56], [416966.63, 5655616.53], [416963.8, 5655615.52]]]}}, {"type": "Feature", "properties": {"k": "ferry", "name": "S\u00e4chsische Dampfschifffahrt"}, "geometry": {"type": "LineString", "coordinates": [[416810.99, 5655998.25], [416820.57, 5655980.69], [416958.73, 5655709.85], [417049.4, 5655487.61], [417189.06, 5655171.0], [417354.54, 5654927.96], [417532.23, 5654772.67], [417784.32, 5654592.19], [417998.19, 5654492.4]]}}]}