{"type": "FeatureCollection", "attribution": "\u00a9 OpenStreetMap contributors (ODbL)", "crs": {"type": "name", "properties": {"name": "urn:ogc:def:crs:EPSG::25833"}}, "features": [{"type": "Feature", "properties": {"k": "pier", "deck": 104.15}, "geometry": {"type": "Polygon", "coordinates": [[[411055.76, 5658017.65], [411053.44, 5658015.75], [411049.86, 5658020.14], [411052.19, 5658022.04], [411055.76, 5658017.65]]]}}, {"type": "Feature", "properties": {"k": "pier", "deck": 104.15}, "geometry": {"type": "Polygon", "coordinates": [[[411037.91, 5658003.17], [411035.58, 5658001.28], [411031.76, 5658005.97], [411034.09, 5658007.87], [411037.91, 5658003.17]]]}}, {"type": "Feature", "properties": {"k": "pier", "deck": 104.15}, "geometry": {"type": "Polygon", "coordinates": [[[411042.94, 5657998.8], [411040.62, 5657996.91], [411036.47, 5658002.0], [411038.8, 5658003.89], [411042.94, 5657998.8]]]}}, {"type": "Feature", "properties": {"k": "pier", "deck": 104.15}, "geometry": {"type": "Polygon", "coordinates": [[[411047.19, 5658002.79], [411044.83, 5658000.94], [411037.51, 5658010.31], [411039.88, 5658012.16], [411047.19, 5658002.79]]]}}, {"type": "Feature", "properties": {"k": "pier", "deck": 104.15}, "geometry": {"type": "Polygon", "coordinates": [[[411048.19, 5658018.9], [411055.5, 5658009.93], [411053.17, 5658008.04], [411045.86, 5658017.01], [411048.19, 5658018.9]]]}}, {"type": "Feature", "properties": {"k": "pier", "deck": 104.15}, "geometry": {"type": "Polygon", "coordinates": [[[411044.12, 5658015.33], [411051.45, 5658006.34], [411049.12, 5658004.45], [411041.79, 5658013.44], [411044.12, 5658015.33]]]}}, {"type": "Feature", "properties": {"k": "pontoon", "len": 47.3, "bank": [411069.06, 5658008.79]}, "geometry": {"type": "Polygon", "coordinates": [[[411045.18, 5658036.13], [411047.85, 5658036.13], [411047.85, 5658035.64], [411048.34, 5658035.64], [411048.34, 5658035.16], [411048.83, 5658035.16], [411048.83, 5658034.67], [411049.8, 5658034.18], [411049.8, 5658033.2], [411050.29, 5658033.2], [411050.29, 5658032.71], [411051.27, 5658032.23], [411051.27, 5658031.25], [411051.76, 5658031.25], [411051.76, 5658030.76], [411052.25, 5658030.76], [411052.25, 5658030.27], [411053.22, 5658029.79], [411053.22, 5658028.81], [411053.71, 5658028.81], [411053.71, 5658028.32], [411054.69, 5658027.83], [411054.69, 5658026.86], [411055.18, 5658026.86], [411055.18, 5658026.37], [411055.66, 5658026.37], [411055.66, 5658025.88], [411056.64, 5658025.39], [411056.64, 5658024.41], [411057.13, 5658024.41], [411057.13, 5658023.93], [411058.11, 5658023.44], [411058.11, 5658022.46], [411058.59, 5658022.46], [411058.59, 5658021.97], [411059.08, 5658021.97], [411059.08, 5658021.48], [411060.06, 5658021.0], [411060.06, 5658020.02], [411060.55, 5658020.02], [411060.55, 5658019.53], [411061.52, 5658019.04], [411061.52, 5658018.07], [411062.01, 5658018.07], [411062.01, 5658017.58], [411062.5, 5658017.58], [411062.5, 5658017.09], [411063.48, 5658016.6], [411063.48, 5658015.62], [411063.96, 5658015.62], [411063.96, 5658015.14], [411064.94, 5658014.65], [411064.94, 5658013.67], [411065.43, 5658013.67], [411065.43, 5658013.18], [411065.92, 5658013.18], [411065.92, 5658012.7], [411066.89, 5658012.21], [411066.89, 5658011.23], [411067.38, 5658011.23], [411067.38, 5658010.74], [411068.36, 5658010.25], [411068.36, 5658009.28], [411068.85, 5658009.28], [411068.85, 5658008.79], [411069.34, 5658008.79], [411069.34, 5658008.3], [411070.31, 5658007.81], [411070.31, 5658006.84], [411070.8, 5658006.84], [411070.8, 5658006.35], [411071.78, 5658005.86], [411071.78, 5658004.88], [411072.27, 5658004.88], [411072.27, 5658004.39], [411072.75, 5658004.39], [411072.75, 5658003.91], [411073.73, 5658003.42], [411073.73, 5658002.44], [411074.22, 5658002.44], [411074.22, 5658001.95], [411075.2, 5658001.46], [411075.2, 5658000.49], [411075.68, 5658000.49], [411075.68, 5658000.0], [411074.04, 5658000.0], [411045.18, 5658036.13]]]}}, {"type": "Feature", "properties": {"k": "pontoon", "len": 34.6}, "geometry": {"type": "Polygon", "coordinates": [[[411036.38, 5658000.0], [411031.61, 5658000.0], [411058.52, 5658021.8], [411060.41, 5658019.47], [411036.38, 5658000.0]]]}}, {"type": "Feature", "properties": {"k": "pier", "deck": 110.71}, "geometry": {"type": "Polygon", "coordinates": [[[411021.6, 5658069.55], [411005.71, 5658055.42], [411010.09, 5658050.53], [411013.6, 5658053.66], [411010.94, 5658056.63], [411023.31, 5658067.63], [411021.6, 5658069.55]]]}}, {"type": "Feature", "properties": {"k": "pier", "deck": 104.02}, "geometry": {"type": "Polygon", "coordinates": [[[410454.86, 5658768.4], [410461.33, 5658748.68], [410464.5, 5658749.72], [410461.55, 5658758.72], [410465.94, 5658760.16], [410465.57, 5658761.3], [410461.39, 5658759.93], [410458.24, 5658769.5], [410454.86, 5658768.4]]]}}, {"type": "Feature", "properties": {"k": "ferry", "name": "S\u00e4chsische Dampfschifffahrt"}, "geometry": {"type": "LineString", "coordinates": [[410000.0, 5659136.41], [410118.84, 5659094.4], [410225.95, 5658970.16], [410341.82, 5658728.4], [410437.62, 5658539.21], [410518.4, 5658432.24], [410738.3, 5658167.54], [410881.02, 5658000.0]]}}]}