{"type": "FeatureCollection", "attribution": "\u00a9 OpenStreetMap contributors (ODbL)", "crs": {"type": "name", "properties": {"name": "urn:ogc:def:crs:EPSG::25833"}}, "features": [{"type": "Feature", "properties": {"k": "pier", "deck": 105.75}, "geometry": {"type": "Polygon", "coordinates": [[[409121.15, 5658897.83], [409125.32, 5658892.57], [409122.96, 5658890.71], [409118.66, 5658896.15], [409114.88, 5658902.77], [409117.49, 5658904.26], [409121.15, 5658897.83]]]}}, {"type": "Feature", "properties": {"k": "pier", "deck": 103.65}, "geometry": {"type": "Polygon", "coordinates": [[[409121.28, 5658890.96], [409125.31, 5658894.83], [409127.38, 5658892.67], [409123.37, 5658888.81], [409121.28, 5658890.96]]]}}, {"type": "Feature", "properties": {"k": "ferry", "name": "S\u00e4chsische Dampfschifffahrt"}, "geometry": {"type": "LineString", "coordinates": [[408802.02, 5658000.0], [408831.7, 5658023.76], [408832.7, 5658025.44], [408969.1, 5658339.23], [409029.48, 5658675.98], [409158.75, 5658871.13], [409372.94, 5659015.16], [409579.21, 5659121.52], [409757.22, 5659168.3], [409911.29, 5659167.48], [409998.11, 5659137.07]]}}]}