{"type": "FeatureCollection", "attribution": "Quelle: GeoSN, dl-de/by-2-0 (LoD2, DOM1)", "crs": {"type": "name", "properties": {"name": "urn:ogc:def:crs:EPSG::25833"}}, "features": [{"type": "Feature", "properties": {"id": "DESNATGMqo0000kw", "z": 244.07}, "geometry": {"type": "Polygon", "coordinates": [[[417540.0, 5657512.0], [417542.0, 5657512.0], [417542.0, 5657510.0], [417544.0, 5657509.0], [417543.0, 5657506.0], [417540.0, 5657506.0], [417540.0, 5657505.0], [417535.0, 5657505.0], [417535.0, 5657507.0], [417533.0, 5657507.0], [417533.0, 5657509.84], [417536.02, 5657514.0], [417539.0, 5657514.0], [417540.0, 5657512.0]]]}}, {"type": "Feature", "properties": {"id": "DESNATGMqo0000kw", "z": 242.29}, "geometry": {"type": "Polygon", "coordinates": [[[417548.0, 5657496.0], [417548.0, 5657498.0], [417544.0, 5657498.0], [417541.0, 5657502.0], [417537.0, 5657503.0], [417536.0, 5657505.0], [417540.0, 5657505.0], [417540.0, 5657506.0], [417543.0, 5657506.0], [417544.0, 5657509.0], [417542.0, 5657510.0], [417542.0, 5657511.0], [417548.0, 5657509.0], [417553.0, 5657503.0], [417554.0, 5657501.0], [417556.0, 5657500.0], [417556.0, 5657498.0], [417558.76, 5657498.0], [417557.56, 5657496.57], [417556.87, 5657496.16], [417555.0, 5657495.06], [417555.0, 5657496.0], [417548.0, 5657496.0]]]}}, {"type": "Feature", "properties": {"id": "DESNATGMqo0000kw", "z": 240.36}, "geometry": {"type": "Polygon", "coordinates": [[[417556.0, 5657500.0], [417554.0, 5657501.0], [417553.0, 5657503.0], [417548.0, 5657509.0], [417542.0, 5657511.0], [417542.0, 5657512.0], [417540.0, 5657512.0], [417539.0, 5657514.0], [417536.02, 5657514.0], [417537.88, 5657516.57], [417549.46, 5657509.02], [417560.45, 5657501.11], [417561.04, 5657500.69], [417558.76, 5657498.0], [417556.0, 5657498.0], [417556.0, 5657500.0]]]}}, {"type": "Feature", "properties": {"id": "DESNATGMqo0000kw", "z": 239.72}, "geometry": {"type": "Polygon", "coordinates": [[[417546.0, 5657494.0], [417544.0, 5657495.0], [417543.0, 5657497.0], [417541.51, 5657497.0], [417542.08, 5657497.77], [417530.83, 5657506.84], [417533.0, 5657509.84], [417533.0, 5657507.0], [417535.0, 5657507.0], [417535.0, 5657505.0], [417536.0, 5657505.0], [417537.0, 5657503.0], [417541.0, 5657502.0], [417544.0, 5657498.0], [417548.0, 5657498.0], [417548.0, 5657496.0], [417555.0, 5657496.0], [417555.0, 5657495.06], [417554.24, 5657494.61], [417551.72, 5657492.86], [417550.0, 5657491.86], [417550.0, 5657494.0], [417546.0, 5657494.0]]]}}, {"type": "Feature", "properties": {"id": "DESNATGMqo0000kw", "z": 231.14}, "geometry": {"type": "Polygon", "coordinates": [[[417546.0, 5657494.0], [417550.0, 5657494.0], [417550.0, 5657491.86], [417545.75, 5657489.38], [417541.57, 5657486.86], [417538.72, 5657493.24], [417541.51, 5657497.0], [417543.0, 5657497.0], [417544.0, 5657495.0], [417546.0, 5657494.0]]]}}, {"type": "Feature", "properties": {"id": "DESNATGMqo0000l6", "z": 248.39}, "geometry": {"type": "Polygon", "coordinates": [[[417910.59, 5657358.59], [417897.99, 5657359.76], [417899.18, 5657372.52], [417911.78, 5657371.35], [417910.59, 5657358.59]]]}}, {"type": "Feature", "properties": {"id": "DESNATGMqo0000lE", "z": 225.22}, "geometry": {"type": "Polygon", "coordinates": [[[417320.07, 5657082.5], [417323.98, 5657095.5], [417336.24, 5657091.8], [417332.32, 5657078.81], [417326.19, 5657080.66], [417320.07, 5657082.5]]]}}, {"type": "Feature", "properties": {"id": "DESNATGMqo0000nZ", "z": 243.92}, "geometry": {"type": "Polygon", "coordinates": [[[417927.25, 5656041.09], [417933.12, 5656045.16], [417942.48, 5656031.67], [417936.61, 5656027.6], [417933.38, 5656025.35], [417924.02, 5656038.85], [417927.25, 5656041.09]]]}}, {"type": "Feature", "properties": {"id": "DESNATGMqo0000nd", "z": 254.52}, "geometry": {"type": "Polygon", "coordinates": [[[417984.0, 5656031.0], [417986.0, 5656032.0], [417989.0, 5656032.0], [417989.0, 5656031.0], [417991.01, 5656031.0], [417993.36, 5656026.31], [417984.85, 5656022.06], [417982.14, 5656027.48], [417981.88, 5656028.0], [417983.0, 5656028.0], [417984.0, 5656031.0]]]}}, {"type": "Feature", "properties": {"id": "DESNATGMqo0000nd", "z": 251.29}, "geometry": {"type": "Polygon", "coordinates": [[[417989.0, 5656032.0], [417986.0, 5656032.0], [417984.0, 5656031.0], [417983.0, 5656028.0], [417981.88, 5656028.0], [417979.64, 5656032.49], [417973.32, 5656037.34], [417979.08, 5656041.63], [417981.55, 5656039.69], [417984.13, 5656040.79], [417987.69, 5656033.67], [417989.28, 5656034.46], [417989.89, 5656033.24], [417991.01, 5656031.0], [417989.0, 5656031.0], [417989.0, 5656032.0]]]}}, {"type": "Feature", "properties": {"id": "DESNATP13q0001Ll", "z": 160.55}, "geometry": {"type": "Polygon", "coordinates": [[[416891.0, 5656781.0], [416889.0, 5656779.0], [416886.0, 5656779.0], [416885.0, 5656780.0], [416885.0, 5656782.27], [416892.0, 5656782.96], [416892.0, 5656781.0], [416891.0, 5656781.0]]]}}, {"type": "Feature", "properties": {"id": "DESNATP13q0001Ll", "z": 157.14}, "geometry": {"type": "Polygon", "coordinates": [[[416886.0, 5656779.0], [416885.0, 5656779.0], [416884.0, 5656777.0], [416884.0, 5656775.09], [416881.8, 5656774.9], [416881.73, 5656774.51], [416881.3, 5656774.77], [416880.69, 5656780.12], [416882.57, 5656782.03], [416885.0, 5656782.27], [416885.0, 5656780.0], [416886.0, 5656779.0]]]}}, {"type": "Feature", "properties": {"id": "DESNATP13q0001Ll", "z": 150.91}, "geometry": {"type": "Polygon", "coordinates": [[[416897.0, 5656774.0], [416897.0, 5656779.0], [416895.0, 5656781.0], [416892.0, 5656781.0], [416892.0, 5656782.96], [416894.05, 5656783.16], [416903.82, 5656773.0], [416898.0, 5656773.0], [416897.0, 5656774.0]]]}}, {"type": "Feature", "properties": {"id": "DESNATP13q0001Ll", "z": 147.79}, "geometry": {"type": "Polygon", "coordinates": [[[416885.0, 5656779.0], [416889.0, 5656779.0], [416891.0, 5656781.0], [416895.0, 5656781.0], [416897.0, 5656779.0], [416897.0, 5656774.0], [416898.0, 5656773.0], [416903.82, 5656773.0], [416905.64, 5656771.11], [416901.91, 5656767.52], [416894.43, 5656775.29], [416892.97, 5656775.88], [416884.0, 5656775.09], [416884.0, 5656777.0], [416885.0, 5656779.0]]]}}, {"type": "Feature", "properties": {"id": "DESNATP1VH0000QW", "z": 169.74}, "geometry": {"type": "Polygon", "coordinates": [[[416749.0, 5656998.0], [416747.0, 5656999.0], [416747.0, 5657002.0], [416749.0, 5657003.0], [416749.0, 5657004.06], [416749.39, 5657003.8], [416750.07, 5657004.84], [416754.25, 5657002.12], [416753.54, 5657001.04], [416754.75, 5657000.25], [416754.0, 5656998.0], [416749.0, 5656998.0]]]}}, {"type": "Feature", "properties": {"id": "DESNATP1VH0000QW", "z": 166.57}, "geometry": {"type": "Polygon", "coordinates": [[[416747.0, 5656993.0], [416747.0, 5656999.0], [416749.0, 5656998.0], [416754.0, 5656998.0], [416754.75, 5657000.25], [416756.19, 5656999.31], [416756.39, 5656999.62], [416761.48, 5656996.29], [416761.34, 5656996.07], [416765.18, 5656993.59], [416765.05, 5656993.39], [416767.07, 5656992.1], [416765.62, 5656989.83], [416765.96, 5656989.61], [416766.43, 5656987.68], [416764.31, 5656984.29], [416762.35, 5656983.84], [416762.03, 5656984.04], [416760.56, 5656981.72], [416758.54, 5656983.0], [416758.42, 5656982.81], [416755.0, 5656984.98], [416755.0, 5656986.0], [416753.0, 5656986.0], [416752.0, 5656988.0], [416748.69, 5656988.0], [416749.18, 5656988.75], [416746.0, 5656990.81], [416746.0, 5656993.0], [416747.0, 5656993.0]]]}}, {"type": "Feature", "properties": {"id": "DESNATP1VH0000QW", "z": 162.42}, "geometry": {"type": "Polygon", "coordinates": [[[416742.0, 5657010.0], [416740.0, 5657010.0], [416738.0, 5657012.0], [416737.6, 5657013.19], [416738.0, 5657012.95], [416739.55, 5657015.29], [416746.24, 5657010.98], [416744.73, 5657008.65], [416745.74, 5657008.0], [416743.0, 5657008.0], [416742.0, 5657010.0]]]}}, {"type": "Feature", "properties": {"id": "DESNATP1VH0000QW", "z": 160.51}, "geometry": {"type": "Polygon", "coordinates": [[[416750.0, 5656984.0], [416747.03, 5656984.0], [416747.91, 5656985.4], [416747.28, 5656985.81], [416748.69, 5656988.0], [416752.0, 5656988.0], [416753.0, 5656986.0], [416755.0, 5656986.0], [416755.0, 5656984.98], [416754.86, 5656985.07], [416752.99, 5656982.13], [416752.04, 5656982.61], [416752.0, 5656982.54], [416752.0, 5656983.0], [416750.0, 5656984.0]]]}}, {"type": "Feature", "properties": {"id": "DESNATP1VH0000QW", "z": 160.18}, "geometry": {"type": "Polygon", "coordinates": [[[416747.0, 5657002.0], [416747.0, 5656993.0], [416746.0, 5656993.0], [416746.0, 5656990.81], [416745.65, 5656991.03], [416745.79, 5656991.24], [416743.71, 5656992.52], [416745.04, 5656994.58], [416741.72, 5656996.72], [416741.07, 5656995.72], [416735.11, 5656999.62], [416734.91, 5656999.28], [416733.31, 5656999.03], [416728.34, 5657002.13], [416728.05, 5657003.41], [416732.11, 5657009.64], [416733.78, 5657009.96], [416734.44, 5657009.54], [416737.0, 5657013.57], [416737.6, 5657013.19], [416738.0, 5657012.0], [416740.0, 5657010.0], [416742.0, 5657010.0], [416743.0, 5657008.0], [416745.74, 5657008.0], [416748.0, 5657006.55], [416747.18, 5657005.29], [416749.0, 5657004.06], [416749.0, 5657003.0], [416747.0, 5657002.0]]]}}, {"type": "Feature", "properties": {"id": "DESNATP1VH0000QW", "z": 155.94}, "geometry": {"type": "Polygon", "coordinates": [[[416749.0, 5656969.0], [416745.0, 5656970.0], [416743.0, 5656973.0], [416741.87, 5656973.0], [416742.34, 5656973.83], [416738.74, 5656975.99], [416738.44, 5656977.49], [416738.76, 5656978.02], [416734.72, 5656980.49], [416734.42, 5656982.02], [416735.69, 5656984.09], [416737.09, 5656984.29], [416738.66, 5656987.0], [416746.1, 5656982.52], [416747.03, 5656984.0], [416750.0, 5656984.0], [416752.0, 5656983.0], [416752.0, 5656982.54], [416750.43, 5656979.93], [416758.06, 5656975.35], [416754.26, 5656969.04], [416753.11, 5656968.78], [416753.0, 5656969.0], [416749.0, 5656969.0]]]}}, {"type": "Feature", "properties": {"id": "DESNATP1VH0000QW", "z": 152.29}, "geometry": {"type": "Polygon", "coordinates": [[[416749.0, 5656969.0], [416753.0, 5656969.0], [416753.11, 5656968.78], [416752.73, 5656968.69], [416752.45, 5656968.91], [416747.91, 5656961.56], [416746.39, 5656961.26], [416738.02, 5656966.28], [416737.74, 5656967.79], [416739.64, 5656970.89], [416740.85, 5656971.19], [416741.87, 5656973.0], [416743.0, 5656973.0], [416745.0, 5656970.0], [416749.0, 5656969.0]]]}}, {"type": "Feature", "properties": {"id": "DESNATPU1000B27v", "z": 207.45}, "geometry": {"type": "Polygon", "coordinates": [[[417269.18, 5657025.86], [417269.11, 5657025.76], [417269.03, 5657025.66], [417268.91, 5657025.56], [417270.16, 5657025.39], [417275.72, 5657017.9], [417267.28, 5657011.62], [417265.72, 5657013.72], [417263.74, 5657012.25], [417257.53, 5657020.61], [417264.92, 5657026.1], [417266.21, 5657025.92], [417266.13, 5657026.06], [417266.08, 5657026.17], [417266.03, 5657026.29], [417266.0, 5657026.41], [417265.97, 5657026.53], [417265.95, 5657026.65], [417265.94, 5657026.78], [417265.93, 5657026.9], [417265.94, 5657027.02], [417265.95, 5657027.15], [417265.98, 5657027.27], [417266.01, 5657027.39], [417266.05, 5657027.51], [417266.1, 5657027.62], [417266.15, 5657027.73], [417266.22, 5657027.84], [417266.29, 5657027.94], [417266.37, 5657028.04], [417266.45, 5657028.13], [417266.54, 5657028.22], [417266.64, 5657028.3], [417266.74, 5657028.37], [417266.84, 5657028.43], [417266.95, 5657028.49], [417267.07, 5657028.54], [417267.19, 5657028.58], [417267.31, 5657028.61], [417267.43, 5657028.64], [417267.55, 5657028.65], [417267.68, 5657028.66], [417267.8, 5657028.66], [417267.96, 5657028.64], [417268.11, 5657028.62], [417268.23, 5657028.58], [417268.35, 5657028.54], [417268.46, 5657028.5], [417268.57, 5657028.44], [417268.68, 5657028.38], [417268.78, 5657028.3], [417268.88, 5657028.23], [417268.97, 5657028.14], [417269.06, 5657028.05], [417269.14, 5657027.96], [417269.21, 5657027.85], [417269.27, 5657027.75], [417269.33, 5657027.64], [417269.38, 5657027.52], [417269.42, 5657027.4], [417269.45, 5657027.28], [417269.48, 5657027.16], [417269.49, 5657027.04], [417269.5, 5657026.91], [417269.5, 5657026.79], [417269.49, 5657026.67], [417269.47, 5657026.54], [417269.44, 5657026.42], [417269.4, 5657026.3], [417269.36, 5657026.19], [417269.31, 5657026.07], [417269.25, 5657025.96], [417269.18, 5657025.86]]]}}, {"type": "Feature", "properties": {"id": "DESNATPU1000C4Kh", "z": 260.63}, "geometry": {"type": "Polygon", "coordinates": [[[417929.0, 5656192.0], [417927.0, 5656192.0], [417925.0, 5656190.0], [417925.0, 5656187.0], [417926.65, 5656187.0], [417923.79, 5656184.74], [417922.49, 5656183.7], [417921.0, 5656185.58], [417921.0, 5656191.0], [417923.0, 5656192.0], [417923.0, 5656194.0], [417925.0, 5656194.0], [417927.0, 5656197.0], [417930.63, 5656197.0], [417932.21, 5656195.0], [417931.0, 5656195.0], [417929.0, 5656192.0]]]}}, {"type": "Feature", "properties": {"id": "DESNATPU1000C4Kh", "z": 258.47}, "geometry": {"type": "Polygon", "coordinates": [[[417925.0, 5656194.0], [417923.0, 5656194.0], [417923.0, 5656192.0], [417921.0, 5656191.0], [417921.0, 5656185.58], [417919.27, 5656187.77], [417920.57, 5656188.8], [417918.98, 5656190.81], [417918.85, 5656190.79], [417918.76, 5656190.79], [417918.67, 5656190.8], [417918.58, 5656190.81], [417918.49, 5656190.82], [417918.4, 5656190.85], [417918.32, 5656190.87], [417918.23, 5656190.91], [417918.15, 5656190.95], [417918.07, 5656191.0], [417918.0, 5656191.05], [417917.93, 5656191.1], [417917.86, 5656191.17], [417917.8, 5656191.23], [417917.74, 5656191.3], [417917.69, 5656191.38], [417917.64, 5656191.46], [417917.6, 5656191.54], [417917.56, 5656191.62], [417917.53, 5656191.71], [417917.51, 5656191.79], [417917.49, 5656191.88], [417917.48, 5656191.97], [417917.47, 5656192.06], [417917.47, 5656192.15], [417917.48, 5656192.28], [417917.51, 5656192.4], [417917.53, 5656192.49], [417917.56, 5656192.57], [417917.6, 5656192.66], [417917.64, 5656192.74], [417917.69, 5656192.82], [417917.74, 5656192.89], [417917.8, 5656192.96], [417917.86, 5656193.03], [417917.93, 5656193.09], [417918.0, 5656193.15], [417918.07, 5656193.2], [417918.15, 5656193.24], [417918.24, 5656193.28], [417918.32, 5656193.32], [417918.41, 5656193.35], [417918.49, 5656193.37], [417918.58, 5656193.39], [417918.67, 5656193.4], [417918.76, 5656193.4], [417918.86, 5656193.4], [417918.95, 5656193.39], [417919.04, 5656193.37], [417919.13, 5656193.35], [417919.21, 5656193.32], [417919.33, 5656193.28], [417922.1, 5656195.48], [417922.63, 5656195.9], [417921.56, 5656197.25], [417921.08, 5656197.85], [417928.97, 5656204.1], [417928.06, 5656205.24], [417930.37, 5656207.07], [417931.28, 5656205.93], [417932.44, 5656206.85], [417936.26, 5656202.05], [417932.81, 5656199.31], [417930.34, 5656197.36], [417930.63, 5656197.0], [417927.0, 5656197.0], [417925.0, 5656194.0]]]}}, {"type": "Feature", "properties": {"id": "DESNATPU1000C4Kh", "z": 258.3}, "geometry": {"type": "Polygon", "coordinates": [[[417925.0, 5656190.0], [417927.0, 5656192.0], [417929.0, 5656192.0], [417931.0, 5656195.0], [417932.21, 5656195.0], [417933.96, 5656192.8], [417926.65, 5656187.0], [417925.0, 5656187.0], [417925.0, 5656190.0]]]}}, {"type": "Feature", "properties": {"id": "DESNATPU1000CJPx", "z": 123.39}, "geometry": {"type": "Polygon", "coordinates": [[[416509.0, 5656351.0], [416509.0, 5656349.0], [416511.0, 5656349.0], [416511.0, 5656346.0], [416508.0, 5656344.0], [416508.0, 5656343.0], [416507.0, 5656343.0], [416506.0, 5656341.0], [416504.0, 5656341.0], [416501.0, 5656337.0], [416499.0, 5656337.0], [416499.0, 5656336.0], [416490.0, 5656336.0], [416489.0, 5656333.0], [416485.0, 5656333.0], [416485.0, 5656337.48], [416485.13, 5656337.58], [416505.17, 5656352.51], [416505.45, 5656352.15], [416507.0, 5656353.38], [416507.0, 5656352.0], [416509.0, 5656351.0]]]}}, {"type": "Feature", "properties": {"id": "DESNATPU1000CJPx", "z": 119.52}, "geometry": {"type": "Polygon", "coordinates": [[[416511.0, 5656343.0], [416508.0, 5656343.0], [416508.0, 5656344.0], [416511.0, 5656346.0], [416511.0, 5656349.0], [416509.0, 5656349.0], [416509.0, 5656350.0], [416512.0, 5656350.0], [416512.0, 5656352.0], [416516.0, 5656352.0], [416518.0, 5656350.0], [416518.0, 5656348.0], [416523.0, 5656345.0], [416523.0, 5656343.97], [416521.46, 5656342.69], [416515.87, 5656338.07], [416515.35, 5656337.66], [416514.0, 5656338.0], [416511.0, 5656343.0]]]}}, {"type": "Feature", "properties": {"id": "DESNATPU1000CJPx", "z": 119.29}, "geometry": {"type": "Polygon", "coordinates": [[[416489.0, 5656333.0], [416490.0, 5656336.0], [416499.0, 5656336.0], [416499.0, 5656335.0], [416501.0, 5656334.0], [416501.0, 5656332.0], [416503.0, 5656330.0], [416505.0, 5656330.0], [416505.0, 5656328.58], [416504.53, 5656329.18], [416503.48, 5656328.36], [416503.87, 5656327.87], [416499.05, 5656324.16], [416491.66, 5656333.84], [416489.31, 5656332.04], [416485.85, 5656329.41], [416483.57, 5656332.44], [416481.66, 5656334.98], [416485.0, 5656337.48], [416485.0, 5656333.0], [416489.0, 5656333.0]]]}}, {"type": "Feature", "properties": {"id": "DESNATPU1000CJPx", "z": 115.9}, "geometry": {"type": "Polygon", "coordinates": [[[416503.0, 5656330.0], [416501.0, 5656332.0], [416501.0, 5656334.0], [416499.0, 5656335.0], [416499.0, 5656337.0], [416501.0, 5656337.0], [416504.0, 5656341.0], [416506.0, 5656341.0], [416507.0, 5656343.0], [416511.0, 5656343.0], [416514.0, 5656338.0], [416515.35, 5656337.66], [416515.25, 5656337.58], [416518.49, 5656333.47], [416507.84, 5656324.98], [416505.0, 5656328.58], [416505.0, 5656330.0], [416503.0, 5656330.0]]]}}, {"type": "Feature", "properties": {"id": "DESNATPU1000CJPx", "z": 115.44}, "geometry": {"type": "Polygon", "coordinates": [[[416518.0, 5656348.0], [416518.0, 5656350.0], [416516.0, 5656352.0], [416512.0, 5656352.0], [416512.0, 5656350.0], [416509.0, 5656350.0], [416509.0, 5656351.0], [416507.0, 5656352.0], [416507.0, 5656353.38], [416512.03, 5656357.37], [416514.9, 5656356.46], [416515.25, 5656356.04], [416517.04, 5656353.88], [416524.23, 5656344.99], [416523.0, 5656343.97], [416523.0, 5656345.0], [416518.0, 5656348.0]]]}}, {"type": "Feature", "properties": {"id": "DESNATPU1000CwQR", "z": 233.84}, "geometry": {"type": "Polygon", "coordinates": [[[417115.0, 5657612.0], [417111.0, 5657612.0], [417110.0, 5657615.0], [417114.0, 5657617.0], [417114.0, 5657620.0], [417115.0, 5657621.0], [417118.0, 5657621.0], [417118.0, 5657621.27], [417121.91, 5657622.57], [417125.19, 5657612.69], [417117.0, 5657609.98], [417117.0, 5657611.0], [417115.0, 5657612.0]]]}}, {"type": "Feature", "properties": {"id": "DESNATPU1000CwQR", "z": 231.43}, "geometry": {"type": "Polygon", "coordinates": [[[417114.0, 5657620.0], [417114.0, 5657617.0], [417110.0, 5657615.0], [417111.0, 5657612.0], [417115.0, 5657612.0], [417117.0, 5657611.0], [417117.0, 5657609.98], [417111.12, 5657608.02], [417110.22, 5657610.74], [417109.96, 5657610.66], [417109.79, 5657610.62], [417109.6, 5657610.59], [417109.42, 5657610.57], [417109.24, 5657610.57], [417109.06, 5657610.58], [417108.79, 5657610.62], [417108.53, 5657610.68], [417108.36, 5657610.74], [417108.19, 5657610.81], [417108.02, 5657610.89], [417107.87, 5657610.98], [417107.72, 5657611.09], [417107.51, 5657611.26], [417107.36, 5657611.38], [417107.21, 5657611.51], [417107.07, 5657611.72], [417106.95, 5657611.95], [417106.91, 5657612.1], [417106.88, 5657612.26], [417106.85, 5657612.4], [417106.82, 5657612.55], [417106.8, 5657612.77], [417106.8, 5657612.98], [417106.78, 5657613.14], [417106.77, 5657613.31], [417106.76, 5657613.49], [417106.76, 5657613.67], [417106.8, 5657613.88], [417106.85, 5657614.1], [417106.94, 5657614.31], [417107.02, 5657614.47], [417107.12, 5657614.63], [417107.22, 5657614.78], [417107.34, 5657614.92], [417107.5, 5657615.09], [417107.68, 5657615.24], [417107.83, 5657615.35], [417107.98, 5657615.45], [417108.14, 5657615.53], [417108.31, 5657615.61], [417108.53, 5657615.69], [417107.8, 5657617.89], [417112.3, 5657619.38], [417111.58, 5657621.54], [417116.83, 5657623.29], [417117.55, 5657621.12], [417118.0, 5657621.27], [417118.0, 5657621.0], [417115.0, 5657621.0], [417114.0, 5657620.0]]]}}, {"type": "Feature", "properties": {"id": "DESNATPU1000DTBt", "z": 238.2}, "geometry": {"type": "Polygon", "coordinates": [[[417284.0, 5657603.0], [417286.0, 5657602.0], [417286.0, 5657599.0], [417285.0, 5657599.0], [417283.0, 5657596.0], [417281.0, 5657596.0], [417280.0, 5657599.0], [417278.0, 5657599.0], [417277.0, 5657597.0], [417272.0, 5657597.0], [417271.0, 5657599.0], [417269.0, 5657599.0], [417269.0, 5657602.0], [417270.0, 5657603.0], [417272.0, 5657602.0], [417275.0, 5657602.0], [417275.0, 5657601.0], [417279.0, 5657601.0], [417279.0, 5657604.3], [417280.63, 5657604.74], [417281.22, 5657604.5], [417282.43, 5657604.07], [417283.07, 5657605.0], [417284.0, 5657605.0], [417284.0, 5657603.0]]]}}, {"type": "Feature", "properties": {"id": "DESNATPU1000DTBt", "z": 236.12}, "geometry": {"type": "Polygon", "coordinates": [[[417275.0, 5657601.0], [417275.0, 5657602.0], [417272.0, 5657602.0], [417270.0, 5657603.0], [417269.0, 5657602.0], [417269.0, 5657599.0], [417271.0, 5657599.0], [417272.0, 5657597.0], [417277.0, 5657597.0], [417278.0, 5657599.0], [417280.0, 5657599.0], [417281.0, 5657596.0], [417283.0, 5657596.0], [417285.0, 5657599.0], [417286.0, 5657599.0], [417286.0, 5657602.0], [417284.0, 5657603.0], [417284.0, 5657605.0], [417283.07, 5657605.0], [417285.33, 5657608.28], [417284.25, 5657609.02], [417284.47, 5657609.41], [417285.82, 5657611.39], [417286.92, 5657610.64], [417287.86, 5657612.01], [417286.75, 5657612.76], [417288.22, 5657614.9], [417289.32, 5657614.15], [417290.01, 5657615.16], [417290.39, 5657614.9], [417291.48, 5657615.27], [417293.3, 5657614.01], [417293.25, 5657612.96], [417297.08, 5657610.36], [417298.54, 5657609.37], [417299.72, 5657609.59], [417301.55, 5657608.32], [417301.64, 5657607.27], [417301.92, 5657607.08], [417301.13, 5657605.92], [417302.22, 5657605.18], [417300.84, 5657603.16], [417299.75, 5657603.9], [417298.74, 5657602.42], [417299.93, 5657601.61], [417298.44, 5657599.43], [417297.25, 5657600.24], [417296.19, 5657598.68], [417297.25, 5657597.96], [417295.83, 5657595.88], [417294.77, 5657596.6], [417293.91, 5657595.34], [417293.86, 5657595.27], [417294.92, 5657594.55], [417293.39, 5657592.32], [417292.34, 5657593.04], [417291.39, 5657591.66], [417292.52, 5657590.89], [417290.98, 5657588.63], [417289.85, 5657589.4], [417288.99, 5657588.14], [417289.42, 5657587.98], [417288.03, 5657585.76], [417284.5, 5657584.75], [417281.6, 5657585.73], [417281.76, 5657586.2], [417280.32, 5657586.69], [417279.82, 5657585.21], [417277.5, 5657586.0], [417277.44, 5657585.83], [417277.38, 5657585.67], [417277.3, 5657585.51], [417277.21, 5657585.36], [417277.11, 5657585.21], [417277.01, 5657585.08], [417276.89, 5657584.95], [417276.76, 5657584.82], [417276.63, 5657584.71], [417276.49, 5657584.61], [417276.34, 5657584.52], [417276.18, 5657584.43], [417276.01, 5657584.36], [417275.84, 5657584.3], [417275.67, 5657584.25], [417275.5, 5657584.22], [417275.33, 5657584.2], [417275.15, 5657584.19], [417274.98, 5657584.19], [417274.8, 5657584.2], [417274.63, 5657584.23], [417274.46, 5657584.27], [417274.29, 5657584.32], [417274.12, 5657584.38], [417273.89, 5657584.49], [417273.73, 5657584.58], [417273.57, 5657584.68], [417273.43, 5657584.8], [417273.29, 5657584.92], [417273.16, 5657585.05], [417273.04, 5657585.2], [417272.93, 5657585.35], [417272.83, 5657585.5], [417272.72, 5657585.73], [417272.62, 5657585.97], [417272.57, 5657586.14], [417272.52, 5657586.32], [417272.49, 5657586.51], [417272.48, 5657586.69], [417272.47, 5657586.88], [417272.48, 5657587.06], [417272.51, 5657587.24], [417272.54, 5657587.43], [417272.61, 5657587.67], [417270.25, 5657588.48], [417270.75, 5657589.95], [417269.17, 5657590.49], [417268.66, 5657589.01], [417266.29, 5657589.82], [417266.79, 5657591.3], [417265.25, 5657591.82], [417264.75, 5657590.35], [417263.63, 5657590.73], [417262.16, 5657591.23], [417262.66, 5657592.71], [417261.23, 5657593.19], [417260.75, 5657591.79], [417258.19, 5657592.66], [417258.67, 5657594.07], [417257.16, 5657594.58], [417256.7, 5657593.24], [417254.08, 5657594.13], [417254.54, 5657595.47], [417253.34, 5657595.88], [417253.54, 5657596.49], [417252.87, 5657597.56], [417253.48, 5657599.33], [417254.62, 5657599.65], [417256.64, 5657605.58], [417256.74, 5657605.88], [417256.08, 5657606.83], [417256.73, 5657608.75], [417257.81, 5657609.02], [417258.02, 5657609.65], [417259.29, 5657609.21], [417259.76, 5657610.61], [417262.43, 5657609.7], [417261.96, 5657608.31], [417263.3, 5657607.85], [417263.74, 5657609.14], [417266.63, 5657608.16], [417266.19, 5657606.86], [417267.53, 5657606.41], [417267.97, 5657607.71], [417270.53, 5657606.84], [417270.09, 5657605.54], [417271.57, 5657605.03], [417271.98, 5657606.24], [417274.55, 5657605.36], [417274.13, 5657604.16], [417277.72, 5657602.94], [417278.28, 5657604.1], [417279.0, 5657604.3], [417279.0, 5657601.0], [417275.0, 5657601.0]]]}}, {"type": "Feature", "properties": {"id": "DESNATPU1000DWFg", "z": 218.26}, "geometry": {"type": "Polygon", "coordinates": [[[417619.0, 5656228.0], [417619.0, 5656230.0], [417628.0, 5656230.0], [417628.0, 5656231.0], [417629.65, 5656231.0], [417629.8, 5656226.0], [417621.0, 5656226.0], [417620.0, 5656225.0], [417620.0, 5656223.17], [417618.19, 5656223.11], [417616.4, 5656224.62], [417616.33, 5656227.0], [417618.0, 5656227.0], [417619.0, 5656228.0]]]}}, {"type": "Feature", "properties": {"id": "DESNATPU1000DWFg", "z": 216.17}, "geometry": {"type": "Polygon", "coordinates": [[[417628.0, 5656230.0], [417619.0, 5656230.0], [417619.0, 5656233.0], [417629.59, 5656233.0], [417629.65, 5656231.0], [417628.0, 5656231.0], [417628.0, 5656230.0]]]}}, {"type": "Feature", "properties": {"id": "DESNATPU1000DWFg", "z": 215.9}, "geometry": {"type": "Polygon", "coordinates": [[[417621.0, 5656226.0], [417629.8, 5656226.0], [417629.87, 5656223.46], [417620.0, 5656223.17], [417620.0, 5656225.0], [417621.0, 5656226.0]]]}}, {"type": "Feature", "properties": {"id": "DESNATPU1000DWFg", "z": 213.06}, "geometry": {"type": "Polygon", "coordinates": [[[417622.0, 5656234.0], [417622.0, 5656235.72], [417629.5, 5656235.94], [417629.59, 5656233.0], [417620.0, 5656233.0], [417622.0, 5656234.0]]]}}, {"type": "Feature", "properties": {"id": "DESNATPU1000DWFg", "z": 210.18}, "geometry": {"type": "Polygon", "coordinates": [[[417620.0, 5656233.0], [417619.0, 5656233.0], [417619.0, 5656228.0], [417618.0, 5656227.0], [417616.33, 5656227.0], [417616.07, 5656235.54], [417622.0, 5656235.72], [417622.0, 5656234.0], [417620.0, 5656233.0]]]}}, {"type": "Feature", "properties": {"id": "DESNATPU1000EPPM", "z": 133.02}, "geometry": {"type": "Polygon", "coordinates": [[[416320.0, 5656243.0], [416317.0, 5656243.0], [416315.0, 5656242.0], [416314.0, 5656240.0], [416311.0, 5656240.0], [416310.0, 5656238.0], [416307.0, 5656238.0], [416299.0, 5656233.0], [416296.0, 5656232.0], [416297.0, 5656230.0], [416297.0, 5656228.0], [416298.0, 5656226.0], [416296.0, 5656226.0], [416296.0, 5656227.0], [416291.0, 5656227.0], [416291.0, 5656226.0], [416287.0, 5656226.0], [416287.0, 5656228.0], [416284.0, 5656232.0], [416284.0, 5656235.0], [416285.0, 5656236.0], [416288.0, 5656236.0], [416289.0, 5656238.0], [416292.0, 5656238.0], [416293.0, 5656240.0], [416296.0, 5656240.0], [416308.0, 5656247.0], [416311.0, 5656247.0], [416313.0, 5656250.0], [416316.0, 5656250.0], [416318.0, 5656252.0], [416320.74, 5656252.0], [416324.72, 5656245.0], [416322.0, 5656245.0], [416320.0, 5656243.0]]]}}, {"type": "Feature", "properties": {"id": "DESNATPU1000EPPM", "z": 130.8}, "geometry": {"type": "Polygon", "coordinates": [[[416316.0, 5656250.0], [416313.0, 5656250.0], [416311.0, 5656247.0], [416308.0, 5656247.0], [416296.0, 5656240.0], [416293.0, 5656240.0], [416292.0, 5656238.0], [416289.0, 5656238.0], [416288.0, 5656236.0], [416285.0, 5656236.0], [416284.0, 5656235.0], [416284.0, 5656232.0], [416287.0, 5656228.0], [416287.0, 5656226.0], [416291.0, 5656226.0], [416291.0, 5656227.0], [416296.0, 5656227.0], [416296.0, 5656226.0], [416297.0, 5656226.0], [416296.0, 5656224.0], [416297.0, 5656224.0], [416295.0, 5656222.0], [416292.0, 5656222.0], [416290.0, 5656221.0], [416288.0, 5656218.0], [416286.78, 5656218.0], [416286.46, 5656218.64], [416277.47, 5656236.84], [416317.99, 5656256.82], [416320.74, 5656252.0], [416318.0, 5656252.0], [416316.0, 5656250.0]]]}}, {"type": "Feature", "properties": {"id": "DESNATPU1000EPPM", "z": 130.8}, "geometry": {"type": "Polygon", "coordinates": [[[416323.0, 5656240.0], [416321.0, 5656239.0], [416314.0, 5656239.0], [416312.0, 5656238.0], [416311.0, 5656236.0], [416308.0, 5656236.0], [416308.0, 5656235.0], [416302.0, 5656233.0], [416301.0, 5656231.0], [416299.0, 5656231.0], [416297.0, 5656229.0], [416297.0, 5656230.0], [416296.0, 5656232.0], [416299.0, 5656233.0], [416307.0, 5656238.0], [416310.0, 5656238.0], [416311.0, 5656240.0], [416314.0, 5656240.0], [416315.0, 5656242.0], [416317.0, 5656243.0], [416320.0, 5656243.0], [416322.0, 5656245.0], [416324.72, 5656245.0], [416325.68, 5656243.32], [416326.42, 5656242.0], [416324.0, 5656242.0], [416323.0, 5656240.0]]]}}, {"type": "Feature", "properties": {"id": "DESNATPU1000EPPM", "z": 128.21}, "geometry": {"type": "Polygon", "coordinates": [[[416311.0, 5656235.0], [416311.0, 5656233.0], [416307.0, 5656230.0], [416304.0, 5656230.0], [416304.0, 5656229.0], [416301.0, 5656228.0], [416301.0, 5656225.0], [416299.0, 5656224.0], [416296.0, 5656224.0], [416297.0, 5656226.0], [416298.0, 5656226.0], [416297.0, 5656228.0], [416297.0, 5656229.0], [416299.0, 5656231.0], [416301.0, 5656231.0], [416302.0, 5656233.0], [416308.0, 5656235.0], [416308.0, 5656236.0], [416311.0, 5656236.0], [416312.0, 5656238.0], [416314.0, 5656239.0], [416317.0, 5656239.0], [416311.0, 5656235.0]]]}}, {"type": "Feature", "properties": {"id": "DESNATPU1000EPPM", "z": 122.26}, "geometry": {"type": "Polygon", "coordinates": [[[416321.0, 5656225.0], [416320.0, 5656227.0], [416323.0, 5656227.0], [416323.0, 5656226.0], [416327.54, 5656226.0], [416322.84, 5656221.0], [416321.0, 5656221.0], [416321.0, 5656225.0]]]}}, {"type": "Feature", "properties": {"id": "DESNATPU1000EPPM", "z": 121.94}, "geometry": {"type": "Polygon", "coordinates": [[[416296.0, 5656206.0], [416296.0, 5656208.0], [416301.0, 5656208.0], [416303.0, 5656209.0], [416304.0, 5656211.0], [416307.0, 5656211.0], [416309.0, 5656212.0], [416310.0, 5656214.0], [416313.0, 5656214.0], [416313.0, 5656212.0], [416314.38, 5656212.0], [416309.77, 5656207.1], [416295.62, 5656200.13], [416293.21, 5656205.0], [416294.0, 5656205.0], [416296.0, 5656206.0]]]}}, {"type": "Feature", "properties": {"id": "DESNATPU1000EPPM", "z": 119.35}, "geometry": {"type": "Polygon", "coordinates": [[[416290.0, 5656221.0], [416292.0, 5656222.0], [416295.0, 5656222.0], [416297.0, 5656224.0], [416299.0, 5656224.0], [416301.0, 5656225.0], [416301.0, 5656228.0], [416304.0, 5656229.0], [416304.0, 5656230.0], [416307.0, 5656230.0], [416311.0, 5656233.0], [416311.0, 5656235.0], [416317.0, 5656239.0], [416321.0, 5656239.0], [416323.0, 5656240.0], [416324.0, 5656242.0], [416326.42, 5656242.0], [416332.49, 5656231.26], [416327.54, 5656226.0], [416323.0, 5656226.0], [416323.0, 5656227.0], [416320.0, 5656227.0], [416321.0, 5656225.0], [416321.0, 5656221.0], [416322.84, 5656221.0], [416314.38, 5656212.0], [416313.0, 5656212.0], [416313.0, 5656214.0], [416310.0, 5656214.0], [416309.0, 5656212.0], [416307.0, 5656211.0], [416304.0, 5656211.0], [416303.0, 5656209.0], [416301.0, 5656208.0], [416296.0, 5656208.0], [416296.0, 5656206.0], [416294.0, 5656205.0], [416293.21, 5656205.0], [416286.78, 5656218.0], [416288.0, 5656218.0], [416290.0, 5656221.0]]]}}, {"type": "Feature", "properties": {"id": "DESNATPU1000EumJ", "z": 227.81}, "geometry": {"type": "Polygon", "coordinates": [[[417588.59, 5657134.97], [417591.45, 5657136.35], [417597.25, 5657124.35], [417592.81, 5657122.21], [417594.1, 5657119.54], [417588.09, 5657116.64], [417587.18, 5657118.54], [417586.08, 5657118.0], [417583.64, 5657118.8], [417583.99, 5657119.86], [417577.79, 5657132.71], [417577.76, 5657132.73], [417576.93, 5657134.44], [417586.6, 5657139.1], [417588.59, 5657134.97]]]}}, {"type": "Feature", "properties": {"id": "DESNATPU1000ExwL", "z": 231.97}, "geometry": {"type": "Polygon", "coordinates": [[[416979.0, 5657444.0], [416979.0, 5657441.0], [416977.0, 5657441.0], [416977.0, 5657439.0], [416975.0, 5657438.0], [416970.0, 5657438.0], [416970.0, 5657442.0], [416972.0, 5657444.0], [416974.0, 5657444.0], [416975.0, 5657446.0], [416977.0, 5657446.0], [416979.0, 5657444.0]]]}}, {"type": "Feature", "properties": {"id": "DESNATPU1000ExwL", "z": 230.2}, "geometry": {"type": "Polygon", "coordinates": [[[416967.0, 5657444.0], [416968.0, 5657444.0], [416968.0, 5657444.99], [416969.41, 5657445.82], [416971.57, 5657447.1], [416970.58, 5657448.77], [416972.75, 5657450.04], [416972.88, 5657449.81], [416973.73, 5657448.37], [416973.93, 5657448.01], [416975.76, 5657449.08], [416976.94, 5657449.78], [416978.18, 5657450.5], [416982.75, 5657442.72], [416984.18, 5657442.42], [416983.67, 5657440.03], [416981.93, 5657440.36], [416978.61, 5657438.4], [416979.48, 5657436.94], [416975.81, 5657434.78], [416975.3, 5657435.63], [416970.71, 5657432.92], [416969.25, 5657432.07], [416969.14, 5657432.26], [416966.64, 5657436.49], [416963.99, 5657441.0], [416965.0, 5657441.0], [416967.0, 5657444.0]], [[416972.0, 5657444.0], [416970.0, 5657442.0], [416970.0, 5657438.0], [416975.0, 5657438.0], [416977.0, 5657439.0], [416977.0, 5657441.0], [416979.0, 5657441.0], [416979.0, 5657444.0], [416977.0, 5657446.0], [416975.0, 5657446.0], [416974.0, 5657444.0], [416972.0, 5657444.0]]]}}, {"type": "Feature", "properties": {"id": "DESNATPU1000ExwL", "z": 220.76}, "geometry": {"type": "Polygon", "coordinates": [[[416967.0, 5657444.0], [416965.0, 5657441.0], [416963.99, 5657441.0], [416963.42, 5657441.96], [416961.3, 5657445.57], [416965.75, 5657448.18], [416966.99, 5657446.07], [416967.72, 5657444.83], [416968.0, 5657444.99], [416968.0, 5657444.0], [416967.0, 5657444.0]]]}}, {"type": "Feature", "properties": {"id": "DESNATPU1000FHoH", "z": 241.46}, "geometry": {"type": "Polygon", "coordinates": [[[417384.0, 5657602.0], [417383.0, 5657605.0], [417381.0, 5657607.0], [417375.0, 5657609.0], [417375.0, 5657611.0], [417366.0, 5657615.0], [417366.0, 5657620.0], [417367.0, 5657620.0], [417368.0, 5657624.0], [417371.0, 5657626.0], [417372.0, 5657625.0], [417372.0, 5657621.0], [417370.0, 5657620.0], [417369.0, 5657618.0], [417371.0, 5657615.0], [417373.0, 5657615.0], [417379.0, 5657611.0], [417384.0, 5657611.0], [417385.0, 5657612.0], [417386.0, 5657616.0], [417389.0, 5657617.0], [417390.0, 5657614.0], [417388.0, 5657612.0], [417388.0, 5657608.0], [417386.0, 5657608.0], [417386.0, 5657604.0], [417388.57, 5657604.0], [417388.08, 5657603.0], [417386.0, 5657603.0], [417384.0, 5657602.0]]]}}, {"type": "Feature", "properties": {"id": "DESNATPU1000FHoH", "z": 239.49}, "geometry": {"type": "Polygon", "coordinates": [[[417376.0, 5657623.0], [417376.0, 5657618.0], [417378.0, 5657616.0], [417381.0, 5657616.0], [417384.0, 5657620.0], [417384.0, 5657622.0], [417385.11, 5657622.0], [417385.08, 5657621.93], [417391.67, 5657618.71], [417394.81, 5657617.17], [417394.6, 5657616.74], [417394.77, 5657616.66], [417393.36, 5657613.77], [417393.19, 5657613.86], [417388.8, 5657604.88], [417388.96, 5657604.8], [417388.57, 5657604.0], [417386.0, 5657604.0], [417386.0, 5657608.0], [417388.0, 5657608.0], [417388.0, 5657612.0], [417390.0, 5657614.0], [417389.0, 5657617.0], [417386.0, 5657616.0], [417385.0, 5657612.0], [417384.0, 5657611.0], [417379.0, 5657611.0], [417373.0, 5657615.0], [417371.0, 5657615.0], [417369.0, 5657618.0], [417370.0, 5657620.0], [417372.0, 5657621.0], [417372.0, 5657625.0], [417371.0, 5657626.0], [417368.0, 5657624.0], [417367.0, 5657620.0], [417366.0, 5657620.0], [417366.0, 5657615.0], [417375.0, 5657611.0], [417375.0, 5657609.0], [417381.0, 5657607.0], [417383.0, 5657605.0], [417384.0, 5657602.0], [417386.0, 5657603.0], [417388.08, 5657603.0], [417387.21, 5657601.22], [417384.43, 5657600.37], [417383.2, 5657600.97], [417381.11, 5657601.99], [417381.35, 5657602.49], [417364.29, 5657610.82], [417364.05, 5657610.32], [417360.91, 5657611.86], [417360.58, 5657612.01], [417359.9, 5657613.95], [417360.0, 5657614.0], [417360.0, 5657617.0], [417364.0, 5657623.0], [417364.0, 5657626.0], [417366.0, 5657627.0], [417366.0, 5657630.0], [417369.0, 5657631.0], [417371.0, 5657629.0], [417373.08, 5657629.0], [417372.61, 5657628.02], [417377.0, 5657625.88], [417377.0, 5657623.0], [417376.0, 5657623.0]]]}}, {"type": "Feature", "properties": {"id": "DESNATPU1000FHoH", "z": 229.63}, "geometry": {"type": "Polygon", "coordinates": [[[417384.0, 5657620.0], [417381.0, 5657616.0], [417378.0, 5657616.0], [417376.0, 5657618.0], [417376.0, 5657623.0], [417377.0, 5657623.0], [417377.0, 5657625.88], [417377.33, 5657625.72], [417378.62, 5657628.36], [417379.31, 5657628.8], [417380.07, 5657629.12], [417380.87, 5657629.3], [417381.69, 5657629.35], [417382.5, 5657629.25], [417383.29, 5657629.02], [417384.02, 5657628.66], [417384.69, 5657628.18], [417385.26, 5657627.6], [417385.73, 5657626.92], [417386.08, 5657626.18], [417386.29, 5657625.39], [417386.37, 5657624.57], [417385.11, 5657622.0], [417384.0, 5657622.0], [417384.0, 5657620.0]]]}}, {"type": "Feature", "properties": {"id": "DESNATPU1000FHoH", "z": 229.01}, "geometry": {"type": "Polygon", "coordinates": [[[417369.0, 5657631.0], [417366.0, 5657630.0], [417366.0, 5657627.0], [417364.0, 5657626.0], [417364.0, 5657623.0], [417360.0, 5657617.0], [417360.0, 5657614.0], [417359.9, 5657613.95], [417359.66, 5657614.63], [417350.09, 5657619.3], [417348.12, 5657615.27], [417347.04, 5657614.84], [417344.17, 5657616.33], [417343.76, 5657617.41], [417343.96, 5657617.81], [417345.72, 5657621.48], [417349.73, 5657629.97], [417349.9, 5657630.1], [417350.09, 5657630.21], [417350.3, 5657630.29], [417350.52, 5657630.33], [417350.74, 5657630.34], [417353.93, 5657628.84], [417354.07, 5657628.66], [417354.17, 5657628.47], [417354.24, 5657628.26], [417354.27, 5657628.04], [417354.27, 5657627.82], [417354.09, 5657627.42], [417359.58, 5657624.69], [417366.78, 5657639.6], [417372.76, 5657636.69], [417376.04, 5657635.09], [417373.08, 5657629.0], [417371.0, 5657629.0], [417369.0, 5657631.0]]]}}, {"type": "Feature", "properties": {"id": "DESNATPU1000FM0w", "z": 127.1}, "geometry": {"type": "Polygon", "coordinates": [[[416155.0, 5656552.0], [416156.0, 5656554.0], [416156.0, 5656555.3], [416161.54, 5656559.82], [416163.06, 5656557.95], [416163.77, 5656558.54], [416165.18, 5656556.81], [416165.5, 5656556.42], [416166.27, 5656557.04], [416166.79, 5656557.46], [416168.76, 5656555.05], [416167.46, 5656554.01], [416169.56, 5656551.44], [416171.12, 5656549.62], [416169.01, 5656547.81], [416167.01, 5656546.18], [416166.46, 5656545.06], [416159.13, 5656539.67], [416152.05, 5656548.36], [416152.0, 5656548.42], [416152.0, 5656550.0], [416155.0, 5656552.0]]]}}, {"type": "Feature", "properties": {"id": "DESNATPU1000FM0w", "z": 120.46}, "geometry": {"type": "Polygon", "coordinates": [[[416155.0, 5656552.0], [416152.0, 5656550.0], [416152.0, 5656548.42], [416148.75, 5656552.41], [416154.19, 5656556.85], [416155.68, 5656555.04], [416156.0, 5656555.3], [416156.0, 5656554.0], [416155.0, 5656552.0]]]}}, {"type": "Feature", "properties": {"id": "DESNATPU1000FMHA", "z": 259.47}, "geometry": {"type": "Polygon", "coordinates": [[[417473.0, 5657631.0], [417473.0, 5657632.0], [417476.0, 5657632.0], [417477.0, 5657630.0], [417477.0, 5657626.87], [417474.11, 5657628.13], [417469.2, 5657630.28], [417469.6, 5657631.2], [417470.0, 5657631.0], [417473.0, 5657631.0]]]}}, {"type": "Feature", "properties": {"id": "DESNATPU1000FMHA", "z": 230.06}, "geometry": {"type": "Polygon", "coordinates": [[[417484.0, 5657637.0], [417482.0, 5657639.0], [417477.0, 5657639.0], [417474.5, 5657642.34], [417475.24, 5657644.02], [417478.99, 5657642.37], [417482.51, 5657640.82], [417489.0, 5657637.97], [417489.0, 5657637.0], [417484.0, 5657637.0]]]}}, {"type": "Feature", "properties": {"id": "DESNATPU1000FMHA", "z": 227.74}, "geometry": {"type": "Polygon", "coordinates": [[[417476.0, 5657632.0], [417473.0, 5657632.0], [417473.0, 5657631.0], [417470.0, 5657631.0], [417469.6, 5657631.2], [417470.21, 5657632.6], [417468.71, 5657633.26], [417472.73, 5657642.43], [417474.25, 5657641.77], [417474.5, 5657642.34], [417477.0, 5657639.0], [417482.0, 5657639.0], [417484.0, 5657637.0], [417489.0, 5657637.0], [417489.0, 5657637.97], [417501.67, 5657632.39], [417499.69, 5657627.87], [417500.51, 5657627.5], [417499.38, 5657624.95], [417498.26, 5657622.39], [417497.44, 5657622.76], [417496.97, 5657621.7], [417495.82, 5657618.62], [417490.59, 5657620.91], [417489.0, 5657621.61], [417489.0, 5657626.0], [417485.0, 5657626.0], [417483.0, 5657628.0], [417480.0, 5657627.0], [417479.58, 5657625.74], [417477.0, 5657626.87], [417477.0, 5657630.0], [417476.0, 5657632.0]]]}}, {"type": "Feature", "properties": {"id": "DESNATPU1000FT2X", "z": 146.85}, "geometry": {"type": "Polygon", "coordinates": [[[416611.0, 5657024.0], [416614.0, 5657026.0], [416614.0, 5657027.46], [416617.39, 5657027.8], [416617.78, 5657023.95], [416619.51, 5657024.13], [416619.67, 5657022.68], [416619.76, 5657021.84], [416618.03, 5657021.66], [416618.38, 5657018.23], [416618.43, 5657017.73], [416614.01, 5657017.28], [416614.08, 5657016.55], [416609.23, 5657016.09], [416609.16, 5657016.83], [416603.98, 5657016.34], [416603.7, 5657019.28], [416603.08, 5657025.95], [416605.0, 5657026.13], [416605.0, 5657024.0], [416611.0, 5657024.0]]]}}, {"type": "Feature", "properties": {"id": "DESNATPU1000FT2X", "z": 144.56}, "geometry": {"type": "Polygon", "coordinates": [[[416611.0, 5657024.0], [416605.0, 5657024.0], [416605.0, 5657026.13], [416608.11, 5657026.43], [416608.0, 5657027.57], [416612.99, 5657028.07], [416613.06, 5657027.36], [416614.0, 5657027.46], [416614.0, 5657026.0], [416611.0, 5657024.0]]]}}, {"type": "Feature", "properties": {"id": "DESNATPU1000Fbfw", "z": 242.43}, "geometry": {"type": "Polygon", "coordinates": [[[417408.0, 5657557.0], [417408.0, 5657554.0], [417407.0, 5657554.0], [417406.0, 5657551.0], [417403.0, 5657551.0], [417399.0, 5657554.0], [417399.0, 5657557.0], [417401.0, 5657558.0], [417401.0, 5657560.0], [417408.0, 5657560.0], [417408.0, 5657561.99], [417410.0, 5657561.09], [417410.0, 5657559.0], [417408.0, 5657557.0]]]}}, {"type": "Feature", "properties": {"id": "DESNATPU1000Fbfw", "z": 240.39}, "geometry": {"type": "Polygon", "coordinates": [[[417406.0, 5657548.0], [417401.0, 5657548.0], [417400.0, 5657550.0], [417398.0, 5657551.0], [417393.86, 5657551.0], [417397.19, 5657557.84], [417392.1, 5657560.3], [417394.79, 5657564.94], [417395.96, 5657566.98], [417396.2, 5657567.16], [417405.94, 5657562.73], [417405.94, 5657562.91], [417408.0, 5657561.99], [417408.0, 5657560.0], [417401.0, 5657560.0], [417401.0, 5657558.0], [417399.0, 5657557.0], [417399.0, 5657554.0], [417403.0, 5657551.0], [417406.0, 5657551.0], [417407.0, 5657554.0], [417408.0, 5657554.0], [417408.0, 5657557.0], [417410.0, 5657559.0], [417410.0, 5657561.09], [417414.91, 5657558.89], [417414.18, 5657557.26], [417410.92, 5657550.0], [417408.0, 5657550.0], [417406.0, 5657548.0]]]}}, {"type": "Feature", "properties": {"id": "DESNATPU1000Fbfw", "z": 238.05}, "geometry": {"type": "Polygon", "coordinates": [[[417404.0, 5657546.0], [417403.0, 5657548.0], [417406.0, 5657548.0], [417408.0, 5657550.0], [417410.92, 5657550.0], [417409.13, 5657546.0], [417405.0, 5657546.0], [417404.0, 5657546.0]]]}}, {"type": "Feature", "properties": {"id": "DESNATPU1000Fbfw", "z": 234.38}, "geometry": {"type": "Polygon", "coordinates": [[[417400.0, 5657550.0], [417401.0, 5657548.0], [417403.0, 5657548.0], [417404.0, 5657546.0], [417402.0, 5657546.0], [417401.0, 5657543.0], [417389.0, 5657521.0], [417386.0, 5657521.0], [417384.0, 5657523.0], [417384.0, 5657526.0], [417394.0, 5657544.0], [417394.0, 5657549.0], [417392.89, 5657549.0], [417393.86, 5657551.0], [417398.0, 5657551.0], [417400.0, 5657550.0]]]}}, {"type": "Feature", "properties": {"id": "DESNATPU1000Fbfw", "z": 232.65}, "geometry": {"type": "Polygon", "coordinates": [[[417394.0, 5657544.0], [417384.0, 5657526.0], [417384.0, 5657523.0], [417386.0, 5657521.0], [417389.0, 5657521.0], [417401.0, 5657543.0], [417402.0, 5657546.0], [417405.0, 5657546.0], [417409.13, 5657546.0], [417408.84, 5657545.35], [417408.62, 5657545.45], [417408.05, 5657544.26], [417412.62, 5657541.99], [417408.89, 5657534.51], [417408.28, 5657533.49], [417407.57, 5657532.5], [417406.82, 5657531.54], [417405.07, 5657529.73], [417403.51, 5657527.83], [417402.86, 5657526.79], [417401.3, 5657523.6], [417401.15, 5657522.3], [417400.82, 5657521.09], [417400.37, 5657519.96], [417399.84, 5657518.9], [417399.08, 5657517.9], [417398.28, 5657517.22], [417397.29, 5657516.83], [417396.34, 5657516.6], [417395.34, 5657516.79], [417391.38, 5657518.7], [417390.82, 5657517.54], [417390.3, 5657517.8], [417389.09, 5657517.38], [417388.86, 5657516.92], [417380.62, 5657521.01], [417380.89, 5657521.55], [417380.91, 5657522.69], [417380.24, 5657523.02], [417380.39, 5657523.32], [417382.15, 5657526.94], [417392.46, 5657548.12], [417392.89, 5657549.0], [417394.0, 5657549.0], [417394.0, 5657544.0]]]}}, {"type": "Feature", "properties": {"id": "DESNATPU1000Fu96", "z": 118.34}, "geometry": {"type": "Polygon", "coordinates": [[[416767.25, 5656510.45], [416780.1, 5656489.35], [416774.76, 5656486.47], [416761.76, 5656506.97], [416767.25, 5656510.45]]]}}, {"type": "Feature", "properties": {"id": "DESNATPU1000GFIj", "z": 126.81}, "geometry": {"type": "Polygon", "coordinates": [[[416091.0, 5656673.0], [416088.9, 5656673.0], [416089.26, 5656673.42], [416088.61, 5656673.99], [416088.47, 5656673.83], [416088.37, 5656673.73], [416088.26, 5656673.64], [416088.15, 5656673.56], [416088.03, 5656673.48], [416087.91, 5656673.42], [416087.72, 5656673.34], [416087.52, 5656673.27], [416087.38, 5656673.24], [416087.24, 5656673.22], [416087.1, 5656673.21], [416086.96, 5656673.21], [416086.82, 5656673.22], [416086.61, 5656673.25], [416086.47, 5656673.29], [416086.34, 5656673.33], [416086.21, 5656673.38], [416086.08, 5656673.44], [416085.96, 5656673.51], [416085.84, 5656673.59], [416085.73, 5656673.67], [416085.62, 5656673.77], [416085.52, 5656673.87], [416085.43, 5656673.98], [416085.35, 5656674.1], [416085.27, 5656674.22], [416085.2, 5656674.34], [416085.15, 5656674.47], [416085.1, 5656674.6], [416085.06, 5656674.74], [416085.02, 5656674.9], [416085.0, 5656675.04], [416084.99, 5656675.18], [416084.99, 5656675.32], [416085.0, 5656675.46], [416085.02, 5656675.6], [416085.06, 5656675.75], [416085.1, 5656675.91], [416085.16, 5656676.04], [416085.22, 5656676.17], [416085.28, 5656676.29], [416085.36, 5656676.41], [416085.44, 5656676.52], [416085.55, 5656676.64], [416084.33, 5656677.71], [416088.88, 5656682.94], [416093.81, 5656678.65], [416094.0, 5656678.87], [416094.0, 5656677.0], [416091.0, 5656673.0]]]}}, {"type": "Feature", "properties": {"id": "DESNATPU1000GFIj", "z": 123.29}, "geometry": {"type": "Polygon", "coordinates": [[[416094.0, 5656677.0], [416094.0, 5656678.87], [416096.01, 5656681.18], [416099.34, 5656678.28], [416099.57, 5656678.55], [416101.13, 5656680.34], [416101.34, 5656680.59], [416101.77, 5656680.21], [416102.92, 5656679.21], [416105.2, 5656677.23], [416106.22, 5656676.34], [416106.55, 5656676.06], [416104.78, 5656674.03], [416104.53, 5656673.75], [416105.01, 5656673.34], [416104.0, 5656673.0], [416100.0, 5656666.0], [416098.0, 5656666.0], [416098.0, 5656663.36], [416096.67, 5656664.52], [416096.5, 5656664.32], [416091.34, 5656668.8], [416091.55, 5656669.04], [416088.08, 5656672.06], [416088.9, 5656673.0], [416091.0, 5656673.0], [416094.0, 5656677.0]]]}}, {"type": "Feature", "properties": {"id": "DESNATPU1000GFIj", "z": 121.73}, "geometry": {"type": "Polygon", "coordinates": [[[416100.0, 5656666.0], [416104.0, 5656673.0], [416105.01, 5656673.34], [416108.13, 5656670.62], [416100.17, 5656661.47], [416098.0, 5656663.36], [416098.0, 5656666.0], [416100.0, 5656666.0]]]}}, {"type": "Feature", "properties": {"id": "DESNATPU1000H7Zy", "z": 240.33}, "geometry": {"type": "Polygon", "coordinates": [[[417417.63, 5657290.96], [417417.94, 5657291.07], [417418.12, 5657290.55], [417422.02, 5657291.92], [417423.48, 5657291.27], [417426.18, 5657283.62], [417419.32, 5657281.2], [417417.75, 5657280.64], [417418.47, 5657278.61], [417414.39, 5657277.17], [417413.73, 5657279.05], [417410.4, 5657277.88], [417407.32, 5657286.62], [417410.21, 5657287.64], [417409.99, 5657288.27], [417414.02, 5657289.69], [417413.5, 5657291.18], [417417.11, 5657292.45], [417417.63, 5657290.96]]]}}, {"type": "Feature", "properties": {"id": "DESNATPU1000HohJ", "z": 171.88}, "geometry": {"type": "Polygon", "coordinates": [[[416186.0, 5657527.0], [416186.0, 5657529.0], [416188.76, 5657529.0], [416190.0, 5657528.0], [416190.0, 5657527.0], [416188.0, 5657527.0], [416188.0, 5657524.0], [416187.0, 5657524.0], [416185.19, 5657518.56], [416182.0, 5657520.98], [416182.0, 5657525.0], [416186.0, 5657527.0]]]}}, {"type": "Feature", "properties": {"id": "DESNATPU1000HohJ", "z": 169.07}, "geometry": {"type": "Polygon", "coordinates": [[[416186.0, 5657527.0], [416182.0, 5657525.0], [416182.0, 5657520.98], [416178.51, 5657523.62], [416183.28, 5657529.74], [416182.96, 5657529.98], [416183.97, 5657531.3], [416184.29, 5657531.06], [416185.05, 5657532.0], [416188.76, 5657529.0], [416186.0, 5657529.0], [416186.0, 5657527.0]]]}}, {"type": "Feature", "properties": {"id": "DESNATPU1000HohJ", "z": 168.95}, "geometry": {"type": "Polygon", "coordinates": [[[416188.0, 5657524.0], [416188.0, 5657527.0], [416190.0, 5657527.0], [416190.0, 5657528.0], [416192.38, 5657526.08], [416193.89, 5657524.93], [416189.0, 5657522.0], [416189.0, 5657518.0], [416185.46, 5657518.0], [416185.63, 5657518.23], [416185.19, 5657518.56], [416187.0, 5657524.0], [416188.0, 5657524.0]]]}}, {"type": "Feature", "properties": {"id": "DESNATPU1000HohJ", "z": 163.7}, "geometry": {"type": "Polygon", "coordinates": [[[416189.0, 5657522.0], [416193.89, 5657524.93], [416196.48, 5657522.95], [416193.34, 5657518.8], [416190.22, 5657514.72], [416189.95, 5657514.37], [416189.57, 5657513.87], [416185.19, 5657517.21], [416185.34, 5657517.42], [416184.97, 5657517.36], [416185.46, 5657518.0], [416189.0, 5657518.0], [416189.0, 5657522.0]]]}}, {"type": "Feature", "properties": {"id": "DESNATPU1000INUU", "z": 183.05}, "geometry": {"type": "Polygon", "coordinates": [[[417130.0, 5656876.0], [417133.0, 5656876.0], [417134.0, 5656873.0], [417129.0, 5656873.0], [417129.0, 5656874.0], [417126.0, 5656874.0], [417126.0, 5656877.0], [417130.0, 5656877.0], [417130.0, 5656876.0]]]}}, {"type": "Feature", "properties": {"id": "DESNATPU1000INUU", "z": 180.7}, "geometry": {"type": "Polygon", "coordinates": [[[417133.0, 5656869.0], [417127.0, 5656869.0], [417127.0, 5656870.0], [417125.26, 5656870.0], [417125.51, 5656870.83], [417122.12, 5656871.85], [417124.07, 5656878.35], [417125.07, 5656881.67], [417137.65, 5656877.89], [417134.9, 5656868.0], [417133.0, 5656868.0], [417133.0, 5656869.0]], [[417129.0, 5656874.0], [417129.0, 5656873.0], [417134.0, 5656873.0], [417133.0, 5656876.0], [417130.0, 5656876.0], [417130.0, 5656877.0], [417126.0, 5656877.0], [417126.0, 5656874.0], [417129.0, 5656874.0]]]}}, {"type": "Feature", "properties": {"id": "DESNATPU1000INUU", "z": 174.04}, "geometry": {"type": "Polygon", "coordinates": [[[417127.0, 5656869.0], [417133.0, 5656869.0], [417133.0, 5656868.0], [417134.9, 5656868.0], [417134.64, 5656867.06], [417134.79, 5656867.1], [417134.93, 5656867.12], [417135.08, 5656867.14], [417135.22, 5656867.14], [417135.37, 5656867.13], [417135.51, 5656867.12], [417135.65, 5656867.09], [417135.8, 5656867.06], [417135.93, 5656867.01], [417136.07, 5656866.95], [417136.21, 5656866.88], [417136.34, 5656866.81], [417136.46, 5656866.72], [417136.57, 5656866.63], [417136.68, 5656866.54], [417136.78, 5656866.43], [417136.87, 5656866.32], [417136.95, 5656866.2], [417137.03, 5656866.07], [417137.1, 5656865.94], [417137.1, 5656865.93], [417137.16, 5656865.8], [417137.2, 5656865.66], [417137.24, 5656865.52], [417137.27, 5656865.38], [417137.29, 5656865.23], [417137.29, 5656865.09], [417137.29, 5656864.94], [417137.28, 5656864.8], [417137.26, 5656864.65], [417137.22, 5656864.51], [417137.18, 5656864.37], [417137.13, 5656864.24], [417137.07, 5656864.11], [417137.0, 5656863.98], [417136.92, 5656863.86], [417136.83, 5656863.74], [417136.73, 5656863.62], [417136.62, 5656863.52], [417136.51, 5656863.43], [417136.4, 5656863.34], [417136.28, 5656863.26], [417136.15, 5656863.19], [417136.02, 5656863.13], [417135.88, 5656863.08], [417135.74, 5656863.04], [417135.6, 5656863.01], [417135.46, 5656862.98], [417135.31, 5656862.97], [417135.17, 5656862.97], [417135.02, 5656862.98], [417134.88, 5656863.0], [417134.73, 5656863.03], [417134.53, 5656863.08], [417134.4, 5656863.14], [417134.26, 5656863.2], [417134.14, 5656863.27], [417134.02, 5656863.35], [417133.9, 5656863.44], [417133.79, 5656863.53], [417133.69, 5656863.63], [417133.59, 5656863.74], [417133.51, 5656863.86], [417133.4, 5656864.03], [417133.31, 5656864.22], [417133.25, 5656864.35], [417133.21, 5656864.49], [417133.18, 5656864.63], [417133.15, 5656864.77], [417133.14, 5656864.92], [417133.13, 5656865.06], [417133.14, 5656865.21], [417133.15, 5656865.35], [417133.18, 5656865.5], [417133.23, 5656865.69], [417124.74, 5656868.24], [417124.81, 5656868.48], [417125.26, 5656870.0], [417127.0, 5656870.0], [417127.0, 5656869.0]]]}}, {"type": "Feature", "properties": {"id": "DESNATPU1000ItiV", "z": 216.59}, "geometry": {"type": "Polygon", "coordinates": [[[417597.0, 5657043.0], [417599.0, 5657041.0], [417599.0, 5657038.0], [417593.0, 5657040.0], [417593.0, 5657044.0], [417596.0, 5657046.0], [417597.0, 5657043.0]]]}}, {"type": "Feature", "properties": {"id": "DESNATPU1000ItiV", "z": 214.09}, "geometry": {"type": "Polygon", "coordinates": [[[417597.98, 5657047.31], [417599.05, 5657048.56], [417602.64, 5657045.46], [417601.57, 5657044.22], [417605.13, 5657041.15], [417597.73, 5657032.57], [417595.17, 5657034.77], [417595.09, 5657034.53], [417595.01, 5657034.35], [417594.92, 5657034.18], [417594.82, 5657034.02], [417594.7, 5657033.86], [417594.58, 5657033.71], [417594.44, 5657033.57], [417594.3, 5657033.43], [417594.15, 5657033.31], [417593.99, 5657033.2], [417593.82, 5657033.1], [417593.64, 5657033.02], [417593.46, 5657032.94], [417593.28, 5657032.88], [417593.09, 5657032.83], [417592.9, 5657032.8], [417592.7, 5657032.78], [417592.51, 5657032.77], [417592.31, 5657032.78], [417592.12, 5657032.79], [417591.93, 5657032.83], [417591.74, 5657032.87], [417591.55, 5657032.93], [417591.37, 5657033.0], [417591.19, 5657033.09], [417591.02, 5657033.19], [417590.86, 5657033.29], [417590.66, 5657033.45], [417590.48, 5657033.62], [417590.35, 5657033.76], [417590.23, 5657033.92], [417590.12, 5657034.08], [417590.02, 5657034.25], [417589.94, 5657034.42], [417589.87, 5657034.6], [417589.8, 5657034.79], [417589.76, 5657034.98], [417589.72, 5657035.17], [417589.7, 5657035.37], [417589.69, 5657035.56], [417589.7, 5657035.76], [417589.72, 5657035.95], [417589.76, 5657036.14], [417589.8, 5657036.33], [417589.86, 5657036.52], [417589.94, 5657036.7], [417590.02, 5657036.87], [417590.12, 5657037.04], [417590.23, 5657037.2], [417590.35, 5657037.36], [417590.48, 5657037.5], [417590.62, 5657037.64], [417590.77, 5657037.77], [417590.92, 5657037.88], [417591.09, 5657037.98], [417591.31, 5657038.1], [417588.29, 5657040.7], [417595.69, 5657049.29], [417597.98, 5657047.31]], [[417599.0, 5657038.0], [417599.0, 5657041.0], [417597.0, 5657043.0], [417596.0, 5657046.0], [417593.0, 5657044.0], [417593.0, 5657040.0], [417599.0, 5657038.0]]]}}, {"type": "Feature", "properties": {"id": "DESNATPU1000IvFj", "z": 225.3}, "geometry": {"type": "Polygon", "coordinates": [[[416827.0, 5657481.0], [416822.0, 5657481.0], [416823.0, 5657483.0], [416823.0, 5657485.16], [416823.47, 5657485.45], [416824.94, 5657486.35], [416825.12, 5657486.07], [416825.75, 5657486.46], [416825.95, 5657486.58], [416827.0, 5657485.0], [416827.0, 5657481.0]]]}}, {"type": "Feature", "properties": {"id": "DESNATPU1000IvFj", "z": 222.29}, "geometry": {"type": "Polygon", "coordinates": [[[416822.0, 5657481.0], [416827.0, 5657481.0], [416827.0, 5657480.0], [416825.0, 5657479.0], [416825.0, 5657477.0], [416824.89, 5657477.0], [416823.68, 5657478.77], [416822.12, 5657477.81], [416820.43, 5657476.76], [416819.01, 5657479.06], [416817.59, 5657481.36], [416819.29, 5657482.41], [416822.1, 5657484.14], [416821.96, 5657484.52], [416823.0, 5657485.16], [416823.0, 5657483.0], [416822.0, 5657481.0]]]}}, {"type": "Feature", "properties": {"id": "DESNATPU1000IvFj", "z": 219.54}, "geometry": {"type": "Polygon", "coordinates": [[[416825.0, 5657479.0], [416827.0, 5657480.0], [416827.0, 5657485.0], [416825.95, 5657486.58], [416826.09, 5657486.67], [416830.91, 5657486.88], [416831.5, 5657486.91], [416833.59, 5657487.0], [416834.0, 5657487.01], [416834.0, 5657484.0], [416832.0, 5657484.0], [416832.0, 5657478.0], [416833.0, 5657478.0], [416833.0, 5657476.55], [416828.1, 5657476.34], [416827.55, 5657476.31], [416827.52, 5657477.0], [416826.58, 5657476.96], [416824.97, 5657476.88], [416824.89, 5657477.0], [416825.0, 5657477.0], [416825.0, 5657479.0]]]}}, {"type": "Feature", "properties": {"id": "DESNATPU1000IvFj", "z": 217.39}, "geometry": {"type": "Polygon", "coordinates": [[[416832.0, 5657478.0], [416832.0, 5657484.0], [416834.0, 5657484.0], [416834.0, 5657487.01], [416834.49, 5657487.04], [416834.39, 5657489.27], [416838.35, 5657489.44], [416838.63, 5657483.0], [416836.0, 5657483.0], [416834.0, 5657481.0], [416834.0, 5657476.6], [416833.0, 5657476.55], [416833.0, 5657478.0], [416832.0, 5657478.0]]]}}, {"type": "Feature", "properties": {"id": "DESNATPU1000IvFj", "z": 215.26}, "geometry": {"type": "Polygon", "coordinates": [[[416836.0, 5657483.0], [416838.63, 5657483.0], [416838.7, 5657481.27], [416839.33, 5657481.3], [416839.53, 5657476.84], [416837.66, 5657476.76], [416835.24, 5657476.65], [416834.0, 5657476.6], [416834.0, 5657481.0], [416836.0, 5657483.0]]]}}, {"type": "Feature", "properties": {"id": "DESNATPU1000J9Z6", "z": 242.3}, "geometry": {"type": "Polygon", "coordinates": [[[417469.0, 5657487.0], [417466.0, 5657487.0], [417466.0, 5657490.0], [417467.87, 5657490.0], [417474.63, 5657485.0], [417470.0, 5657485.0], [417469.0, 5657487.0]]]}}, {"type": "Feature", "properties": {"id": "DESNATPU1000J9Z6", "z": 241.12}, "geometry": {"type": "Polygon", "coordinates": [[[417481.0, 5657502.0], [417479.0, 5657500.0], [417479.0, 5657498.04], [417470.94, 5657504.0], [417472.43, 5657507.46], [417480.54, 5657503.96], [417480.98, 5657505.0], [417481.0, 5657505.0], [417481.0, 5657502.0]]]}}, {"type": "Feature", "properties": {"id": "DESNATPU1000J9Z6", "z": 239.36}, "geometry": {"type": "Polygon", "coordinates": [[[417466.0, 5657487.0], [417469.0, 5657487.0], [417470.0, 5657485.0], [417474.63, 5657485.0], [417475.38, 5657484.45], [417472.35, 5657480.33], [417462.26, 5657487.79], [417465.03, 5657492.1], [417467.87, 5657490.0], [417466.0, 5657490.0], [417466.0, 5657487.0]]]}}, {"type": "Feature", "properties": {"id": "DESNATPU1000J9Z6", "z": 232.46}, "geometry": {"type": "Polygon", "coordinates": [[[417481.0, 5657502.0], [417481.0, 5657505.0], [417480.98, 5657505.0], [417482.84, 5657509.38], [417490.92, 5657508.28], [417489.78, 5657499.93], [417491.55, 5657497.21], [417485.46, 5657493.26], [417479.0, 5657498.04], [417479.0, 5657500.0], [417481.0, 5657502.0]]]}}, {"type": "Feature", "properties": {"id": "DESNATPU1000JSf0", "z": 249.29}, "geometry": {"type": "Polygon", "coordinates": [[[417813.0, 5657283.0], [417816.0, 5657281.0], [417816.0, 5657279.0], [417810.0, 5657279.0], [417808.0, 5657276.0], [417803.0, 5657276.0], [417803.0, 5657280.0], [417804.0, 5657280.0], [417805.0, 5657283.0], [417810.0, 5657283.0], [417810.0, 5657286.0], [417811.0, 5657288.0], [417813.0, 5657289.0], [417813.0, 5657283.0]]]}}, {"type": "Feature", "properties": {"id": "DESNATPU1000JSf0", "z": 247.4}, "geometry": {"type": "Polygon", "coordinates": [[[417803.0, 5657284.0], [417809.0, 5657284.0], [417809.0, 5657289.0], [417812.0, 5657290.0], [417812.0, 5657291.31], [417814.0, 5657290.97], [417814.0, 5657289.0], [417815.0, 5657289.0], [417815.0, 5657284.0], [417817.0, 5657282.0], [417820.0, 5657282.0], [417818.0, 5657277.0], [417810.0, 5657277.0], [417809.0, 5657275.0], [417805.0, 5657275.0], [417805.0, 5657272.69], [417801.24, 5657273.22], [417800.46, 5657275.26], [417801.74, 5657283.0], [417803.0, 5657283.0], [417803.0, 5657284.0]], [[417810.0, 5657283.0], [417805.0, 5657283.0], [417804.0, 5657280.0], [417803.0, 5657280.0], [417803.0, 5657276.0], [417808.0, 5657276.0], [417810.0, 5657279.0], [417816.0, 5657279.0], [417816.0, 5657281.0], [417813.0, 5657283.0], [417813.0, 5657289.0], [417811.0, 5657288.0], [417810.0, 5657286.0], [417810.0, 5657283.0]]]}}, {"type": "Feature", "properties": {"id": "DESNATPU1000JSf0", "z": 245.39}, "geometry": {"type": "Polygon", "coordinates": [[[417809.0, 5657289.0], [417809.0, 5657284.0], [417803.0, 5657284.0], [417803.0, 5657283.0], [417802.0, 5657283.0], [417802.0, 5657286.0], [417803.0, 5657287.0], [417806.0, 5657287.0], [417807.0, 5657290.0], [417809.0, 5657290.0], [417809.0, 5657291.81], [417812.0, 5657291.31], [417812.0, 5657290.0], [417809.0, 5657289.0]]]}}, {"type": "Feature", "properties": {"id": "DESNATPU1000JSf0", "z": 244.69}, "geometry": {"type": "Polygon", "coordinates": [[[417809.0, 5657275.0], [417810.0, 5657277.0], [417818.0, 5657277.0], [417820.0, 5657282.0], [417817.0, 5657282.0], [417815.0, 5657284.0], [417815.0, 5657289.0], [417814.0, 5657289.0], [417814.0, 5657290.97], [417820.03, 5657289.96], [417819.32, 5657285.72], [417822.55, 5657285.18], [417821.95, 5657281.58], [417821.35, 5657277.99], [417820.35, 5657278.16], [417819.9, 5657275.45], [417820.68, 5657274.27], [417820.41, 5657272.66], [417818.76, 5657271.62], [417817.16, 5657271.77], [417816.13, 5657273.32], [417811.91, 5657274.03], [417811.48, 5657271.44], [417811.05, 5657271.24], [417810.73, 5657271.12], [417810.42, 5657271.03], [417810.09, 5657270.95], [417809.76, 5657270.9], [417809.43, 5657270.88], [417809.1, 5657270.87], [417808.77, 5657270.89], [417808.3, 5657270.96], [417807.83, 5657271.08], [417807.52, 5657271.19], [417807.21, 5657271.32], [417806.92, 5657271.47], [417806.63, 5657271.64], [417806.36, 5657271.83], [417806.1, 5657272.04], [417805.86, 5657272.26], [417805.54, 5657272.62], [417805.0, 5657272.69], [417805.0, 5657275.0], [417809.0, 5657275.0]]]}}, {"type": "Feature", "properties": {"id": "DESNATPU1000JSf0", "z": 241.23}, "geometry": {"type": "Polygon", "coordinates": [[[417807.0, 5657290.0], [417806.0, 5657287.0], [417803.0, 5657287.0], [417802.0, 5657286.0], [417802.0, 5657283.0], [417801.74, 5657283.0], [417801.86, 5657283.69], [417799.01, 5657284.16], [417799.35, 5657286.19], [417799.27, 5657286.26], [417799.88, 5657286.91], [417799.85, 5657286.91], [417799.8, 5657286.89], [417799.72, 5657286.88], [417799.6, 5657286.87], [417799.4, 5657286.85], [417798.97, 5657286.85], [417799.57, 5657290.74], [417799.77, 5657290.62], [417799.92, 5657290.52], [417800.01, 5657290.45], [417800.09, 5657290.39], [417800.16, 5657290.34], [417800.2, 5657290.3], [417800.25, 5657290.25], [417800.17, 5657290.99], [417800.26, 5657290.99], [417801.73, 5657299.75], [417805.22, 5657299.17], [417806.48, 5657300.09], [417807.86, 5657299.76], [417808.55, 5657298.6], [417807.46, 5657292.06], [417809.0, 5657291.81], [417809.0, 5657290.0], [417807.0, 5657290.0]]]}}, {"type": "Feature", "properties": {"id": "DESNATPU1000JdxU", "z": 206.94}, "geometry": {"type": "Polygon", "coordinates": [[[417299.0, 5656954.0], [417302.0, 5656954.0], [417304.0, 5656953.0], [417304.0, 5656949.0], [417303.0, 5656949.0], [417303.0, 5656945.0], [417302.67, 5656944.67], [417302.66, 5656944.69], [417302.63, 5656944.84], [417302.59, 5656945.23], [417302.59, 5656945.63], [417301.62, 5656945.74], [417301.69, 5656946.34], [417298.0, 5656946.75], [417298.0, 5656953.0], [417299.0, 5656954.0]]]}}, {"type": "Feature", "properties": {"id": "DESNATPU1000JdxU", "z": 204.13}, "geometry": {"type": "Polygon", "coordinates": [[[417305.0, 5656953.0], [417309.0, 5656953.0], [417310.0, 5656952.0], [417309.0, 5656949.0], [417304.0, 5656949.0], [417304.0, 5656953.0], [417302.0, 5656954.0], [417305.0, 5656954.0], [417305.0, 5656953.0]]]}}, {"type": "Feature", "properties": {"id": "DESNATPU1000JdxU", "z": 201.89}, "geometry": {"type": "Polygon", "coordinates": [[[417303.0, 5656949.0], [417309.0, 5656949.0], [417310.0, 5656952.0], [417309.0, 5656953.0], [417305.0, 5656953.0], [417305.0, 5656954.0], [417299.0, 5656954.0], [417298.0, 5656953.0], [417298.0, 5656946.75], [417295.33, 5656947.04], [417296.52, 5656957.95], [417305.07, 5656957.01], [417305.0, 5656956.36], [417310.08, 5656955.8], [417313.81, 5656955.4], [417312.62, 5656944.53], [417308.89, 5656944.94], [417307.6, 5656945.08], [417307.61, 5656944.89], [417307.6, 5656944.71], [417307.58, 5656944.52], [417307.55, 5656944.34], [417307.51, 5656944.15], [417307.45, 5656943.98], [417307.38, 5656943.8], [417307.3, 5656943.63], [417307.21, 5656943.47], [417307.1, 5656943.32], [417306.99, 5656943.17], [417306.86, 5656943.02], [417306.73, 5656942.89], [417306.59, 5656942.77], [417306.44, 5656942.66], [417306.28, 5656942.56], [417306.11, 5656942.47], [417305.94, 5656942.4], [417305.77, 5656942.33], [417305.59, 5656942.28], [417305.41, 5656942.24], [417305.22, 5656942.21], [417304.99, 5656942.26], [417304.78, 5656942.33], [417304.57, 5656942.41], [417304.36, 5656942.5], [417304.17, 5656942.61], [417303.98, 5656942.73], [417303.8, 5656942.87], [417303.62, 5656943.02], [417303.46, 5656943.18], [417303.31, 5656943.35], [417303.18, 5656943.53], [417303.05, 5656943.72], [417302.94, 5656943.91], [417302.85, 5656944.12], [417302.77, 5656944.33], [417302.7, 5656944.55], [417302.67, 5656944.67], [417303.0, 5656945.0], [417303.0, 5656949.0]]]}}, {"type": "Feature", "properties": {"id": "UUID_2965aec4-94c1-40ff-b6b3-0a2bd0ab1743", "z": 127.04}, "geometry": {"type": "Polygon", "coordinates": [[[416232.46, 5656369.91], [416232.44, 5656369.9], [416235.89, 5656365.6], [416215.54, 5656351.32], [416212.4, 5656355.81], [416210.85, 5656358.04], [416207.47, 5656362.88], [416206.49, 5656364.29], [416206.01, 5656364.98], [416225.49, 5656378.66], [416227.08, 5656376.65], [416228.92, 5656374.33], [416228.93, 5656374.34], [416232.46, 5656369.91]]]}}, {"type": "Feature", "properties": {"id": "UUID_ca3a83fe-ed7c-4f66-9925-a5b4fb18a54c", "z": 224.28}, "geometry": {"type": "Polygon", "coordinates": [[[417610.07, 5657231.66], [417603.79, 5657230.16], [417597.53, 5657228.89], [417596.4, 5657233.67], [417595.62, 5657236.94], [417594.81, 5657240.38], [417607.29, 5657243.35], [417610.07, 5657231.66]]]}}, {"type": "Feature", "properties": {"id": "UUID_cbea4262-572e-4d2d-a21c-2938ab357595", "z": 126.83}, "geometry": {"type": "Polygon", "coordinates": [[[416177.98, 5656324.97], [416175.14, 5656325.31], [416175.14, 5656325.29], [416174.98, 5656323.82], [416171.01, 5656324.29], [416171.21, 5656325.78], [416166.84, 5656326.28], [416166.32, 5656326.37], [416165.84, 5656326.53], [416165.38, 5656326.78], [416164.97, 5656327.1], [416164.63, 5656327.48], [416164.35, 5656327.92], [416164.29, 5656328.04], [416164.14, 5656328.39], [416164.02, 5656328.9], [416163.99, 5656329.41], [416164.04, 5656329.93], [416164.18, 5656330.42], [416164.4, 5656330.89], [416164.7, 5656331.32], [416165.06, 5656331.69], [416167.21, 5656333.21], [416166.54, 5656334.18], [416170.19, 5656336.75], [416170.86, 5656335.79], [416170.87, 5656335.78], [416175.04, 5656338.7], [416176.54, 5656336.54], [416177.75, 5656334.79], [416182.41, 5656328.08], [416177.98, 5656324.97]]]}}, {"type": "Feature", "properties": {"id": "UUID_d207e366-e86c-4765-be23-560aea363e33", "z": 225.13}, "geometry": {"type": "Polygon", "coordinates": [[[417257.5, 5657675.31], [417250.55, 5657678.79], [417248.09, 5657680.02], [417243.29, 5657682.42], [417248.1, 5657692.02], [417252.89, 5657689.63], [417263.54, 5657684.3], [417258.74, 5657674.69], [417257.5, 5657675.31]]]}}, {"type": "Feature", "properties": {"id": "UUID_e5cbdeb9-732c-4dda-8dbc-5b1f9ad8aa19", "z": 126.85}, "geometry": {"type": "Polygon", "coordinates": [[[416182.41, 5656328.08], [416177.66, 5656334.93], [416175.04, 5656338.7], [416172.9, 5656341.79], [416191.03, 5656354.48], [416195.82, 5656347.67], [416197.46, 5656345.34], [416200.62, 5656340.86], [416182.41, 5656328.08]]]}}, {"type": "Feature", "properties": {"id": "UUID_fd594225-316e-4ff7-afb5-5aacb788315d", "z": 127.32}, "geometry": {"type": "Polygon", "coordinates": [[[416738.0, 5656459.0], [416738.0, 5656456.0], [416737.0, 5656456.0], [416735.0, 5656454.0], [416730.0, 5656454.0], [416730.0, 5656455.0], [416728.0, 5656456.0], [416728.0, 5656457.8], [416735.7, 5656462.25], [416737.0, 5656459.0], [416738.0, 5656459.0]]]}}, {"type": "Feature", "properties": {"id": "UUID_fd594225-316e-4ff7-afb5-5aacb788315d", "z": 124.57}, "geometry": {"type": "Polygon", "coordinates": [[[416742.0, 5656459.0], [416741.0, 5656459.0], [416739.0, 5656456.0], [416738.0, 5656456.0], [416738.0, 5656459.0], [416737.0, 5656459.0], [416735.7, 5656462.25], [416735.73, 5656462.27], [416745.13, 5656467.7], [416749.05, 5656461.0], [416744.0, 5656461.0], [416742.0, 5656459.0]]]}}, {"type": "Feature", "properties": {"id": "UUID_fd594225-316e-4ff7-afb5-5aacb788315d", "z": 121.97}, "geometry": {"type": "Polygon", "coordinates": [[[416745.0, 5656446.0], [416746.0, 5656448.0], [416748.0, 5656448.0], [416747.0, 5656450.0], [416747.0, 5656453.0], [416745.0, 5656454.0], [416743.0, 5656459.0], [416742.0, 5656459.0], [416744.0, 5656461.0], [416749.05, 5656461.0], [416754.99, 5656450.86], [416745.38, 5656445.23], [416743.0, 5656443.84], [416743.0, 5656446.0], [416745.0, 5656446.0]]]}}, {"type": "Feature", "properties": {"id": "UUID_fd594225-316e-4ff7-afb5-5aacb788315d", "z": 117.18}, "geometry": {"type": "Polygon", "coordinates": [[[416737.0, 5656444.0], [416735.0, 5656444.0], [416735.0, 5656446.0], [416733.0, 5656448.0], [416733.0, 5656451.0], [416730.0, 5656453.0], [416730.0, 5656454.0], [416735.0, 5656454.0], [416737.0, 5656456.0], [416739.0, 5656456.0], [416741.0, 5656459.0], [416743.0, 5656459.0], [416745.0, 5656454.0], [416747.0, 5656453.0], [416747.0, 5656450.0], [416748.0, 5656448.0], [416746.0, 5656448.0], [416745.0, 5656446.0], [416743.0, 5656446.0], [416743.0, 5656443.84], [416738.0, 5656440.91], [416738.0, 5656442.0], [416737.0, 5656444.0]]]}}, {"type": "Feature", "properties": {"id": "UUID_fd594225-316e-4ff7-afb5-5aacb788315d", "z": 113.66}, "geometry": {"type": "Polygon", "coordinates": [[[416730.0, 5656455.0], [416730.0, 5656453.0], [416733.0, 5656451.0], [416733.0, 5656448.0], [416735.0, 5656446.0], [416735.0, 5656444.0], [416737.0, 5656444.0], [416738.0, 5656442.0], [416738.0, 5656440.91], [416733.57, 5656438.32], [416723.75, 5656455.34], [416728.0, 5656457.8], [416728.0, 5656456.0], [416730.0, 5656455.0]]]}}]}