{"type": "FeatureCollection", "attribution": "Quelle: GeoSN, dl-de/by-2-0 (LoD2, DOM1)", "crs": {"type": "name", "properties": {"name": "urn:ogc:def:crs:EPSG::25833"}}, "features": [{"type": "Feature", "properties": {"id": "DESNATGMzV0000XP", "z": 130.04}, "geometry": {"type": "Polygon", "coordinates": [[[416478.31, 5654599.73], [416468.47, 5654605.73], [416475.21, 5654616.82], [416480.62, 5654613.54], [416480.67, 5654613.64], [416485.15, 5654610.9], [416485.09, 5654610.81], [416493.5, 5654605.68], [416493.56, 5654605.78], [416496.64, 5654603.89], [416500.35, 5654609.98], [416509.31, 5654604.53], [416498.83, 5654587.27], [416486.79, 5654594.58], [416487.44, 5654595.66], [416478.96, 5654600.79], [416478.31, 5654599.73]]]}}, {"type": "Feature", "properties": {"id": "DESNATGMzV0000Xh", "z": 129.72}, "geometry": {"type": "Polygon", "coordinates": [[[416246.91, 5654612.31], [416246.95, 5654612.37], [416251.72, 5654609.32], [416251.67, 5654609.25], [416260.17, 5654603.81], [416258.42, 5654601.07], [416259.93, 5654600.1], [416255.67, 5654593.44], [416254.15, 5654594.43], [416252.09, 5654591.23], [416246.92, 5654594.54], [416247.95, 5654596.14], [416236.56, 5654603.45], [416235.52, 5654601.84], [416230.34, 5654605.17], [416232.39, 5654608.38], [416230.87, 5654609.34], [416235.15, 5654615.98], [416236.65, 5654615.02], [416238.4, 5654617.76], [416246.91, 5654612.31]]]}}, {"type": "Feature", "properties": {"id": "DESNATGMzV0000YJ", "z": 127.52}, "geometry": {"type": "Polygon", "coordinates": [[[416816.0, 5654534.0], [416816.0, 5654532.0], [416814.0, 5654531.0], [416813.0, 5654528.0], [416809.0, 5654529.0], [416808.0, 5654531.0], [416806.0, 5654531.0], [416806.0, 5654528.39], [416799.11, 5654533.13], [416805.42, 5654548.24], [416815.48, 5654543.68], [416821.83, 5654538.65], [416820.01, 5654536.0], [416818.0, 5654536.0], [416816.0, 5654534.0]]]}}, {"type": "Feature", "properties": {"id": "DESNATGMzV0000YJ", "z": 124.82}, "geometry": {"type": "Polygon", "coordinates": [[[416808.0, 5654531.0], [416809.0, 5654529.0], [416813.0, 5654528.0], [416814.0, 5654531.0], [416816.0, 5654532.0], [416816.0, 5654534.0], [416818.0, 5654536.0], [416820.01, 5654536.0], [416811.97, 5654524.29], [416806.0, 5654528.39], [416806.0, 5654531.0], [416808.0, 5654531.0]]]}}, {"type": "Feature", "properties": {"id": "DESNATP15e0002AF", "z": 131.79}, "geometry": {"type": "Polygon", "coordinates": [[[416239.0, 5654881.0], [416241.0, 5654882.0], [416241.0, 5654883.0], [416242.0, 5654883.0], [416242.0, 5654886.0], [416244.0, 5654887.0], [416245.0, 5654891.0], [416247.0, 5654892.0], [416247.0, 5654894.0], [416249.0, 5654894.0], [416249.0, 5654894.09], [416249.61, 5654893.74], [416252.98, 5654891.82], [416258.34, 5654888.78], [416242.95, 5654861.86], [416237.68, 5654864.84], [416228.43, 5654870.08], [416230.61, 5654874.0], [416236.0, 5654874.0], [416239.0, 5654881.0]]]}}, {"type": "Feature", "properties": {"id": "DESNATP15e0002AF", "z": 128.89}, "geometry": {"type": "Polygon", "coordinates": [[[416247.0, 5654894.0], [416247.0, 5654892.0], [416245.0, 5654891.0], [416244.0, 5654887.0], [416242.0, 5654886.0], [416242.0, 5654883.0], [416241.0, 5654883.0], [416241.0, 5654885.0], [416237.0, 5654886.0], [416236.0, 5654888.0], [416234.0, 5654888.0], [416234.0, 5654891.0], [416235.0, 5654892.0], [416232.0, 5654894.0], [416230.0, 5654891.0], [416224.0, 5654893.0], [416223.0, 5654895.0], [416220.0, 5654895.0], [416219.0, 5654897.0], [416217.0, 5654897.0], [416216.0, 5654899.0], [416213.0, 5654899.0], [416211.0, 5654902.0], [416201.0, 5654906.0], [416200.0, 5654908.0], [416196.0, 5654909.0], [416195.0, 5654911.0], [416187.0, 5654914.0], [416186.0, 5654916.0], [416184.0, 5654916.0], [416180.0, 5654919.0], [416177.87, 5654919.0], [416178.37, 5654919.87], [416177.47, 5654920.39], [416183.6, 5654931.17], [416249.0, 5654894.09], [416249.0, 5654894.0], [416247.0, 5654894.0]]]}}, {"type": "Feature", "properties": {"id": "DESNATP15e0002AF", "z": 122.55}, "geometry": {"type": "Polygon", "coordinates": [[[416223.0, 5654880.0], [416226.0, 5654876.0], [416226.86, 5654876.0], [416223.7, 5654870.44], [416216.74, 5654874.4], [416216.63, 5654874.46], [416219.0, 5654880.0], [416223.0, 5654880.0]]]}}, {"type": "Feature", "properties": {"id": "DESNATP15e0002AF", "z": 119.61}, "geometry": {"type": "Polygon", "coordinates": [[[416223.0, 5654880.0], [416219.0, 5654880.0], [416216.63, 5654874.46], [416174.12, 5654898.55], [416173.92, 5654898.69], [416173.76, 5654898.83], [416173.6, 5654898.97], [416173.46, 5654899.12], [416173.33, 5654899.28], [416173.21, 5654899.46], [416173.1, 5654899.64], [416173.01, 5654899.82], [416172.92, 5654900.02], [416172.85, 5654900.25], [416172.79, 5654900.49], [416172.75, 5654900.7], [416172.73, 5654900.91], [416172.73, 5654901.11], [416172.74, 5654901.32], [416172.76, 5654901.53], [416172.8, 5654901.74], [416172.85, 5654901.94], [416172.92, 5654902.14], [416173.01, 5654902.37], [416173.44, 5654903.15], [416169.93, 5654905.11], [416177.87, 5654919.0], [416180.0, 5654919.0], [416184.0, 5654916.0], [416186.0, 5654916.0], [416187.0, 5654914.0], [416195.0, 5654911.0], [416196.0, 5654909.0], [416200.0, 5654908.0], [416201.0, 5654906.0], [416211.0, 5654902.0], [416213.0, 5654899.0], [416216.0, 5654899.0], [416217.0, 5654897.0], [416219.0, 5654897.0], [416220.0, 5654895.0], [416223.0, 5654895.0], [416224.0, 5654893.0], [416230.0, 5654891.0], [416232.0, 5654894.0], [416235.0, 5654892.0], [416234.0, 5654891.0], [416234.0, 5654888.0], [416236.0, 5654888.0], [416237.0, 5654886.0], [416241.0, 5654885.0], [416241.0, 5654882.0], [416239.0, 5654881.0], [416236.0, 5654874.0], [416230.61, 5654874.0], [416230.73, 5654874.21], [416228.0, 5654875.76], [416228.0, 5654876.0], [416227.58, 5654876.0], [416227.04, 5654876.31], [416226.86, 5654876.0], [416226.0, 5654876.0], [416223.0, 5654880.0]]]}}, {"type": "Feature", "properties": {"id": "DESNATP1Km0001cW", "z": 133.49}, "geometry": {"type": "Polygon", "coordinates": [[[416958.0, 5654420.0], [416962.0, 5654415.0], [416964.0, 5654415.0], [416965.0, 5654413.0], [416967.0, 5654413.0], [416968.0, 5654411.0], [416972.0, 5654410.0], [416972.0, 5654408.0], [416970.0, 5654408.0], [416969.0, 5654406.0], [416972.0, 5654404.0], [416972.0, 5654401.0], [416973.0, 5654399.0], [416976.0, 5654398.0], [416977.0, 5654396.0], [416979.0, 5654396.0], [416980.0, 5654394.0], [416982.0, 5654394.0], [416985.0, 5654390.0], [416991.0, 5654388.0], [416992.0, 5654391.0], [416994.0, 5654392.0], [416994.0, 5654394.0], [416997.0, 5654396.0], [416997.0, 5654398.0], [416999.0, 5654399.0], [416999.0, 5654401.0], [417001.0, 5654402.0], [417001.0, 5654404.0], [417003.0, 5654406.0], [417005.0, 5654406.0], [417005.0, 5654401.0], [417007.0, 5654399.0], [417011.0, 5654399.0], [417013.0, 5654401.0], [417016.0, 5654406.0], [417018.0, 5654405.0], [417018.0, 5654403.0], [417015.0, 5654401.0], [417014.0, 5654397.0], [417012.0, 5654396.0], [417012.0, 5654394.0], [417010.0, 5654393.0], [417009.0, 5654389.0], [417007.0, 5654389.0], [417007.0, 5654387.0], [417005.0, 5654386.0], [417005.0, 5654384.0], [417002.0, 5654382.0], [417002.0, 5654380.0], [417000.0, 5654378.0], [416998.0, 5654378.0], [416997.0, 5654380.0], [416995.0, 5654380.0], [416994.0, 5654382.0], [416992.0, 5654382.0], [416991.0, 5654384.0], [416987.0, 5654385.0], [416985.0, 5654388.0], [416983.0, 5654388.0], [416981.0, 5654391.0], [416979.0, 5654391.0], [416978.0, 5654393.0], [416976.0, 5654393.0], [416974.0, 5654396.0], [416972.0, 5654396.0], [416970.0, 5654399.0], [416966.0, 5654400.0], [416964.0, 5654403.0], [416962.0, 5654403.0], [416960.0, 5654406.0], [416956.0, 5654407.0], [416953.0, 5654411.0], [416951.0, 5654411.0], [416950.0, 5654413.0], [416948.0, 5654413.0], [416947.0, 5654415.0], [416944.0, 5654416.0], [416944.0, 5654419.0], [416946.0, 5654417.0], [416948.0, 5654417.0], [416949.0, 5654415.0], [416952.0, 5654415.0], [416952.0, 5654419.0], [416953.0, 5654421.0], [416956.0, 5654421.0], [416958.0, 5654420.0]], [[417002.0, 5654393.0], [417002.0, 5654391.0], [417000.0, 5654390.0], [417000.0, 5654388.0], [416998.0, 5654387.0], [416997.0, 5654385.0], [416997.0, 5654382.0], [417000.0, 5654383.0], [417000.0, 5654385.0], [417003.0, 5654387.0], [417003.0, 5654389.0], [417006.0, 5654391.0], [417006.0, 5654393.0], [417008.0, 5654394.0], [417008.0, 5654396.0], [417004.0, 5654396.0], [417004.0, 5654394.0], [417002.0, 5654393.0]]]}}, {"type": "Feature", "properties": {"id": "DESNATP1Km0001cW", "z": 130.82}, "geometry": {"type": "Polygon", "coordinates": [[[416962.42, 5654454.85], [417025.63, 5654410.17], [416999.94, 5654373.79], [416966.34, 5654397.56], [416937.06, 5654418.95], [416962.42, 5654454.85]], [[416980.25, 5654420.0], [416980.21, 5654420.03], [416980.19, 5654420.0], [416979.0, 5654420.0], [416978.0, 5654422.0], [416976.0, 5654422.0], [416975.0, 5654424.0], [416973.0, 5654424.0], [416971.0, 5654427.0], [416969.0, 5654427.0], [416968.0, 5654429.0], [416966.0, 5654429.0], [416964.0, 5654432.0], [416960.0, 5654432.0], [416960.0, 5654430.0], [416956.0, 5654427.0], [416956.0, 5654422.0], [416958.0, 5654422.0], [416959.0, 5654420.0], [416961.0, 5654420.0], [416963.0, 5654417.0], [416965.0, 5654417.0], [416966.0, 5654415.0], [416968.0, 5654415.0], [416969.0, 5654413.0], [416971.0, 5654413.0], [416972.0, 5654411.0], [416973.83, 5654411.0], [416973.31, 5654410.26], [416988.36, 5654399.62], [416995.26, 5654409.39], [416981.0, 5654419.47], [416981.0, 5654420.0], [416980.25, 5654420.0]], [[416952.0, 5654415.0], [416949.0, 5654415.0], [416948.0, 5654417.0], [416946.0, 5654417.0], [416944.0, 5654419.0], [416944.0, 5654416.0], [416947.0, 5654415.0], [416948.0, 5654413.0], [416950.0, 5654413.0], [416951.0, 5654411.0], [416953.0, 5654411.0], [416956.0, 5654407.0], [416960.0, 5654406.0], [416962.0, 5654403.0], [416964.0, 5654403.0], [416966.0, 5654400.0], [416970.0, 5654399.0], [416972.0, 5654396.0], [416974.0, 5654396.0], [416976.0, 5654393.0], [416978.0, 5654393.0], [416979.0, 5654391.0], [416981.0, 5654391.0], [416983.0, 5654388.0], [416985.0, 5654388.0], [416987.0, 5654385.0], [416991.0, 5654384.0], [416992.0, 5654382.0], [416994.0, 5654382.0], [416995.0, 5654380.0], [416997.0, 5654380.0], [416998.0, 5654378.0], [417000.0, 5654378.0], [417002.0, 5654380.0], [417002.0, 5654382.0], [417005.0, 5654384.0], [417005.0, 5654386.0], [417007.0, 5654387.0], [417007.0, 5654389.0], [417009.0, 5654389.0], [417010.0, 5654393.0], [417012.0, 5654394.0], [417012.0, 5654396.0], [417014.0, 5654397.0], [417015.0, 5654401.0], [417018.0, 5654403.0], [417018.0, 5654405.0], [417016.0, 5654406.0], [417013.0, 5654401.0], [417011.0, 5654399.0], [417007.0, 5654399.0], [417005.0, 5654401.0], [417005.0, 5654406.0], [417003.0, 5654406.0], [417001.0, 5654404.0], [417001.0, 5654402.0], [416999.0, 5654401.0], [416999.0, 5654399.0], [416997.0, 5654398.0], [416997.0, 5654396.0], [416994.0, 5654394.0], [416994.0, 5654392.0], [416992.0, 5654391.0], [416991.0, 5654388.0], [416985.0, 5654390.0], [416982.0, 5654394.0], [416980.0, 5654394.0], [416979.0, 5654396.0], [416977.0, 5654396.0], [416976.0, 5654398.0], [416973.0, 5654399.0], [416972.0, 5654401.0], [416972.0, 5654404.0], [416969.0, 5654406.0], [416970.0, 5654408.0], [416972.0, 5654408.0], [416972.0, 5654410.0], [416968.0, 5654411.0], [416967.0, 5654413.0], [416965.0, 5654413.0], [416964.0, 5654415.0], [416962.0, 5654415.0], [416958.0, 5654420.0], [416956.0, 5654421.0], [416953.0, 5654421.0], [416952.0, 5654419.0], [416952.0, 5654415.0]]]}}, {"type": "Feature", "properties": {"id": "DESNATP1Km0001cW", "z": 130.8}, "geometry": {"type": "Polygon", "coordinates": [[[417008.0, 5654394.0], [417006.0, 5654393.0], [417006.0, 5654391.0], [417003.0, 5654389.0], [417003.0, 5654387.0], [417000.0, 5654385.0], [417000.0, 5654383.0], [416997.0, 5654382.0], [416997.0, 5654385.0], [416998.0, 5654387.0], [417000.0, 5654388.0], [417000.0, 5654390.0], [417002.0, 5654391.0], [417002.0, 5654393.0], [417004.0, 5654394.0], [417004.0, 5654396.0], [417008.0, 5654396.0], [417008.0, 5654394.0]]]}}, {"type": "Feature", "properties": {"id": "DESNATP1Km0001cW", "z": 120.79}, "geometry": {"type": "Polygon", "coordinates": [[[416971.0, 5654413.0], [416969.0, 5654413.0], [416968.0, 5654415.0], [416966.0, 5654415.0], [416965.0, 5654417.0], [416963.0, 5654417.0], [416961.0, 5654420.0], [416959.0, 5654420.0], [416958.0, 5654422.0], [416956.0, 5654422.0], [416956.0, 5654427.0], [416960.0, 5654430.0], [416960.0, 5654432.0], [416964.0, 5654432.0], [416966.0, 5654429.0], [416968.0, 5654429.0], [416969.0, 5654427.0], [416971.0, 5654427.0], [416973.0, 5654424.0], [416975.0, 5654424.0], [416976.0, 5654422.0], [416978.0, 5654422.0], [416979.0, 5654420.0], [416980.19, 5654420.0], [416973.83, 5654411.0], [416972.0, 5654411.0], [416971.0, 5654413.0]]]}}, {"type": "Feature", "properties": {"id": "DESNATP1Km0001cb", "z": 120.74}, "geometry": {"type": "Polygon", "coordinates": [[[416931.08, 5654233.1], [416924.98, 5654237.44], [416925.07, 5654237.57], [416929.59, 5654243.98], [416951.24, 5654274.64], [416977.76, 5654255.85], [416951.61, 5654218.83], [416931.18, 5654233.25], [416931.08, 5654233.1]]]}}, {"type": "Feature", "properties": {"id": "DESNATP1Km0001cc", "z": 119.76}, "geometry": {"type": "Polygon", "coordinates": [[[416905.2, 5654251.61], [416909.73, 5654258.03], [416929.59, 5654243.98], [416925.07, 5654237.57], [416905.2, 5654251.61]]]}}, {"type": "Feature", "properties": {"id": "DESNATP1Xl0008Wa", "z": 125.9}, "geometry": {"type": "Polygon", "coordinates": [[[416559.49, 5654224.98], [416555.97, 5654238.48], [416561.9, 5654240.03], [416561.4, 5654241.95], [416566.42, 5654243.26], [416570.45, 5654227.84], [416559.49, 5654224.98]]]}}, {"type": "Feature", "properties": {"id": "DESNATP1Xl0008Z9", "z": 127.96}, "geometry": {"type": "Polygon", "coordinates": [[[417430.51, 5654135.19], [417441.57, 5654143.54], [417460.51, 5654118.46], [417460.68, 5654116.62], [417458.65, 5654111.62], [417455.87, 5654112.74], [417454.5, 5654113.3], [417451.89, 5654106.88], [417430.51, 5654135.19]]]}}, {"type": "Feature", "properties": {"id": "DESNATP1Xl0008hg", "z": 123.45}, "geometry": {"type": "Polygon", "coordinates": [[[416531.28, 5655951.28], [416521.7, 5655962.44], [416531.21, 5655970.62], [416540.8, 5655959.47], [416531.28, 5655951.28]]]}}, {"type": "Feature", "properties": {"id": "DESNATP1Xl0008hi", "z": 126.32}, "geometry": {"type": "Polygon", "coordinates": [[[416546.44, 5655966.74], [416538.2, 5655976.62], [416548.11, 5655984.89], [416556.35, 5655975.0], [416557.7, 5655973.38], [416547.79, 5655965.11], [416546.44, 5655966.74]]]}}, {"type": "Feature", "properties": {"id": "DESNATP1Xl0008hk", "z": 126.92}, "geometry": {"type": "Polygon", "coordinates": [[[416619.39, 5655965.38], [416612.88, 5655976.65], [416625.0, 5655983.65], [416631.51, 5655972.38], [416619.39, 5655965.38]]]}}, {"type": "Feature", "properties": {"id": "DESNATP1aK0000bu", "z": 129.72}, "geometry": {"type": "Polygon", "coordinates": [[[416216.39, 5654583.43], [416214.88, 5654584.4], [416219.14, 5654591.05], [416220.66, 5654590.08], [416222.41, 5654592.81], [416230.94, 5654587.35], [416230.98, 5654587.42], [416235.73, 5654584.37], [416235.68, 5654584.3], [416244.17, 5654578.86], [416242.42, 5654576.13], [416243.94, 5654575.17], [416239.67, 5654568.5], [416238.15, 5654569.47], [416236.09, 5654566.29], [416230.93, 5654569.62], [416231.95, 5654571.21], [416220.56, 5654578.52], [416219.53, 5654576.91], [416214.34, 5654580.24], [416216.39, 5654583.43]]]}}, {"type": "Feature", "properties": {"id": "DESNATP1aK0000bv", "z": 129.97}, "geometry": {"type": "Polygon", "coordinates": [[[416211.83, 5654610.15], [416209.57, 5654606.63], [416210.41, 5654606.09], [416210.16, 5654605.69], [416204.62, 5654609.25], [416198.62, 5654613.09], [416203.7, 5654620.96], [416204.54, 5654620.43], [416207.23, 5654624.64], [416212.36, 5654621.33], [416217.9, 5654617.76], [416212.67, 5654609.62], [416211.83, 5654610.15]]]}}, {"type": "Feature", "properties": {"id": "DESNATPU1000DLSj", "z": 126.84}, "geometry": {"type": "Polygon", "coordinates": [[[416103.0, 5655930.0], [416099.0, 5655930.0], [416099.0, 5655934.0], [416100.0, 5655934.0], [416100.0, 5655937.0], [416108.0, 5655937.0], [416108.0, 5655937.11], [416110.47, 5655935.41], [416108.13, 5655932.28], [416108.26, 5655932.2], [416107.47, 5655931.13], [416104.0, 5655932.0], [416103.0, 5655930.0]]]}}, {"type": "Feature", "properties": {"id": "DESNATPU1000DLSj", "z": 124.56}, "geometry": {"type": "Polygon", "coordinates": [[[416100.0, 5655943.0], [416103.0, 5655943.0], [416103.0, 5655943.13], [416107.69, 5655939.9], [416106.49, 5655938.15], [416108.0, 5655937.11], [416108.0, 5655937.0], [416100.0, 5655937.0], [416100.0, 5655934.0], [416099.0, 5655934.0], [416099.0, 5655930.0], [416103.0, 5655930.0], [416104.0, 5655932.0], [416107.47, 5655931.13], [416106.64, 5655930.01], [416105.03, 5655927.83], [416104.91, 5655927.92], [416102.61, 5655924.81], [416093.62, 5655931.48], [416097.71, 5655937.0], [416098.0, 5655937.0], [416098.0, 5655937.39], [416098.09, 5655937.51], [416098.0, 5655937.58], [416098.0, 5655941.0], [416100.0, 5655943.0]]]}}, {"type": "Feature", "properties": {"id": "DESNATPU1000DLSj", "z": 117.86}, "geometry": {"type": "Polygon", "coordinates": [[[416100.0, 5655943.0], [416098.0, 5655941.0], [416098.0, 5655937.58], [416092.65, 5655941.54], [416093.51, 5655942.69], [416096.25, 5655946.4], [416097.12, 5655947.54], [416102.74, 5655943.08], [416102.83, 5655943.25], [416103.0, 5655943.13], [416103.0, 5655943.0], [416100.0, 5655943.0]]]}}, {"type": "Feature", "properties": {"id": "DESNATPU1000Dm1m", "z": 125.03}, "geometry": {"type": "Polygon", "coordinates": [[[416582.0, 5655184.0], [416582.0, 5655187.0], [416585.0, 5655188.0], [416587.0, 5655191.0], [416589.0, 5655191.0], [416591.0, 5655194.0], [416593.0, 5655194.0], [416595.0, 5655191.0], [416595.0, 5655188.99], [416589.83, 5655185.03], [416585.88, 5655182.0], [416583.0, 5655182.0], [416582.0, 5655184.0]]]}}, {"type": "Feature", "properties": {"id": "DESNATPU1000Dm1m", "z": 122.14}, "geometry": {"type": "Polygon", "coordinates": [[[416593.0, 5655194.0], [416591.0, 5655194.0], [416589.0, 5655191.0], [416587.0, 5655191.0], [416585.0, 5655188.0], [416582.0, 5655187.0], [416582.0, 5655184.0], [416583.0, 5655182.0], [416585.88, 5655182.0], [416583.11, 5655179.87], [416577.36, 5655187.48], [416580.37, 5655189.73], [416591.78, 5655198.38], [416595.29, 5655193.65], [416597.39, 5655190.83], [416595.0, 5655188.99], [416595.0, 5655191.0], [416593.0, 5655194.0]]]}}, {"type": "Feature", "properties": {"id": "DESNATPU1000EINs", "z": 135.88}, "geometry": {"type": "Polygon", "coordinates": [[[417245.0, 5654604.0], [417247.0, 5654605.0], [417247.0, 5654605.79], [417247.07, 5654605.74], [417247.44, 5654606.34], [417249.0, 5654604.0], [417253.0, 5654603.0], [417255.0, 5654600.0], [417259.0, 5654599.0], [417260.0, 5654597.0], [417262.0, 5654597.0], [417263.0, 5654595.0], [417264.45, 5654595.0], [417264.42, 5654594.94], [417265.96, 5654593.99], [417263.0, 5654593.0], [417263.0, 5654590.69], [417262.11, 5654591.26], [417261.31, 5654589.98], [417260.0, 5654590.8], [417260.0, 5654591.0], [417259.0, 5654591.0], [417257.0, 5654592.0], [417256.0, 5654594.0], [417252.0, 5654595.0], [417251.0, 5654597.0], [417249.0, 5654597.0], [417247.0, 5654599.0], [417244.84, 5654599.0], [417245.44, 5654599.94], [417243.99, 5654600.85], [417244.72, 5654602.0], [417245.0, 5654602.0], [417245.0, 5654604.0]]]}}, {"type": "Feature", "properties": {"id": "DESNATPU1000EINs", "z": 133.13}, "geometry": {"type": "Polygon", "coordinates": [[[417249.0, 5654597.0], [417251.0, 5654597.0], [417252.0, 5654595.0], [417256.0, 5654594.0], [417257.0, 5654592.0], [417259.0, 5654591.0], [417256.0, 5654591.0], [417256.0, 5654589.0], [417254.0, 5654588.0], [417250.0, 5654582.0], [417245.0, 5654582.0], [417244.34, 5654580.68], [417242.4, 5654581.8], [417242.08, 5654581.32], [417240.68, 5654582.24], [417240.99, 5654582.76], [417240.7, 5654583.07], [417240.44, 5654583.4], [417240.21, 5654583.76], [417240.0, 5654584.12], [417239.82, 5654584.51], [417239.67, 5654584.9], [417239.55, 5654585.31], [417239.46, 5654585.72], [417239.4, 5654586.15], [417239.36, 5654586.57], [417239.34, 5654587.0], [417239.34, 5654587.42], [417239.36, 5654587.85], [417239.39, 5654588.27], [417239.43, 5654588.69], [417239.5, 5654589.11], [417239.58, 5654589.53], [417239.68, 5654589.95], [417239.79, 5654590.36], [417239.93, 5654590.76], [417240.07, 5654591.16], [417240.24, 5654591.56], [417240.41, 5654591.94], [417240.61, 5654592.32], [417244.84, 5654599.0], [417247.0, 5654599.0], [417249.0, 5654597.0]]]}}, {"type": "Feature", "properties": {"id": "DESNATPU1000EINs", "z": 131.57}, "geometry": {"type": "Polygon", "coordinates": [[[417250.0, 5654582.0], [417254.0, 5654588.0], [417256.0, 5654589.0], [417256.0, 5654591.0], [417260.0, 5654591.0], [417260.0, 5654590.8], [417259.87, 5654590.89], [417255.1, 5654583.34], [417254.83, 5654582.97], [417254.55, 5654582.62], [417254.24, 5654582.28], [417253.93, 5654581.96], [417253.6, 5654581.65], [417253.25, 5654581.36], [417252.89, 5654581.09], [417252.52, 5654580.83], [417252.14, 5654580.59], [417251.74, 5654580.37], [417251.34, 5654580.17], [417250.92, 5654579.98], [417250.5, 5654579.82], [417250.07, 5654579.67], [417249.64, 5654579.55], [417249.2, 5654579.44], [417248.84, 5654579.36], [417248.48, 5654579.31], [417248.12, 5654579.27], [417247.75, 5654579.26], [417247.39, 5654579.28], [417247.02, 5654579.32], [417246.66, 5654579.38], [417246.31, 5654579.47], [417245.97, 5654578.96], [417244.64, 5654579.77], [417244.96, 5654580.31], [417244.4, 5654580.64], [417244.34, 5654580.68], [417245.0, 5654582.0], [417250.0, 5654582.0]]]}}, {"type": "Feature", "properties": {"id": "DESNATPU1000EINs", "z": 121.92}, "geometry": {"type": "Polygon", "coordinates": [[[417262.0, 5654597.0], [417260.0, 5654597.0], [417259.0, 5654599.0], [417255.0, 5654600.0], [417253.0, 5654603.0], [417249.0, 5654604.0], [417247.44, 5654606.34], [417249.13, 5654609.02], [417251.49, 5654607.54], [417251.68, 5654605.15], [417252.36, 5654605.02], [417253.05, 5654604.85], [417253.61, 5654604.69], [417254.17, 5654604.5], [417254.72, 5654604.29], [417255.27, 5654604.06], [417255.8, 5654603.81], [417256.33, 5654603.54], [417256.84, 5654603.25], [417257.34, 5654602.94], [417257.83, 5654602.61], [417258.07, 5654602.43], [417258.3, 5654602.26], [417258.76, 5654601.89], [417259.21, 5654601.5], [417259.64, 5654601.1], [417260.06, 5654600.68], [417260.45, 5654600.24], [417260.83, 5654599.79], [417261.08, 5654599.49], [417261.31, 5654599.17], [417261.54, 5654598.86], [417261.76, 5654598.53], [417263.93, 5654599.62], [417266.39, 5654598.08], [417264.45, 5654595.0], [417263.0, 5654595.0], [417262.0, 5654597.0]]]}}, {"type": "Feature", "properties": {"id": "DESNATPU1000EINs", "z": 120.22}, "geometry": {"type": "Polygon", "coordinates": [[[417245.0, 5654604.0], [417245.0, 5654602.0], [417244.72, 5654602.0], [417244.94, 5654602.35], [417236.04, 5654607.93], [417233.89, 5654604.51], [417228.38, 5654607.98], [417240.51, 5654627.31], [417246.02, 5654623.85], [417253.57, 5654619.21], [417262.62, 5654633.54], [417269.87, 5654628.84], [417270.29, 5654628.86], [417270.71, 5654628.84], [417271.12, 5654628.79], [417271.52, 5654628.7], [417271.92, 5654628.58], [417272.31, 5654628.43], [417272.68, 5654628.24], [417273.03, 5654628.01], [417273.36, 5654627.76], [417273.67, 5654627.48], [417273.74, 5654627.4], [417273.95, 5654627.18], [417274.2, 5654626.85], [417274.43, 5654626.5], [417274.62, 5654626.13], [417274.78, 5654625.75], [417274.91, 5654625.35], [417276.77, 5654624.23], [417282.96, 5654620.62], [417273.98, 5654606.28], [417281.57, 5654601.51], [417271.46, 5654585.39], [417263.0, 5654590.69], [417263.0, 5654593.0], [417265.96, 5654593.99], [417268.03, 5654592.71], [417273.91, 5654602.09], [417268.69, 5654605.36], [417277.6, 5654619.57], [417273.19, 5654622.34], [417272.82, 5654622.46], [417272.45, 5654622.58], [417272.08, 5654622.72], [417271.72, 5654622.88], [417271.37, 5654623.04], [417271.09, 5654623.18], [417271.02, 5654623.21], [417270.68, 5654623.4], [417270.34, 5654623.6], [417270.01, 5654623.81], [417269.68, 5654624.03], [417269.37, 5654624.25], [417269.06, 5654624.49], [417268.76, 5654624.74], [417268.47, 5654625.0], [417268.18, 5654625.27], [417267.91, 5654625.55], [417263.84, 5654628.13], [417254.8, 5654614.08], [417249.31, 5654617.52], [417243.52, 5654608.0], [417247.0, 5654605.79], [417247.0, 5654605.0], [417245.0, 5654604.0]]]}}, {"type": "Feature", "properties": {"id": "DESNATPU1000Emrh", "z": 131.33}, "geometry": {"type": "Polygon", "coordinates": [[[416518.0, 5654027.0], [416514.0, 5654027.0], [416514.0, 5654020.0], [416513.32, 5654020.0], [416513.02, 5654021.13], [416511.33, 5654020.69], [416511.23, 5654021.08], [416511.64, 5654021.18], [416511.21, 5654022.8], [416509.17, 5654022.27], [416508.32, 5654025.49], [416510.37, 5654026.02], [416509.95, 5654027.64], [416509.65, 5654027.57], [416509.56, 5654027.92], [416511.1, 5654028.32], [416502.14, 5654062.64], [416501.84, 5654062.57], [416501.72, 5654063.02], [416505.78, 5654064.08], [416509.96, 5654065.17], [416510.09, 5654064.69], [416509.67, 5654064.58], [416512.23, 5654054.76], [416512.56, 5654053.51], [416513.18, 5654051.15], [416516.83, 5654037.17], [416517.5, 5654034.58], [416517.75, 5654033.63], [416520.0, 5654025.0], [416518.0, 5654025.0], [416518.0, 5654027.0]]]}}, {"type": "Feature", "properties": {"id": "DESNATPU1000Emrh", "z": 129.15}, "geometry": {"type": "Polygon", "coordinates": [[[416518.0, 5654011.0], [416521.0, 5654011.0], [416521.0, 5654012.0], [416523.4, 5654012.0], [416524.92, 5654006.17], [416525.27, 5654006.26], [416525.37, 5654005.9], [416521.27, 5654004.83], [416517.1, 5654003.74], [416516.99, 5654004.15], [416517.43, 5654004.26], [416515.93, 5654010.0], [416518.0, 5654010.0], [416518.0, 5654011.0]]]}}, {"type": "Feature", "properties": {"id": "DESNATPU1000Emrh", "z": 127.53}, "geometry": {"type": "Polygon", "coordinates": [[[416521.0, 5654011.0], [416518.0, 5654011.0], [416518.0, 5654010.0], [416515.93, 5654010.0], [416513.32, 5654020.0], [416514.0, 5654020.0], [416514.0, 5654027.0], [416518.0, 5654027.0], [416518.0, 5654025.0], [416520.0, 5654025.0], [416521.37, 5654019.76], [416521.62, 5654018.8], [416522.36, 5654015.96], [416523.4, 5654012.0], [416521.0, 5654012.0], [416521.0, 5654011.0]]]}}, {"type": "Feature", "properties": {"id": "DESNATPU1000GtiX", "z": 133.06}, "geometry": {"type": "Polygon", "coordinates": [[[416032.1, 5654617.37], [416035.3, 5654615.54], [416035.52, 5654615.9], [416040.07, 5654613.32], [416039.87, 5654612.95], [416043.23, 5654611.04], [416036.28, 5654598.84], [416025.15, 5654605.18], [416032.1, 5654617.37]]]}}, {"type": "Feature", "properties": {"id": "DESNATPU1000HCCK", "z": 129.2}, "geometry": {"type": "Polygon", "coordinates": [[[416087.74, 5654985.82], [416087.76, 5654985.62], [416090.86, 5654983.86], [416090.69, 5654983.56], [416098.13, 5654979.33], [416098.36, 5654979.73], [416103.48, 5654976.72], [416097.89, 5654967.21], [416093.94, 5654969.53], [416093.26, 5654968.36], [416087.98, 5654971.46], [416086.83, 5654971.24], [416085.59, 5654969.52], [416077.76, 5654975.13], [416083.18, 5654982.09], [416082.87, 5654982.27], [416084.98, 5654985.13], [416084.95, 5654985.31], [416087.74, 5654985.82]]]}}, {"type": "Feature", "properties": {"id": "DESNATPU1000I1Ze", "z": 118.27}, "geometry": {"type": "Polygon", "coordinates": [[[416589.34, 5654016.79], [416580.13, 5654014.41], [416573.86, 5654038.56], [416583.45, 5654041.04], [416583.53, 5654040.71], [416583.02, 5654040.58], [416589.05, 5654017.17], [416589.23, 5654017.22], [416589.34, 5654016.79]]]}}, {"type": "Feature", "properties": {"id": "DESNATPU1000IYb5", "z": 127.76}, "geometry": {"type": "Polygon", "coordinates": [[[416545.52, 5654273.99], [416545.43, 5654274.33], [416553.93, 5654276.46], [416554.01, 5654276.12], [416557.75, 5654277.06], [416558.8, 5654272.88], [416559.19, 5654272.98], [416560.64, 5654267.22], [416560.25, 5654267.12], [416561.12, 5654263.67], [416556.26, 5654262.45], [416556.36, 5654262.06], [416549.69, 5654260.38], [416549.59, 5654260.77], [416545.52, 5654259.74], [416544.65, 5654263.2], [416544.2, 5654263.09], [416542.75, 5654268.84], [416543.2, 5654268.96], [416542.15, 5654273.14], [416545.52, 5654273.99]]]}}, {"type": "Feature", "properties": {"id": "DESNATPU1000IbB6", "z": 131.89}, "geometry": {"type": "Polygon", "coordinates": [[[416129.0, 5655216.0], [416132.0, 5655215.0], [416132.0, 5655212.0], [416131.0, 5655212.0], [416131.0, 5655209.0], [416128.0, 5655209.0], [416124.0, 5655212.0], [416126.0, 5655217.0], [416129.0, 5655217.0], [416129.0, 5655216.0]]]}}, {"type": "Feature", "properties": {"id": "DESNATPU1000IbB6", "z": 129.71}, "geometry": {"type": "Polygon", "coordinates": [[[416120.3, 5655208.48], [416116.08, 5655211.33], [416118.68, 5655215.18], [416118.29, 5655215.44], [416122.47, 5655221.63], [416122.86, 5655221.35], [416125.48, 5655225.23], [416129.68, 5655222.39], [416130.02, 5655222.89], [416136.06, 5655218.82], [416135.71, 5655218.29], [416140.43, 5655215.17], [416137.5, 5655210.74], [416136.22, 5655211.58], [416132.93, 5655206.65], [416134.01, 5655205.93], [416130.9, 5655201.33], [416126.95, 5655203.99], [416126.53, 5655203.41], [416119.9, 5655207.89], [416120.3, 5655208.48]], [[416128.0, 5655209.0], [416131.0, 5655209.0], [416131.0, 5655212.0], [416132.0, 5655212.0], [416132.0, 5655215.0], [416129.0, 5655216.0], [416129.0, 5655217.0], [416126.0, 5655217.0], [416124.0, 5655212.0], [416128.0, 5655209.0]]]}}, {"type": "Feature", "properties": {"id": "DESNATPU1000JSol", "z": 149.15}, "geometry": {"type": "Polygon", "coordinates": [[[417795.0, 5655144.0], [417792.0, 5655148.0], [417788.0, 5655148.0], [417787.0, 5655149.0], [417786.0, 5655147.0], [417783.0, 5655147.0], [417782.0, 5655150.0], [417785.0, 5655151.0], [417786.0, 5655153.0], [417792.0, 5655155.0], [417794.0, 5655153.0], [417794.0, 5655151.0], [417796.0, 5655150.0], [417797.0, 5655147.0], [417799.95, 5655147.0], [417799.66, 5655145.68], [417799.24, 5655145.41], [417797.0, 5655143.97], [417797.0, 5655144.0], [417795.0, 5655144.0]]]}}, {"type": "Feature", "properties": {"id": "DESNATPU1000JSol", "z": 147.45}, "geometry": {"type": "Polygon", "coordinates": [[[417796.0, 5655150.0], [417794.0, 5655151.0], [417794.0, 5655153.0], [417792.0, 5655155.0], [417786.0, 5655153.0], [417785.0, 5655151.0], [417782.0, 5655150.0], [417783.0, 5655147.0], [417786.0, 5655147.0], [417787.0, 5655149.0], [417788.0, 5655148.0], [417792.0, 5655148.0], [417795.0, 5655144.0], [417797.0, 5655144.0], [417797.0, 5655143.97], [417792.79, 5655141.26], [417790.67, 5655144.53], [417786.79, 5655145.34], [417783.52, 5655143.26], [417782.75, 5655144.47], [417779.77, 5655149.14], [417779.2, 5655150.05], [417779.45, 5655151.39], [417783.75, 5655154.14], [417785.12, 5655155.01], [417790.46, 5655158.42], [417790.89, 5655160.33], [417791.57, 5655160.74], [417792.96, 5655160.45], [417793.81, 5655159.16], [417793.55, 5655158.04], [417794.28, 5655156.89], [417793.79, 5655156.57], [417799.95, 5655147.0], [417797.0, 5655147.0], [417796.0, 5655150.0]]]}}, {"type": "Feature", "properties": {"id": "DESNATPU1000JZKr", "z": 133.04}, "geometry": {"type": "Polygon", "coordinates": [[[416025.15, 5654605.18], [416019.66, 5654608.3], [416018.52, 5654606.29], [416012.78, 5654609.55], [416014.39, 5654612.35], [416012.88, 5654613.21], [416014.15, 5654615.44], [416017.17, 5654620.73], [416018.39, 5654622.86], [416019.88, 5654622.01], [416021.45, 5654624.75], [416027.3, 5654621.41], [416026.74, 5654620.42], [416032.1, 5654617.37], [416025.15, 5654605.18]]]}}, {"type": "Feature", "properties": {"id": "UUID_0cf30454-3a1a-4607-b856-5c35a39245c9", "z": 122.54}, "geometry": {"type": "Polygon", "coordinates": [[[416435.87, 5654987.71], [416427.79, 5654979.69], [416410.62, 5654962.64], [416400.41, 5654972.75], [416416.98, 5654989.2], [416425.75, 5654997.9], [416435.87, 5654987.71]]]}}, {"type": "Feature", "properties": {"id": "UUID_20c9a1a6-c575-41ec-9933-e5a48c80fb69", "z": 130.2}, "geometry": {"type": "Polygon", "coordinates": [[[416180.64, 5654566.18], [416171.74, 5654571.27], [416176.88, 5654579.31], [416179.19, 5654582.92], [416180.12, 5654584.37], [416191.68, 5654576.96], [416190.94, 5654575.8], [416183.67, 5654564.45], [416180.64, 5654566.2], [416180.64, 5654566.18]]]}}, {"type": "Feature", "properties": {"id": "UUID_290953b7-fdfa-408b-a6ab-939274bee9ab", "z": 126.55}, "geometry": {"type": "Polygon", "coordinates": [[[416617.83, 5655933.03], [416619.38, 5655930.58], [416621.27, 5655927.59], [416625.82, 5655920.39], [416611.99, 5655912.07], [416607.88, 5655918.91], [416601.64, 5655929.28], [416604.84, 5655931.2], [416615.09, 5655937.37], [416617.83, 5655933.03]]]}}, {"type": "Feature", "properties": {"id": "UUID_45fd2186-ee0e-4247-bc46-ce96fb34d201", "z": 165.08}, "geometry": {"type": "Polygon", "coordinates": [[[417599.0, 5655731.0], [417599.0, 5655725.09], [417598.34, 5655726.11], [417597.52, 5655725.56], [417596.18, 5655724.65], [417595.47, 5655724.31], [417594.64, 5655724.22], [417593.85, 5655724.27], [417593.11, 5655724.54], [417592.44, 5655725.0], [417591.92, 5655725.62], [417591.54, 5655726.39], [417591.36, 5655727.23], [417591.49, 5655728.02], [417592.22, 5655729.44], [417596.58, 5655732.26], [417597.0, 5655731.0], [417599.0, 5655731.0]]]}}, {"type": "Feature", "properties": {"id": "UUID_45fd2186-ee0e-4247-bc46-ce96fb34d201", "z": 162.26}, "geometry": {"type": "Polygon", "coordinates": [[[417597.0, 5655731.0], [417596.58, 5655732.26], [417607.66, 5655739.41], [417607.67, 5655739.4], [417607.96, 5655739.59], [417611.34, 5655734.48], [417612.24, 5655733.12], [417611.99, 5655733.02], [417612.16, 5655732.67], [417598.61, 5655724.0], [417598.54, 5655724.0], [417598.37, 5655724.24], [417599.16, 5655724.84], [417599.0, 5655725.09], [417599.0, 5655731.0], [417597.0, 5655731.0]]]}}, {"type": "Feature", "properties": {"id": "UUID_602b3ace-5596-4eff-97c5-65b072b8fa17", "z": 130.61}, "geometry": {"type": "Polygon", "coordinates": [[[416902.45, 5654382.82], [416920.89, 5654408.89], [416926.94, 5654404.62], [416927.81, 5654394.84], [416928.25, 5654389.89], [416916.32, 5654373.02], [416902.45, 5654382.82]]]}}, {"type": "Feature", "properties": {"id": "UUID_71be63e4-28fb-4e90-a375-7b443cb6ec50", "z": 130.63}, "geometry": {"type": "Polygon", "coordinates": [[[416927.81, 5654394.84], [416926.94, 5654404.62], [416944.59, 5654391.51], [416940.74, 5654386.06], [416938.38, 5654382.73], [416928.25, 5654389.89], [416927.81, 5654394.84]]]}}, {"type": "Feature", "properties": {"id": "UUID_769c7d31-c14c-429a-b980-ca32df661d80", "z": 132.13}, "geometry": {"type": "Polygon", "coordinates": [[[417543.0, 5654324.0], [417544.0, 5654322.0], [417552.0, 5654315.0], [417552.0, 5654312.0], [417549.0, 5654312.0], [417549.0, 5654313.0], [417540.0, 5654321.0], [417540.0, 5654324.0], [417543.0, 5654325.0], [417543.0, 5654324.0]]]}}, {"type": "Feature", "properties": {"id": "UUID_769c7d31-c14c-429a-b980-ca32df661d80", "z": 129.4, "surface": {"x": 417534.0, "y": 5654330.0, "res": 1.0, "cols": 38, "rows": 39, "dz": [220, 229, 239, 189, 187, 184, 181, 177, 172, 166, 161, 157, 154, 153, 150, 147, 145, 147, 147, 148, 147, 111, 107, 52, 46, -129, -137, -225, -233, -280, -285, -225, -227, -92, -92, -97, -98, -123, 213, 223, 234, 245, 190, 187, 184, 179, 175, 170, 164, 159, 156, 155, 152, 149, 150, 148, 148, 147, 111, 107, 52, 45, -129, -139, -225, -235, -280, -285, -225, -227, -92, -92, -97, -98, -123, -125, 204, 215, 227, 241, 254, 191, 188, 182, 177, 173, 167, 161, 158, 157, 154, 153, 151, 150, 148, 111, 105, 52, 44, -129, -140, -225, -236, -280, -286, -225, -227, -92, -92, -97, -98, -123, -125, -127, 192, 204, 218, 234, 251, 264, 191, 186, 181, 175, 170, 164, 160, 157, 156, 154, 153, 151, 124, 109, 52, 41, -129, -143, -225, -238, -280, -287, -225, -227, -92, -92, -97, -98, -123, -125, -127, -129, 177, 189, 204, 217, 228, 239, 194, 189, 184, 179, 174, 168, 162, 158, 156, 156, 154, 140, 124, 81, 49, -129, -146, -225, -241, -280, -288, -225, -228, -92, -93, -97, -99, -123, -125, -127, -129, -131, 159, 169, 180, 191, 202, 213, 224, 190, 185, 180, 177, 171, 165, 159, 157, 156, 155, 140, 115, 83, -80, -133, -225, -245, -280, -290, -225, -228, -92, -93, -97, -99, -123, -126, -128, -130, -131, -133, 107, 144, 155, 166, 177, 187, 198, 209, 188, 183, 179, 175, 168, 162, 158, 156, 155, 150, 118, -21, -74, -163, -228, -280, -292, -225, -228, -92, -93, -97, -99, -123, -126, -128, -131, -132, -134, -135, 103, 107, 123, 140, 151, 162, 173, 184, 191, 186, 180, 177, 171, 164, 159, 157, 154, 147, 37, -16, -88, -153, -208, -269, -225, -229, -92, -93, -97, -99, -123, -126, -129, -131, -133, -134, -135, -274, 89, 98, 101, 112, 116, 138, 146, 148, 157, 188, 183, 178, 173, 167, 161, 158, 155, 148, 131, -14, -78, -121, -183, -172, -211, -92, -93, -97, -99, -123, -127, -130, -132, -134, -135, -256, -274, -274, 86, 88, 92, 95, 100, 111, 122, 131, 139, 148, 185, 180, 174, 169, 163, 159, 156, 151, 136, -17, -35, -96, -107, -146, -78, -89, -97, -100, -123, -128, -131, -134, -135, -137, -256, -274, -274, -275, 84, 85, 87, 86, 90, 97, 106, 118, 127, 136, 145, 181, 175, 169, 164, 160, 156, 152, 141, -10, -34, -42, -81, -61, -72, -83, -96, -123, -129, -133, -135, -137, -254, -256, -274, -274, -275, -275, 81, 83, 84, 85, 86, 89, 96, 106, 118, 127, 136, 145, 175, 169, 163, 160, 157, 154, 146, 122, -29, -41, -45, -56, -66, -78, -104, -124, -135, -138, -139, -254, -257, -274, -274, -275, -275, -260, 82, 83, 84, 84, 84, 86, 89, 96, 106, 118, 127, 136, 145, 168, 163, 159, 157, 155, 149, 132, -22, -38, -44, -48, -61, -81, -102, -122, -140, -216, -254, -257, -274, -274, -275, -275, -260, -258, 83, 84, 84, 84, 84, 84, 86, 89, 96, 106, 118, 127, 136, 145, 163, 159, 156, 155, 150, 134, -4, -30, -42, -51, -59, -79, -99, -177, -207, -254, -258, -274, -274, -275, -275, -260, -258, -231, 83, 83, 84, 84, 84, 84, 84, 86, 89, 96, 106, 118, 127, 137, 147, 162, 159, 157, 152, 136, 88, -9, -34, -52, -69, -96, -140, -170, -215, -245, -274, -274, -275, -274, -260, -257, -231, -228, 83, 83, 83, 84, 84, 84, 84, 84, 86, 89, 96, 106, 118, 128, 144, 158, 174, 166, 163, 145, 105, 39, -18, -48, -77, -103, -133, -168, -198, -231, -259, -275, -274, -260, -257, -231, -227, -196, 82, 83, 83, 83, 83, 84, 84, 83, 84, 85, 89, 96, 106, 118, 133, 167, 217, 210, 195, 166, 124, 70, 13, -32, -72, -103, -121, -151, -179, -207, -233, -258, -260, -255, -231, -226, -196, -191, 82, 83, 82, 83, 81, 81, 82, 80, 79, 80, 83, 87, 95, 106, 123, 151, 209, 232, 229, 203, 159, 108, 55, 4, -44, -86, -112, -127, -155, -181, -206, -221, -241, -231, -224, -196, -190, -178, 82, 82, 82, 78, 78, 47, 51, 67, 64, 68, 74, 78, 83, 92, 110, 149, 202, 236, 245, 234, 203, 155, 102, 51, 0, -49, -91, -116, -129, -155, -175, -194, -197, -210, -196, -188, -178, -173, 82, 82, 76, 75, 13, -88, -82, -77, -80, -72, 47, 58, 63, 71, 89, 127, 178, 221, 244, 248, 235, 201, 152, 100, 49, -2, -53, -93, -117, -128, -147, -156, -168, -164, -174, -178, -171, -189, 82, 76, 75, -158, -155, -149, -144, -138, -100, -98, -90, -72, 12, 31, 52, 88, 137, 187, 227, 247, 249, 234, 199, 150, 98, 47, -4, -55, -93, -111, -114, -127, -125, -135, -145, -158, -189, -186, 76, -175, -188, -206, -216, -210, -205, -180, -159, -107, -104, -98, -84, -60, -7, 40, 89, 140, 190, 229, 248, 250, 234, 197, 147, 95, 44, -7, -54, -83, -90, -86, -96, -105, -118, -151, -171, -251, -194, -206, -222, -242, -266, -272, -261, -239, -172, -146, -110, -109, -105, -92, -60, -12, 40, 90, 142, 192, 231, 249, 250, 233, 195, 144, 93, 42, -7, -45, -62, -67, -66, -79, -105, -125, -194, -221, -218, -231, -247, -266, -286, -328, -320, -236, -210, -152, -135, -118, -120, -116, -98, -59, -10, 41, 93, 144, 194, 232, 250, 250, 232, 193, 142, 91, 42, 0, -32, -49, -56, -59, -79, -125, -153, -180, -237, -251, -266, -282, -328, -340, -290, -275, -193, -176, -147, -139, -138, -142, -134, -105, -58, -8, 43, 94, 146, 196, 233, 250, 249, 229, 190, 141, 93, 54, 23, -24, -44, -53, -57, -84, -112, -139, -253, -266, -279, -328, -338, -290, -293, -227, -218, -177, -169, -173, -164, -166, -163, -144, -106, -57, -6, 46, 97, 148, 197, 233, 249, 247, 227, 189, 143, 106, 87, 67, -19, -40, -50, -74, -99, -123, -266, -277, -328, -336, -290, -293, -227, -229, -201, -198, -209, -200, -207, -194, -180, -169, -145, -105, -55, -4, 47, 98, 149, 199, 233, 247, 244, 224, 190, 154, 132, 120, 110, 96, 74, -25, -49, -73, -276, -328, -335, -290, -292, -227, -229, -201, -206, -238, -235, -248, -236, -226, -207, -181, -168, -143, -102, -52, -1, 49, 100, 152, 200, 232, 242, 236, 219, 196, 166, 146, 133, 105, 128, 106, 0, -24, -328, -334, -290, -292, -227, -229, -201, -205, -238, -244, -282, -277, -273, -254, -233, -208, -179, -165, -140, -100, -51, 0, 51, 103, 154, 199, 224, 230, 225, 215, 197, 168, 152, 145, 118, 161, 139, 21, -333, -290, -292, -227, -229, -201, -204, -238, -243, -282, -288, -312, -301, -285, -260, -233, -205, -177, -162, -136, -95, -48, 2, 56, 108, 153, 189, 208, 217, 218, 212, 194, 171, 154, 158, 130, 187, 156, -290, -292, -227, -229, -201, -204, -238, -242, -282, -287, -312, -314, -328, -312, -287, -259, -229, -200, -171, -153, -122, -85, -45, 11, 73, 115, 146, 179, 200, 212, 207, 193, 175, 173, 157, 168, 140, 187, -291, -227, -229, -201, -203, -238, -242, -282, -286, -312, -314, -328, -327, -332, -313, -281, -252, -218, -189, -154, -129, -101, -76, -44, 53, 96, 121, 146, 178, 191, 187, 181, 173, 155, 175, 161, 168, 146, -227, -228, -201, -203, -238, -241, -282, -285, -312, -314, -328, -327, -332, -329, -324, -305, -265, -236, -196, -165, -124, -105, -89, -69, 35, 88, 109, 125, 150, 168, 181, 162, 156, 157, 151, 175, 164, 168, -228, -201, -203, -238, -241, -282, -285, -312, -314, -328, -328, -332, -330, -324, -321, -305, -283, -237, -207, -160, -132, -102, -93, -82, -58, 82, 101, 140, 136, 161, 159, 172, 141, 147, 157, 152, 175, 166, -201, -203, -238, -241, -282, -285, -312, -314, -328, -328, -332, -330, -324, -322, -305, -298, -272, -248, -196, -168, -132, -110, -94, -88, -76, 70, 125, 114, 152, 147, 171, 151, 165, 141, 146, 157, 153, 175, -203, -238, -240, -282, -284, -312, -313, -328, -328, -332, -331, -324, -323, -305, -300, -272, -263, -226, -204, -162, -140, -138, -113, -91, -85, -33, 106, 161, 126, 165, 156, 171, 151, 162, 141, 145, 157, 154, -238, -240, -282, -284, -312, -313, -328, -328, -332, -331, -324, -323, -305, -301, -272, -265, -226, -217, -187, -170, -183, -157, -161, -118, -108, -57, -5, 141, 197, 136, 162, 156, 168, 151, 160, 141, 144, 157, -240, -282, -284, -312, -313, -328, -328, -332, -331, -324, -323, -305, -302, -272, -266, -226, -219, -187, -180, -219, -202, -231, -189, -146, -132, -80, -29, 22, 171, 200, 136, 156, 156, 165, 151, 159, 141, 143, -282, -284, -312, -313, -328, -328, -332, -331, -324, -323, -305, -302, -272, -267, -226, -220, -187, -182, -219, -216, -289, -259, -216, -173, -156, -104, -53, -6, 23, 171, 194, 136, 153, 156, 164, 151, 158, 141]}}, "geometry": {"type": "Polygon", "coordinates": [[[417539.0, 5654321.0], [417540.0, 5654323.0], [417540.0, 5654321.0], [417549.0, 5654313.0], [417549.0, 5654312.0], [417552.0, 5654312.0], [417552.0, 5654315.0], [417544.0, 5654322.0], [417543.0, 5654324.0], [417543.0, 5654326.0], [417545.0, 5654328.0], [417547.45, 5654328.0], [417569.58, 5654305.03], [417563.78, 5654299.45], [417557.74, 5654293.63], [417557.21, 5654294.17], [417557.22, 5654294.18], [417536.0, 5654316.2], [417536.0, 5654319.0], [417539.0, 5654321.0]]]}}, {"type": "Feature", "properties": {"id": "UUID_769c7d31-c14c-429a-b980-ca32df661d80", "z": 125.98}, "geometry": {"type": "Polygon", "coordinates": [[[417530.0, 5654339.0], [417529.0, 5654336.0], [417526.0, 5654336.0], [417526.0, 5654337.0], [417523.0, 5654339.0], [417523.0, 5654341.77], [417525.0, 5654343.7], [417525.0, 5654342.0], [417530.0, 5654339.0]]]}}, {"type": "Feature", "properties": {"id": "UUID_769c7d31-c14c-429a-b980-ca32df661d80", "z": 123.76, "surface": {"x": 417519.0, "y": 5654350.0, "res": 1.0, "cols": 31, "rows": 36, "dz": [125, 124, 120, 118, 100, 91, 213, 176, 132, 89, -52, -108, -164, -209, -225, -284, -298, -352, -362, -303, -307, -310, -311, -312, -312, -312, -229, -232, -268, -270, -298, 126, 125, 124, 120, 118, 100, 90, 180, 137, 93, -41, -97, -153, -210, -284, -301, -352, -364, -303, -308, -310, -312, -312, -312, -208, -229, -232, -268, -270, -298, -299, 127, 126, 125, 124, 120, 117, 104, 95, 141, 97, -30, -86, -142, -217, -282, -352, -366, -303, -309, -311, -312, -312, -311, -209, -229, -233, -268, -271, -298, -300, -317, 151, 127, 127, 125, 123, 119, 116, 109, 100, 101, -19, -75, -135, -200, -270, -341, -303, -310, -312, -312, -311, -206, -209, -229, -233, -268, -271, -298, -300, -317, -318, 146, 156, 128, 126, 124, 122, 119, 116, 114, 108, 91, -54, -119, -172, -243, -237, -288, -312, -311, -309, -206, -209, -229, -234, -268, -271, -298, -300, -317, -318, -324, 138, 151, 164, 127, 125, 123, 120, 118, 116, 111, 97, -56, -74, -145, -159, -210, -261, -305, -202, -206, -210, -229, -234, -268, -272, -298, -300, -317, -318, -324, -324, 128, 139, 148, 158, 126, 123, 121, 119, 117, 113, 102, -48, -73, -80, -131, -182, -165, -190, -206, -211, -229, -235, -268, -273, -298, -300, -317, -318, -324, -324, -321, 103, 121, 131, 141, 127, 124, 122, 120, 118, 115, 107, 83, -68, -79, -125, -124, -149, -172, -200, -229, -237, -268, -273, -298, -301, -317, -318, -324, -324, -321, -320, 89, 97, 114, 124, 134, 125, 123, 121, 118, 115, 110, 92, -60, -76, -83, -108, -131, -159, -196, -227, -268, -275, -298, -301, -317, -318, -324, -324, -321, -320, -305, 74, 83, 91, 107, 116, 126, 123, 122, 118, 115, 109, 93, -42, -68, -80, -91, -119, -155, -186, -232, -264, -298, -302, -317, -318, -324, -324, -321, -320, -305, -303, 60, 68, 76, 89, 98, 104, 114, 123, 125, 116, 107, 90, 43, -48, -73, -93, -115, -146, -190, -221, -259, -289, -317, -318, -324, -324, -321, -320, -305, -302, -276, 46, 54, 63, 71, 81, 91, 104, 118, 126, 168, 128, 93, 59, -1, -57, -89, -120, -147, -179, -211, -241, -274, -302, -324, -323, -321, -319, -305, -302, -276, -272, 38, 46, 54, 60, 68, 79, 93, 124, 194, 164, 164, 115, 79, 29, -27, -73, -114, -145, -164, -194, -221, -250, -279, -307, -321, -319, -305, -301, -276, -271, -241, 28, 36, 44, 53, 59, 68, 84, 111, 178, 192, 192, 161, 117, 67, 15, -37, -87, -128, -154, -169, -197, -225, -253, -277, -303, -305, -300, -276, -270, -241, -235, 17, 25, 36, 44, 53, 59, 74, 110, 162, 198, 206, 195, 162, 114, 63, 11, -42, -92, -132, -157, -171, -199, -225, -251, -266, -285, -276, -268, -241, -234, -222, 6, 18, 26, 30, 40, 49, 59, 89, 138, 182, 205, 209, 195, 161, 112, 60, 8, -44, -94, -135, -160, -173, -198, -219, -238, -242, -254, -241, -232, -222, -218, 3, 9, 7, 17, 2, 22, 27, 53, 98, 148, 188, 207, 209, 194, 159, 109, 57, 5, -46, -96, -137, -161, -171, -191, -200, -212, -208, -219, -222, -216, -223, 3, -172, -145, -115, -86, -56, -29, 5, 50, 101, 151, 189, 208, 210, 194, 157, 107, 55, 3, -48, -98, -136, -155, -158, -170, -169, -179, -189, -203, -223, -219, -222, -222, -192, -163, -133, -104, -81, -46, 1, 52, 104, 153, 190, 209, 209, 192, 155, 105, 53, 1, -50, -97, -126, -134, -130, -140, -149, -163, -188, -206, -160, -257, -265, -240, -211, -181, -152, -121, -94, -49, 3, 54, 105, 154, 192, 209, 209, 191, 153, 103, 51, -1, -50, -88, -105, -110, -109, -123, -146, -163, -143, -152, -284, -295, -288, -258, -224, -194, -163, -140, -98, -47, 4, 55, 106, 155, 192, 209, 208, 190, 151, 100, 49, -1, -44, -75, -92, -100, -103, -121, -123, -132, -140, -303, -313, -311, -283, -255, -226, -198, -180, -145, -96, -46, 5, 56, 108, 157, 193, 209, 207, 188, 148, 99, 50, 10, -21, -68, -90, -100, -104, -112, -120, -129, -321, -321, -321, -295, -269, -242, -216, -205, -182, -143, -95, -44, 7, 59, 109, 158, 193, 208, 206, 186, 147, 100, 63, 40, 12, -72, -95, -92, -101, -109, -117, -338, -341, -345, -323, -297, -271, -244, -218, -205, -180, -142, -93, -42, 10, 61, 111, 159, 193, 207, 205, 186, 149, 107, 81, 62, 29, -50, -81, -89, -97, -106, -351, -355, -360, -351, -325, -299, -271, -244, -216, -203, -179, -140, -91, -39, 11, 62, 113, 161, 193, 206, 203, 185, 150, 108, 73, 76, 43, -29, -78, -86, -95, -360, -364, -368, -370, -353, -325, -298, -269, -242, -214, -202, -178, -138, -89, -38, 13, 65, 115, 160, 190, 202, 201, 178, 146, 110, 75, 91, 58, -67, -78, -87, -366, -368, -370, -369, -369, -351, -322, -295, -268, -240, -213, -200, -174, -133, -86, -36, 18, 69, 113, 152, 180, 183, 167, 184, 148, 112, 77, 103, 70, -74, -82, -369, -370, -369, -369, -367, -366, -348, -321, -293, -264, -237, -209, -191, -160, -123, -83, -28, 34, 73, 98, 126, 150, 152, 132, 186, 150, 114, 85, 103, -71, -78, -370, -370, -369, -368, -366, -364, -365, -347, -316, -288, -255, -226, -192, -167, -139, -114, -82, 11, 51, 71, 107, 144, 120, 122, 220, 179, 143, 114, 91, 103, -75, -370, -369, -368, -366, -365, -365, -363, -358, -339, -302, -273, -233, -203, -161, -142, -127, -107, -18, 35, 83, 72, 108, 145, 178, 110, 195, 164, 137, 114, 95, 103, -369, -369, -366, -365, -365, -363, -358, -355, -340, -319, -275, -244, -197, -170, -140, -131, -122, -104, -57, 54, 103, 73, 109, 138, 154, 164, 179, 155, 133, 114, 98, -369, -366, -365, -365, -364, -358, -356, -340, -334, -309, -286, -234, -206, -170, -148, -132, -129, -94, -76, -29, 73, 122, 73, 102, 123, 138, 149, 169, 148, 130, 114, -366, -365, -365, -364, -358, -356, -340, -336, -309, -300, -263, -242, -200, -178, -172, -148, -132, -121, -110, -48, 0, 89, 120, 73, 96, 113, 127, 138, 161, 143, 128, -366, -365, -364, -358, -357, -340, -337, -309, -302, -263, -255, -225, -208, -212, -188, -149, -139, -128, -117, -106, -96, 1, 89, 113, 73, 92, 107, 119, 129, 155, 140, -365, -364, -358, -357, -340, -337, -309, -303, -263, -257, -225, -219, -245, -228, -167, -156, -145, -134, -123, -112, -105, -101, -99, 89, 109, 73, 89, 102, 113, 123, 150, -364, -358, -357, -340, -338, -309, -304, -263, -258, -225, -220, -245, -241, -182, -174, -163, -152, -141, -130, -120, -113, -108, -105, -102, 89, 106, 73, 87, 99, 109, 118]}}, "geometry": {"type": "Polygon", "coordinates": [[[417526.0, 5654337.0], [417526.0, 5654336.0], [417529.0, 5654336.0], [417530.0, 5654339.0], [417525.0, 5654342.0], [417525.0, 5654343.7], [417528.8, 5654347.36], [417547.45, 5654328.0], [417545.0, 5654328.0], [417543.0, 5654326.0], [417543.0, 5654325.0], [417540.0, 5654324.0], [417540.0, 5654323.0], [417539.0, 5654321.0], [417536.0, 5654319.0], [417536.0, 5654316.2], [417535.43, 5654316.8], [417525.0, 5654327.61], [417525.0, 5654334.0], [417521.0, 5654337.0], [417521.0, 5654339.84], [417523.0, 5654341.77], [417523.0, 5654339.0], [417526.0, 5654337.0]]]}}, {"type": "Feature", "properties": {"id": "UUID_769c7d31-c14c-429a-b980-ca32df661d80", "z": 121.72}, "geometry": {"type": "Polygon", "coordinates": [[[417525.0, 5654334.0], [417525.0, 5654327.61], [417519.98, 5654332.82], [417517.86, 5654335.02], [417516.97, 5654335.96], [417521.0, 5654339.84], [417521.0, 5654337.0], [417525.0, 5654334.0]]]}}, {"type": "Feature", "properties": {"id": "UUID_7f503488-4dac-431d-988e-2e423a0c57c0", "z": 130.18}, "geometry": {"type": "Polygon", "coordinates": [[[416197.34, 5654587.67], [416194.81, 5654589.29], [416187.56, 5654593.94], [416189.98, 5654597.72], [416197.25, 5654609.04], [416199.22, 5654612.14], [416198.37, 5654612.68], [416198.62, 5654613.09], [416199.48, 5654612.54], [416209.25, 5654606.28], [416203.96, 5654598.01], [416202.82, 5654596.22], [416197.34, 5654587.67]]]}}, {"type": "Feature", "properties": {"id": "UUID_8f983d94-dd94-40bc-8a28-0fcdb7cbc1c4", "z": 129.62}, "geometry": {"type": "Polygon", "coordinates": [[[416183.0, 5654669.0], [416183.0, 5654666.0], [416181.0, 5654665.0], [416181.0, 5654663.0], [416179.0, 5654662.0], [416179.0, 5654659.43], [416177.42, 5654660.32], [416173.09, 5654662.79], [416166.39, 5654666.61], [416166.5, 5654666.8], [416166.59, 5654666.76], [416167.51, 5654668.41], [416167.07, 5654668.66], [416170.38, 5654674.49], [416170.81, 5654674.24], [416173.38, 5654678.76], [416173.48, 5654678.94], [416177.01, 5654676.92], [416177.22, 5654677.27], [416182.86, 5654674.07], [416182.66, 5654673.71], [416184.97, 5654672.39], [416184.86, 5654672.2], [416186.96, 5654671.0], [416185.0, 5654671.0], [416183.0, 5654669.0]]]}}, {"type": "Feature", "properties": {"id": "UUID_8f983d94-dd94-40bc-8a28-0fcdb7cbc1c4", "z": 119.82}, "geometry": {"type": "Polygon", "coordinates": [[[416181.0, 5654663.0], [416181.0, 5654665.0], [416183.0, 5654666.0], [416183.0, 5654669.0], [416185.0, 5654671.0], [416186.96, 5654671.0], [416195.15, 5654666.32], [416192.62, 5654661.85], [416192.2, 5654662.09], [416191.29, 5654660.48], [416188.85, 5654656.19], [416189.28, 5654655.95], [416188.28, 5654654.19], [416188.26, 5654654.16], [416179.0, 5654659.43], [416179.0, 5654662.0], [416181.0, 5654663.0]]]}}, {"type": "Feature", "properties": {"id": "UUID_9493ccd3-d06b-487c-9f01-87cf02994b57", "z": 129.74}, "geometry": {"type": "Polygon", "coordinates": [[[416222.15, 5654543.17], [416216.8, 5654546.19], [416205.01, 5654552.85], [416199.65, 5654555.88], [416200.6, 5654557.53], [416200.58, 5654557.54], [416200.81, 5654557.95], [416204.46, 5654564.41], [416206.06, 5654567.24], [416214.86, 5654562.28], [416214.9, 5654562.34], [416219.82, 5654559.57], [416219.78, 5654559.5], [416228.58, 5654554.54], [416226.99, 5654551.71], [416226.98, 5654551.71], [416223.33, 5654545.24], [416223.09, 5654544.82], [416223.08, 5654544.82], [416222.15, 5654543.17]]]}}, {"type": "Feature", "properties": {"id": "UUID_9ab098fe-d474-4ae1-9863-ed587589b1a1", "z": 130.63}, "geometry": {"type": "Polygon", "coordinates": [[[416938.11, 5654357.63], [416926.46, 5654365.86], [416938.38, 5654382.73], [416940.74, 5654386.06], [416944.59, 5654391.51], [416956.05, 5654383.0], [416938.11, 5654357.63]]]}}, {"type": "Feature", "properties": {"id": "UUID_a3483305-9fd4-4df6-9408-2bd4f261cde7", "z": 133.06}, "geometry": {"type": "Polygon", "coordinates": [[[416038.8, 5654597.4], [416036.28, 5654598.84], [416043.23, 5654611.04], [416048.5, 5654608.04], [416054.9, 5654604.4], [416054.07, 5654602.94], [416054.09, 5654602.93], [416048.05, 5654592.11], [416038.8, 5654597.4]]]}}, {"type": "Feature", "properties": {"id": "UUID_a4e1dcf1-ba03-403b-8dc4-96a4a492f8be", "z": 143.78}, "geometry": {"type": "Polygon", "coordinates": [[[416760.0, 5655210.0], [416759.0, 5655210.0], [416759.0, 5655206.0], [416757.0, 5655205.0], [416757.0, 5655203.0], [416755.0, 5655203.0], [416753.0, 5655201.0], [416752.13, 5655197.52], [416751.53, 5655197.96], [416748.54, 5655200.17], [416758.01, 5655213.0], [416760.0, 5655213.0], [416760.0, 5655210.0]]]}}, {"type": "Feature", "properties": {"id": "UUID_a4e1dcf1-ba03-403b-8dc4-96a4a492f8be", "z": 140.87}, "geometry": {"type": "Polygon", "coordinates": [[[416755.0, 5655203.0], [416757.0, 5655203.0], [416757.0, 5655205.0], [416759.0, 5655206.0], [416759.0, 5655210.0], [416760.0, 5655210.0], [416760.0, 5655213.0], [416758.01, 5655213.0], [416759.29, 5655214.74], [416763.0, 5655212.0], [416763.0, 5655211.0], [416762.0, 5655211.0], [416762.0, 5655205.0], [416764.0, 5655204.0], [416764.0, 5655202.0], [416767.0, 5655201.0], [416768.0, 5655199.0], [416768.0, 5655196.0], [416763.0, 5655196.0], [416763.0, 5655199.0], [416761.0, 5655199.0], [416760.0, 5655201.0], [416756.0, 5655201.0], [416756.0, 5655199.0], [416754.0, 5655198.0], [416753.5, 5655196.51], [416753.13, 5655196.78], [416752.43, 5655197.31], [416752.13, 5655197.52], [416753.0, 5655201.0], [416755.0, 5655203.0]]]}}, {"type": "Feature", "properties": {"id": "UUID_a4e1dcf1-ba03-403b-8dc4-96a4a492f8be", "z": 138.7}, "geometry": {"type": "Polygon", "coordinates": [[[416765.0, 5655209.0], [416763.0, 5655207.0], [416767.0, 5655202.0], [416769.0, 5655202.0], [416771.0, 5655200.0], [416771.0, 5655197.0], [416770.0, 5655197.0], [416768.0, 5655194.0], [416765.0, 5655194.0], [416764.0, 5655196.0], [416768.0, 5655196.0], [416768.0, 5655199.0], [416767.0, 5655201.0], [416764.0, 5655202.0], [416764.0, 5655204.0], [416762.0, 5655205.0], [416762.0, 5655211.0], [416763.0, 5655211.0], [416763.0, 5655212.0], [416764.26, 5655211.07], [416767.0, 5655209.04], [416767.0, 5655209.0], [416765.0, 5655209.0]]]}}, {"type": "Feature", "properties": {"id": "UUID_a4e1dcf1-ba03-403b-8dc4-96a4a492f8be", "z": 138.46}, "geometry": {"type": "Polygon", "coordinates": [[[416756.0, 5655199.0], [416756.0, 5655201.0], [416760.0, 5655201.0], [416761.0, 5655199.0], [416763.0, 5655199.0], [416763.0, 5655196.0], [416762.0, 5655196.0], [416761.0, 5655198.0], [416757.0, 5655198.0], [416756.0, 5655197.0], [416756.0, 5655194.67], [416754.14, 5655196.05], [416753.5, 5655196.51], [416754.0, 5655198.0], [416756.0, 5655199.0]]]}}, {"type": "Feature", "properties": {"id": "UUID_a4e1dcf1-ba03-403b-8dc4-96a4a492f8be", "z": 136.82}, "geometry": {"type": "Polygon", "coordinates": [[[416766.0, 5655193.0], [416764.0, 5655193.0], [416763.0, 5655195.0], [416760.0, 5655195.0], [416760.0, 5655196.0], [416756.0, 5655196.0], [416756.0, 5655197.0], [416757.0, 5655198.0], [416761.0, 5655198.0], [416762.0, 5655196.0], [416764.0, 5655196.0], [416765.0, 5655194.0], [416768.0, 5655194.0], [416770.0, 5655197.0], [416771.0, 5655197.0], [416771.0, 5655195.0], [416773.0, 5655193.0], [416774.33, 5655193.0], [416771.48, 5655189.13], [416768.0, 5655190.0], [416766.0, 5655193.0]]]}}, {"type": "Feature", "properties": {"id": "UUID_a4e1dcf1-ba03-403b-8dc4-96a4a492f8be", "z": 134.42}, "geometry": {"type": "Polygon", "coordinates": [[[416760.0, 5655196.0], [416760.0, 5655195.0], [416763.0, 5655195.0], [416764.0, 5655193.0], [416766.0, 5655193.0], [416768.0, 5655190.0], [416771.48, 5655189.13], [416768.7, 5655185.37], [416768.34, 5655185.47], [416764.36, 5655188.57], [416763.73, 5655188.86], [416761.55, 5655190.57], [416760.29, 5655191.51], [416756.0, 5655194.67], [416756.0, 5655196.0], [416760.0, 5655196.0]]]}}, {"type": "Feature", "properties": {"id": "UUID_a4e1dcf1-ba03-403b-8dc4-96a4a492f8be", "z": 134.26}, "geometry": {"type": "Polygon", "coordinates": [[[416771.0, 5655195.0], [416771.0, 5655200.0], [416769.0, 5655202.0], [416767.0, 5655202.0], [416763.0, 5655207.0], [416765.0, 5655209.0], [416767.0, 5655209.0], [416767.0, 5655209.04], [416775.07, 5655203.09], [416776.55, 5655202.0], [416774.0, 5655202.0], [416773.0, 5655201.0], [416773.0, 5655197.0], [416774.0, 5655196.0], [416776.54, 5655196.0], [416775.87, 5655195.08], [416774.33, 5655193.0], [416773.0, 5655193.0], [416771.0, 5655195.0]]]}}, {"type": "Feature", "properties": {"id": "UUID_a4e1dcf1-ba03-403b-8dc4-96a4a492f8be", "z": 124.99}, "geometry": {"type": "Polygon", "coordinates": [[[416773.0, 5655197.0], [416773.0, 5655201.0], [416774.0, 5655202.0], [416776.55, 5655202.0], [416779.41, 5655199.89], [416776.54, 5655196.0], [416774.0, 5655196.0], [416773.0, 5655197.0]]]}}, {"type": "Feature", "properties": {"id": "UUID_a5b148b5-ae09-4095-b217-c7995b56dff1", "z": 133.3}, "geometry": {"type": "Polygon", "coordinates": [[[416167.0, 5655678.0], [416168.0, 5655680.0], [416168.0, 5655682.49], [416169.25, 5655681.65], [416170.17, 5655681.04], [416170.95, 5655680.52], [416171.87, 5655679.9], [416171.71, 5655679.66], [416174.75, 5655677.65], [416173.64, 5655676.0], [416169.0, 5655676.0], [416167.0, 5655678.0]]]}}, {"type": "Feature", "properties": {"id": "UUID_a5b148b5-ae09-4095-b217-c7995b56dff1", "z": 131.66}, "geometry": {"type": "Polygon", "coordinates": [[[416167.0, 5655678.0], [416169.0, 5655676.0], [416170.0, 5655676.0], [416168.0, 5655675.0], [416166.0, 5655678.0], [416163.0, 5655678.0], [416162.0, 5655680.0], [416160.07, 5655680.0], [416163.51, 5655685.15], [416167.64, 5655682.39], [416167.8, 5655682.63], [416168.0, 5655682.49], [416168.0, 5655680.0], [416167.0, 5655678.0]]]}}, {"type": "Feature", "properties": {"id": "UUID_a5b148b5-ae09-4095-b217-c7995b56dff1", "z": 126.15}, "geometry": {"type": "Polygon", "coordinates": [[[416164.0, 5655674.0], [416164.0, 5655677.0], [416161.0, 5655678.0], [416161.0, 5655680.0], [416162.0, 5655680.0], [416163.0, 5655678.0], [416166.0, 5655678.0], [416168.0, 5655675.0], [416170.0, 5655676.0], [416173.64, 5655676.0], [416170.97, 5655672.0], [416167.0, 5655672.0], [416167.0, 5655671.0], [416164.0, 5655670.0], [416164.0, 5655666.23], [416161.44, 5655667.93], [416161.42, 5655667.94], [416160.63, 5655668.46], [416163.0, 5655674.0], [416164.0, 5655674.0]]]}}, {"type": "Feature", "properties": {"id": "UUID_a5b148b5-ae09-4095-b217-c7995b56dff1", "z": 123.83}, "geometry": {"type": "Polygon", "coordinates": [[[416161.0, 5655678.0], [416164.0, 5655677.0], [416164.0, 5655674.0], [416163.0, 5655674.0], [416160.63, 5655668.46], [416156.98, 5655670.87], [416154.89, 5655672.25], [416155.37, 5655672.96], [416156.37, 5655674.46], [416158.56, 5655677.74], [416160.07, 5655680.0], [416161.0, 5655680.0], [416161.0, 5655678.0]]]}}, {"type": "Feature", "properties": {"id": "UUID_a5b148b5-ae09-4095-b217-c7995b56dff1", "z": 123.7}, "geometry": {"type": "Polygon", "coordinates": [[[416167.0, 5655671.0], [416167.0, 5655672.0], [416170.97, 5655672.0], [416169.82, 5655670.28], [416166.16, 5655664.81], [416164.0, 5655666.23], [416164.0, 5655670.0], [416167.0, 5655671.0]]]}}, {"type": "Feature", "properties": {"id": "UUID_a6afad42-4d48-485b-a8cd-89f999f50143", "z": 129.22}, "geometry": {"type": "Polygon", "coordinates": [[[416273.0, 5654574.0], [416271.0, 5654574.0], [416270.0, 5654576.0], [416268.0, 5654576.0], [416268.0, 5654581.0], [416271.0, 5654582.0], [416271.0, 5654585.0], [416273.0, 5654586.0], [416273.0, 5654588.0], [416275.0, 5654589.0], [416276.0, 5654593.0], [416278.0, 5654594.0], [416278.0, 5654595.0], [416280.0, 5654596.0], [416281.0, 5654599.0], [416283.0, 5654599.0], [416283.0, 5654599.05], [416291.23, 5654593.66], [416288.28, 5654589.13], [416277.1, 5654572.0], [416274.0, 5654572.0], [416273.0, 5654574.0]]]}}, {"type": "Feature", "properties": {"id": "UUID_a6afad42-4d48-485b-a8cd-89f999f50143", "z": 121.72}, "geometry": {"type": "Polygon", "coordinates": [[[416281.0, 5654599.0], [416280.0, 5654596.0], [416278.0, 5654595.0], [416278.0, 5654597.0], [416275.0, 5654597.0], [416275.0, 5654600.0], [416274.91, 5654600.0], [416276.89, 5654603.05], [416281.84, 5654599.81], [416283.0, 5654599.05], [416283.0, 5654599.0], [416281.0, 5654599.0]]]}}, {"type": "Feature", "properties": {"id": "UUID_a6afad42-4d48-485b-a8cd-89f999f50143", "z": 119.91}, "geometry": {"type": "Polygon", "coordinates": [[[416275.0, 5654597.0], [416278.0, 5654597.0], [416278.0, 5654594.0], [416276.0, 5654593.0], [416275.0, 5654589.0], [416273.0, 5654588.0], [416273.0, 5654586.0], [416271.0, 5654585.0], [416271.0, 5654582.0], [416268.0, 5654581.0], [416268.0, 5654576.0], [416270.0, 5654576.0], [416271.0, 5654574.0], [416273.0, 5654574.0], [416274.0, 5654572.0], [416277.1, 5654572.0], [416276.68, 5654571.36], [416276.64, 5654571.35], [416261.45, 5654548.04], [416259.95, 5654545.72], [416245.17, 5654553.95], [416247.11, 5654557.16], [416247.53, 5654557.77], [416273.62, 5654598.0], [416274.91, 5654600.0], [416275.0, 5654600.0], [416275.0, 5654597.0]]]}}, {"type": "Feature", "properties": {"id": "UUID_c9ca86cd-a600-456b-b8cc-121456405a84", "z": 133.3}, "geometry": {"type": "Polygon", "coordinates": [[[416909.0, 5654376.0], [416909.0, 5654374.0], [416911.0, 5654373.0], [416908.0, 5654369.0], [416904.0, 5654369.0], [416904.0, 5654365.0], [416906.0, 5654365.0], [416908.0, 5654362.0], [416911.0, 5654362.0], [416912.0, 5654364.0], [416914.0, 5654363.0], [416914.0, 5654367.0], [416912.0, 5654368.0], [416912.0, 5654370.0], [416914.0, 5654370.0], [416918.0, 5654365.0], [416920.0, 5654365.0], [416922.0, 5654362.0], [416924.0, 5654362.0], [416925.0, 5654360.0], [416927.0, 5654360.0], [416929.0, 5654357.0], [416927.0, 5654356.0], [416926.0, 5654354.0], [416926.0, 5654351.0], [416924.0, 5654349.0], [416920.0, 5654349.0], [416918.0, 5654350.0], [416916.0, 5654353.0], [416914.0, 5654353.0], [416913.0, 5654356.0], [416911.0, 5654356.0], [416909.0, 5654360.0], [416905.0, 5654360.0], [416905.0, 5654362.0], [416903.0, 5654362.0], [416901.0, 5654368.0], [416904.0, 5654370.0], [416904.0, 5654373.0], [416906.0, 5654374.0], [416906.0, 5654376.0], [416908.0, 5654377.0], [416908.0, 5654378.9], [416912.0, 5654376.07], [416912.0, 5654376.0], [416909.0, 5654376.0]], [[416915.0, 5654357.0], [416918.0, 5654357.0], [416920.0, 5654354.0], [416922.0, 5654354.0], [416922.0, 5654357.0], [416919.0, 5654358.0], [416918.0, 5654360.0], [416916.0, 5654360.0], [416916.0, 5654362.0], [416913.0, 5654362.0], [416913.0, 5654359.0], [416915.0, 5654357.0]]]}}, {"type": "Feature", "properties": {"id": "UUID_c9ca86cd-a600-456b-b8cc-121456405a84", "z": 130.97}, "geometry": {"type": "Polygon", "coordinates": [[[416916.0, 5654360.0], [416918.0, 5654360.0], [416919.0, 5654358.0], [416922.0, 5654357.0], [416922.0, 5654354.0], [416920.0, 5654354.0], [416918.0, 5654357.0], [416915.0, 5654357.0], [416913.0, 5654359.0], [416913.0, 5654362.0], [416916.0, 5654362.0], [416916.0, 5654360.0]]]}}, {"type": "Feature", "properties": {"id": "UUID_c9ca86cd-a600-456b-b8cc-121456405a84", "z": 130.66}, "geometry": {"type": "Polygon", "coordinates": [[[416906.0, 5654376.0], [416906.0, 5654374.0], [416904.0, 5654373.0], [416904.0, 5654370.0], [416901.0, 5654368.0], [416903.0, 5654362.0], [416905.0, 5654362.0], [416905.0, 5654360.0], [416909.0, 5654360.0], [416911.0, 5654356.0], [416913.0, 5654356.0], [416914.0, 5654353.0], [416916.0, 5654353.0], [416918.0, 5654350.0], [416920.0, 5654349.0], [416924.0, 5654349.0], [416926.0, 5654351.0], [416926.0, 5654354.0], [416927.0, 5654356.0], [416929.0, 5654357.0], [416927.0, 5654360.0], [416925.0, 5654360.0], [416924.0, 5654362.0], [416922.0, 5654362.0], [416920.0, 5654365.0], [416918.0, 5654365.0], [416914.0, 5654370.0], [416912.0, 5654370.0], [416912.0, 5654368.0], [416914.0, 5654367.0], [416914.0, 5654363.0], [416912.0, 5654364.0], [416911.0, 5654362.0], [416908.0, 5654362.0], [416906.0, 5654365.0], [416904.0, 5654365.0], [416904.0, 5654369.0], [416908.0, 5654369.0], [416911.0, 5654373.0], [416909.0, 5654374.0], [416909.0, 5654376.0], [416912.0, 5654376.0], [416912.0, 5654376.07], [416916.32, 5654373.02], [416926.46, 5654365.86], [416938.11, 5654357.63], [416926.28, 5654340.89], [416890.62, 5654366.09], [416902.45, 5654382.82], [416908.0, 5654378.9], [416908.0, 5654377.0], [416906.0, 5654376.0]]]}}, {"type": "Feature", "properties": {"id": "UUID_cda4216e-0568-44ec-adc7-2aeffe6bf7ee", "z": 129.84}, "geometry": {"type": "Polygon", "coordinates": [[[416459.83, 5654721.07], [416450.58, 5654710.89], [416449.35, 5654712.0], [416450.0, 5654712.0], [416450.0, 5654714.0], [416449.0, 5654714.0], [416449.0, 5654715.0], [416447.0, 5654715.0], [416447.0, 5654714.14], [416431.79, 5654727.96], [416434.0, 5654730.39], [416434.0, 5654730.0], [416438.0, 5654730.0], [416438.0, 5654731.0], [416441.0, 5654731.0], [416441.0, 5654730.0], [416442.0, 5654730.0], [416442.0, 5654729.0], [416443.0, 5654729.0], [416443.0, 5654728.0], [416444.0, 5654728.0], [416444.0, 5654727.0], [416445.0, 5654727.0], [416445.0, 5654726.0], [416447.0, 5654726.0], [416447.0, 5654728.0], [416448.0, 5654728.0], [416448.0, 5654729.0], [416449.0, 5654729.0], [416449.49, 5654730.46], [416459.83, 5654721.07]]]}}]}