{"type": "FeatureCollection", "attribution": "Quelle: GeoSN, dl-de/by-2-0 (LoD2, DOM1)", "crs": {"type": "name", "properties": {"name": "urn:ogc:def:crs:EPSG::25833"}}, "features": [{"type": "Feature", "properties": {"id": "DESNATP1CX0001hx", "z": 150.01}, "geometry": {"type": "Polygon", "coordinates": [[[414973.08, 5658037.55], [414955.7, 5658045.01], [414963.24, 5658062.57], [414980.62, 5658055.11], [414973.08, 5658037.55]]]}}, {"type": "Feature", "properties": {"id": "DESNATP1CX0001iu", "z": 152.11}, "geometry": {"type": "Polygon", "coordinates": [[[414935.0, 5658311.0], [414935.0, 5658307.0], [414934.0, 5658306.0], [414926.0, 5658306.0], [414926.0, 5658307.0], [414922.65, 5658307.0], [414923.43, 5658314.39], [414934.0, 5658313.28], [414934.0, 5658311.0], [414935.0, 5658311.0]]]}}, {"type": "Feature", "properties": {"id": "DESNATP1CX0001iu", "z": 149.18}, "geometry": {"type": "Polygon", "coordinates": [[[414926.0, 5658306.0], [414934.0, 5658306.0], [414935.0, 5658307.0], [414935.0, 5658311.0], [414934.0, 5658311.0], [414934.0, 5658313.28], [414937.51, 5658312.91], [414936.36, 5658301.99], [414922.28, 5658303.47], [414922.65, 5658307.0], [414926.0, 5658307.0], [414926.0, 5658306.0]]]}}, {"type": "Feature", "properties": {"id": "DESNATP1CX0001jU", "z": 144.92}, "geometry": {"type": "Polygon", "coordinates": [[[414825.46, 5658070.74], [414827.52, 5658077.0], [414846.47, 5658070.76], [414844.4, 5658064.5], [414842.34, 5658058.24], [414823.4, 5658064.49], [414825.46, 5658070.74]]]}}, {"type": "Feature", "properties": {"id": "DESNATP1iT0000MA", "z": 172.61}, "geometry": {"type": "Polygon", "coordinates": [[[415342.0, 5658649.0], [415342.0, 5658652.0], [415345.0, 5658652.0], [415345.0, 5658650.0], [415345.0, 5658645.0], [415349.0, 5658645.0], [415349.0, 5658644.0], [415350.0, 5658644.0], [415350.0, 5658635.0], [415349.0, 5658634.0], [415344.0, 5658634.0], [415344.0, 5658638.0], [415345.0, 5658638.0], [415345.0, 5658641.0], [415344.0, 5658641.0], [415344.0, 5658645.0], [415341.0, 5658645.0], [415341.0, 5658649.0], [415342.0, 5658649.0]]]}}, {"type": "Feature", "properties": {"id": "DESNATP1iT0000MA", "z": 171.77, "surface": {"x": 415330.0, "y": 5658647.0, "res": 1.0, "cols": 17, "rows": 17, "dz": [-159, -155, -147, -129, -132, -102, -72, -47, -6, 28, 61, 86, 114, 132, 152, 172, 191, -164, -162, -149, -127, -104, -98, -68, -42, -1, 32, 66, 91, 119, 136, 155, 175, 195, -139, -167, -147, -125, -102, -79, -63, -37, 3, 38, 66, 97, 123, 139, 159, 179, 199, -148, -133, -145, -122, -100, -77, -63, -35, 9, 46, 75, 102, 126, 141, 161, 181, 201, -155, -139, -123, -107, -98, -75, -60, -31, 14, 51, 81, 107, 130, 145, 164, 182, 196, -161, -145, -129, -112, -101, -77, -59, -29, 13, 51, 82, 110, 133, 150, 168, 178, 193, -166, -150, -134, -118, -105, -85, -61, -30, 7, 45, 80, 109, 134, 152, 161, 175, 190, -172, -156, -140, -124, -113, -93, -65, -32, 4, 40, 75, 105, 130, 147, 156, 172, 188, -167, -153, -139, -125, -115, -95, -66, -32, 2, 36, 67, 95, 118, 134, 145, 160, 174, -155, -143, -131, -119, -110, -92, -65, -33, -2, 27, 54, 77, 95, 109, 125, 142, 156, -137, -127, -117, -107, -101, -88, -65, -39, -13, 11, 32, 49, 63, 73, 87, 101, 139, -121, -113, -106, -98, -94, -85, -69, -50, -31, -13, 3, 17, 29, 40, 52, 64, 77, -112, -106, -100, -94, -91, -85, -74, -61, -49, -37, -22, -7, 4, 17, 22, 34, 46, -107, -102, -97, -92, -90, -85, -77, -67, -60, -53, -39, -33, -24, -12, 1, 4, 16, -105, -100, -96, -91, -90, -87, -82, -76, -72, -69, -55, -58, -53, -40, -27, -15, -11, -104, -99, -94, -89, -90, -88, -87, -86, -85, -85, -71, -57, -81, -68, -56, -40, -23, -102, -97, -93, -88, -90, -90, -92, -95, -98, -101, -87, -73, -109, -93, -75, -56, -40]}}, "geometry": {"type": "Polygon", "coordinates": [[[415335.0, 5658644.0], [415336.0, 5658645.0], [415340.0, 5658645.0], [415344.0, 5658645.0], [415344.0, 5658641.0], [415345.0, 5658641.0], [415345.0, 5658638.0], [415344.0, 5658638.0], [415344.0, 5658635.0], [415343.0, 5658634.0], [415340.0, 5658634.0], [415339.02, 5658632.53], [415332.72, 5658633.21], [415333.53, 5658641.49], [415335.0, 5658641.0], [415335.0, 5658644.0]]]}}, {"type": "Feature", "properties": {"id": "DESNATP1iT0000MA", "z": 171.5, "surface": {"x": 415340.0, "y": 5658659.0, "res": 1.0, "cols": 19, "rows": 17, "dz": [98, 87, 76, 66, 37, 14, -1, -14, -26, -39, -53, -58, -57, -57, -58, -58, -65, -72, -77, 100, 89, 77, 68, 44, 23, 9, -3, -15, -29, -42, -51, -55, -57, -60, -61, -68, -75, -81, 101, 90, 79, 70, 51, 32, 19, 7, -5, -18, -38, -45, -52, -58, -62, -64, -71, -78, -85, 102, 91, 80, 72, 57, 41, 29, 17, 6, -8, -27, -39, -49, -58, -64, -67, -74, -81, -88, 103, 92, 81, 73, 59, 45, 34, 24, 13, -1, -17, -32, -47, -58, -66, -70, -77, -84, -91, 104, 93, 82, 87, 75, 61, 50, 40, 27, 11, -7, -27, -45, -60, -69, -73, -81, -89, -96, 106, 95, 84, 101, 106, 92, 81, 67, 49, 29, 5, -20, -44, -62, -73, -78, -87, -95, -104, 107, 96, 192, 156, 140, 123, 111, 93, 70, 44, 15, -15, -44, -66, -80, -86, -96, -106, -116, 236, 220, 202, 184, 166, 149, 133, 111, 83, 52, 19, -14, -46, -71, -87, -95, -107, -118, -130, 247, 229, 211, 194, 176, 164, 146, 120, 88, 54, 19, -16, -48, -73, -90, -100, -113, -126, -140, 255, 239, 221, 203, 185, 168, 150, 122, 87, 52, 16, -19, -50, -71, -92, -102, -115, -128, -141, 257, 249, 231, 208, 187, 166, 149, 120, 84, 49, 13, -21, -50, -68, -89, -111, -116, -130, -143, 256, 256, 233, 210, 186, 163, 146, 116, 80, 46, 12, -21, -48, -65, -89, -112, -136, -131, -142, 255, 255, 231, 208, 184, 161, 144, 113, 75, 42, 15, -16, -43, -70, -87, -111, -135, -156, -137, 251, 249, 228, 205, 181, 158, 140, 109, 73, 39, 21, -9, -40, -67, -95, -109, -133, -147, -151, 244, 240, 226, 202, 179, 155, 137, 105, 72, 39, 22, -9, -37, -65, -92, -119, -128, -137, -143, 236, 229, 219, 199, 176, 152, 134, 104, 71, 39, 22, -8, -39, -62, -89, -112, -123, -128, -135]}}, "geometry": {"type": "Polygon", "coordinates": [[[415354.0, 5658646.0], [415351.0, 5658644.0], [415349.0, 5658644.0], [415349.0, 5658645.0], [415345.0, 5658645.0], [415345.0, 5658650.0], [415345.0, 5658653.0], [415346.0, 5658654.0], [415342.0, 5658654.0], [415342.0, 5658656.29], [415345.38, 5658655.86], [415356.11, 5658654.79], [415355.47, 5658648.51], [415354.0, 5658649.0], [415354.0, 5658646.0]]]}}, {"type": "Feature", "properties": {"id": "DESNATP1iT0000MA", "z": 171.06}, "geometry": {"type": "Polygon", "coordinates": [[[415346.0, 5658654.0], [415345.0, 5658653.0], [415345.0, 5658652.0], [415342.0, 5658652.0], [415342.0, 5658649.0], [415341.0, 5658649.0], [415341.0, 5658645.0], [415340.0, 5658645.0], [415336.0, 5658645.0], [415335.0, 5658644.0], [415335.0, 5658641.0], [415333.53, 5658641.49], [415333.84, 5658644.72], [415335.06, 5658657.16], [415342.0, 5658656.29], [415342.0, 5658654.0], [415346.0, 5658654.0]]]}}, {"type": "Feature", "properties": {"id": "DESNATP1iT0000MA", "z": 170.71}, "geometry": {"type": "Polygon", "coordinates": [[[415343.0, 5658634.0], [415344.0, 5658635.0], [415344.0, 5658634.0], [415349.0, 5658634.0], [415350.0, 5658635.0], [415350.0, 5658644.0], [415351.0, 5658644.0], [415354.0, 5658646.0], [415354.0, 5658649.0], [415355.47, 5658648.51], [415354.85, 5658642.39], [415353.69, 5658630.93], [415339.02, 5658632.53], [415340.0, 5658634.0], [415343.0, 5658634.0]]]}}, {"type": "Feature", "properties": {"id": "DESNATP1iT0000av", "z": 183.0}, "geometry": {"type": "Polygon", "coordinates": [[[415173.12, 5658683.61], [415157.11, 5658675.27], [415150.76, 5658686.65], [415167.3, 5658694.99], [415173.12, 5658683.61]]]}}, {"type": "Feature", "properties": {"id": "DESNATPU1000Ej0C", "z": 152.24}, "geometry": {"type": "Polygon", "coordinates": [[[414837.0, 5658281.0], [414837.0, 5658284.82], [414837.78, 5658284.76], [414837.84, 5658285.58], [414839.0, 5658285.0], [414841.0, 5658285.0], [414841.0, 5658273.0], [414840.0, 5658273.0], [414840.0, 5658269.0], [414837.0, 5658269.0], [414837.0, 5658276.0], [414836.0, 5658277.0], [414830.86, 5658277.0], [414831.06, 5658280.0], [414835.0, 5658280.0], [414837.0, 5658281.0]]]}}, {"type": "Feature", "properties": {"id": "DESNATPU1000Ej0C", "z": 150.66}, "geometry": {"type": "Polygon", "coordinates": [[[414837.0, 5658276.0], [414837.0, 5658269.0], [414840.0, 5658269.0], [414840.0, 5658273.0], [414841.0, 5658273.0], [414841.0, 5658285.0], [414842.0, 5658285.0], [414843.0, 5658283.0], [414843.0, 5658280.0], [414842.0, 5658280.0], [414842.0, 5658273.0], [414843.0, 5658272.0], [414844.72, 5658272.0], [414844.49, 5658268.52], [414841.5, 5658268.72], [414841.42, 5658268.48], [414841.34, 5658268.29], [414841.25, 5658268.1], [414841.14, 5658267.92], [414841.02, 5658267.75], [414840.88, 5658267.58], [414840.74, 5658267.43], [414840.59, 5658267.29], [414840.42, 5658267.15], [414840.25, 5658267.03], [414840.07, 5658266.92], [414839.88, 5658266.83], [414839.69, 5658266.75], [414839.49, 5658266.68], [414839.29, 5658266.62], [414839.08, 5658266.58], [414838.87, 5658266.56], [414838.66, 5658266.54], [414838.41, 5658266.55], [414838.16, 5658266.58], [414837.95, 5658266.62], [414837.75, 5658266.67], [414837.55, 5658266.74], [414837.36, 5658266.82], [414837.17, 5658266.91], [414836.99, 5658267.02], [414836.81, 5658267.14], [414836.65, 5658267.27], [414836.49, 5658267.41], [414836.35, 5658267.56], [414836.21, 5658267.72], [414836.09, 5658267.9], [414835.98, 5658268.07], [414835.88, 5658268.26], [414835.8, 5658268.45], [414835.73, 5658268.65], [414835.67, 5658268.86], [414835.62, 5658269.1], [414835.0, 5658269.14], [414835.0, 5658276.0], [414830.79, 5658276.0], [414830.86, 5658277.0], [414836.0, 5658277.0], [414837.0, 5658276.0]]]}}, {"type": "Feature", "properties": {"id": "DESNATPU1000Ej0C", "z": 148.81}, "geometry": {"type": "Polygon", "coordinates": [[[414842.0, 5658273.0], [414842.0, 5658280.0], [414843.0, 5658280.0], [414843.0, 5658283.0], [414842.0, 5658285.0], [414839.0, 5658285.0], [414837.84, 5658285.58], [414837.93, 5658286.9], [414845.42, 5658286.4], [414845.28, 5658284.32], [414845.55, 5658284.3], [414845.32, 5658280.93], [414845.98, 5658280.89], [414845.6, 5658275.2], [414844.94, 5658275.24], [414844.72, 5658272.0], [414843.0, 5658272.0], [414842.0, 5658273.0]]]}}, {"type": "Feature", "properties": {"id": "DESNATPU1000Ej0C", "z": 148.4}, "geometry": {"type": "Polygon", "coordinates": [[[414835.0, 5658280.0], [414831.06, 5658280.0], [414831.41, 5658285.22], [414837.0, 5658284.82], [414837.0, 5658281.0], [414835.0, 5658280.0]]]}}, {"type": "Feature", "properties": {"id": "DESNATPU1000Ej0C", "z": 147.94}, "geometry": {"type": "Polygon", "coordinates": [[[414835.0, 5658269.14], [414830.36, 5658269.46], [414830.79, 5658276.0], [414835.0, 5658276.0], [414835.0, 5658269.14]]]}}, {"type": "Feature", "properties": {"id": "DESNATPU1000F9Lz", "z": 156.3}, "geometry": {"type": "Polygon", "coordinates": [[[414470.0, 5658227.0], [414470.0, 5658230.0], [414471.0, 5658230.0], [414471.0, 5658234.0], [414472.0, 5658234.0], [414473.0, 5658237.0], [414477.0, 5658237.0], [414478.0, 5658236.0], [414478.0, 5658231.0], [414477.0, 5658231.0], [414477.0, 5658227.0], [414476.0, 5658227.0], [414476.0, 5658226.0], [414471.0, 5658226.0], [414470.0, 5658227.0]]]}}, {"type": "Feature", "properties": {"id": "DESNATPU1000F9Lz", "z": 155.68}, "geometry": {"type": "Polygon", "coordinates": [[[414461.0, 5658213.0], [414467.0, 5658213.0], [414467.0, 5658208.0], [414465.0, 5658206.0], [414463.47, 5658206.0], [414463.71, 5658207.03], [414458.22, 5658208.28], [414459.75, 5658215.0], [414461.0, 5658215.0], [414461.0, 5658213.0]]]}}, {"type": "Feature", "properties": {"id": "DESNATPU1000F9Lz", "z": 153.66}, "geometry": {"type": "Polygon", "coordinates": [[[414467.0, 5658208.0], [414467.0, 5658213.0], [414461.0, 5658213.0], [414461.0, 5658215.0], [414459.75, 5658215.0], [414465.87, 5658241.84], [414466.75, 5658245.71], [414467.1, 5658247.25], [414467.99, 5658251.15], [414468.36, 5658252.76], [414469.22, 5658256.6], [414469.51, 5658257.72], [414475.08, 5658256.48], [414475.21, 5658257.17], [414474.75, 5658257.29], [414474.93, 5658258.07], [414476.0, 5658257.0], [414480.0, 5658257.0], [414480.0, 5658256.0], [414484.0, 5658256.0], [414484.0, 5658254.94], [414483.25, 5658255.41], [414482.57, 5658254.14], [414478.67, 5658237.0], [414480.0, 5658236.7], [414480.0, 5658236.0], [414478.0, 5658234.0], [414478.0, 5658236.0], [414477.0, 5658237.0], [414473.0, 5658237.0], [414472.0, 5658234.0], [414471.0, 5658234.0], [414471.0, 5658230.0], [414470.0, 5658230.0], [414470.0, 5658227.0], [414471.0, 5658226.0], [414476.0, 5658226.0], [414476.0, 5658225.0], [414477.0, 5658225.0], [414477.0, 5658223.53], [414475.66, 5658223.83], [414471.43, 5658205.28], [414466.0, 5658206.51], [414464.91, 5658201.68], [414462.6, 5658202.2], [414463.47, 5658206.0], [414465.0, 5658206.0], [414467.0, 5658208.0]]]}}, {"type": "Feature", "properties": {"id": "DESNATPU1000F9Lz", "z": 149.61}, "geometry": {"type": "Polygon", "coordinates": [[[414480.0, 5658256.0], [414480.0, 5658257.0], [414476.0, 5658257.0], [414474.93, 5658258.07], [414476.63, 5658265.5], [414479.82, 5658264.8], [414481.36, 5658264.43], [414484.93, 5658263.6], [414485.87, 5658263.39], [414487.42, 5658262.73], [414490.32, 5658261.11], [414494.52, 5658256.87], [414496.99, 5658251.43], [414497.47, 5658248.51], [414497.51, 5658247.04], [414497.59, 5658237.79], [414499.84, 5658237.77], [414499.85, 5658234.18], [414497.57, 5658234.17], [414497.65, 5658206.1], [414497.09, 5658200.61], [414495.94, 5658200.66], [414490.5, 5658201.9], [414490.52, 5658194.43], [414488.16, 5658194.97], [414488.1, 5658206.01], [414490.2, 5658206.14], [414489.24, 5658220.74], [414477.0, 5658223.53], [414477.0, 5658225.0], [414476.0, 5658225.0], [414476.0, 5658227.0], [414477.0, 5658227.0], [414477.0, 5658231.0], [414478.0, 5658231.0], [414478.0, 5658234.0], [414480.0, 5658236.0], [414480.0, 5658236.7], [414489.22, 5658234.62], [414489.17, 5658246.83], [414489.02, 5658248.67], [414488.79, 5658249.78], [414486.76, 5658253.2], [414484.0, 5658254.94], [414484.0, 5658256.0], [414480.0, 5658256.0]]]}}, {"type": "Feature", "properties": {"id": "UUID_3b4f3dd3-2db0-4c56-9248-a8c710963d05", "z": 156.22}, "geometry": {"type": "Polygon", "coordinates": [[[414434.0, 5658230.0], [414434.0, 5658227.0], [414433.0, 5658227.0], [414433.0, 5658223.0], [414432.0, 5658222.0], [414428.0, 5658222.0], [414428.0, 5658223.0], [414425.0, 5658223.0], [414423.0, 5658225.0], [414424.0, 5658229.0], [414427.0, 5658229.0], [414427.0, 5658230.0], [414428.0, 5658230.0], [414428.0, 5658231.0], [414429.0, 5658232.0], [414434.0, 5658230.0]]]}}, {"type": "Feature", "properties": {"id": "UUID_3b4f3dd3-2db0-4c56-9248-a8c710963d05", "z": 153.74}, "geometry": {"type": "Polygon", "coordinates": [[[414394.0, 5658237.0], [414400.0, 5658237.0], [414402.0, 5658236.0], [414403.0, 5658239.0], [414405.0, 5658239.0], [414405.0, 5658236.0], [414406.0, 5658236.0], [414406.0, 5658235.0], [414410.0, 5658235.0], [414412.0, 5658233.0], [414416.0, 5658233.0], [414416.0, 5658232.0], [414421.0, 5658232.0], [414421.0, 5658231.0], [414425.0, 5658231.0], [414425.0, 5658230.0], [414427.0, 5658230.0], [414427.0, 5658229.0], [414424.0, 5658229.0], [414423.0, 5658225.0], [414425.0, 5658223.0], [414428.0, 5658223.0], [414428.0, 5658222.0], [414432.0, 5658222.0], [414433.0, 5658223.0], [414433.0, 5658227.0], [414434.0, 5658227.0], [414434.0, 5658230.0], [414429.0, 5658232.0], [414428.0, 5658231.0], [414428.0, 5658237.0], [414429.0, 5658237.0], [414429.0, 5658241.0], [414430.0, 5658241.0], [414430.0, 5658243.99], [414431.12, 5658243.74], [414441.8, 5658241.32], [414444.15, 5658240.79], [414442.71, 5658234.41], [414438.94, 5658217.94], [414437.76, 5658212.87], [414435.44, 5658213.39], [414432.89, 5658213.97], [414432.72, 5658214.02], [414421.7, 5658216.52], [414407.99, 5658219.66], [414401.75, 5658221.07], [414396.23, 5658222.33], [414394.04, 5658222.83], [414392.79, 5658223.12], [414388.66, 5658224.08], [414391.65, 5658237.24], [414391.83, 5658238.0], [414394.0, 5658238.0], [414394.0, 5658237.0]]]}}, {"type": "Feature", "properties": {"id": "UUID_3b4f3dd3-2db0-4c56-9248-a8c710963d05", "z": 149.6}, "geometry": {"type": "Polygon", "coordinates": [[[414408.0, 5658247.0], [414408.0, 5658244.0], [414407.0, 5658244.0], [414407.0, 5658240.0], [414406.0, 5658240.0], [414406.0, 5658236.0], [414405.0, 5658236.0], [414405.0, 5658239.0], [414403.0, 5658239.0], [414402.0, 5658236.0], [414400.0, 5658237.0], [414394.0, 5658237.0], [414394.0, 5658238.0], [414391.83, 5658238.0], [414395.04, 5658251.92], [414396.72, 5658251.54], [414399.14, 5658250.99], [414409.0, 5658248.75], [414409.0, 5658247.0], [414408.0, 5658247.0]]]}}, {"type": "Feature", "properties": {"id": "UUID_3b4f3dd3-2db0-4c56-9248-a8c710963d05", "z": 139.31}, "geometry": {"type": "Polygon", "coordinates": [[[414429.0, 5658241.0], [414429.0, 5658237.0], [414428.0, 5658237.0], [414428.0, 5658230.0], [414425.0, 5658230.0], [414425.0, 5658231.0], [414421.0, 5658231.0], [414421.0, 5658232.0], [414416.0, 5658232.0], [414416.0, 5658233.0], [414412.0, 5658233.0], [414410.0, 5658235.0], [414406.0, 5658235.0], [414406.0, 5658240.0], [414407.0, 5658240.0], [414407.0, 5658244.0], [414408.0, 5658244.0], [414408.0, 5658247.0], [414409.0, 5658247.0], [414409.0, 5658248.75], [414426.09, 5658244.88], [414430.0, 5658243.99], [414430.0, 5658241.0], [414429.0, 5658241.0]]]}}, {"type": "Feature", "properties": {"id": "UUID_fbfc1946-2cf0-4949-a0ca-d9982b7a4856", "z": 154.23}, "geometry": {"type": "Polygon", "coordinates": [[[414394.0, 5658142.0], [414400.0, 5658142.0], [414400.0, 5658141.0], [414405.0, 5658141.0], [414405.0, 5658138.0], [414401.0, 5658138.0], [414401.0, 5658139.0], [414394.0, 5658139.0], [414394.0, 5658140.0], [414387.0, 5658140.0], [414385.0, 5658143.0], [414394.0, 5658143.0], [414394.0, 5658142.0]]]}}, {"type": "Feature", "properties": {"id": "UUID_fbfc1946-2cf0-4949-a0ca-d9982b7a4856", "z": 152.65}, "geometry": {"type": "Polygon", "coordinates": [[[414403.0, 5658131.0], [414399.0, 5658131.0], [414399.0, 5658132.0], [414395.0, 5658132.0], [414395.0, 5658133.0], [414390.0, 5658133.0], [414390.0, 5658134.0], [414381.97, 5658134.0], [414382.56, 5658137.07], [414384.92, 5658149.3], [414407.94, 5658144.05], [414405.39, 5658131.88], [414405.0, 5658130.0], [414403.0, 5658130.0], [414403.0, 5658131.0]], [[414394.0, 5658140.0], [414394.0, 5658139.0], [414401.0, 5658139.0], [414401.0, 5658138.0], [414405.0, 5658138.0], [414405.0, 5658141.0], [414400.0, 5658141.0], [414400.0, 5658142.0], [414394.0, 5658142.0], [414394.0, 5658143.0], [414385.0, 5658143.0], [414387.0, 5658140.0], [414394.0, 5658140.0]]]}}, {"type": "Feature", "properties": {"id": "UUID_fbfc1946-2cf0-4949-a0ca-d9982b7a4856", "z": 139.79}, "geometry": {"type": "Polygon", "coordinates": [[[414390.0, 5658133.0], [414395.0, 5658133.0], [414395.0, 5658132.0], [414399.0, 5658132.0], [414399.0, 5658131.0], [414403.0, 5658131.0], [414403.0, 5658130.0], [414405.0, 5658130.0], [414402.41, 5658117.65], [414399.31, 5658118.33], [414399.32, 5658118.35], [414382.72, 5658122.11], [414382.72, 5658122.09], [414379.8, 5658122.77], [414381.97, 5658134.0], [414390.0, 5658134.0], [414390.0, 5658133.0]]]}}]}