{"type": "FeatureCollection", "attribution": "Quelle: GeoSN, dl-de/by-2-0 (laser scan, LoD2)", "crs": {"type": "name", "properties": {"name": "urn:ogc:def:crs:EPSG::25833"}}, "features": [{"type": "Feature", "properties": {"z": 114.19, "h": 2.91}, "geometry": {"type": "Polygon", "coordinates": [[[416003.75, 5656576.25], [416000.5, 5656579.5], [416003.25, 5656582.25], [416006.5, 5656579.0], [416003.75, 5656576.25]]]}}, {"type": "Feature", "properties": {"z": 114.0, "h": 3.01}, "geometry": {"type": "Polygon", "coordinates": [[[416047.25, 5656253.75], [416042.75, 5656258.25], [416047.75, 5656263.25], [416052.25, 5656258.75], [416047.25, 5656253.75]]]}}, {"type": "Feature", "properties": {"z": 113.73, "h": 4.03}, "geometry": {"type": "Polygon", "coordinates": [[[416048.12, 5656339.47], [416037.06, 5656342.24], [416037.76, 5656345.06], [416048.82, 5656342.29], [416048.12, 5656339.47]]]}}, {"type": "Feature", "properties": {"z": 114.44, "h": 3.27}, "geometry": {"type": "Polygon", "coordinates": [[[416061.75, 5656539.75], [416065.5, 5656543.5], [416072.5, 5656536.5], [416068.75, 5656532.75], [416061.75, 5656539.75]]]}}, {"type": "Feature", "properties": {"z": 110.09, "h": 3.27}, "geometry": {"type": "Polygon", "coordinates": [[[416074.68, 5656784.52], [416069.02, 5656789.23], [416071.4, 5656792.08], [416077.06, 5656787.37], [416074.68, 5656784.52]]]}}, {"type": "Feature", "properties": {"z": 114.31, "h": 2.58}, "geometry": {"type": "Polygon", "coordinates": [[[416104.5, 5656606.5], [416100.75, 5656610.25], [416104.5, 5656614.0], [416108.25, 5656610.25], [416104.5, 5656606.5]]]}}, {"type": "Feature", "properties": {"z": 114.19, "h": 2.99}, "geometry": {"type": "Polygon", "coordinates": [[[416126.25, 5655996.75], [416124.0, 5655999.0], [416128.25, 5656003.25], [416130.5, 5656001.0], [416126.25, 5655996.75]]]}}, {"type": "Feature", "properties": {"z": 113.9, "h": 2.66, "hc": [2.99, 2.52, 2.29, 2.76]}, "geometry": {"type": "Polygon", "coordinates": [[[416133.0, 5656306.0], [416133.0, 5656309.5], [416136.0, 5656309.5], [416136.0, 5656306.0], [416133.0, 5656306.0]]]}}, {"type": "Feature", "properties": {"z": 153.14, "h": 3.02}, "geometry": {"type": "Polygon", "coordinates": [[[416133.25, 5657516.75], [416129.25, 5657520.75], [416131.5, 5657523.0], [416135.5, 5657519.0], [416133.25, 5657516.75]]]}}, {"type": "Feature", "properties": {"z": 114.33, "h": 2.4}, "geometry": {"type": "Polygon", "coordinates": [[[416142.79, 5656345.68], [416138.68, 5656346.71], [416139.44, 5656349.76], [416143.56, 5656348.74], [416142.79, 5656345.68]]]}}, {"type": "Feature", "properties": {"z": 113.89, "h": 2.76}, "geometry": {"type": "Polygon", "coordinates": [[[416160.1, 5656293.3], [416158.1, 5656297.3], [416161.9, 5656299.2], [416163.9, 5656295.2], [416160.1, 5656293.3]]]}}, {"type": "Feature", "properties": {"z": 113.91, "h": 2.7}, "geometry": {"type": "Polygon", "coordinates": [[[416164.25, 5656086.75], [416159.5, 5656091.5], [416165.5, 5656097.5], [416170.25, 5656092.75], [416164.25, 5656086.75]]]}}, {"type": "Feature", "properties": {"z": 114.5, "h": 2.73}, "geometry": {"type": "Polygon", "coordinates": [[[416181.98, 5656393.28], [416175.82, 5656388.35], [416172.11, 5656392.99], [416178.27, 5656397.92], [416181.98, 5656393.28]]]}}, {"type": "Feature", "properties": {"z": 114.26, "h": 2.75}, "geometry": {"type": "Polygon", "coordinates": [[[416183.59, 5656213.94], [416178.73, 5656222.68], [416182.81, 5656224.95], [416187.67, 5656216.2], [416183.59, 5656213.94]]]}}, {"type": "Feature", "properties": {"z": 114.76, "h": 2.45}, "geometry": {"type": "Polygon", "coordinates": [[[416204.75, 5656482.25], [416202.25, 5656484.75], [416205.0, 5656487.5], [416207.5, 5656485.0], [416204.75, 5656482.25]]]}}, {"type": "Feature", "properties": {"z": 113.82, "h": 2.49}, "geometry": {"type": "Polygon", "coordinates": [[[416206.75, 5656065.75], [416209.25, 5656068.25], [416212.25, 5656065.25], [416209.75, 5656062.75], [416206.75, 5656065.75]]]}}, {"type": "Feature", "properties": {"z": 162.97, "h": 3.48, "hc": [3.01, 3.98, 3.91, 2.94]}, "geometry": {"type": "Polygon", "coordinates": [[[416210.0, 5657573.5], [416212.5, 5657576.0], [416215.5, 5657573.0], [416213.0, 5657570.5], [416210.0, 5657573.5]]]}}, {"type": "Feature", "properties": {"z": 114.62, "h": 2.68}, "geometry": {"type": "Polygon", "coordinates": [[[416211.25, 5656499.25], [416209.25, 5656501.25], [416211.75, 5656503.75], [416213.75, 5656501.75], [416211.25, 5656499.25]]]}}, {"type": "Feature", "properties": {"z": 149.29, "h": 2.91}, "geometry": {"type": "Polygon", "coordinates": [[[416219.25, 5657333.75], [416216.75, 5657336.25], [416220.25, 5657339.75], [416222.75, 5657337.25], [416219.25, 5657333.75]]]}}, {"type": "Feature", "properties": {"z": 149.15, "h": 4.35}, "geometry": {"type": "Polygon", "coordinates": [[[416222.0, 5657372.0], [416219.5, 5657374.5], [416222.5, 5657377.5], [416225.0, 5657375.0], [416222.0, 5657372.0]]]}}, {"type": "Feature", "properties": {"z": 113.78, "h": 2.44}, "geometry": {"type": "Polygon", "coordinates": [[[416232.54, 5656027.69], [416228.31, 5656022.26], [416226.41, 5656023.74], [416230.64, 5656029.17], [416232.54, 5656027.69]]]}}, {"type": "Feature", "properties": {"z": 114.87, "h": 2.26}, "geometry": {"type": "Polygon", "coordinates": [[[416255.65, 5656204.77], [416259.81, 5656207.54], [416261.73, 5656204.65], [416257.58, 5656201.89], [416255.65, 5656204.77]]]}}, {"type": "Feature", "properties": {"z": 113.91, "h": 2.21}, "geometry": {"type": "Polygon", "coordinates": [[[416261.75, 5656022.25], [416264.9, 5656021.2], [416263.7, 5656017.6], [416260.55, 5656018.65], [416261.75, 5656022.25]]]}}, {"type": "Feature", "properties": {"z": 115.01, "h": 2.81}, "geometry": {"type": "Polygon", "coordinates": [[[416266.75, 5656137.75], [416264.25, 5656140.25], [416266.5, 5656142.5], [416269.0, 5656140.0], [416266.75, 5656137.75]]]}}, {"type": "Feature", "properties": {"z": 114.56, "h": 2.95}, "geometry": {"type": "Polygon", "coordinates": [[[416269.25, 5656160.25], [416267.25, 5656158.25], [416264.5, 5656161.0], [416266.5, 5656163.0], [416269.25, 5656160.25]]]}}, {"type": "Feature", "properties": {"z": 114.33, "h": 3.24}, "geometry": {"type": "Polygon", "coordinates": [[[416284.5, 5656479.0], [416281.0, 5656482.5], [416284.75, 5656486.25], [416288.25, 5656482.75], [416284.5, 5656479.0]]]}}, {"type": "Feature", "properties": {"z": 109.95, "h": 3.24}, "geometry": {"type": "Polygon", "coordinates": [[[416308.75, 5656589.75], [416311.5, 5656592.5], [416314.25, 5656589.75], [416311.5, 5656587.0], [416308.75, 5656589.75]]]}}, {"type": "Feature", "properties": {"z": 159.59, "h": 2.92}, "geometry": {"type": "Polygon", "coordinates": [[[416312.5, 5657376.0], [416314.5, 5657378.0], [416320.25, 5657372.25], [416318.25, 5657370.25], [416312.5, 5657376.0]]]}}, {"type": "Feature", "properties": {"z": 148.42, "h": 4.26, "hc": [4.85, 4.59, 3.62, 3.89]}, "geometry": {"type": "Polygon", "coordinates": [[[416337.47, 5657255.64], [416341.94, 5657259.37], [416344.03, 5657256.86], [416339.56, 5657253.13], [416337.47, 5657255.64]]]}}, {"type": "Feature", "properties": {"z": 157.64, "h": 3.13}, "geometry": {"type": "Polygon", "coordinates": [[[416359.49, 5657328.81], [416364.93, 5657325.54], [416362.94, 5657322.24], [416357.5, 5657325.5], [416359.49, 5657328.81]]]}}, {"type": "Feature", "properties": {"z": 110.22, "h": 3.07}, "geometry": {"type": "Polygon", "coordinates": [[[416363.15, 5656563.77], [416360.15, 5656568.27], [416363.5, 5656570.5], [416366.5, 5656566.0], [416363.15, 5656563.77]]]}}, {"type": "Feature", "properties": {"z": 168.07, "h": 2.59}, "geometry": {"type": "Polygon", "coordinates": [[[416372.26, 5657611.56], [416370.71, 5657605.32], [416366.94, 5657606.26], [416368.5, 5657612.5], [416372.26, 5657611.56]]]}}, {"type": "Feature", "properties": {"z": 114.31, "h": 2.37}, "geometry": {"type": "Polygon", "coordinates": [[[416392.75, 5656363.75], [416389.0, 5656367.5], [416391.0, 5656369.5], [416394.75, 5656365.75], [416392.75, 5656363.75]]]}}, {"type": "Feature", "properties": {"z": 113.54, "h": 2.65}, "geometry": {"type": "Polygon", "coordinates": [[[416393.25, 5656418.25], [416391.0, 5656420.5], [416394.25, 5656423.75], [416396.5, 5656421.5], [416393.25, 5656418.25]]]}}, {"type": "Feature", "properties": {"z": 159.29, "h": 2.57}, "geometry": {"type": "Polygon", "coordinates": [[[416395.5, 5657386.0], [416398.25, 5657383.25], [416395.5, 5657380.5], [416392.75, 5657383.25], [416395.5, 5657386.0]]]}}, {"type": "Feature", "properties": {"z": 111.71, "h": 3.79}, "geometry": {"type": "Polygon", "coordinates": [[[416410.0, 5656440.0], [416407.5, 5656442.5], [416411.0, 5656446.0], [416413.5, 5656443.5], [416410.0, 5656440.0]]]}}, {"type": "Feature", "properties": {"z": 112.29, "h": 2.72}, "geometry": {"type": "Polygon", "coordinates": [[[416416.25, 5656418.75], [416413.75, 5656421.25], [416417.0, 5656424.5], [416419.5, 5656422.0], [416416.25, 5656418.75]]]}}, {"type": "Feature", "properties": {"z": 112.35, "h": 3.85, "hc": [3.35, 4.23, 4.44, 3.56]}, "geometry": {"type": "Polygon", "coordinates": [[[416431.25, 5656397.25], [416435.0, 5656401.0], [416439.25, 5656396.75], [416435.5, 5656393.0], [416431.25, 5656397.25]]]}}, {"type": "Feature", "properties": {"z": 114.35, "h": 2.59}, "geometry": {"type": "Polygon", "coordinates": [[[416436.28, 5656032.02], [416432.13, 5656037.21], [416437.07, 5656041.16], [416441.22, 5656035.98], [416436.28, 5656032.02]]]}}, {"type": "Feature", "properties": {"z": 156.06, "h": 2.74}, "geometry": {"type": "Polygon", "coordinates": [[[416439.5, 5657259.0], [416441.5, 5657261.0], [416445.0, 5657257.5], [416443.0, 5657255.5], [416439.5, 5657259.0]]]}}, {"type": "Feature", "properties": {"z": 114.38, "h": 2.47}, "geometry": {"type": "Polygon", "coordinates": [[[416475.7, 5656237.9], [416484.74, 5656244.68], [416486.84, 5656241.88], [416477.8, 5656235.1], [416475.7, 5656237.9]]]}}, {"type": "Feature", "properties": {"z": 157.86, "h": 2.81}, "geometry": {"type": "Polygon", "coordinates": [[[416488.0, 5657368.0], [416484.5, 5657371.5], [416487.5, 5657374.5], [416491.0, 5657371.0], [416488.0, 5657368.0]]]}}, {"type": "Feature", "properties": {"z": 147.16, "h": 3.67}, "geometry": {"type": "Polygon", "coordinates": [[[416502.5, 5657159.0], [416499.5, 5657162.0], [416502.5, 5657165.0], [416505.5, 5657162.0], [416502.5, 5657159.0]]]}}, {"type": "Feature", "properties": {"z": 111.83, "h": 2.85}, "geometry": {"type": "Polygon", "coordinates": [[[416513.5, 5656300.5], [416510.0, 5656304.0], [416513.25, 5656307.25], [416516.75, 5656303.75], [416513.5, 5656300.5]]]}}, {"type": "Feature", "properties": {"z": 113.17, "h": 2.47}, "geometry": {"type": "Polygon", "coordinates": [[[416523.0, 5656285.5], [416525.0, 5656283.5], [416522.5, 5656281.0], [416520.5, 5656283.0], [416523.0, 5656285.5]]]}}, {"type": "Feature", "properties": {"z": 111.64, "h": 4.04}, "geometry": {"type": "Polygon", "coordinates": [[[416526.25, 5656300.75], [416524.25, 5656302.75], [416526.5, 5656305.0], [416528.5, 5656303.0], [416526.25, 5656300.75]]]}}, {"type": "Feature", "properties": {"z": 111.2, "h": 3.6}, "geometry": {"type": "Polygon", "coordinates": [[[416528.75, 5656312.75], [416525.0, 5656316.5], [416531.0, 5656322.5], [416534.75, 5656318.75], [416528.75, 5656312.75]]]}}, {"type": "Feature", "properties": {"z": 148.53, "h": 2.47}, "geometry": {"type": "Polygon", "coordinates": [[[416529.5, 5657144.5], [416526.0, 5657148.0], [416528.5, 5657150.5], [416532.0, 5657147.0], [416529.5, 5657144.5]]]}}, {"type": "Feature", "properties": {"z": 170.13, "h": 3.21, "hc": [2.73, 3.16, 3.69, 3.25]}, "geometry": {"type": "Polygon", "coordinates": [[[416535.5, 5657505.5], [416535.5, 5657511.0], [416539.0, 5657511.0], [416539.0, 5657505.5], [416535.5, 5657505.5]]]}}, {"type": "Feature", "properties": {"z": 113.63, "h": 2.62}, "geometry": {"type": "Polygon", "coordinates": [[[416538.61, 5656236.42], [416532.29, 5656244.56], [416535.2, 5656246.82], [416541.52, 5656238.68], [416538.61, 5656236.42]]]}}, {"type": "Feature", "properties": {"z": 113.61, "h": 2.39}, "geometry": {"type": "Polygon", "coordinates": [[[416554.31, 5656184.04], [416557.54, 5656186.19], [416561.92, 5656179.62], [416558.69, 5656177.46], [416554.31, 5656184.04]]]}}, {"type": "Feature", "properties": {"z": 111.89, "h": 3.1, "hc": [2.72, 2.72, 3.51, 3.5]}, "geometry": {"type": "Polygon", "coordinates": [[[416561.94, 5656245.08], [416557.94, 5656242.08], [416555.12, 5656245.84], [416559.12, 5656248.84], [416561.94, 5656245.08]]]}}, {"type": "Feature", "properties": {"z": 176.32, "h": 3.12}, "geometry": {"type": "Polygon", "coordinates": [[[416565.5, 5657561.5], [416565.5, 5657564.5], [416569.5, 5657564.5], [416569.5, 5657561.5], [416565.5, 5657561.5]]]}}, {"type": "Feature", "properties": {"z": 161.02, "h": 3.01}, "geometry": {"type": "Polygon", "coordinates": [[[416583.75, 5657211.75], [416581.25, 5657209.25], [416579.0, 5657211.5], [416581.5, 5657214.0], [416583.75, 5657211.75]]]}}, {"type": "Feature", "properties": {"z": 114.46, "h": 2.56, "hc": [2.3, 2.71, 2.84, 2.43]}, "geometry": {"type": "Polygon", "coordinates": [[[416585.5, 5656062.5], [416587.5, 5656064.5], [416590.5, 5656061.5], [416588.5, 5656059.5], [416585.5, 5656062.5]]]}}, {"type": "Feature", "properties": {"z": 110.86, "h": 2.97, "hc": [1.99, 2.45, 4.01, 3.55]}, "geometry": {"type": "Polygon", "coordinates": [[[416617.25, 5656911.25], [416613.5, 5656907.5], [416611.5, 5656909.5], [416615.25, 5656913.25], [416617.25, 5656911.25]]]}}, {"type": "Feature", "properties": {"z": 161.49, "h": 3.41, "hc": [2.44, 2.93, 4.07, 3.58]}, "geometry": {"type": "Polygon", "coordinates": [[[416622.0, 5657267.5], [416622.0, 5657270.5], [416626.0, 5657270.5], [416626.0, 5657267.5], [416622.0, 5657267.5]]]}}, {"type": "Feature", "properties": {"z": 113.27, "h": 2.83}, "geometry": {"type": "Polygon", "coordinates": [[[416629.5, 5656100.5], [416632.0, 5656103.0], [416634.75, 5656100.25], [416632.25, 5656097.75], [416629.5, 5656100.5]]]}}, {"type": "Feature", "properties": {"z": 162.61, "h": 2.8}, "geometry": {"type": "Polygon", "coordinates": [[[416648.5, 5657215.0], [416644.5, 5657219.0], [416648.0, 5657222.5], [416652.0, 5657218.5], [416648.5, 5657215.0]]]}}, {"type": "Feature", "properties": {"z": 180.33, "h": 2.99}, "geometry": {"type": "Polygon", "coordinates": [[[416654.68, 5657534.24], [416653.81, 5657540.33], [416657.03, 5657540.79], [416657.9, 5657534.7], [416654.68, 5657534.24]]]}}, {"type": "Feature", "properties": {"z": 171.23, "h": 3.3, "hc": [3.9, 3.51, 2.66, 3.05]}, "geometry": {"type": "Polygon", "coordinates": [[[416660.0, 5657417.0], [416660.0, 5657421.0], [416667.0, 5657421.0], [416667.0, 5657417.0], [416660.0, 5657417.0]]]}}, {"type": "Feature", "properties": {"z": 117.0, "h": 4.08}, "geometry": {"type": "Polygon", "coordinates": [[[416695.75, 5656889.25], [416692.5, 5656892.5], [416695.25, 5656895.25], [416698.5, 5656892.0], [416695.75, 5656889.25]]]}}, {"type": "Feature", "properties": {"z": 110.36, "h": 3.03}, "geometry": {"type": "Polygon", "coordinates": [[[416704.4, 5656742.2], [416708.6, 5656744.3], [416711.2, 5656739.1], [416707.0, 5656737.0], [416704.4, 5656742.2]]]}}, {"type": "Feature", "properties": {"z": 110.68, "h": 3.27, "hc": [2.67, 2.67, 4.0, 4.0]}, "geometry": {"type": "Polygon", "coordinates": [[[416705.5, 5656448.0], [416703.0, 5656453.0], [416709.0, 5656456.0], [416711.5, 5656451.0], [416705.5, 5656448.0]]]}}, {"type": "Feature", "properties": {"z": 171.75, "h": 2.7}, "geometry": {"type": "Polygon", "coordinates": [[[416720.5, 5657306.5], [416720.5, 5657311.0], [416724.5, 5657311.0], [416724.5, 5657306.5], [416720.5, 5657306.5]]]}}, {"type": "Feature", "properties": {"z": 173.46, "h": 3.05}, "geometry": {"type": "Polygon", "coordinates": [[[416726.82, 5657343.92], [416731.22, 5657345.81], [416732.47, 5657342.91], [416728.06, 5657341.03], [416726.82, 5657343.92]]]}}, {"type": "Feature", "properties": {"z": 110.8, "h": 2.34}, "geometry": {"type": "Polygon", "coordinates": [[[416743.0, 5656660.0], [416747.0, 5656664.0], [416749.25, 5656661.75], [416745.25, 5656657.75], [416743.0, 5656660.0]]]}}, {"type": "Feature", "properties": {"z": 112.23, "h": 5.89}, "geometry": {"type": "Polygon", "coordinates": [[[416766.9, 5656443.7], [416760.28, 5656442.23], [416759.48, 5656445.83], [416766.1, 5656447.3], [416766.9, 5656443.7]]]}}, {"type": "Feature", "properties": {"z": 137.63, "h": 3.5}, "geometry": {"type": "Polygon", "coordinates": [[[416775.0, 5656851.0], [416775.0, 5656854.5], [416778.0, 5656854.5], [416778.0, 5656851.0], [416775.0, 5656851.0]]]}}, {"type": "Feature", "properties": {"z": 168.55, "h": 3.31}, "geometry": {"type": "Polygon", "coordinates": [[[416783.05, 5657198.35], [416776.6, 5657196.2], [416774.5, 5657202.5], [416780.95, 5657204.65], [416783.05, 5657198.35]]]}}, {"type": "Feature", "properties": {"z": 134.28, "h": 2.99, "hc": [2.81, 2.44, 3.18, 3.55]}, "geometry": {"type": "Polygon", "coordinates": [[[416783.5, 5656827.5], [416780.0, 5656831.0], [416782.75, 5656833.75], [416786.25, 5656830.25], [416783.5, 5656827.5]]]}}, {"type": "Feature", "properties": {"z": 110.46, "h": 3.83}, "geometry": {"type": "Polygon", "coordinates": [[[416785.0, 5656394.0], [416780.75, 5656398.25], [416783.75, 5656401.25], [416788.0, 5656397.0], [416785.0, 5656394.0]]]}}, {"type": "Feature", "properties": {"z": 112.26, "h": 2.56, "hc": [2.01, 1.96, 3.28, 3.33]}, "geometry": {"type": "Polygon", "coordinates": [[[416812.95, 5656588.78], [416805.76, 5656584.29], [416803.79, 5656587.43], [416810.98, 5656591.93], [416812.95, 5656588.78]]]}}, {"type": "Feature", "properties": {"z": 161.54, "h": 2.71}, "geometry": {"type": "Polygon", "coordinates": [[[416814.0, 5657119.0], [416814.0, 5657121.5], [416818.5, 5657121.5], [416818.5, 5657119.0], [416814.0, 5657119.0]]]}}, {"type": "Feature", "properties": {"z": 113.24, "h": 2.79}, "geometry": {"type": "Polygon", "coordinates": [[[416827.42, 5656531.23], [416823.46, 5656536.17], [416826.7, 5656538.76], [416830.65, 5656533.82], [416827.42, 5656531.23]]]}}, {"type": "Feature", "properties": {"z": 112.11, "h": 2.86}, "geometry": {"type": "Polygon", "coordinates": [[[416846.0, 5656401.5], [416844.0, 5656403.5], [416847.5, 5656407.0], [416849.5, 5656405.0], [416846.0, 5656401.5]]]}}, {"type": "Feature", "properties": {"z": 212.97, "h": 3.18}, "geometry": {"type": "Polygon", "coordinates": [[[416862.5, 5657517.5], [416862.5, 5657520.5], [416866.0, 5657520.5], [416866.0, 5657517.5], [416862.5, 5657517.5]]]}}, {"type": "Feature", "properties": {"z": 198.07, "h": 4.69, "hc": [3.0, 4.65, 6.2, 4.54]}, "geometry": {"type": "Polygon", "coordinates": [[[416864.5, 5657353.5], [416864.5, 5657357.5], [416868.0, 5657357.5], [416868.0, 5657353.5], [416864.5, 5657353.5]]]}}, {"type": "Feature", "properties": {"z": 110.31, "h": 3.52}, "geometry": {"type": "Polygon", "coordinates": [[[416870.75, 5656286.25], [416866.75, 5656290.25], [416870.25, 5656293.75], [416874.25, 5656289.75], [416870.75, 5656286.25]]]}}, {"type": "Feature", "properties": {"z": 112.87, "h": 5.18, "hc": [6.65, 3.97, 3.84, 6.52]}, "geometry": {"type": "Polygon", "coordinates": [[[416872.92, 5656416.23], [416869.01, 5656413.11], [416866.96, 5656415.67], [416870.87, 5656418.79], [416872.92, 5656416.23]]]}}, {"type": "Feature", "properties": {"z": 110.9, "h": 2.69}, "geometry": {"type": "Polygon", "coordinates": [[[416881.01, 5656245.08], [416885.33, 5656248.78], [416887.34, 5656246.43], [416883.02, 5656242.73], [416881.01, 5656245.08]]]}}, {"type": "Feature", "properties": {"z": 152.48, "h": 3.01}, "geometry": {"type": "Polygon", "coordinates": [[[416891.04, 5656952.31], [416886.65, 5656945.73], [416883.42, 5656947.88], [416887.81, 5656954.46], [416891.04, 5656952.31]]]}}, {"type": "Feature", "properties": {"z": 154.44, "h": 2.95}, "geometry": {"type": "Polygon", "coordinates": [[[416899.0, 5656841.0], [416899.0, 5656844.5], [416902.5, 5656844.5], [416902.5, 5656841.0], [416899.0, 5656841.0]]]}}, {"type": "Feature", "properties": {"z": 110.99, "h": 2.96}, "geometry": {"type": "Polygon", "coordinates": [[[416912.0, 5656254.0], [416912.0, 5656260.5], [416916.0, 5656260.5], [416916.0, 5656254.0], [416912.0, 5656254.0]]]}}, {"type": "Feature", "properties": {"z": 172.9, "h": 2.93}, "geometry": {"type": "Polygon", "coordinates": [[[416918.5, 5657045.5], [416918.5, 5657049.5], [416921.5, 5657049.5], [416921.5, 5657045.5], [416918.5, 5657045.5]]]}}, {"type": "Feature", "properties": {"z": 147.76, "h": 2.3}, "geometry": {"type": "Polygon", "coordinates": [[[416930.0, 5656742.5], [416926.5, 5656746.0], [416928.75, 5656748.25], [416932.25, 5656744.75], [416930.0, 5656742.5]]]}}, {"type": "Feature", "properties": {"z": 114.58, "h": 2.65}, "geometry": {"type": "Polygon", "coordinates": [[[416946.25, 5656393.25], [416943.0, 5656396.5], [416946.0, 5656399.5], [416949.25, 5656396.25], [416946.25, 5656393.25]]]}}, {"type": "Feature", "properties": {"z": 110.26, "h": 3.05}, "geometry": {"type": "Polygon", "coordinates": [[[416947.25, 5656199.75], [416943.75, 5656196.25], [416939.5, 5656200.5], [416943.0, 5656204.0], [416947.25, 5656199.75]]]}}, {"type": "Feature", "properties": {"z": 113.62, "h": 2.98}, "geometry": {"type": "Polygon", "coordinates": [[[416954.18, 5656326.48], [416959.98, 5656331.32], [416962.2, 5656328.66], [416956.39, 5656323.83], [416954.18, 5656326.48]]]}}, {"type": "Feature", "properties": {"z": 171.39, "h": 3.77, "hc": [3.62, 3.48, 3.99, 4.12]}, "geometry": {"type": "Polygon", "coordinates": [[[416970.11, 5656977.92], [416966.81, 5656972.96], [416964.27, 5656974.65], [416967.58, 5656979.62], [416970.11, 5656977.92]]]}}, {"type": "Feature", "properties": {"z": 217.8, "h": 2.76}, "geometry": {"type": "Polygon", "coordinates": [[[417005.0, 5657382.0], [417005.0, 5657386.5], [417011.0, 5657386.5], [417011.0, 5657382.0], [417005.0, 5657382.0]]]}}, {"type": "Feature", "properties": {"z": 218.64, "h": 2.83, "hc": [2.37, 2.84, 3.23, 2.76]}, "geometry": {"type": "Polygon", "coordinates": [[[417015.0, 5657562.5], [417015.0, 5657566.0], [417018.0, 5657566.0], [417018.0, 5657562.5], [417015.0, 5657562.5]]]}}, {"type": "Feature", "properties": {"z": 128.04, "h": 2.81, "hc": [2.73, 2.09, 2.93, 3.57]}, "geometry": {"type": "Polygon", "coordinates": [[[417051.5, 5656477.0], [417051.5, 5656480.5], [417056.5, 5656480.5], [417056.5, 5656477.0], [417051.5, 5656477.0]]]}}, {"type": "Feature", "properties": {"z": 202.06, "h": 3.43, "hc": [3.05, 4.46, 3.86, 2.45]}, "geometry": {"type": "Polygon", "coordinates": [[[417064.75, 5657063.25], [417069.25, 5657061.75], [417068.4, 5657059.2], [417063.9, 5657060.7], [417064.75, 5657063.25]]]}}, {"type": "Feature", "properties": {"z": 113.06, "h": 3.33}, "geometry": {"type": "Polygon", "coordinates": [[[417069.0, 5656278.5], [417073.54, 5656271.69], [417071.0, 5656270.0], [417066.46, 5656276.81], [417069.0, 5656278.5]]]}}, {"type": "Feature", "properties": {"z": 112.48, "h": 3.29}, "geometry": {"type": "Polygon", "coordinates": [[[417096.81, 5656247.04], [417093.12, 5656244.58], [417091.81, 5656246.54], [417095.5, 5656249.0], [417096.81, 5656247.04]]]}}, {"type": "Feature", "properties": {"z": 162.23, "h": 2.6}, "geometry": {"type": "Polygon", "coordinates": [[[417100.91, 5656861.35], [417096.68, 5656860.29], [417095.74, 5656864.06], [417099.97, 5656865.12], [417100.91, 5656861.35]]]}}, {"type": "Feature", "properties": {"z": 137.99, "h": 3.29}, "geometry": {"type": "Polygon", "coordinates": [[[417115.8, 5656513.4], [417118.8, 5656514.9], [417120.8, 5656510.9], [417117.8, 5656509.4], [417115.8, 5656513.4]]]}}, {"type": "Feature", "properties": {"z": 112.42, "h": 2.33}, "geometry": {"type": "Polygon", "coordinates": [[[417124.0, 5656286.0], [417126.0, 5656288.0], [417129.25, 5656284.75], [417127.25, 5656282.75], [417124.0, 5656286.0]]]}}, {"type": "Feature", "properties": {"z": 113.77, "h": 2.29}, "geometry": {"type": "Polygon", "coordinates": [[[417132.25, 5656213.25], [417134.25, 5656215.25], [417137.25, 5656212.25], [417135.25, 5656210.25], [417132.25, 5656213.25]]]}}, {"type": "Feature", "properties": {"z": 114.17, "h": 2.39}, "geometry": {"type": "Polygon", "coordinates": [[[417150.55, 5656062.12], [417155.64, 5656064.16], [417156.78, 5656061.31], [417151.69, 5656059.28], [417150.55, 5656062.12]]]}}, {"type": "Feature", "properties": {"z": 220.06, "h": 3.98}, "geometry": {"type": "Polygon", "coordinates": [[[417169.38, 5657212.08], [417172.15, 5657216.23], [417175.04, 5657214.31], [417172.27, 5657210.15], [417169.38, 5657212.08]]]}}, {"type": "Feature", "properties": {"z": 208.94, "h": 2.49}, "geometry": {"type": "Polygon", "coordinates": [[[417220.26, 5657025.94], [417225.68, 5657027.29], [417226.53, 5657023.88], [417221.12, 5657022.53], [417220.26, 5657025.94]]]}}, {"type": "Feature", "properties": {"z": 189.58, "h": 3.18}, "geometry": {"type": "Polygon", "coordinates": [[[417239.0, 5656890.0], [417239.0, 5656893.0], [417243.0, 5656893.0], [417243.0, 5656890.0], [417239.0, 5656890.0]]]}}, {"type": "Feature", "properties": {"z": 222.15, "h": 2.62}, "geometry": {"type": "Polygon", "coordinates": [[[417248.0, 5657247.5], [417251.75, 5657243.75], [417248.5, 5657240.5], [417244.75, 5657244.25], [417248.0, 5657247.5]]]}}, {"type": "Feature", "properties": {"z": 221.95, "h": 2.66}, "geometry": {"type": "Polygon", "coordinates": [[[417273.46, 5657237.81], [417276.31, 5657233.54], [417273.77, 5657231.85], [417270.92, 5657236.12], [417273.46, 5657237.81]]]}}, {"type": "Feature", "properties": {"z": 222.33, "h": 2.8}, "geometry": {"type": "Polygon", "coordinates": [[[417280.7, 5657611.9], [417283.3, 5657617.1], [417286.5, 5657615.5], [417283.9, 5657610.3], [417280.7, 5657611.9]]]}}, {"type": "Feature", "properties": {"z": 225.22, "h": 2.7}, "geometry": {"type": "Polygon", "coordinates": [[[417290.5, 5657570.5], [417286.5, 5657574.5], [417290.75, 5657578.75], [417294.75, 5657574.75], [417290.5, 5657570.5]]]}}, {"type": "Feature", "properties": {"z": 162.03, "h": 2.63}, "geometry": {"type": "Polygon", "coordinates": [[[417303.5, 5656799.5], [417303.5, 5656803.5], [417308.5, 5656803.5], [417308.5, 5656799.5], [417303.5, 5656799.5]]]}}, {"type": "Feature", "properties": {"z": 225.73, "h": 2.75}, "geometry": {"type": "Polygon", "coordinates": [[[417304.25, 5657312.25], [417306.25, 5657314.25], [417309.5, 5657311.0], [417307.5, 5657309.0], [417304.25, 5657312.25]]]}}, {"type": "Feature", "properties": {"z": 225.93, "h": 2.67}, "geometry": {"type": "Polygon", "coordinates": [[[417304.19, 5657526.57], [417299.81, 5657522.93], [417297.8, 5657525.34], [417302.18, 5657528.98], [417304.19, 5657526.57]]]}}, {"type": "Feature", "properties": {"z": 226.13, "h": 4.34, "hc": [4.0, 5.86, 4.45, 2.59]}, "geometry": {"type": "Polygon", "coordinates": [[[417309.0, 5657396.5], [417309.0, 5657400.5], [417312.5, 5657400.5], [417312.5, 5657396.5], [417309.0, 5657396.5]]]}}, {"type": "Feature", "properties": {"z": 219.19, "h": 2.78, "hc": [2.41, 2.45, 3.1, 3.05]}, "geometry": {"type": "Polygon", "coordinates": [[[417317.5, 5657136.5], [417317.5, 5657141.0], [417320.5, 5657141.0], [417320.5, 5657136.5], [417317.5, 5657136.5]]]}}, {"type": "Feature", "properties": {"z": 227.07, "h": 3.91}, "geometry": {"type": "Polygon", "coordinates": [[[417333.25, 5657335.25], [417331.25, 5657337.25], [417335.25, 5657341.25], [417337.25, 5657339.25], [417333.25, 5657335.25]]]}}, {"type": "Feature", "properties": {"z": 221.63, "h": 2.85}, "geometry": {"type": "Polygon", "coordinates": [[[417335.25, 5657221.75], [417338.5, 5657225.0], [417341.5, 5657222.0], [417338.25, 5657218.75], [417335.25, 5657221.75]]]}}, {"type": "Feature", "properties": {"z": 221.02, "h": 3.08}, "geometry": {"type": "Polygon", "coordinates": [[[417336.0, 5657175.0], [417332.0, 5657171.0], [417328.75, 5657174.25], [417332.75, 5657178.25], [417336.0, 5657175.0]]]}}, {"type": "Feature", "properties": {"z": 227.14, "h": 2.99}, "geometry": {"type": "Polygon", "coordinates": [[[417339.8, 5657301.4], [417343.6, 5657303.3], [417345.4, 5657299.7], [417341.6, 5657297.8], [417339.8, 5657301.4]]]}}, {"type": "Feature", "properties": {"z": 227.12, "h": 2.94}, "geometry": {"type": "Polygon", "coordinates": [[[417342.25, 5657334.25], [417335.5, 5657341.0], [417338.25, 5657343.75], [417345.0, 5657337.0], [417342.25, 5657334.25]]]}}, {"type": "Feature", "properties": {"z": 227.23, "h": 2.39}, "geometry": {"type": "Polygon", "coordinates": [[[417358.5, 5657416.0], [417360.5, 5657418.0], [417365.5, 5657413.0], [417363.5, 5657411.0], [417358.5, 5657416.0]]]}}, {"type": "Feature", "properties": {"z": 196.54, "h": 3.18}, "geometry": {"type": "Polygon", "coordinates": [[[417365.65, 5656571.64], [417367.76, 5656576.9], [417375.78, 5656573.69], [417373.67, 5656568.43], [417365.65, 5656571.64]]]}}, {"type": "Feature", "properties": {"z": 212.27, "h": 3.27, "hc": [3.98, 3.95, 2.32, 2.35]}, "geometry": {"type": "Polygon", "coordinates": [[[417396.65, 5656477.45], [417400.25, 5656476.25], [417398.5, 5656471.0], [417394.9, 5656472.2], [417396.65, 5656477.45]]]}}, {"type": "Feature", "properties": {"z": 225.06, "h": 3.03}, "geometry": {"type": "Polygon", "coordinates": [[[417402.0, 5657569.5], [417402.0, 5657572.0], [417406.0, 5657572.0], [417406.0, 5657569.5], [417402.0, 5657569.5]]]}}, {"type": "Feature", "properties": {"z": 193.68, "h": 2.97}, "geometry": {"type": "Polygon", "coordinates": [[[417405.0, 5656571.0], [417405.0, 5656574.0], [417408.5, 5656574.0], [417408.5, 5656571.0], [417405.0, 5656571.0]]]}}, {"type": "Feature", "properties": {"z": 226.57, "h": 2.85}, "geometry": {"type": "Polygon", "coordinates": [[[417405.5, 5657272.0], [417402.7, 5657270.6], [417399.8, 5657276.4], [417402.6, 5657277.8], [417405.5, 5657272.0]]]}}, {"type": "Feature", "properties": {"z": 225.74, "h": 2.29}, "geometry": {"type": "Polygon", "coordinates": [[[417407.5, 5657517.5], [417407.5, 5657520.5], [417413.5, 5657520.5], [417413.5, 5657517.5], [417407.5, 5657517.5]]]}}, {"type": "Feature", "properties": {"z": 225.81, "h": 2.84, "hc": [2.62, 3.13, 3.0, 2.49]}, "geometry": {"type": "Polygon", "coordinates": [[[417410.0, 5657527.5], [417407.5, 5657530.0], [417410.75, 5657533.25], [417413.25, 5657530.75], [417410.0, 5657527.5]]]}}, {"type": "Feature", "properties": {"z": 226.48, "h": 2.74}, "geometry": {"type": "Polygon", "coordinates": [[[417412.74, 5657668.06], [417416.66, 5657674.6], [417421.44, 5657671.74], [417417.52, 5657665.19], [417412.74, 5657668.06]]]}}, {"type": "Feature", "properties": {"z": 176.48, "h": 2.62}, "geometry": {"type": "Polygon", "coordinates": [[[417416.0, 5656257.5], [417414.3, 5656260.9], [417417.5, 5656262.5], [417419.2, 5656259.1], [417416.0, 5656257.5]]]}}, {"type": "Feature", "properties": {"z": 212.92, "h": 2.48}, "geometry": {"type": "Polygon", "coordinates": [[[417418.11, 5656955.92], [417413.61, 5656958.92], [417415.54, 5656961.81], [417420.04, 5656958.81], [417418.11, 5656955.92]]]}}, {"type": "Feature", "properties": {"z": 176.8, "h": 2.61}, "geometry": {"type": "Polygon", "coordinates": [[[417424.0, 5656242.0], [417424.0, 5656245.5], [417427.0, 5656245.5], [417427.0, 5656242.0], [417424.0, 5656242.0]]]}}, {"type": "Feature", "properties": {"z": 226.77, "h": 2.85}, "geometry": {"type": "Polygon", "coordinates": [[[417447.3, 5657626.1], [417451.7, 5657623.9], [417446.9, 5657614.3], [417442.5, 5657616.5], [417447.3, 5657626.1]]]}}, {"type": "Feature", "properties": {"z": 228.17, "h": 2.31}, "geometry": {"type": "Polygon", "coordinates": [[[417452.8, 5657346.4], [417455.6, 5657347.8], [417458.4, 5657342.2], [417455.6, 5657340.8], [417452.8, 5657346.4]]]}}, {"type": "Feature", "properties": {"z": 227.39, "h": 2.91}, "geometry": {"type": "Polygon", "coordinates": [[[417475.53, 5657302.58], [417478.43, 5657294.85], [417475.47, 5657293.74], [417472.58, 5657301.47], [417475.53, 5657302.58]]]}}, {"type": "Feature", "properties": {"z": 227.11, "h": 3.15}, "geometry": {"type": "Polygon", "coordinates": [[[417481.5, 5657652.0], [417481.5, 5657655.5], [417484.5, 5657655.5], [417484.5, 5657652.0], [417481.5, 5657652.0]]]}}, {"type": "Feature", "properties": {"z": 195.56, "h": 2.57}, "geometry": {"type": "Polygon", "coordinates": [[[417496.25, 5656619.75], [417493.75, 5656622.25], [417496.25, 5656624.75], [417498.75, 5656622.25], [417496.25, 5656619.75]]]}}, {"type": "Feature", "properties": {"z": 228.25, "h": 3.17, "hc": [3.47, 2.99, 2.9, 3.38]}, "geometry": {"type": "Polygon", "coordinates": [[[417499.5, 5657463.0], [417499.5, 5657466.0], [417504.5, 5657466.0], [417504.5, 5657463.0], [417499.5, 5657463.0]]]}}, {"type": "Feature", "properties": {"z": 158.02, "h": 3.14}, "geometry": {"type": "Polygon", "coordinates": [[[417511.0, 5656007.0], [417511.0, 5656010.0], [417515.0, 5656010.0], [417515.0, 5656007.0], [417511.0, 5656007.0]]]}}, {"type": "Feature", "properties": {"z": 217.96, "h": 2.43}, "geometry": {"type": "Polygon", "coordinates": [[[417519.5, 5657155.5], [417519.5, 5657160.0], [417523.0, 5657160.0], [417523.0, 5657155.5], [417519.5, 5657155.5]]]}}, {"type": "Feature", "properties": {"z": 228.93, "h": 3.14}, "geometry": {"type": "Polygon", "coordinates": [[[417534.87, 5657717.21], [417530.05, 5657721.06], [417534.05, 5657726.06], [417538.87, 5657722.21], [417534.87, 5657717.21]]]}}, {"type": "Feature", "properties": {"z": 176.86, "h": 2.97}, "geometry": {"type": "Polygon", "coordinates": [[[417539.0, 5656764.0], [417539.0, 5656767.0], [417542.5, 5656767.0], [417542.5, 5656764.0], [417539.0, 5656764.0]]]}}, {"type": "Feature", "properties": {"z": 219.61, "h": 2.38}, "geometry": {"type": "Polygon", "coordinates": [[[417551.09, 5657134.37], [417556.41, 5657135.13], [417556.92, 5657131.56], [417551.6, 5657130.8], [417551.09, 5657134.37]]]}}, {"type": "Feature", "properties": {"z": 220.79, "h": 3.58}, "geometry": {"type": "Polygon", "coordinates": [[[417562.75, 5657181.75], [417560.5, 5657184.0], [417563.75, 5657187.25], [417566.0, 5657185.0], [417562.75, 5657181.75]]]}}, {"type": "Feature", "properties": {"z": 225.38, "h": 3.79}, "geometry": {"type": "Polygon", "coordinates": [[[417569.81, 5657770.78], [417567.07, 5657777.17], [417570.51, 5657778.65], [417573.25, 5657772.25], [417569.81, 5657770.78]]]}}, {"type": "Feature", "properties": {"z": 226.43, "h": 2.91}, "geometry": {"type": "Polygon", "coordinates": [[[417581.75, 5657512.25], [417585.25, 5657508.75], [417583.0, 5657506.5], [417579.5, 5657510.0], [417581.75, 5657512.25]]]}}, {"type": "Feature", "properties": {"z": 227.1, "h": 2.73}, "geometry": {"type": "Polygon", "coordinates": [[[417598.25, 5657781.75], [417595.75, 5657784.25], [417598.0, 5657786.5], [417600.5, 5657784.0], [417598.25, 5657781.75]]]}}, {"type": "Feature", "properties": {"z": 226.6, "h": 4.04}, "geometry": {"type": "Polygon", "coordinates": [[[417618.0, 5657754.0], [417618.0, 5657760.0], [417625.5, 5657760.0], [417625.5, 5657754.0], [417618.0, 5657754.0]]]}}, {"type": "Feature", "properties": {"z": 211.2, "h": 2.52}, "geometry": {"type": "Polygon", "coordinates": [[[417638.5, 5657230.5], [417638.5, 5657233.5], [417642.5, 5657233.5], [417642.5, 5657230.5], [417638.5, 5657230.5]]]}}, {"type": "Feature", "properties": {"z": 210.5, "h": 4.09}, "geometry": {"type": "Polygon", "coordinates": [[[417639.75, 5657145.75], [417636.0, 5657149.5], [417638.75, 5657152.25], [417642.5, 5657148.5], [417639.75, 5657145.75]]]}}, {"type": "Feature", "properties": {"z": 211.62, "h": 2.36}, "geometry": {"type": "Polygon", "coordinates": [[[417642.0, 5657247.0], [417639.5, 5657249.5], [417642.5, 5657252.5], [417645.0, 5657250.0], [417642.0, 5657247.0]]]}}, {"type": "Feature", "properties": {"z": 226.93, "h": 2.46}, "geometry": {"type": "Polygon", "coordinates": [[[417645.6, 5657541.3], [417643.9, 5657544.7], [417647.1, 5657546.3], [417648.8, 5657542.9], [417645.6, 5657541.3]]]}}, {"type": "Feature", "properties": {"z": 226.61, "h": 2.74, "hc": [2.49, 3.23, 3.1, 2.37]}, "geometry": {"type": "Polygon", "coordinates": [[[417646.5, 5656391.5], [417646.5, 5656394.5], [417650.5, 5656394.5], [417650.5, 5656391.5], [417646.5, 5656391.5]]]}}, {"type": "Feature", "properties": {"z": 227.74, "h": 3.4}, "geometry": {"type": "Polygon", "coordinates": [[[417656.32, 5657564.85], [417661.61, 5657561.06], [417659.49, 5657558.08], [417654.19, 5657561.87], [417656.32, 5657564.85]]]}}, {"type": "Feature", "properties": {"z": 199.58, "h": 3.53}, "geometry": {"type": "Polygon", "coordinates": [[[417660.64, 5656735.66], [417664.69, 5656737.28], [417665.76, 5656734.6], [417661.71, 5656732.98], [417660.64, 5656735.66]]]}}, {"type": "Feature", "properties": {"z": 227.47, "h": 2.63}, "geometry": {"type": "Polygon", "coordinates": [[[417661.5, 5656432.0], [417664.0, 5656434.5], [417667.0, 5656431.5], [417664.5, 5656429.0], [417661.5, 5656432.0]]]}}, {"type": "Feature", "properties": {"z": 196.49, "h": 3.02}, "geometry": {"type": "Polygon", "coordinates": [[[417672.0, 5656824.0], [417672.0, 5656827.0], [417676.0, 5656827.0], [417676.0, 5656824.0], [417672.0, 5656824.0]]]}}, {"type": "Feature", "properties": {"z": 197.45, "h": 4.22, "hc": [3.76, 4.35, 4.71, 4.12]}, "geometry": {"type": "Polygon", "coordinates": [[[417677.4, 5656819.8], [417674.0, 5656821.5], [417675.6, 5656824.7], [417679.0, 5656823.0], [417677.4, 5656819.8]]]}}, {"type": "Feature", "properties": {"z": 182.37, "h": 2.5}, "geometry": {"type": "Polygon", "coordinates": [[[417691.5, 5656031.0], [417693.5, 5656033.0], [417696.5, 5656030.0], [417694.5, 5656028.0], [417691.5, 5656031.0]]]}}, {"type": "Feature", "properties": {"z": 205.44, "h": 3.08}, "geometry": {"type": "Polygon", "coordinates": [[[417694.25, 5656086.75], [417691.75, 5656089.25], [417694.0, 5656091.5], [417696.5, 5656089.0], [417694.25, 5656086.75]]]}}, {"type": "Feature", "properties": {"z": 232.62, "h": 4.37}, "geometry": {"type": "Polygon", "coordinates": [[[417696.25, 5657535.75], [417701.0, 5657540.5], [417704.0, 5657537.5], [417699.25, 5657532.75], [417696.25, 5657535.75]]]}}, {"type": "Feature", "properties": {"z": 207.82, "h": 2.27}, "geometry": {"type": "Polygon", "coordinates": [[[417739.5, 5656792.5], [417739.5, 5656796.5], [417745.0, 5656796.5], [417745.0, 5656792.5], [417739.5, 5656792.5]]]}}, {"type": "Feature", "properties": {"z": 233.74, "h": 3.1}, "geometry": {"type": "Polygon", "coordinates": [[[417743.0, 5657423.0], [417743.0, 5657429.5], [417748.5, 5657429.5], [417748.5, 5657423.0], [417743.0, 5657423.0]]]}}, {"type": "Feature", "properties": {"z": 235.3, "h": 5.38}, "geometry": {"type": "Polygon", "coordinates": [[[417743.5, 5656313.5], [417743.5, 5656318.0], [417746.5, 5656318.0], [417746.5, 5656313.5], [417743.5, 5656313.5]]]}}, {"type": "Feature", "properties": {"z": 168.23, "h": 2.9}, "geometry": {"type": "Polygon", "coordinates": [[[417746.5, 5656912.5], [417746.5, 5656915.5], [417753.0, 5656915.5], [417753.0, 5656912.5], [417746.5, 5656912.5]]]}}, {"type": "Feature", "properties": {"z": 233.99, "h": 2.55, "hc": [2.37, 2.85, 2.76, 2.28]}, "geometry": {"type": "Polygon", "coordinates": [[[417749.0, 5657428.5], [417749.0, 5657431.0], [417753.0, 5657431.0], [417753.0, 5657428.5], [417749.0, 5657428.5]]]}}, {"type": "Feature", "properties": {"z": 198.24, "h": 2.67}, "geometry": {"type": "Polygon", "coordinates": [[[417758.4, 5657135.7], [417753.92, 5657139.06], [417755.84, 5657141.62], [417760.32, 5657138.26], [417758.4, 5657135.7]]]}}, {"type": "Feature", "properties": {"z": 237.36, "h": 2.66}, "geometry": {"type": "Polygon", "coordinates": [[[417778.5, 5656358.0], [417778.5, 5656363.5], [417782.0, 5656363.5], [417782.0, 5656358.0], [417778.5, 5656358.0]]]}}, {"type": "Feature", "properties": {"z": 232.87, "h": 2.7}, "geometry": {"type": "Polygon", "coordinates": [[[417791.75, 5656202.25], [417793.75, 5656204.25], [417796.75, 5656201.25], [417794.75, 5656199.25], [417791.75, 5656202.25]]]}}, {"type": "Feature", "properties": {"z": 227.09, "h": 3.29}, "geometry": {"type": "Polygon", "coordinates": [[[417796.12, 5656136.84], [417792.28, 5656133.96], [417789.88, 5656137.16], [417793.72, 5656140.04], [417796.12, 5656136.84]]]}}, {"type": "Feature", "properties": {"z": 234.52, "h": 2.68, "hc": [2.68, 2.34, 2.64, 2.99]}, "geometry": {"type": "Polygon", "coordinates": [[[417799.5, 5657388.0], [417799.5, 5657391.5], [417802.5, 5657391.5], [417802.5, 5657388.0], [417799.5, 5657388.0]]]}}, {"type": "Feature", "properties": {"z": 241.44, "h": 2.48}, "geometry": {"type": "Polygon", "coordinates": [[[417801.5, 5656316.5], [417801.5, 5656320.0], [417805.5, 5656320.0], [417805.5, 5656316.5], [417801.5, 5656316.5]]]}}, {"type": "Feature", "properties": {"z": 237.56, "h": 3.45, "hc": [3.8, 2.57, 3.25, 4.47]}, "geometry": {"type": "Polygon", "coordinates": [[[417814.0, 5657440.0], [417814.0, 5657444.5], [417818.0, 5657444.5], [417818.0, 5657440.0], [417814.0, 5657440.0]]]}}, {"type": "Feature", "properties": {"z": 188.87, "h": 2.68}, "geometry": {"type": "Polygon", "coordinates": [[[417826.5, 5656828.5], [417825.0, 5656833.0], [417828.15, 5656834.05], [417829.65, 5656829.55], [417826.5, 5656828.5]]]}}, {"type": "Feature", "properties": {"z": 230.23, "h": 4.24}, "geometry": {"type": "Polygon", "coordinates": [[[417839.0, 5657251.5], [417836.0, 5657254.5], [417839.0, 5657257.5], [417842.0, 5657254.5], [417839.0, 5657251.5]]]}}, {"type": "Feature", "properties": {"z": 238.77, "h": 2.47}, "geometry": {"type": "Polygon", "coordinates": [[[417858.5, 5656430.0], [417858.5, 5656435.0], [417861.5, 5656435.0], [417861.5, 5656430.0], [417858.5, 5656430.0]]]}}, {"type": "Feature", "properties": {"z": 230.05, "h": 2.88, "hc": [2.38, 3.18, 3.3, 2.5]}, "geometry": {"type": "Polygon", "coordinates": [[[417871.5, 5656567.5], [417871.5, 5656571.5], [417874.5, 5656571.5], [417874.5, 5656567.5], [417871.5, 5656567.5]]]}}, {"type": "Feature", "properties": {"z": 238.7, "h": 3.08}, "geometry": {"type": "Polygon", "coordinates": [[[417879.0, 5657420.5], [417879.0, 5657424.0], [417882.0, 5657424.0], [417882.0, 5657420.5], [417879.0, 5657420.5]]]}}, {"type": "Feature", "properties": {"z": 230.9, "h": 2.46, "hc": [2.97, 2.56, 2.0, 2.41]}, "geometry": {"type": "Polygon", "coordinates": [[[417885.5, 5656560.5], [417885.5, 5656564.5], [417889.0, 5656564.5], [417889.0, 5656560.5], [417885.5, 5656560.5]]]}}, {"type": "Feature", "properties": {"z": 174.57, "h": 2.83}, "geometry": {"type": "Polygon", "coordinates": [[[417899.46, 5656960.81], [417902.15, 5656956.77], [417898.23, 5656954.15], [417895.54, 5656958.19], [417899.46, 5656960.81]]]}}, {"type": "Feature", "properties": {"z": 241.27, "h": 3.17}, "geometry": {"type": "Polygon", "coordinates": [[[417900.6, 5656414.8], [417905.48, 5656411.14], [417903.5, 5656408.5], [417898.62, 5656412.16], [417900.6, 5656414.8]]]}}, {"type": "Feature", "properties": {"z": 175.03, "h": 2.59}, "geometry": {"type": "Polygon", "coordinates": [[[417901.78, 5656955.96], [417904.96, 5656951.72], [417901.44, 5656949.08], [417898.26, 5656953.32], [417901.78, 5656955.96]]]}}, {"type": "Feature", "properties": {"z": 253.8, "h": 2.85, "hc": [3.48, 3.67, 2.37, 2.18]}, "geometry": {"type": "Polygon", "coordinates": [[[417942.25, 5656226.75], [417939.75, 5656229.25], [417942.25, 5656231.75], [417944.75, 5656229.25], [417942.25, 5656226.75]]]}}, {"type": "Feature", "properties": {"z": 242.15, "h": 2.84}, "geometry": {"type": "Polygon", "coordinates": [[[417943.5, 5656407.5], [417943.5, 5656410.5], [417947.0, 5656410.5], [417947.0, 5656407.5], [417943.5, 5656407.5]]]}}, {"type": "Feature", "properties": {"z": 238.71, "h": 4.64}, "geometry": {"type": "Polygon", "coordinates": [[[417965.5, 5657331.0], [417965.5, 5657336.0], [417968.0, 5657336.0], [417968.0, 5657331.0], [417965.5, 5657331.0]]]}}, {"type": "Feature", "properties": {"z": 233.37, "h": 3.05}, "geometry": {"type": "Polygon", "coordinates": [[[417989.0, 5656481.0], [417992.5, 5656484.5], [417995.5, 5656481.5], [417992.0, 5656478.0], [417989.0, 5656481.0]]]}}]}