{"type": "FeatureCollection", "attribution": "\u00a9 OpenStreetMap contributors (ODbL); tower heights: Quelle: GeoSN, dl-de/by-2-0", "crs": {"type": "name", "properties": {"name": "urn:ogc:def:crs:EPSG::25833"}}, "features": [{"type": "Feature", "properties": {"k": "bell", "h": 63.3, "size": "medium", "name": "Herz-Jesu-Kirche"}, "geometry": {"type": "Point", "coordinates": [414159.71, 5655628.12]}}, {"type": "Feature", "properties": {"k": "bell", "h": 58.8, "size": "medium", "name": "Vers\u00f6hnungskirche"}, "geometry": {"type": "Point", "coordinates": [415811.96, 5655210.74]}}]}