{"type": "FeatureCollection", "attribution": "\u00a9 OpenStreetMap contributors (ODbL); tower heights: Quelle: GeoSN, dl-de/by-2-0", "crs": {"type": "name", "properties": {"name": "urn:ogc:def:crs:EPSG::25833"}}, "features": [{"type": "Feature", "properties": {"k": "bell", "h": 80.7, "size": "large", "name": "Martin-Luther-Kirche"}, "geometry": {"type": "Point", "coordinates": [412879.28, 5657704.49]}}, {"type": "Feature", "properties": {"k": "bell", "h": 69.4, "size": "large", "name": "Trinitatiskirche"}, "geometry": {"type": "Point", "coordinates": [413833.62, 5656397.56]}}, {"type": "Feature", "properties": {"k": "bell", "h": 30.5, "size": "small", "name": "Diakonissenhauskirche"}, "geometry": {"type": "Point", "coordinates": [413281.06, 5657656.34]}}]}