{"type": "FeatureCollection", "attribution": "\u00a9 OpenStreetMap contributors (ODbL); tower heights: Quelle: GeoSN, dl-de/by-2-0", "crs": {"type": "name", "properties": {"name": "urn:ogc:def:crs:EPSG::25833"}}, "features": [{"type": "Feature", "properties": {"k": "bell", "h": 94.2, "size": "large", "name": "Frauenkirche"}, "geometry": {"type": "Point", "coordinates": [411797.56, 5656355.75]}}, {"type": "Feature", "properties": {"k": "bell", "h": 90.1, "size": "large", "name": "Kreuzkirche"}, "geometry": {"type": "Point", "coordinates": [411602.76, 5656002.71]}}, {"type": "Feature", "properties": {"k": "bell", "h": 85.9, "size": "large", "name": "Dreik\u00f6nigskirche"}, "geometry": {"type": "Point", "coordinates": [411912.0, 5657365.28]}}, {"type": "Feature", "properties": {"k": "bell", "h": 83.1, "size": "large", "name": "Kathedrale Ss. Trinitatis"}, "geometry": {"type": "Point", "coordinates": [411539.02, 5656549.7]}}, {"type": "Feature", "properties": {"k": "bell", "h": 53.2, "size": "medium", "name": "Annenkirche"}, "geometry": {"type": "Point", "coordinates": [410812.72, 5656029.63]}}, {"type": "Feature", "properties": {"k": "bell", "h": 44.0, "size": "medium", "name": "Matth\u00e4us-Kirche"}, "geometry": {"type": "Point", "coordinates": [410009.62, 5657328.62]}}]}