{"type": "FeatureCollection", "attribution": "\u00a9 OpenStreetMap contributors (ODbL)", "crs": {"type": "name", "properties": {"name": "urn:ogc:def:crs:EPSG::25833"}}, "features": [{"type": "Feature", "properties": {"w": 2.5, "n": 25, "z": [108.94, 113.01]}, "geometry": {"type": "LineString", "coordinates": [[413212.86, 5657048.69], [413219.48, 5657035.88]]}}, {"type": "Feature", "properties": {"w": 2.5, "n": 9, "z": [111.98, 113.31]}, "geometry": {"type": "LineString", "coordinates": [[413312.3, 5657639.08], [413320.09, 5657641.98]]}}, {"type": "Feature", "properties": {"w": 2.5, "n": 20, "z": [110.68, 114.09]}, "geometry": {"type": "LineString", "coordinates": [[413147.4, 5657404.38], [413142.56, 5657411.24], [413141.14, 5657413.47]]}}, {"type": "Feature", "properties": {"w": 2.5, "n": 8, "z": [110.2, 111.04]}, "geometry": {"type": "LineString", "coordinates": [[413002.47, 5657350.01], [413000.62, 5657352.87]]}}, {"type": "Feature", "properties": {"w": 2.5, "n": 17, "z": [112.06, 114.28]}, "geometry": {"type": "LineString", "coordinates": [[412298.61, 5656856.44], [412293.85, 5656869.21]]}}, {"type": "Feature", "properties": {"w": 2.5, "n": 23, "z": [117.3, 121.01]}, "geometry": {"type": "LineString", "coordinates": [[412069.79, 5656401.09], [412077.54, 5656429.75]]}}, {"type": "Feature", "properties": {"w": 2.5, "n": 21, "z": [117.67, 121.17]}, "geometry": {"type": "LineString", "coordinates": [[412087.02, 5656471.16], [412079.52, 5656469.32]]}}, {"type": "Feature", "properties": {"w": 2.5, "n": 8, "z": [119.71, 121.03]}, "geometry": {"type": "LineString", "coordinates": [[412052.43, 5656500.95], [412051.36, 5656495.41]]}}, {"type": "Feature", "properties": {"w": 2.5, "n": 21, "z": [117.79, 121.14]}, "geometry": {"type": "LineString", "coordinates": [[412003.89, 5656498.15], [412032.92, 5656496.76]]}}, {"type": "Feature", "properties": {"w": 2.5, "n": 8, "z": [109.68, 110.86]}, "geometry": {"type": "LineString", "coordinates": [[412075.37, 5656383.6], [412082.37, 5656383.38]]}}, {"type": "Feature", "properties": {"w": 2.5, "n": 11, "z": [110.69, 112.07]}, "geometry": {"type": "LineString", "coordinates": [[412238.52, 5656465.85], [412238.68, 5656458.29]]}}, {"type": "Feature", "properties": {"w": 2.5, "n": 30, "z": [111.99, 116.65]}, "geometry": {"type": "LineString", "coordinates": [[412201.9, 5656457.72], [412200.34, 5656442.85]]}}, {"type": "Feature", "properties": {"w": 2.5, "n": 5, "z": [115.9, 116.66]}, "geometry": {"type": "LineString", "coordinates": [[412180.35, 5656448.44], [412180.45, 5656446.76]]}}, {"type": "Feature", "properties": {"w": 2.5, "n": 13, "z": [110.19, 112.0]}, "geometry": {"type": "LineString", "coordinates": [[413352.46, 5657564.35], [413353.4, 5657565.23], [413355.16, 5657566.2], [413358.96, 5657567.5]]}}, {"type": "Feature", "properties": {"w": 2.5, "n": 10, "z": [110.99, 112.57]}, "geometry": {"type": "LineString", "coordinates": [[413975.47, 5656736.11], [413975.46, 5656743.38]]}}, {"type": "Feature", "properties": {"w": 2.5, "n": 9, "z": [112.91, 114.37]}, "geometry": {"type": "LineString", "coordinates": [[412145.05, 5656395.66], [412144.19, 5656393.13]]}}, {"type": "Feature", "properties": {"w": 2.5, "n": 9, "z": [112.87, 114.39]}, "geometry": {"type": "LineString", "coordinates": [[412146.91, 5656401.39], [412148.01, 5656404.71]]}}, {"type": "Feature", "properties": {"w": 2.5, "n": 4, "z": [112.39, 112.95]}, "geometry": {"type": "LineString", "coordinates": [[412489.33, 5657672.72], [412488.36, 5657673.17]]}}, {"type": "Feature", "properties": {"w": 4.28, "n": 11, "z": [109.04, 110.85]}, "geometry": {"type": "LineString", "coordinates": [[413237.75, 5657473.91], [413236.03, 5657475.03], [413236.01, 5657475.04], [413234.4, 5657475.91], [413234.37, 5657475.92], [413234.34, 5657475.93], [413234.31, 5657475.94], [413234.28, 5657475.94], [413234.25, 5657475.94], [413231.49, 5657476.0], [413231.46, 5657476.0], [413231.43, 5657476.0], [413231.4, 5657475.99], [413231.37, 5657475.98], [413229.45, 5657475.28], [413229.42, 5657475.27], [413229.39, 5657475.25], [413229.37, 5657475.24], [413229.34, 5657475.22], [413228.18, 5657474.18], [413228.15, 5657474.15], [413225.06, 5657470.76]]}}, {"type": "Feature", "properties": {"w": 2.5, "n": 2, "z": [112.18, 112.58]}, "geometry": {"type": "LineString", "coordinates": [[413809.04, 5656229.79], [413808.52, 5656227.0]]}}, {"type": "Feature", "properties": {"w": 2.5, "n": 10, "z": [111.36, 112.93]}, "geometry": {"type": "LineString", "coordinates": [[412091.4, 5656354.0], [412094.17, 5656351.18]]}}, {"type": "Feature", "properties": {"w": 2.5, "n": 29, "z": [112.06, 116.7]}, "geometry": {"type": "LineString", "coordinates": [[412238.68, 5656458.29], [412238.69, 5656456.45], [412239.57, 5656443.18]]}}, {"type": "Feature", "properties": {"w": 2.5, "n": 16, "z": [111.97, 114.47]}, "geometry": {"type": "LineString", "coordinates": [[412180.47, 5656461.42], [412180.2, 5656454.36]]}}, {"type": "Feature", "properties": {"w": 2.5, "n": 9, "z": [114.47, 115.9]}, "geometry": {"type": "LineString", "coordinates": [[412180.17, 5656452.3], [412180.25, 5656450.0]]}}, {"type": "Feature", "properties": {"w": 2.5, "n": 3, "z": [114.08, 114.74]}, "geometry": {"type": "LineString", "coordinates": [[412741.07, 5657459.75], [412742.15, 5657457.7]]}}, {"type": "Feature", "properties": {"w": 2.5, "n": 4, "z": [114.21, 114.75]}, "geometry": {"type": "LineString", "coordinates": [[412763.13, 5657411.48], [412761.26, 5657414.81]]}}, {"type": "Feature", "properties": {"w": 3.0, "n": 12, "z": [114.96, 116.47]}, "geometry": {"type": "LineString", "coordinates": [[412196.65, 5656227.87], [412209.14, 5656220.54]]}}, {"type": "Feature", "properties": {"w": 2.5, "n": 18, "z": [109.71, 113.66]}, "geometry": {"type": "LineString", "coordinates": [[413093.98, 5656972.49], [413100.74, 5656960.92]]}}, {"type": "Feature", "properties": {"w": 4.14, "n": 12, "z": [109.95, 111.57]}, "geometry": {"type": "LineString", "coordinates": [[412582.29, 5657024.81], [412577.22, 5657021.85]]}}, {"type": "Feature", "properties": {"w": 2.5, "n": 9, "z": [107.56, 109.46]}, "geometry": {"type": "LineString", "coordinates": [[412672.45, 5657055.81], [412668.51, 5657061.48]]}}, {"type": "Feature", "properties": {"w": 2.5, "n": 6, "z": [111.59, 112.48]}, "geometry": {"type": "LineString", "coordinates": [[412501.47, 5656964.71], [412494.93, 5656960.71]]}}, {"type": "Feature", "properties": {"w": 2.8, "n": 45, "z": [109.66, 115.59]}, "geometry": {"type": "LineString", "coordinates": [[412778.28, 5656769.41], [412791.82, 5656777.9]]}}, {"type": "Feature", "properties": {"w": 2.5, "n": 45, "z": [110.93, 115.6]}, "geometry": {"type": "LineString", "coordinates": [[412833.72, 5656804.53], [412819.61, 5656795.4]]}}, {"type": "Feature", "properties": {"w": 2.5, "n": 2, "z": [112.84, 113.21]}, "geometry": {"type": "LineString", "coordinates": [[412059.32, 5657374.84], [412060.39, 5657379.01]]}}, {"type": "Feature", "properties": {"w": 2.5, "n": 11, "z": [113.87, 115.6]}, "geometry": {"type": "LineString", "coordinates": [[412104.33, 5656336.16], [412099.79, 5656340.4]]}}, {"type": "Feature", "properties": {"w": 2.5, "n": 12, "z": [110.81, 113.5]}, "geometry": {"type": "LineString", "coordinates": [[413037.17, 5657376.22], [413059.8, 5657391.74], [413062.22, 5657393.41]]}}, {"type": "Feature", "properties": {"w": 2.5, "n": 16, "z": [108.82, 110.52]}, "geometry": {"type": "LineString", "coordinates": [[413065.12, 5657350.74], [413071.24, 5657354.2]]}}, {"type": "Feature", "properties": {"w": 2.5, "n": 4, "z": [109.64, 110.18]}, "geometry": {"type": "LineString", "coordinates": [[412397.13, 5656588.29], [412397.89, 5656585.99]]}}, {"type": "Feature", "properties": {"w": 2.5, "n": 33, "z": [108.31, 113.94]}, "geometry": {"type": "LineString", "coordinates": [[412048.03, 5656793.23], [412051.38, 5656810.68]]}}, {"type": "Feature", "properties": {"w": 2.5, "n": 33, "z": [108.38, 113.99]}, "geometry": {"type": "LineString", "coordinates": [[412026.94, 5656799.51], [412031.13, 5656818.87]]}}, {"type": "Feature", "properties": {"w": 2.5, "n": 2, "z": [114.47, 114.87]}, "geometry": {"type": "LineString", "coordinates": [[412093.28, 5656825.15], [412092.11, 5656833.48]]}}, {"type": "Feature", "properties": {"w": 2.5, "n": 10, "z": [113.87, 115.4]}, "geometry": {"type": "LineString", "coordinates": [[412011.6, 5656821.69], [412012.02, 5656828.27]]}}, {"type": "Feature", "properties": {"w": 2.5, "n": 4, "z": [113.91, 114.27]}, "geometry": {"type": "LineString", "coordinates": [[412369.1, 5656972.94], [412371.9, 5656974.44]]}}, {"type": "Feature", "properties": {"w": 2.5, "n": 5, "z": [114.04, 114.88]}, "geometry": {"type": "LineString", "coordinates": [[412388.06, 5656937.4], [412395.23, 5656941.08]]}}, {"type": "Feature", "properties": {"w": 2.5, "n": 8, "z": [112.34, 113.5]}, "geometry": {"type": "LineString", "coordinates": [[412486.16, 5656984.28], [412483.14, 5656990.0]]}}, {"type": "Feature", "properties": {"w": 2.5, "n": 4, "z": [111.02, 111.77]}, "geometry": {"type": "LineString", "coordinates": [[412506.24, 5656947.25], [412500.38, 5656943.83]]}}, {"type": "Feature", "properties": {"w": 2.5, "n": 3, "z": [111.04, 111.56]}, "geometry": {"type": "LineString", "coordinates": [[412515.77, 5656952.61], [412520.8, 5656955.43]]}}, {"type": "Feature", "properties": {"w": 2.5, "n": 23, "z": [108.33, 112.12]}, "geometry": {"type": "LineString", "coordinates": [[412409.8, 5656882.74], [412407.19, 5656885.3], [412403.41, 5656886.78], [412402.76, 5656893.27]]}}, {"type": "Feature", "properties": {"w": 2.5, "n": 3, "z": [111.05, 111.5]}, "geometry": {"type": "LineString", "coordinates": [[412509.15, 5656951.7], [412507.5, 5656954.51]]}}, {"type": "Feature", "properties": {"w": 10.49, "n": 20, "z": [108.07, 111.03]}, "geometry": {"type": "LineString", "coordinates": [[412515.38, 5656942.04], [412511.57, 5656948.64]]}}, {"type": "Feature", "properties": {"w": 2.5, "n": 8, "z": [112.75, 113.85]}, "geometry": {"type": "LineString", "coordinates": [[412425.47, 5657095.88], [412428.61, 5657091.26]]}}, {"type": "Feature", "properties": {"w": 2.5, "n": 10, "z": [112.78, 114.62]}, "geometry": {"type": "LineString", "coordinates": [[412178.78, 5657443.03], [412172.77, 5657442.41], [412166.67, 5657442.66], [412164.06, 5657443.91]]}}, {"type": "Feature", "properties": {"w": 2.5, "n": 9, "z": [113.26, 114.63]}, "geometry": {"type": "LineString", "coordinates": [[412158.18, 5657437.74], [412162.5, 5657444.5]]}}, {"type": "Feature", "properties": {"w": 2.5, "n": 3, "z": [113.79, 114.26]}, "geometry": {"type": "LineString", "coordinates": [[412166.21, 5657366.81], [412166.33, 5657362.61]]}}, {"type": "Feature", "properties": {"w": 2.5, "n": 2, "z": [112.86, 113.19]}, "geometry": {"type": "LineString", "coordinates": [[412276.03, 5657330.65], [412272.42, 5657327.98], [412276.06, 5657323.44]]}}, {"type": "Feature", "properties": {"w": 2.5, "n": 13, "z": [112.87, 114.87]}, "geometry": {"type": "LineString", "coordinates": [[412164.99, 5656993.07], [412164.96, 5656987.27]]}}, {"type": "Feature", "properties": {"w": 2.5, "n": 9, "z": [112.66, 113.98]}, "geometry": {"type": "LineString", "coordinates": [[412280.69, 5657086.04], [412283.76, 5657082.28]]}}, {"type": "Feature", "properties": {"w": 2.5, "n": 12, "z": [112.82, 114.7]}, "geometry": {"type": "LineString", "coordinates": [[412160.54, 5657064.84], [412160.11, 5657072.96]]}}, {"type": "Feature", "properties": {"w": 2.5, "n": 6, "z": [111.86, 112.76]}, "geometry": {"type": "LineString", "coordinates": [[412506.87, 5657942.87], [412510.03, 5657940.68]]}}, {"type": "Feature", "properties": {"w": 2.5, "n": 6, "z": [111.96, 112.83]}, "geometry": {"type": "LineString", "coordinates": [[412531.29, 5657970.21], [412529.3, 5657966.83]]}}, {"type": "Feature", "properties": {"w": 2.5, "n": 10, "z": [109.59, 111.14]}, "geometry": {"type": "LineString", "coordinates": [[412083.93, 5656361.59], [412087.44, 5656358.02]]}}, {"type": "Feature", "properties": {"w": 2.5, "n": 21, "z": [117.67, 121.07]}, "geometry": {"type": "LineString", "coordinates": [[412070.59, 5656493.99], [412068.38, 5656490.68], [412066.53, 5656487.9]]}}, {"type": "Feature", "properties": {"w": 2.5, "n": 24, "z": [116.6, 119.97]}, "geometry": {"type": "LineString", "coordinates": [[412021.45, 5656394.4], [412028.58, 5656400.54]]}}, {"type": "Feature", "properties": {"w": 2.5, "n": 7, "z": [115.12, 116.08]}, "geometry": {"type": "LineString", "coordinates": [[412079.65, 5656355.01], [412082.42, 5656357.73]]}}, {"type": "Feature", "properties": {"w": 2.5, "n": 3, "z": [114.8, 115.12]}, "geometry": {"type": "LineString", "coordinates": [[412070.07, 5656342.1], [412071.46, 5656343.35]]}}, {"type": "Feature", "properties": {"w": 2.5, "n": 4, "z": [111.23, 111.81]}, "geometry": {"type": "LineString", "coordinates": [[412309.89, 5656424.65], [412309.55, 5656421.15]]}}, {"type": "Feature", "properties": {"w": 3.27, "n": 5, "z": [109.27, 110.07]}, "geometry": {"type": "LineString", "coordinates": [[413040.43, 5657327.17], [413038.58, 5657330.02]]}}, {"type": "Feature", "properties": {"w": 2.5, "n": 8, "z": [111.54, 112.75]}, "geometry": {"type": "LineString", "coordinates": [[412466.59, 5657497.96], [412468.41, 5657494.55]]}}, {"type": "Feature", "properties": {"w": 2.5, "n": 9, "z": [112.38, 113.8]}, "geometry": {"type": "LineString", "coordinates": [[412251.5, 5657125.09], [412254.98, 5657128.02]]}}, {"type": "Feature", "properties": {"w": 2.5, "n": 3, "z": [111.3, 111.91]}, "geometry": {"type": "LineString", "coordinates": [[412689.54, 5656454.55], [412691.28, 5656451.02]]}}, {"type": "Feature", "properties": {"w": 2.5, "n": 5, "z": [111.18, 112.02]}, "geometry": {"type": "LineString", "coordinates": [[412675.18, 5656449.58], [412675.26, 5656447.63]]}}, {"type": "Feature", "properties": {"w": 2.5, "n": 3, "z": [111.82, 112.28]}, "geometry": {"type": "LineString", "coordinates": [[412801.58, 5656428.48], [412801.82, 5656427.71]]}}, {"type": "Feature", "properties": {"w": 2.5, "n": 5, "z": [112.51, 113.28]}, "geometry": {"type": "LineString", "coordinates": [[413262.56, 5657649.61], [413267.18, 5657651.44]]}}, {"type": "Feature", "properties": {"w": 2.5, "n": 12, "z": [112.25, 114.19]}, "geometry": {"type": "LineString", "coordinates": [[413184.05, 5657590.96], [413184.18, 5657596.76]]}}, {"type": "Feature", "properties": {"w": 2.5, "n": 3, "z": [112.13, 112.79]}, "geometry": {"type": "LineString", "coordinates": [[412228.43, 5657758.43], [412226.42, 5657758.18]]}}, {"type": "Feature", "properties": {"w": 2.5, "n": 28, "z": [109.1, 113.48]}, "geometry": {"type": "LineString", "coordinates": [[413342.2, 5657103.85], [413346.44, 5657095.09]]}}, {"type": "Feature", "properties": {"w": 2.5, "n": 10, "z": [111.23, 113.42]}, "geometry": {"type": "LineString", "coordinates": [[413413.92, 5657135.97], [413416.22, 5657130.93]]}}, {"type": "Feature", "properties": {"w": 2.5, "n": 13, "z": [109.31, 111.75]}, "geometry": {"type": "LineString", "coordinates": [[413411.12, 5657142.02], [413413.92, 5657135.97]]}}, {"type": "Feature", "properties": {"w": 5.07, "n": 9, "z": [110.04, 111.56]}, "geometry": {"type": "LineString", "coordinates": [[412586.57, 5657033.5], [412574.77, 5657026.25]]}}, {"type": "Feature", "properties": {"w": 2.5, "n": 35, "z": [109.9, 115.53]}, "geometry": {"type": "LineString", "coordinates": [[412604.29, 5657039.26], [412617.24, 5657047.72]]}}, {"type": "Feature", "properties": {"w": 2.5, "n": 15, "z": [107.61, 109.46]}, "geometry": {"type": "LineString", "coordinates": [[412606.84, 5657012.16], [412603.65, 5657017.77]]}}, {"type": "Feature", "properties": {"w": 2.5, "n": 5, "z": [111.87, 112.71]}, "geometry": {"type": "LineString", "coordinates": [[412436.74, 5657453.82], [412438.84, 5657464.99]]}}, {"type": "Feature", "properties": {"w": 2.5, "n": 4, "z": [112.43, 112.95]}, "geometry": {"type": "LineString", "coordinates": [[413180.08, 5656415.88], [413183.42, 5656415.21]]}}, {"type": "Feature", "properties": {"w": 2.5, "n": 24, "z": [111.48, 115.06]}, "geometry": {"type": "LineString", "coordinates": [[412679.57, 5657080.7], [412680.2, 5657081.87], [412680.47, 5657083.41], [412680.2, 5657085.37], [412679.44, 5657086.74], [412678.44, 5657087.72], [412677.65, 5657088.45], [412676.33, 5657089.16]]}}, {"type": "Feature", "properties": {"w": 2.5, "n": 9, "z": [110.15, 111.5]}, "geometry": {"type": "LineString", "coordinates": [[412680.27, 5657075.67], [412678.49, 5657078.3]]}}, {"type": "Feature", "properties": {"w": 2.5, "n": 16, "z": [108.56, 110.88]}, "geometry": {"type": "LineString", "coordinates": [[412849.17, 5657184.38], [412845.94, 5657189.08]]}}, {"type": "Feature", "properties": {"w": 2.5, "n": 8, "z": [110.91, 111.98]}, "geometry": {"type": "LineString", "coordinates": [[412841.82, 5657195.05], [412839.28, 5657198.96]]}}, {"type": "Feature", "properties": {"w": 2.5, "n": 23, "z": [110.0, 113.68]}, "geometry": {"type": "LineString", "coordinates": [[412992.47, 5656907.67], [412998.11, 5656903.91]]}}, {"type": "Feature", "properties": {"w": 2.5, "n": 4, "z": [112.2, 112.89]}, "geometry": {"type": "LineString", "coordinates": [[413225.43, 5656722.17], [413224.01, 5656724.5]]}}, {"type": "Feature", "properties": {"w": 2.5, "n": 12, "z": [112.02, 114.3]}, "geometry": {"type": "LineString", "coordinates": [[412617.78, 5657925.0], [412615.44, 5657919.47]]}}, {"type": "Feature", "properties": {"w": 2.5, "n": 8, "z": [113.71, 114.94]}, "geometry": {"type": "LineString", "coordinates": [[412632.57, 5657928.73], [412635.99, 5657927.13]]}}, {"type": "Feature", "properties": {"w": 2.5, "n": 9, "z": [112.26, 113.7]}, "geometry": {"type": "LineString", "coordinates": [[412574.27, 5657887.7], [412575.73, 5657890.67]]}}, {"type": "Feature", "properties": {"w": 2.5, "n": 2, "z": [113.41, 113.78]}, "geometry": {"type": "LineString", "coordinates": [[412572.33, 5657895.41], [412573.65, 5657898.37]]}}, {"type": "Feature", "properties": {"w": 2.5, "n": 4, "z": [112.42, 112.96]}, "geometry": {"type": "LineString", "coordinates": [[413517.04, 5656822.27], [413516.45, 5656824.15]]}}, {"type": "Feature", "properties": {"w": 2.5, "n": 4, "z": [112.69, 113.26]}, "geometry": {"type": "LineString", "coordinates": [[412435.08, 5657213.02], [412433.07, 5657212.0]]}}, {"type": "Feature", "properties": {"w": 2.5, "n": 3, "z": [113.9, 114.4]}, "geometry": {"type": "LineString", "coordinates": [[412717.17, 5656186.74], [412716.07, 5656182.67]]}}, {"type": "Feature", "properties": {"w": 2.5, "n": 3, "z": [114.77, 115.21]}, "geometry": {"type": "LineString", "coordinates": [[413086.05, 5657711.18], [413085.37, 5657709.53]]}}, {"type": "Feature", "properties": {"w": 2.5, "n": 7, "z": [111.27, 112.57]}, "geometry": {"type": "LineString", "coordinates": [[412536.81, 5656362.14], [412544.66, 5656360.76]]}}, {"type": "Feature", "properties": {"w": 2.5, "n": 6, "z": [112.24, 113.21]}, "geometry": {"type": "LineString", "coordinates": [[412524.38, 5656308.41], [412530.04, 5656307.16]]}}, {"type": "Feature", "properties": {"w": 2.5, "n": 10, "z": [105.64, 107.31]}, "geometry": {"type": "LineString", "coordinates": [[413178.28, 5657340.69], [413174.03, 5657342.77]]}}, {"type": "Feature", "properties": {"w": 2.5, "n": 7, "z": [112.02, 113.25]}, "geometry": {"type": "LineString", "coordinates": [[413361.6, 5657568.53], [413366.02, 5657570.13]]}}, {"type": "Feature", "properties": {"w": 2.5, "n": 10, "z": [105.18, 106.97]}, "geometry": {"type": "LineString", "coordinates": [[413480.2, 5657520.43], [413477.5, 5657524.92]]}}, {"type": "Feature", "properties": {"w": 2.5, "n": 10, "z": [105.21, 106.93]}, "geometry": {"type": "LineString", "coordinates": [[413425.9, 5657489.49], [413422.55, 5657495.28]]}}, {"type": "Feature", "properties": {"w": 2.5, "n": 11, "z": [105.2, 106.91]}, "geometry": {"type": "LineString", "coordinates": [[413844.27, 5657632.7], [413842.75, 5657639.87]]}}, {"type": "Feature", "properties": {"w": 2.5, "n": 3, "z": [113.26, 113.7]}, "geometry": {"type": "LineString", "coordinates": [[413390.48, 5656437.72], [413392.78, 5656437.25]]}}, {"type": "Feature", "properties": {"w": 2.5, "n": 2, "z": [113.0, 113.32]}, "geometry": {"type": "LineString", "coordinates": [[413426.34, 5656446.96], [413425.99, 5656445.08]]}}, {"type": "Feature", "properties": {"w": 2.5, "n": 38, "z": [109.65, 115.55]}, "geometry": {"type": "LineString", "coordinates": [[412653.2, 5657071.4], [412640.48, 5657063.18]]}}, {"type": "Feature", "properties": {"w": 2.5, "n": 10, "z": [105.14, 107.17]}, "geometry": {"type": "LineString", "coordinates": [[413156.01, 5657316.43], [413151.42, 5657322.36]]}}, {"type": "Feature", "properties": {"w": 2.5, "n": 10, "z": [105.13, 106.99]}, "geometry": {"type": "LineString", "coordinates": [[413089.05, 5657264.84], [413084.92, 5657270.25]]}}, {"type": "Feature", "properties": {"w": 2.5, "n": 9, "z": [105.1, 107.05]}, "geometry": {"type": "LineString", "coordinates": [[413073.07, 5657251.78], [413069.02, 5657257.34]]}}, {"type": "Feature", "properties": {"w": 2.5, "n": 11, "z": [105.1, 107.06]}, "geometry": {"type": "LineString", "coordinates": [[413051.04, 5657234.42], [413047.09, 5657239.54]]}}, {"type": "Feature", "properties": {"w": 2.5, "n": 11, "z": [105.1, 106.91]}, "geometry": {"type": "LineString", "coordinates": [[413006.87, 5657200.9], [413002.92, 5657206.27]]}}, {"type": "Feature", "properties": {"w": 2.5, "n": 6, "z": [105.05, 105.99]}, "geometry": {"type": "LineString", "coordinates": [[412948.73, 5657156.66], [412945.71, 5657160.97]]}}, {"type": "Feature", "properties": {"w": 2.5, "n": 6, "z": [105.05, 105.98]}, "geometry": {"type": "LineString", "coordinates": [[412887.75, 5657111.72], [412884.46, 5657116.18]]}}, {"type": "Feature", "properties": {"w": 2.5, "n": 5, "z": [105.05, 105.94]}, "geometry": {"type": "LineString", "coordinates": [[412826.74, 5657068.27], [412823.42, 5657073.11]]}}, {"type": "Feature", "properties": {"w": 2.5, "n": 6, "z": [105.05, 105.96]}, "geometry": {"type": "LineString", "coordinates": [[412764.71, 5657027.11], [412761.83, 5657031.32]]}}, {"type": "Feature", "properties": {"w": 2.5, "n": 14, "z": [108.15, 110.3]}, "geometry": {"type": "LineString", "coordinates": [[412982.95, 5657271.03], [412980.44, 5657275.0]]}}, {"type": "Feature", "properties": {"w": 2.5, "n": 7, "z": [109.84, 110.9]}, "geometry": {"type": "LineString", "coordinates": [[412968.53, 5657309.36], [412965.99, 5657307.76]]}}, {"type": "Feature", "properties": {"w": 2.5, "n": 2, "z": [114.53, 114.9]}, "geometry": {"type": "LineString", "coordinates": [[412644.46, 5657106.07], [412642.38, 5657104.62]]}}, {"type": "Feature", "properties": {"w": 2.5, "n": 3, "z": [113.98, 114.47]}, "geometry": {"type": "LineString", "coordinates": [[412654.07, 5657112.4], [412652.35, 5657111.31]]}}, {"type": "Feature", "properties": {"w": 2.5, "n": 9, "z": [110.13, 111.55]}, "geometry": {"type": "LineString", "coordinates": [[412585.99, 5657039.2], [412572.36, 5657030.75]]}}, {"type": "Feature", "properties": {"w": 2.5, "n": 3, "z": [112.88, 113.45]}, "geometry": {"type": "LineString", "coordinates": [[413569.15, 5656368.67], [413569.72, 5656371.47]]}}, {"type": "Feature", "properties": {"w": 2.5, "n": 3, "z": [112.87, 113.46]}, "geometry": {"type": "LineString", "coordinates": [[413523.68, 5656378.37], [413524.3, 5656381.36]]}}, {"type": "Feature", "properties": {"w": 2.5, "n": 2, "z": [113.18, 113.53]}, "geometry": {"type": "LineString", "coordinates": [[412679.72, 5657129.05], [412678.51, 5657128.27]]}}, {"type": "Feature", "properties": {"w": 2.5, "n": 7, "z": [111.85, 113.07]}, "geometry": {"type": "LineString", "coordinates": [[412592.45, 5656594.15], [412589.42, 5656608.11]]}}, {"type": "Feature", "properties": {"w": 2.5, "n": 17, "z": [117.29, 119.99]}, "geometry": {"type": "LineString", "coordinates": [[413757.24, 5657836.68], [413755.13, 5657841.48]]}}, {"type": "Feature", "properties": {"w": 2.5, "n": 5, "z": [112.51, 113.27]}, "geometry": {"type": "LineString", "coordinates": [[413200.67, 5656254.73], [413202.77, 5656254.3]]}}, {"type": "Feature", "properties": {"w": 2.5, "n": 5, "z": [112.48, 113.1]}, "geometry": {"type": "LineString", "coordinates": [[413826.77, 5657147.92], [413825.14, 5657152.65]]}}, {"type": "Feature", "properties": {"w": 2.5, "n": 3, "z": [112.9, 113.61]}, "geometry": {"type": "LineString", "coordinates": [[413797.34, 5657142.86], [413796.56, 5657145.2]]}}, {"type": "Feature", "properties": {"w": 2.5, "n": 6, "z": [114.44, 115.17]}, "geometry": {"type": "LineString", "coordinates": [[412288.63, 5656884.47], [412288.19, 5656885.95]]}}, {"type": "Feature", "properties": {"w": 2.5, "n": 3, "z": [115.12, 115.56]}, "geometry": {"type": "LineString", "coordinates": [[412009.5, 5656856.33], [412009.75, 5656854.69], [412010.17, 5656854.12], [412010.78, 5656853.65], [412011.46, 5656853.25], [412012.37, 5656852.68]]}}, {"type": "Feature", "properties": {"w": 2.5, "n": 4, "z": [115.0, 115.58]}, "geometry": {"type": "LineString", "coordinates": [[412021.46, 5656856.06], [412021.21, 5656855.07], [412020.76, 5656854.14], [412019.98, 5656853.28], [412019.09, 5656852.91], [412017.7, 5656852.22]]}}, {"type": "Feature", "properties": {"w": 2.5, "n": 4, "z": [113.21, 113.79]}, "geometry": {"type": "LineString", "coordinates": [[412954.56, 5656218.64], [412954.79, 5656219.63]]}}, {"type": "Feature", "properties": {"w": 2.5, "n": 15, "z": [110.73, 113.11]}, "geometry": {"type": "LineString", "coordinates": [[412942.27, 5656162.92], [412946.78, 5656161.91]]}}, {"type": "Feature", "properties": {"w": 2.5, "n": 3, "z": [112.37, 112.91]}, "geometry": {"type": "LineString", "coordinates": [[412967.38, 5656259.01], [412965.39, 5656259.56]]}}, {"type": "Feature", "properties": {"w": 2.5, "n": 9, "z": [115.25, 116.7]}, "geometry": {"type": "LineString", "coordinates": [[413737.49, 5657817.12], [413735.91, 5657820.96]]}}, {"type": "Feature", "properties": {"w": 2.5, "n": 3, "z": [115.0, 115.62]}, "geometry": {"type": "LineString", "coordinates": [[413243.6, 5657803.39], [413239.57, 5657801.02]]}}, {"type": "Feature", "properties": {"w": 2.5, "n": 4, "z": [112.43, 112.95]}, "geometry": {"type": "LineString", "coordinates": [[413507.97, 5656819.42], [413509.33, 5656821.66]]}}, {"type": "Feature", "properties": {"w": 2.5, "n": 2, "z": [113.71, 114.07]}, "geometry": {"type": "LineString", "coordinates": [[413143.03, 5657679.4], [413134.01, 5657677.31]]}}, {"type": "Feature", "properties": {"w": 2.5, "n": 4, "z": [114.42, 115.01]}, "geometry": {"type": "LineString", "coordinates": [[413136.12, 5657634.91], [413134.17, 5657634.42]]}}]}