{"type": "FeatureCollection", "attribution": "\u00a9 OpenStreetMap contributors (ODbL)", "crs": {"type": "name", "properties": {"name": "urn:ogc:def:crs:EPSG::25833"}}, "features": [{"type": "Feature", "properties": {"w": 2.5, "n": 41, "z": [165.74, 172.23]}, "geometry": {"type": "LineString", "coordinates": [[416265.32, 5657558.51], [416285.12, 5657585.93]]}}, {"type": "Feature", "properties": {"w": 2.5, "n": 99, "z": [200.27, 221.99]}, "geometry": {"type": "LineString", "coordinates": [[417282.83, 5657838.76], [417259.32, 5657840.74], [417255.93, 5657847.46], [417256.78, 5657856.89], [417268.96, 5657873.93], [417278.57, 5657883.78], [417286.03, 5657886.21], [417291.01, 5657891.06]]}}, {"type": "Feature", "properties": {"w": 2.5, "n": 54, "z": [222.05, 232.52]}, "geometry": {"type": "LineString", "coordinates": [[417864.89, 5657904.36], [417865.99, 5657912.63], [417865.53, 5657924.45]]}}, {"type": "Feature", "properties": {"w": 2.5, "n": 48, "z": [221.57, 231.99]}, "geometry": {"type": "LineString", "coordinates": [[417864.1, 5657899.52], [417860.7, 5657890.01], [417858.54, 5657880.13]]}}, {"type": "Feature", "properties": {"w": 2.5, "n": 63, "z": [137.55, 148.89]}, "geometry": {"type": "LineString", "coordinates": [[417180.63, 5656746.26], [417183.66, 5656743.23], [417187.85, 5656733.0], [417190.57, 5656730.49], [417202.79, 5656729.2]]}}, {"type": "Feature", "properties": {"w": 2.5, "n": 66, "z": [201.93, 212.51]}, "geometry": {"type": "LineString", "coordinates": [[417261.89, 5656963.19], [417236.55, 5656959.06]]}}, {"type": "Feature", "properties": {"w": 2.5, "n": 48, "z": [186.45, 194.12]}, "geometry": {"type": "LineString", "coordinates": [[417314.12, 5656963.89], [417292.87, 5656967.69]]}}, {"type": "Feature", "properties": {"w": 2.5, "n": 16, "z": [112.51, 114.17]}, "geometry": {"type": "LineString", "coordinates": [[417126.45, 5656067.09], [417134.35, 5656071.4]]}}, {"type": "Feature", "properties": {"w": 2.5, "n": 2, "z": [110.98, 111.35]}, "geometry": {"type": "LineString", "coordinates": [[416720.91, 5656491.92], [416734.88, 5656500.72]]}}, {"type": "Feature", "properties": {"w": 2.5, "n": 173, "z": [185.28, 212.98]}, "geometry": {"type": "LineString", "coordinates": [[417339.92, 5656972.38], [417356.74, 5656970.64], [417385.87, 5656971.38], [417401.15, 5656964.84]]}}, {"type": "Feature", "properties": {"w": 2.5, "n": 13, "z": [108.92, 110.98]}, "geometry": {"type": "LineString", "coordinates": [[416997.83, 5656009.36], [417004.78, 5656011.99]]}}, {"type": "Feature", "properties": {"w": 2.5, "n": 33, "z": [110.95, 117.03]}, "geometry": {"type": "LineString", "coordinates": [[416481.15, 5656376.16], [416480.06, 5656375.5], [416478.42, 5656378.14], [416473.64, 5656375.36], [416475.17, 5656372.54]]}}, {"type": "Feature", "properties": {"w": 2.5, "n": 82, "z": [212.32, 225.4]}, "geometry": {"type": "LineString", "coordinates": [[417537.08, 5657815.43], [417532.73, 5657821.39], [417524.58, 5657827.07], [417507.95, 5657831.91]]}}, {"type": "Feature", "properties": {"w": 2.5, "n": 51, "z": [201.87, 209.95]}, "geometry": {"type": "LineString", "coordinates": [[417315.8, 5657853.35], [417320.45, 5657838.27], [417326.91, 5657825.06]]}}, {"type": "Feature", "properties": {"w": 2.5, "n": 23, "z": [203.44, 207.11]}, "geometry": {"type": "LineString", "coordinates": [[417306.42, 5657843.54], [417310.67, 5657841.6], [417320.45, 5657838.27]]}}, {"type": "Feature", "properties": {"w": 2.5, "n": 38, "z": [208.95, 215.01]}, "geometry": {"type": "LineString", "coordinates": [[417496.33, 5657798.0], [417498.66, 5657790.47], [417504.31, 5657779.02]]}}, {"type": "Feature", "properties": {"w": 2.5, "n": 100, "z": [214.34, 230.35]}, "geometry": {"type": "LineString", "coordinates": [[417568.34, 5657829.35], [417577.78, 5657833.97], [417596.28, 5657841.4], [417622.59, 5657858.64], [417631.53, 5657866.82]]}}, {"type": "Feature", "properties": {"w": 2.5, "n": 96, "z": [112.37, 127.81]}, "geometry": {"type": "LineString", "coordinates": [[416825.06, 5656645.97], [416873.8, 5656672.2]]}}, {"type": "Feature", "properties": {"w": 2.5, "n": 26, "z": [207.12, 211.36]}, "geometry": {"type": "LineString", "coordinates": [[416942.1, 5657323.08], [416943.36, 5657326.64], [416945.06, 5657329.37], [416947.48, 5657331.61], [416951.42, 5657333.84]]}}, {"type": "Feature", "properties": {"w": 2.5, "n": 57, "z": [207.52, 217.01]}, "geometry": {"type": "LineString", "coordinates": [[417001.4, 5657293.32], [417006.5, 5657300.79], [417012.65, 5657309.5]]}}, {"type": "Feature", "properties": {"w": 2.5, "n": 44, "z": [165.18, 172.17]}, "geometry": {"type": "LineString", "coordinates": [[416301.79, 5657606.22], [416285.12, 5657585.93]]}}, {"type": "Feature", "properties": {"w": 2.5, "n": 109, "z": [172.97, 190.37]}, "geometry": {"type": "LineString", "coordinates": [[417866.86, 5656948.42], [417887.17, 5656884.62]]}}, {"type": "Feature", "properties": {"w": 2.5, "n": 79, "z": [140.1, 152.69]}, "geometry": {"type": "LineString", "coordinates": [[417295.53, 5656723.17], [417294.52, 5656718.49], [417282.76, 5656712.11], [417263.7, 5656714.47]]}}, {"type": "Feature", "properties": {"w": 2.5, "n": 10, "z": [189.46, 191.07]}, "geometry": {"type": "LineString", "coordinates": [[416919.66, 5657255.4], [416923.09, 5657257.97], [416926.7, 5657260.92]]}}, {"type": "Feature", "properties": {"w": 2.5, "n": 24, "z": [142.2, 144.98]}, "geometry": {"type": "LineString", "coordinates": [[416819.75, 5656876.24], [416820.02, 5656885.62]]}}, {"type": "Feature", "properties": {"w": 2.5, "n": 9, "z": [195.26, 196.1]}, "geometry": {"type": "LineString", "coordinates": [[417266.82, 5656549.44], [417266.26, 5656542.67]]}}, {"type": "Feature", "properties": {"w": 2.5, "n": 4, "z": [111.54, 112.22]}, "geometry": {"type": "LineString", "coordinates": [[416871.71, 5656388.07], [416872.8, 5656386.98]]}}, {"type": "Feature", "properties": {"w": 2.5, "n": 4, "z": [111.54, 112.07]}, "geometry": {"type": "LineString", "coordinates": [[416866.0, 5656392.24], [416864.37, 5656393.46]]}}, {"type": "Feature", "properties": {"w": 2.5, "n": 23, "z": [149.1, 154.43]}, "geometry": {"type": "LineString", "coordinates": [[417490.79, 5656820.91], [417493.53, 5656818.6], [417504.58, 5656809.25]]}}, {"type": "Feature", "properties": {"w": 2.5, "n": 210, "z": [153.43, 186.98]}, "geometry": {"type": "LineString", "coordinates": [[417504.58, 5656809.25], [417533.01, 5656790.25], [417538.86, 5656789.0], [417541.82, 5656788.82], [417551.89, 5656789.59], [417580.98, 5656804.62]]}}, {"type": "Feature", "properties": {"w": 2.5, "n": 122, "z": [199.51, 216.59]}, "geometry": {"type": "LineString", "coordinates": [[417466.18, 5656312.46], [417465.89, 5656314.63], [417483.56, 5656319.86], [417497.37, 5656326.93], [417502.3, 5656329.22], [417508.33, 5656330.17], [417513.26, 5656329.73], [417519.26, 5656326.78]]}}, {"type": "Feature", "properties": {"w": 2.5, "n": 14, "z": [113.58, 115.93]}, "geometry": {"type": "LineString", "coordinates": [[416447.19, 5656331.94], [416453.08, 5656335.36], [416451.6, 5656337.72]]}}, {"type": "Feature", "properties": {"w": 2.5, "n": 7, "z": [109.89, 111.09]}, "geometry": {"type": "LineString", "coordinates": [[416536.03, 5656328.65], [416534.14, 5656327.22]]}}, {"type": "Feature", "properties": {"w": 2.5, "n": 22, "z": [114.37, 119.09]}, "geometry": {"type": "LineString", "coordinates": [[417292.84, 5656070.55], [417316.2, 5656080.7]]}}, {"type": "Feature", "properties": {"w": 2.5, "n": 8, "z": [213.71, 215.19]}, "geometry": {"type": "LineString", "coordinates": [[417203.12, 5656995.34], [417209.73, 5656998.55]]}}, {"type": "Feature", "properties": {"w": 2.5, "n": 4, "z": [111.44, 111.89]}, "geometry": {"type": "LineString", "coordinates": [[416517.88, 5656322.56], [416516.05, 5656324.89]]}}, {"type": "Feature", "properties": {"w": 2.5, "n": 175, "z": [179.6, 213.59]}, "geometry": {"type": "LineString", "coordinates": [[417076.15, 5656970.25], [417074.56, 5656973.83], [417075.61, 5656978.9], [417077.0, 5656983.44], [417082.6, 5656993.54], [417089.58, 5657005.22], [417096.76, 5657016.7], [417105.04, 5657030.65], [417110.48, 5657042.83], [417114.39, 5657055.64], [417117.18, 5657070.88], [417119.82, 5657084.31], [417123.83, 5657099.15]]}}, {"type": "Feature", "properties": {"w": 2.5, "n": 14, "z": [146.39, 148.58]}, "geometry": {"type": "LineString", "coordinates": [[416287.12, 5657266.78], [416291.97, 5657262.57], [416292.68, 5657263.4]]}}, {"type": "Feature", "properties": {"w": 2.5, "n": 6, "z": [115.68, 116.68]}, "geometry": {"type": "LineString", "coordinates": [[416927.24, 5656468.49], [416926.28, 5656471.22]]}}, {"type": "Feature", "properties": {"w": 2.5, "n": 9, "z": [106.04, 107.54]}, "geometry": {"type": "LineString", "coordinates": [[416755.32, 5656285.65], [416756.04, 5656286.05], [416756.96, 5656286.6]]}}, {"type": "Feature", "properties": {"w": 2.5, "n": 8, "z": [106.33, 107.54]}, "geometry": {"type": "LineString", "coordinates": [[416774.93, 5656251.88], [416776.05, 5656252.49]]}}, {"type": "Feature", "properties": {"w": 2.5, "n": 4, "z": [108.92, 109.64]}, "geometry": {"type": "LineString", "coordinates": [[416709.59, 5656408.87], [416711.15, 5656409.92]]}}, {"type": "Feature", "properties": {"w": 2.5, "n": 4, "z": [109.0, 109.69]}, "geometry": {"type": "LineString", "coordinates": [[416699.61, 5656423.24], [416701.05, 5656424.28]]}}, {"type": "Feature", "properties": {"w": 2.5, "n": 4, "z": [109.02, 109.75]}, "geometry": {"type": "LineString", "coordinates": [[416696.2, 5656427.86], [416697.75, 5656428.92]]}}, {"type": "Feature", "properties": {"w": 2.5, "n": 9, "z": [105.86, 107.29]}, "geometry": {"type": "LineString", "coordinates": [[416696.49, 5656391.3], [416697.11, 5656391.6], [416698.21, 5656392.19]]}}, {"type": "Feature", "properties": {"w": 2.5, "n": 11, "z": [105.9, 107.71]}, "geometry": {"type": "LineString", "coordinates": [[416835.87, 5656141.51], [416839.27, 5656143.33]]}}, {"type": "Feature", "properties": {"w": 2.5, "n": 12, "z": [199.0, 201.0]}, "geometry": {"type": "LineString", "coordinates": [[417295.29, 5656520.42], [417296.69, 5656515.49]]}}, {"type": "Feature", "properties": {"w": 2.5, "n": 17, "z": [220.05, 222.76]}, "geometry": {"type": "LineString", "coordinates": [[417118.07, 5657892.27], [417119.54, 5657896.84]]}}, {"type": "Feature", "properties": {"w": 2.5, "n": 3, "z": [219.7, 220.19]}, "geometry": {"type": "LineString", "coordinates": [[417108.28, 5657887.8], [417112.06, 5657889.66]]}}, {"type": "Feature", "properties": {"w": 2.5, "n": 17, "z": [213.0, 215.79]}, "geometry": {"type": "LineString", "coordinates": [[417073.31, 5657855.81], [417074.29, 5657862.82]]}}, {"type": "Feature", "properties": {"w": 2.5, "n": 37, "z": [202.45, 208.31]}, "geometry": {"type": "LineString", "coordinates": [[417065.77, 5657811.7], [417064.31, 5657817.69], [417067.93, 5657824.19], [417067.1, 5657828.58]]}}, {"type": "Feature", "properties": {"w": 2.5, "n": 7, "z": [198.85, 199.93]}, "geometry": {"type": "LineString", "coordinates": [[417066.33, 5657783.04], [417066.1, 5657789.57]]}}, {"type": "Feature", "properties": {"w": 2.5, "n": 17, "z": [125.18, 127.96]}, "geometry": {"type": "LineString", "coordinates": [[416637.31, 5656968.3], [416638.14, 5656969.31], [416640.71, 5656970.28], [416644.78, 5656969.2], [416652.02, 5656967.17], [416657.85, 5656964.28]]}}, {"type": "Feature", "properties": {"w": 2.5, "n": 10, "z": [110.38, 111.47]}, "geometry": {"type": "LineString", "coordinates": [[416492.0, 5656381.04], [416489.42, 5656385.29]]}}, {"type": "Feature", "properties": {"w": 2.5, "n": 9, "z": [108.07, 109.81]}, "geometry": {"type": "LineString", "coordinates": [[416563.2, 5656301.65], [416555.95, 5656296.98]]}}, {"type": "Feature", "properties": {"w": 2.5, "n": 6, "z": [156.79, 157.5]}, "geometry": {"type": "LineString", "coordinates": [[416014.72, 5657784.74], [416015.54, 5657790.35]]}}, {"type": "Feature", "properties": {"w": 2.5, "n": 6, "z": [157.98, 158.7]}, "geometry": {"type": "LineString", "coordinates": [[416017.15, 5657801.37], [416017.7, 5657805.07]]}}, {"type": "Feature", "properties": {"w": 2.5, "n": 4, "z": [109.16, 109.91]}, "geometry": {"type": "LineString", "coordinates": [[416538.79, 5656330.75], [416537.13, 5656329.54]]}}, {"type": "Feature", "properties": {"w": 2.5, "n": 8, "z": [108.07, 109.82]}, "geometry": {"type": "LineString", "coordinates": [[416629.9, 5656190.81], [416626.96, 5656189.08]]}}, {"type": "Feature", "properties": {"w": 2.5, "n": 5, "z": [239.87, 240.64]}, "geometry": {"type": "LineString", "coordinates": [[417980.14, 5657596.92], [417980.73, 5657595.74]]}}, {"type": "Feature", "properties": {"w": 2.5, "n": 87, "z": [111.63, 125.57]}, "geometry": {"type": "LineString", "coordinates": [[416611.09, 5656932.65], [416612.24, 5656934.24], [416633.58, 5656963.78], [416637.31, 5656968.3]]}}, {"type": "Feature", "properties": {"w": 1.0, "n": 24, "z": [106.0, 109.9]}, "geometry": {"type": "LineString", "coordinates": [[416387.88, 5657059.53], [416389.58, 5657051.21]]}}, {"type": "Feature", "properties": {"w": 2.5, "n": 18, "z": [214.78, 217.65]}, "geometry": {"type": "LineString", "coordinates": [[416951.99, 5657786.44], [416948.01, 5657785.82], [416945.12, 5657787.58]]}}, {"type": "Feature", "properties": {"w": 2.5, "n": 11, "z": [212.65, 215.06]}, "geometry": {"type": "LineString", "coordinates": [[416977.46, 5657794.23], [416974.9, 5657794.68], [416967.91, 5657795.62]]}}, {"type": "Feature", "properties": {"w": 2.5, "n": 15, "z": [208.92, 211.61]}, "geometry": {"type": "LineString", "coordinates": [[416995.65, 5657790.65], [416992.6, 5657792.03], [416990.68, 5657794.1]]}}, {"type": "Feature", "properties": {"w": 2.5, "n": 28, "z": [204.95, 209.39]}, "geometry": {"type": "LineString", "coordinates": [[417004.03, 5657780.66], [417002.95, 5657783.14], [417001.98, 5657785.62], [417000.57, 5657788.21]]}}, {"type": "Feature", "properties": {"w": 2.5, "n": 18, "z": [201.8, 206.21]}, "geometry": {"type": "LineString", "coordinates": [[417015.73, 5657770.3], [417015.63, 5657771.77], [417016.05, 5657772.62], [417016.84, 5657773.25], [417017.14, 5657775.44], [417014.94, 5657777.36], [417012.22, 5657778.86]]}}, {"type": "Feature", "properties": {"w": 2.5, "n": 25, "z": [195.16, 199.95]}, "geometry": {"type": "LineString", "coordinates": [[417036.61, 5657749.98], [417039.27, 5657753.4], [417039.65, 5657756.44], [417036.15, 5657758.92]]}}, {"type": "Feature", "properties": {"w": 2.5, "n": 16, "z": [190.54, 193.79]}, "geometry": {"type": "LineString", "coordinates": [[417059.86, 5657743.33], [417058.0, 5657746.74], [417056.52, 5657748.5], [417053.1, 5657749.09]]}}, {"type": "Feature", "properties": {"w": 2.5, "n": 17, "z": [212.86, 215.64]}, "geometry": {"type": "LineString", "coordinates": [[416989.83, 5657325.63], [416993.39, 5657327.67], [416998.23, 5657327.62], [417000.15, 5657325.77]]}}, {"type": "Feature", "properties": {"w": 2.5, "n": 11, "z": [211.89, 213.7]}, "geometry": {"type": "LineString", "coordinates": [[416953.71, 5657337.41], [416954.35, 5657343.08]]}}, {"type": "Feature", "properties": {"w": 2.5, "n": 10, "z": [172.08, 174.04]}, "geometry": {"type": "LineString", "coordinates": [[417569.22, 5656107.86], [417573.82, 5656106.18]]}}, {"type": "Feature", "properties": {"w": 2.5, "n": 58, "z": [179.32, 188.54]}, "geometry": {"type": "LineString", "coordinates": [[417594.85, 5656077.25], [417611.08, 5656054.91]]}}, {"type": "Feature", "properties": {"w": 2.5, "n": 10, "z": [177.55, 179.09]}, "geometry": {"type": "LineString", "coordinates": [[417575.74, 5656147.34], [417578.43, 5656146.99]]}}, {"type": "Feature", "properties": {"w": 2.5, "n": 81, "z": [206.57, 219.58]}, "geometry": {"type": "LineString", "coordinates": [[417641.49, 5656171.65], [417669.82, 5656177.49]]}}, {"type": "Feature", "properties": {"w": 2.5, "n": 3, "z": [221.05, 221.45]}, "geometry": {"type": "LineString", "coordinates": [[417070.87, 5657491.77], [417068.92, 5657494.5]]}}, {"type": "Feature", "properties": {"w": 2.5, "n": 8, "z": [199.11, 200.36]}, "geometry": {"type": "LineString", "coordinates": [[417295.1, 5656536.85], [417296.27, 5656532.43], [417296.35, 5656532.15], [417298.14, 5656532.62], [417300.17, 5656531.77], [417302.85, 5656532.55]]}}, {"type": "Feature", "properties": {"w": 2.5, "n": 2, "z": [200.74, 201.13]}, "geometry": {"type": "LineString", "coordinates": [[417308.69, 5656531.05], [417309.76, 5656531.41], [417308.87, 5656534.36], [417309.89, 5656534.67], [417311.2, 5656529.92]]}}, {"type": "Feature", "properties": {"w": 2.5, "n": 5, "z": [131.75, 132.61]}, "geometry": {"type": "LineString", "coordinates": [[417383.16, 5656019.52], [417385.09, 5656012.24], [417387.33, 5656005.34]]}}, {"type": "Feature", "properties": {"w": 2.5, "n": 24, "z": [129.18, 132.98]}, "geometry": {"type": "LineString", "coordinates": [[417382.56, 5656020.93], [417381.39, 5656024.77], [417381.65, 5656024.74], [417383.08, 5656024.56]]}}, {"type": "Feature", "properties": {"w": 2.5, "n": 5, "z": [112.97, 113.72]}, "geometry": {"type": "LineString", "coordinates": [[417063.53, 5656274.93], [417064.5, 5656273.56]]}}, {"type": "Feature", "properties": {"w": 2.5, "n": 5, "z": [114.36, 114.92]}, "geometry": {"type": "LineString", "coordinates": [[417038.07, 5656266.51], [417037.07, 5656265.84]]}}, {"type": "Feature", "properties": {"w": 2.5, "n": 186, "z": [115.62, 145.32]}, "geometry": {"type": "LineString", "coordinates": [[416451.27, 5657046.54], [416489.05, 5657110.87]]}}, {"type": "Feature", "properties": {"w": 2.5, "n": 9, "z": [145.49, 146.96]}, "geometry": {"type": "LineString", "coordinates": [[416491.28, 5657113.85], [416493.4, 5657116.35]]}}, {"type": "Feature", "properties": {"w": 2.5, "n": 22, "z": [114.07, 117.67]}, "geometry": {"type": "LineString", "coordinates": [[417109.3, 5656368.77], [417110.25, 5656369.83], [417115.29, 5656375.41]]}}, {"type": "Feature", "properties": {"w": 2.5, "n": 10, "z": [125.16, 126.81]}, "geometry": {"type": "LineString", "coordinates": [[417072.03, 5656631.78], [417077.46, 5656634.33]]}}, {"type": "Feature", "properties": {"w": 2.5, "n": 2, "z": [124.9, 125.25]}, "geometry": {"type": "LineString", "coordinates": [[417070.03, 5656635.84], [417071.37, 5656636.45]]}}, {"type": "Feature", "properties": {"w": 2.5, "n": 114, "z": [169.15, 187.39]}, "geometry": {"type": "LineString", "coordinates": [[417242.22, 5656849.42], [417239.78, 5656858.83], [417245.09, 5656883.79]]}}, {"type": "Feature", "properties": {"w": 2.5, "n": 8, "z": [131.63, 132.89]}, "geometry": {"type": "LineString", "coordinates": [[417131.79, 5656767.76], [417131.2, 5656769.32]]}}, {"type": "Feature", "properties": {"w": 2.5, "n": 137, "z": [148.55, 170.47]}, "geometry": {"type": "LineString", "coordinates": [[417274.77, 5656821.52], [417257.28, 5656846.05]]}}, {"type": "Feature", "properties": {"w": 2.5, "n": 39, "z": [201.03, 209.65]}, "geometry": {"type": "LineString", "coordinates": [[417476.75, 5656540.43], [417473.47, 5656527.28]]}}, {"type": "Feature", "properties": {"w": 1.0, "n": 27, "z": [131.48, 135.76]}, "geometry": {"type": "LineString", "coordinates": [[416758.58, 5656911.95], [416762.1, 5656915.0]]}}, {"type": "Feature", "properties": {"w": 17.88, "n": 2, "z": [215.71, 216.1]}, "geometry": {"type": "LineString", "coordinates": [[417008.16, 5657323.46], [417010.44, 5657325.07]]}}, {"type": "Feature", "properties": {"w": 2.5, "n": 9, "z": [161.28, 162.76]}, "geometry": {"type": "LineString", "coordinates": [[416810.94, 5657115.86], [416814.63, 5657112.96]]}}, {"type": "Feature", "properties": {"w": 2.5, "n": 8, "z": [111.77, 113.09]}, "geometry": {"type": "LineString", "coordinates": [[416523.78, 5656293.1], [416521.21, 5656291.28]]}}, {"type": "Feature", "properties": {"w": 2.5, "n": 8, "z": [111.76, 113.11]}, "geometry": {"type": "LineString", "coordinates": [[416509.28, 5656308.29], [416507.6, 5656307.04]]}}, {"type": "Feature", "properties": {"w": 2.5, "n": 185, "z": [183.01, 212.61]}, "geometry": {"type": "LineString", "coordinates": [[417350.13, 5656929.54], [417354.62, 5656929.4], [417403.28, 5656941.04], [417404.02, 5656942.73], [417404.31, 5656943.65]]}}]}