{"type": "FeatureCollection", "attribution": "\u00a9 OpenStreetMap contributors (ODbL)", "crs": {"type": "name", "properties": {"name": "urn:ogc:def:crs:EPSG::25833"}}, "features": [{"type": "Feature", "properties": {"w": 2.5, "n": 17, "z": [114.34, 117.16]}, "geometry": {"type": "LineString", "coordinates": [[409944.59, 5656089.27], [409951.13, 5656083.86]]}}, {"type": "Feature", "properties": {"w": 2.5, "n": 4, "z": [119.39, 120.0]}, "geometry": {"type": "LineString", "coordinates": [[409543.9, 5656014.24], [409534.68, 5656011.79]]}}, {"type": "Feature", "properties": {"w": 2.5, "n": 4, "z": [112.57, 113.43]}, "geometry": {"type": "LineString", "coordinates": [[409891.83, 5656471.58], [409901.82, 5656466.86]]}}, {"type": "Feature", "properties": {"w": 2.5, "n": 46, "z": [102.97, 110.37]}, "geometry": {"type": "LineString", "coordinates": [[409841.28, 5657733.52], [409852.5, 5657733.31]]}}, {"type": "Feature", "properties": {"w": 2.5, "n": 46, "z": [102.97, 110.27]}, "geometry": {"type": "LineString", "coordinates": [[409844.42, 5657765.84], [409854.89, 5657765.78]]}}, {"type": "Feature", "properties": {"w": 2.5, "n": 10, "z": [117.63, 119.58]}, "geometry": {"type": "LineString", "coordinates": [[408804.91, 5656430.96], [408804.88, 5656421.42]]}}, {"type": "Feature", "properties": {"w": 2.5, "n": 6, "z": [116.47, 117.49]}, "geometry": {"type": "LineString", "coordinates": [[409500.88, 5656924.56], [409524.84, 5656917.33]]}}, {"type": "Feature", "properties": {"w": 2.5, "n": 3, "z": [114.45, 114.99]}, "geometry": {"type": "LineString", "coordinates": [[409963.64, 5656194.58], [409964.86, 5656195.76]]}}, {"type": "Feature", "properties": {"w": 2.5, "n": 3, "z": [114.46, 115.0]}, "geometry": {"type": "LineString", "coordinates": [[409968.64, 5656189.61], [409969.83, 5656190.75]]}}, {"type": "Feature", "properties": {"w": 2.5, "n": 9, "z": [114.5, 115.62]}, "geometry": {"type": "LineString", "coordinates": [[409968.82, 5656239.78], [409971.26, 5656237.24]]}}, {"type": "Feature", "properties": {"w": 2.5, "n": 9, "z": [114.49, 116.01]}, "geometry": {"type": "LineString", "coordinates": [[409973.76, 5656244.66], [409976.19, 5656242.12]]}}, {"type": "Feature", "properties": {"w": 2.5, "n": 8, "z": [114.44, 115.73]}, "geometry": {"type": "LineString", "coordinates": [[409999.18, 5656207.38], [409997.2, 5656205.51]]}}, {"type": "Feature", "properties": {"w": 2.5, "n": 18, "z": [110.58, 112.05]}, "geometry": {"type": "LineString", "coordinates": [[409940.33, 5657574.45], [409940.4, 5657576.85], [409937.71, 5657582.39]]}}, {"type": "Feature", "properties": {"w": 2.5, "n": 8, "z": [110.59, 111.98]}, "geometry": {"type": "LineString", "coordinates": [[409928.27, 5657576.12], [409929.17, 5657581.77]]}}, {"type": "Feature", "properties": {"w": 2.5, "n": 28, "z": [106.98, 111.46]}, "geometry": {"type": "LineString", "coordinates": [[408837.52, 5657831.79], [408844.36, 5657823.63]]}}, {"type": "Feature", "properties": {"w": 2.5, "n": 9, "z": [128.95, 130.1]}, "geometry": {"type": "LineString", "coordinates": [[408510.41, 5656225.6], [408510.45, 5656222.64]]}}, {"type": "Feature", "properties": {"w": 2.5, "n": 5, "z": [114.22, 114.98]}, "geometry": {"type": "LineString", "coordinates": [[409422.36, 5656650.81], [409438.28, 5656646.03]]}}, {"type": "Feature", "properties": {"w": 2.5, "n": 11, "z": [114.51, 116.2]}, "geometry": {"type": "LineString", "coordinates": [[409894.61, 5656229.03], [409892.14, 5656231.28]]}}, {"type": "Feature", "properties": {"w": 2.5, "n": 3, "z": [111.53, 112.0]}, "geometry": {"type": "LineString", "coordinates": [[409914.49, 5657074.2], [409914.31, 5657073.4]]}}, {"type": "Feature", "properties": {"w": 2.5, "n": 3, "z": [111.56, 112.06]}, "geometry": {"type": "LineString", "coordinates": [[409919.6, 5657069.13], [409918.44, 5657068.74]]}}, {"type": "Feature", "properties": {"w": 2.5, "n": 3, "z": [111.8, 112.33]}, "geometry": {"type": "LineString", "coordinates": [[409864.08, 5657097.53], [409864.53, 5657095.67]]}}, {"type": "Feature", "properties": {"w": 2.5, "n": 3, "z": [111.73, 112.26]}, "geometry": {"type": "LineString", "coordinates": [[409871.88, 5657096.11], [409871.18, 5657094.99]]}}, {"type": "Feature", "properties": {"w": 2.5, "n": 3, "z": [111.46, 111.97]}, "geometry": {"type": "LineString", "coordinates": [[409927.4, 5657068.41], [409926.36, 5657066.6]]}}, {"type": "Feature", "properties": {"w": 2.5, "n": 15, "z": [110.41, 112.25]}, "geometry": {"type": "LineString", "coordinates": [[409907.12, 5657575.08], [409908.74, 5657584.87]]}}, {"type": "Feature", "properties": {"w": 2.5, "n": 16, "z": [110.81, 112.57]}, "geometry": {"type": "LineString", "coordinates": [[409867.13, 5657569.97], [409871.45, 5657573.41], [409873.82, 5657575.87]]}}, {"type": "Feature", "properties": {"w": 2.5, "n": 19, "z": [110.5, 112.19]}, "geometry": {"type": "LineString", "coordinates": [[409982.37, 5657578.84], [409976.72, 5657578.94], [409971.97, 5657580.27]]}}, {"type": "Feature", "properties": {"w": 2.5, "n": 25, "z": [112.49, 116.56]}, "geometry": {"type": "LineString", "coordinates": [[408866.06, 5657083.87], [408865.93, 5657076.27]]}}]}