{"type": "FeatureCollection", "attribution": "\u00a9 OpenStreetMap contributors (ODbL)", "crs": {"type": "name", "properties": {"name": "urn:ogc:def:crs:EPSG::25833"}}, "features": [{"type": "Feature", "properties": {"w": 2.5, "n": 12, "z": [122.79, 124.35]}, "geometry": {"type": "LineString", "coordinates": [[411041.47, 5654217.44], [411046.85, 5654200.8]]}}, {"type": "Feature", "properties": {"w": 2.5, "n": 10, "z": [126.38, 128.11]}, "geometry": {"type": "LineString", "coordinates": [[410987.74, 5654132.23], [410981.47, 5654132.44]]}}, {"type": "Feature", "properties": {"w": 2.5, "n": 6, "z": [122.72, 123.26]}, "geometry": {"type": "LineString", "coordinates": [[411002.92, 5654225.92], [411005.75, 5654213.62]]}}, {"type": "Feature", "properties": {"w": 2.0, "n": 52, "z": [119.47, 127.39]}, "geometry": {"type": "LineString", "coordinates": [[410200.25, 5655280.84], [410218.74, 5655255.87]]}}, {"type": "Feature", "properties": {"w": 2.5, "n": 17, "z": [123.04, 125.69]}, "geometry": {"type": "LineString", "coordinates": [[411252.02, 5654154.14], [411248.99, 5654142.76], [411247.04, 5654136.6]]}}, {"type": "Feature", "properties": {"w": 2.5, "n": 25, "z": [114.24, 117.99]}, "geometry": {"type": "LineString", "coordinates": [[411515.03, 5655693.77], [411507.24, 5655685.09]]}}, {"type": "Feature", "properties": {"w": 2.5, "n": 30, "z": [114.45, 118.95]}, "geometry": {"type": "LineString", "coordinates": [[411479.36, 5655646.8], [411481.73, 5655654.08]]}}, {"type": "Feature", "properties": {"w": 2.5, "n": 7, "z": [113.43, 114.51]}, "geometry": {"type": "LineString", "coordinates": [[411613.08, 5655646.61], [411609.63, 5655649.26]]}}, {"type": "Feature", "properties": {"w": 2.5, "n": 20, "z": [113.77, 117.04]}, "geometry": {"type": "LineString", "coordinates": [[411039.26, 5654717.85], [411035.95, 5654718.92]]}}, {"type": "Feature", "properties": {"w": 2.5, "n": 17, "z": [114.33, 117.03]}, "geometry": {"type": "LineString", "coordinates": [[411030.36, 5654690.38], [411027.28, 5654691.39]]}}, {"type": "Feature", "properties": {"w": 2.5, "n": 15, "z": [114.7, 117.05]}, "geometry": {"type": "LineString", "coordinates": [[411021.47, 5654662.48], [411018.48, 5654663.44]]}}, {"type": "Feature", "properties": {"w": 2.5, "n": 4, "z": [132.11, 132.83]}, "geometry": {"type": "LineString", "coordinates": [[410065.68, 5654705.18], [410063.75, 5654701.6]]}}, {"type": "Feature", "properties": {"w": 2.5, "n": 4, "z": [131.23, 131.95]}, "geometry": {"type": "LineString", "coordinates": [[410055.95, 5654705.01], [410058.55, 5654708.93]]}}, {"type": "Feature", "properties": {"w": 2.5, "n": 4, "z": [134.24, 134.83]}, "geometry": {"type": "LineString", "coordinates": [[410364.21, 5654205.29], [410359.78, 5654204.81]]}}, {"type": "Feature", "properties": {"w": 2.5, "n": 4, "z": [134.22, 134.85]}, "geometry": {"type": "LineString", "coordinates": [[410367.08, 5654209.72], [410366.75, 5654212.97]]}}, {"type": "Feature", "properties": {"w": 2.0, "n": 8, "z": [118.01, 119.23]}, "geometry": {"type": "LineString", "coordinates": [[410856.54, 5654644.91], [410852.53, 5654647.42]]}}, {"type": "Feature", "properties": {"w": 2.0, "n": 10, "z": [117.72, 119.08]}, "geometry": {"type": "LineString", "coordinates": [[410846.74, 5654686.45], [410844.7, 5654683.51]]}}, {"type": "Feature", "properties": {"w": 1.5, "n": 4, "z": [124.27, 124.97]}, "geometry": {"type": "LineString", "coordinates": [[410651.56, 5655093.9], [410648.92, 5655096.05]]}}, {"type": "Feature", "properties": {"w": 2.0, "n": 3, "z": [123.69, 124.3]}, "geometry": {"type": "LineString", "coordinates": [[410672.71, 5655154.36], [410670.06, 5655152.05]]}}, {"type": "Feature", "properties": {"w": 2.5, "n": 10, "z": [114.44, 116.04]}, "geometry": {"type": "LineString", "coordinates": [[410935.93, 5654888.25], [410933.59, 5654890.65]]}}, {"type": "Feature", "properties": {"w": 1.0, "n": 6, "z": [121.17, 122.36]}, "geometry": {"type": "LineString", "coordinates": [[410746.53, 5654870.59], [410743.54, 5654868.75]]}}, {"type": "Feature", "properties": {"w": 2.5, "n": 2, "z": [114.99, 115.41]}, "geometry": {"type": "LineString", "coordinates": [[411337.52, 5654638.69], [411335.36, 5654639.35]]}}, {"type": "Feature", "properties": {"w": 2.5, "n": 5, "z": [116.01, 116.56]}, "geometry": {"type": "LineString", "coordinates": [[411223.3, 5654410.21], [411224.96, 5654409.7]]}}, {"type": "Feature", "properties": {"w": 2.5, "n": 6, "z": [128.38, 129.44]}, "geometry": {"type": "LineString", "coordinates": [[411034.46, 5654093.53], [411033.27, 5654089.56]]}}, {"type": "Feature", "properties": {"w": 2.5, "n": 21, "z": [122.91, 126.79]}, "geometry": {"type": "LineString", "coordinates": [[410392.16, 5655351.07], [410415.32, 5655341.37], [410420.32, 5655338.73]]}}, {"type": "Feature", "properties": {"w": 2.5, "n": 3, "z": [113.29, 113.74]}, "geometry": {"type": "LineString", "coordinates": [[411527.22, 5655613.98], [411522.05, 5655618.0]]}}, {"type": "Feature", "properties": {"w": 2.5, "n": 5, "z": [116.24, 117.16]}, "geometry": {"type": "LineString", "coordinates": [[411069.07, 5654738.61], [411066.71, 5654739.34]]}}, {"type": "Feature", "properties": {"w": 2.5, "n": 9, "z": [129.53, 131.0]}, "geometry": {"type": "LineString", "coordinates": [[410064.36, 5654693.35], [410062.24, 5654694.97]]}}, {"type": "Feature", "properties": {"w": 2.5, "n": 8, "z": [113.26, 114.01]}, "geometry": {"type": "LineString", "coordinates": [[411552.08, 5655571.28], [411547.76, 5655574.02]]}}, {"type": "Feature", "properties": {"w": 2.5, "n": 7, "z": [113.34, 114.52]}, "geometry": {"type": "LineString", "coordinates": [[411590.04, 5655616.35], [411585.6, 5655619.78]]}}, {"type": "Feature", "properties": {"w": 2.5, "n": 8, "z": [114.49, 115.73]}, "geometry": {"type": "LineString", "coordinates": [[411204.84, 5655569.8], [411205.52, 5655552.61]]}}, {"type": "Feature", "properties": {"w": 2.5, "n": 8, "z": [114.51, 115.49]}, "geometry": {"type": "LineString", "coordinates": [[411204.05, 5655590.82], [411215.22, 5655590.99]]}}, {"type": "Feature", "properties": {"w": 2.5, "n": 10, "z": [114.59, 115.68]}, "geometry": {"type": "LineString", "coordinates": [[411186.72, 5655570.17], [411181.24, 5655570.28]]}}, {"type": "Feature", "properties": {"w": 2.5, "n": 8, "z": [113.41, 114.73]}, "geometry": {"type": "LineString", "coordinates": [[411737.27, 5655510.13], [411730.85, 5655510.12]]}}, {"type": "Feature", "properties": {"w": 2.5, "n": 14, "z": [113.58, 114.95]}, "geometry": {"type": "LineString", "coordinates": [[411331.72, 5654581.17], [411333.24, 5654585.82]]}}, {"type": "Feature", "properties": {"w": 2.5, "n": 6, "z": [114.82, 115.71]}, "geometry": {"type": "LineString", "coordinates": [[411044.94, 5655724.76], [411047.07, 5655720.26]]}}, {"type": "Feature", "properties": {"w": 2.5, "n": 3, "z": [130.28, 130.9]}, "geometry": {"type": "LineString", "coordinates": [[410288.42, 5654539.53], [410284.38, 5654534.37]]}}, {"type": "Feature", "properties": {"w": 2.5, "n": 3, "z": [130.29, 130.9]}, "geometry": {"type": "LineString", "coordinates": [[410302.09, 5654528.99], [410298.13, 5654524.35]]}}, {"type": "Feature", "properties": {"w": 2.63, "n": 7, "z": [135.48, 136.58]}, "geometry": {"type": "LineString", "coordinates": [[410820.36, 5654013.55], [410820.5, 5654008.63]]}}, {"type": "Feature", "properties": {"w": 2.5, "n": 3, "z": [121.81, 122.27]}, "geometry": {"type": "LineString", "coordinates": [[410427.02, 5655407.61], [410437.95, 5655408.23]]}}, {"type": "Feature", "properties": {"w": 2.5, "n": 15, "z": [124.31, 126.74]}, "geometry": {"type": "LineString", "coordinates": [[410454.5, 5655382.05], [410459.64, 5655377.2]]}}, {"type": "Feature", "properties": {"w": 2.5, "n": 4, "z": [114.07, 114.57]}, "geometry": {"type": "LineString", "coordinates": [[411418.31, 5655547.7], [411419.38, 5655551.57], [411419.89, 5655553.2]]}}, {"type": "Feature", "properties": {"w": 2.5, "n": 4, "z": [114.06, 114.59]}, "geometry": {"type": "LineString", "coordinates": [[411389.08, 5655556.52], [411390.27, 5655564.42]]}}, {"type": "Feature", "properties": {"w": 2.5, "n": 8, "z": [115.2, 116.33]}, "geometry": {"type": "LineString", "coordinates": [[411302.99, 5654760.2], [411305.68, 5654759.33], [411307.73, 5654758.66]]}}, {"type": "Feature", "properties": {"w": 2.5, "n": 2, "z": [126.12, 126.51]}, "geometry": {"type": "LineString", "coordinates": [[411033.26, 5654165.29], [411032.35, 5654165.6]]}}, {"type": "Feature", "properties": {"w": 2.5, "n": 14, "z": [128.36, 129.74]}, "geometry": {"type": "LineString", "coordinates": [[410955.78, 5654127.38], [410945.89, 5654126.03]]}}, {"type": "Feature", "properties": {"w": 2.5, "n": 3, "z": [131.18, 131.69]}, "geometry": {"type": "LineString", "coordinates": [[410959.38, 5654053.53], [410954.22, 5654052.84]]}}, {"type": "Feature", "properties": {"w": 2.5, "n": 4, "z": [131.54, 131.97]}, "geometry": {"type": "LineString", "coordinates": [[410965.79, 5654033.04], [410965.69, 5654033.81], [410965.83, 5654034.28], [410966.12, 5654034.59], [410966.44, 5654034.71]]}}, {"type": "Feature", "properties": {"w": 2.5, "n": 33, "z": [128.9, 134.13]}, "geometry": {"type": "LineString", "coordinates": [[411826.05, 5654047.3], [411834.21, 5654044.02], [411845.68, 5654034.41], [411858.89, 5654029.9]]}}, {"type": "Feature", "properties": {"w": 2.5, "n": 6, "z": [113.98, 114.78]}, "geometry": {"type": "LineString", "coordinates": [[411449.07, 5655476.43], [411457.0, 5655474.08]]}}, {"type": "Feature", "properties": {"w": 2.5, "n": 4, "z": [118.26, 119.19]}, "geometry": {"type": "LineString", "coordinates": [[410727.78, 5655419.99], [410731.79, 5655426.35], [410733.74, 5655429.41], [410734.24, 5655430.17]]}}, {"type": "Feature", "properties": {"w": 2.5, "n": 5, "z": [128.18, 128.94]}, "geometry": {"type": "LineString", "coordinates": [[410556.65, 5654463.01], [410554.1, 5654458.95]]}}, {"type": "Feature", "properties": {"w": 2.5, "n": 3, "z": [128.83, 129.36]}, "geometry": {"type": "LineString", "coordinates": [[410518.22, 5654476.01], [410519.7, 5654477.88]]}}, {"type": "Feature", "properties": {"w": 2.5, "n": 7, "z": [116.05, 117.26]}, "geometry": {"type": "LineString", "coordinates": [[411305.39, 5654208.23], [411304.15, 5654204.56]]}}, {"type": "Feature", "properties": {"w": 2.5, "n": 4, "z": [113.79, 114.5]}, "geometry": {"type": "LineString", "coordinates": [[411606.96, 5655662.74], [411606.87, 5655661.07]]}}, {"type": "Feature", "properties": {"w": 2.5, "n": 8, "z": [130.78, 131.46]}, "geometry": {"type": "LineString", "coordinates": [[410139.66, 5654695.52], [410137.55, 5654692.4]]}}, {"type": "Feature", "properties": {"w": 2.5, "n": 8, "z": [130.71, 131.99]}, "geometry": {"type": "LineString", "coordinates": [[410137.88, 5654670.54], [410132.63, 5654674.49]]}}, {"type": "Feature", "properties": {"w": 2.5, "n": 7, "z": [114.28, 115.29]}, "geometry": {"type": "LineString", "coordinates": [[411111.41, 5655348.11], [411096.88, 5655361.39]]}}, {"type": "Feature", "properties": {"w": 2.5, "n": 7, "z": [114.35, 115.26]}, "geometry": {"type": "LineString", "coordinates": [[411073.9, 5655304.46], [411064.92, 5655308.09]]}}, {"type": "Feature", "properties": {"w": 2.5, "n": 5, "z": [114.61, 115.15]}, "geometry": {"type": "LineString", "coordinates": [[411422.32, 5655560.68], [411424.9, 5655569.33]]}}, {"type": "Feature", "properties": {"w": 2.5, "n": 15, "z": [114.97, 116.54]}, "geometry": {"type": "LineString", "coordinates": [[411494.7, 5654290.18], [411494.08, 5654288.21], [411493.4, 5654286.55], [411491.89, 5654284.69], [411489.78, 5654283.43], [411486.75, 5654282.33], [411483.31, 5654281.46]]}}, {"type": "Feature", "properties": {"w": 2.5, "n": 4, "z": [132.95, 133.64]}, "geometry": {"type": "LineString", "coordinates": [[410517.61, 5654240.19], [410513.63, 5654243.3]]}}, {"type": "Feature", "properties": {"w": 2.5, "n": 4, "z": [133.76, 134.61]}, "geometry": {"type": "LineString", "coordinates": [[410471.94, 5654207.57], [410470.78, 5654202.56]]}}, {"type": "Feature", "properties": {"w": 2.5, "n": 19, "z": [115.18, 118.21]}, "geometry": {"type": "LineString", "coordinates": [[410494.97, 5655636.76], [410505.95, 5655641.61]]}}, {"type": "Feature", "properties": {"w": 2.5, "n": 6, "z": [123.8, 124.76]}, "geometry": {"type": "LineString", "coordinates": [[411213.63, 5654141.32], [411225.82, 5654137.23]]}}, {"type": "Feature", "properties": {"w": 2.5, "n": 5, "z": [125.05, 125.86]}, "geometry": {"type": "LineString", "coordinates": [[411264.35, 5654085.77], [411251.84, 5654090.59]]}}, {"type": "Feature", "properties": {"w": 2.5, "n": 5, "z": [124.94, 125.82]}, "geometry": {"type": "LineString", "coordinates": [[411201.97, 5654106.92], [411214.45, 5654103.77]]}}, {"type": "Feature", "properties": {"w": 2.5, "n": 6, "z": [118.01, 118.59]}, "geometry": {"type": "LineString", "coordinates": [[411272.87, 5654270.97], [411275.29, 5654270.25]]}}, {"type": "Feature", "properties": {"w": 2.5, "n": 6, "z": [123.82, 124.8]}, "geometry": {"type": "LineString", "coordinates": [[411275.68, 5654119.34], [411262.51, 5654123.5]]}}, {"type": "Feature", "properties": {"w": 2.5, "n": 5, "z": [119.33, 120.21]}, "geometry": {"type": "LineString", "coordinates": [[411277.33, 5654998.87], [411278.01, 5655000.11]]}}, {"type": "Feature", "properties": {"w": 2.5, "n": 7, "z": [129.94, 130.88]}, "geometry": {"type": "LineString", "coordinates": [[410815.25, 5654231.37], [410814.19, 5654230.03]]}}, {"type": "Feature", "properties": {"w": 2.5, "n": 4, "z": [130.41, 130.92]}, "geometry": {"type": "LineString", "coordinates": [[410800.2, 5654242.19], [410799.14, 5654240.85]]}}, {"type": "Feature", "properties": {"w": 2.5, "n": 2, "z": [130.63, 131.0]}, "geometry": {"type": "LineString", "coordinates": [[410784.97, 5654253.34], [410783.91, 5654251.99]]}}, {"type": "Feature", "properties": {"w": 2.5, "n": 2, "z": [128.3, 128.61]}, "geometry": {"type": "LineString", "coordinates": [[410407.44, 5654755.45], [410411.62, 5654752.48]]}}, {"type": "Feature", "properties": {"w": 2.5, "n": 3, "z": [114.34, 114.82]}, "geometry": {"type": "LineString", "coordinates": [[411983.08, 5655163.9], [411981.39, 5655163.52]]}}, {"type": "Feature", "properties": {"w": 2.5, "n": 4, "z": [114.22, 114.91]}, "geometry": {"type": "LineString", "coordinates": [[411987.32, 5655163.51], [411985.58, 5655158.9]]}}, {"type": "Feature", "properties": {"w": 1.0, "n": 11, "z": [117.22, 118.92]}, "geometry": {"type": "LineString", "coordinates": [[410836.39, 5654837.59], [410829.8, 5654835.03], [410829.02, 5654831.38]]}}, {"type": "Feature", "properties": {"w": 2.5, "n": 6, "z": [138.2, 139.16]}, "geometry": {"type": "LineString", "coordinates": [[410386.61, 5654032.59], [410393.35, 5654034.52]]}}, {"type": "Feature", "properties": {"w": 1.0, "n": 5, "z": [126.02, 126.86]}, "geometry": {"type": "LineString", "coordinates": [[411103.28, 5654058.82], [411104.62, 5654058.38]]}}, {"type": "Feature", "properties": {"w": 1.0, "n": 3, "z": [128.89, 129.35]}, "geometry": {"type": "LineString", "coordinates": [[411083.28, 5654028.83], [411085.81, 5654028.02]]}}, {"type": "Feature", "properties": {"w": 1.0, "n": 3, "z": [128.82, 129.37]}, "geometry": {"type": "LineString", "coordinates": [[411068.05, 5654036.94], [411065.05, 5654037.85]]}}, {"type": "Feature", "properties": {"w": 2.5, "n": 3, "z": [115.39, 116.14]}, "geometry": {"type": "LineString", "coordinates": [[410198.79, 5655962.25], [410199.11, 5655961.41]]}}, {"type": "Feature", "properties": {"w": 2.5, "n": 2, "z": [116.32, 116.62]}, "geometry": {"type": "LineString", "coordinates": [[411037.31, 5654752.95], [411038.51, 5654752.57]]}}, {"type": "Feature", "properties": {"w": 2.5, "n": 5, "z": [121.3, 122.06]}, "geometry": {"type": "LineString", "coordinates": [[411452.47, 5654085.5], [411452.2, 5654082.58]]}}, {"type": "Feature", "properties": {"w": 2.5, "n": 4, "z": [114.67, 115.21]}, "geometry": {"type": "LineString", "coordinates": [[411471.85, 5655610.49], [411466.21, 5655611.97], [411462.28, 5655612.6], [411458.07, 5655612.62]]}}, {"type": "Feature", "properties": {"w": 2.5, "n": 6, "z": [117.0, 117.99]}, "geometry": {"type": "LineString", "coordinates": [[410965.38, 5654427.66], [410962.78, 5654424.22]]}}, {"type": "Feature", "properties": {"w": 1.2, "n": 12, "z": [119.7, 122.21]}, "geometry": {"type": "LineString", "coordinates": [[410835.27, 5654574.02], [410821.78, 5654572.02]]}}, {"type": "Feature", "properties": {"w": 1.0, "n": 8, "z": [131.65, 133.0]}, "geometry": {"type": "LineString", "coordinates": [[410742.04, 5654256.43], [410739.94, 5654253.45]]}}, {"type": "Feature", "properties": {"w": 1.0, "n": 3, "z": [123.77, 124.32]}, "geometry": {"type": "LineString", "coordinates": [[410681.46, 5654623.2], [410683.8, 5654621.41]]}}, {"type": "Feature", "properties": {"w": 1.0, "n": 8, "z": [125.19, 126.38]}, "geometry": {"type": "LineString", "coordinates": [[410678.73, 5654595.88], [410684.2, 5654591.86]]}}, {"type": "Feature", "properties": {"w": 2.5, "n": 5, "z": [114.24, 114.87]}, "geometry": {"type": "LineString", "coordinates": [[411047.21, 5655219.18], [411047.98, 5655221.5]]}}, {"type": "Feature", "properties": {"w": 2.5, "n": 4, "z": [134.08, 134.83]}, "geometry": {"type": "LineString", "coordinates": [[410356.78, 5654206.73], [410359.78, 5654204.81]]}}, {"type": "Feature", "properties": {"w": 2.5, "n": 6, "z": [133.85, 134.77]}, "geometry": {"type": "LineString", "coordinates": [[410363.62, 5654215.59], [410366.75, 5654212.97]]}}, {"type": "Feature", "properties": {"w": 2.5, "n": 5, "z": [115.24, 115.85]}, "geometry": {"type": "LineString", "coordinates": [[411228.9, 5654485.55], [411230.69, 5654488.12]]}}, {"type": "Feature", "properties": {"w": 2.5, "n": 3, "z": [128.37, 128.95]}, "geometry": {"type": "LineString", "coordinates": [[410542.01, 5654467.96], [410554.1, 5654458.95]]}}, {"type": "Feature", "properties": {"w": 2.5, "n": 5, "z": [114.39, 115.14]}, "geometry": {"type": "LineString", "coordinates": [[411507.24, 5655685.09], [411505.68, 5655683.35]]}}, {"type": "Feature", "properties": {"w": 2.5, "n": 3, "z": [127.89, 128.22]}, "geometry": {"type": "LineString", "coordinates": [[410348.06, 5654907.7], [410341.39, 5654912.26]]}}, {"type": "Feature", "properties": {"w": 2.5, "n": 2, "z": [129.5, 129.86]}, "geometry": {"type": "LineString", "coordinates": [[410314.94, 5654658.2], [410313.71, 5654659.12]]}}, {"type": "Feature", "properties": {"w": 2.5, "n": 5, "z": [115.42, 116.47]}, "geometry": {"type": "LineString", "coordinates": [[410923.28, 5654770.21], [410921.18, 5654791.41], [410920.42, 5654799.1]]}}, {"type": "Feature", "properties": {"w": 2.5, "n": 7, "z": [114.24, 115.47]}, "geometry": {"type": "LineString", "coordinates": [[411132.96, 5655743.27], [411133.4, 5655739.89]]}}, {"type": "Feature", "properties": {"w": 2.5, "n": 5, "z": [113.94, 114.68]}, "geometry": {"type": "LineString", "coordinates": [[411454.26, 5655429.89], [411452.19, 5655432.21]]}}, {"type": "Feature", "properties": {"w": 2.5, "n": 4, "z": [123.84, 124.75]}, "geometry": {"type": "LineString", "coordinates": [[410869.06, 5654329.21], [410868.64, 5654326.91]]}}, {"type": "Feature", "properties": {"w": 2.5, "n": 2, "z": [114.43, 114.84]}, "geometry": {"type": "LineString", "coordinates": [[411124.21, 5655795.06], [411123.99, 5655796.22]]}}, {"type": "Feature", "properties": {"w": 2.5, "n": 3, "z": [114.33, 114.87]}, "geometry": {"type": "LineString", "coordinates": [[411164.74, 5655326.68], [411164.28, 5655330.76]]}}, {"type": "Feature", "properties": {"w": 2.5, "n": 7, "z": [113.85, 114.8]}, "geometry": {"type": "LineString", "coordinates": [[411262.32, 5655471.29], [411261.23, 5655467.74]]}}, {"type": "Feature", "properties": {"w": 2.5, "n": 30, "z": [117.52, 122.39]}, "geometry": {"type": "LineString", "coordinates": [[410436.9, 5655440.89], [410435.56, 5655438.48], [410431.83, 5655440.53]]}}, {"type": "Feature", "properties": {"w": 2.5, "n": 15, "z": [120.78, 123.2]}, "geometry": {"type": "LineString", "coordinates": [[411294.97, 5654139.26], [411295.89, 5654142.53], [411292.23, 5654143.58]]}}, {"type": "Feature", "properties": {"w": 2.5, "n": 4, "z": [136.63, 137.23]}, "geometry": {"type": "LineString", "coordinates": [[410588.19, 5654094.83], [410589.03, 5654093.14]]}}, {"type": "Feature", "properties": {"w": 2.5, "n": 4, "z": [136.63, 137.26]}, "geometry": {"type": "LineString", "coordinates": [[410578.22, 5654110.46], [410576.39, 5654109.5]]}}, {"type": "Feature", "properties": {"w": 2.5, "n": 3, "z": [114.98, 115.55]}, "geometry": {"type": "LineString", "coordinates": [[410940.06, 5655332.79], [410940.76, 5655333.92]]}}, {"type": "Feature", "properties": {"w": 2.5, "n": 15, "z": [133.08, 135.48]}, "geometry": {"type": "LineString", "coordinates": [[410137.83, 5654193.39], [410146.54, 5654186.68]]}}, {"type": "Feature", "properties": {"w": 2.5, "n": 4, "z": [114.62, 115.2]}, "geometry": {"type": "LineString", "coordinates": [[411469.0, 5655615.02], [411466.23, 5655615.77]]}}, {"type": "Feature", "properties": {"w": 2.5, "n": 11, "z": [111.7, 113.48]}, "geometry": {"type": "LineString", "coordinates": [[411686.06, 5655574.21], [411687.91, 5655575.27], [411689.78, 5655577.24], [411691.81, 5655580.54]]}}, {"type": "Feature", "properties": {"w": 2.5, "n": 10, "z": [111.75, 113.34]}, "geometry": {"type": "LineString", "coordinates": [[411680.72, 5655574.02], [411677.3, 5655574.25], [411674.75, 5655574.8]]}}, {"type": "Feature", "properties": {"w": 2.5, "n": 4, "z": [119.72, 120.22]}, "geometry": {"type": "LineString", "coordinates": [[411144.93, 5654275.4], [411152.59, 5654272.96]]}}, {"type": "Feature", "properties": {"w": 2.5, "n": 9, "z": [114.46, 115.52]}, "geometry": {"type": "LineString", "coordinates": [[410985.36, 5654874.02], [410985.87, 5654876.57], [410992.64, 5654875.14]]}}, {"type": "Feature", "properties": {"w": 2.5, "n": 4, "z": [117.52, 117.92]}, "geometry": {"type": "LineString", "coordinates": [[411135.0, 5654351.17], [411134.41, 5654349.13]]}}, {"type": "Feature", "properties": {"w": 2.5, "n": 2, "z": [114.96, 115.26]}, "geometry": {"type": "LineString", "coordinates": [[411331.53, 5654758.12], [411328.3, 5654759.11]]}}, {"type": "Feature", "properties": {"w": 2.5, "n": 2, "z": [114.79, 115.19]}, "geometry": {"type": "LineString", "coordinates": [[411345.36, 5654709.34], [411346.41, 5654712.8], [411350.53, 5654711.56], [411349.38, 5654707.96]]}}, {"type": "Feature", "properties": {"w": 2.5, "n": 3, "z": [130.94, 131.5]}, "geometry": {"type": "LineString", "coordinates": [[410291.43, 5654394.8], [410290.83, 5654394.02]]}}, {"type": "Feature", "properties": {"w": 2.5, "n": 5, "z": [133.59, 134.33]}, "geometry": {"type": "LineString", "coordinates": [[410280.65, 5654181.43], [410281.51, 5654182.62]]}}, {"type": "Feature", "properties": {"w": 2.5, "n": 5, "z": [135.97, 136.75]}, "geometry": {"type": "LineString", "coordinates": [[410296.26, 5654089.49], [410294.64, 5654087.32]]}}, {"type": "Feature", "properties": {"w": 2.5, "n": 3, "z": [112.43, 113.02]}, "geometry": {"type": "LineString", "coordinates": [[411104.35, 5655989.93], [411100.86, 5655988.15]]}}, {"type": "Feature", "properties": {"w": 2.5, "n": 9, "z": [125.24, 126.69]}, "geometry": {"type": "LineString", "coordinates": [[410630.55, 5654906.12], [410628.0, 5654902.98]]}}]}