{"type": "FeatureCollection", "attribution": "\u00a9 OpenStreetMap contributors (ODbL)", "crs": {"type": "name", "properties": {"name": "urn:ogc:def:crs:EPSG::25833"}}, "features": [{"type": "Feature", "properties": {"kind": "chimney", "z": 124.72, "h": 21.0, "r": 6.0, "rt": 3.6}, "geometry": {"type": "Point", "coordinates": [409523.5, 5654565.5]}}, {"type": "Feature", "properties": {"kind": "chimney", "z": 124.83, "h": 20.0, "r": 6.0, "rt": 3.6}, "geometry": {"type": "Point", "coordinates": [409479.5, 5654508.5]}}, {"type": "Feature", "properties": {"kind": "chimney", "z": 133.41, "h": 25.1, "r": 6.0, "rt": 3.6}, "geometry": {"type": "Point", "coordinates": [408844.5, 5654259.5]}}, {"type": "Feature", "properties": {"kind": "chimney", "z": 133.16, "h": 22.8, "r": 0.95, "rt": 0.57}, "geometry": {"type": "Point", "coordinates": [408846.5, 5654271.5]}}, {"type": "Feature", "properties": {"kind": "chimney", "z": 120.8, "h": 29.9, "r": 6.0, "rt": 3.6}, "geometry": {"type": "Point", "coordinates": [409694.5, 5654923.5]}}, {"type": "Feature", "properties": {"kind": "mast", "z": 134.27, "h": 19.7, "r": 0.56, "rt": 0.2}, "geometry": {"type": "Point", "coordinates": [408356.5, 5655254.5]}}, {"type": "Feature", "properties": {"kind": "mast", "z": 123.06, "h": 31.6, "r": 0.56, "rt": 0.2}, "geometry": {"type": "Point", "coordinates": [409116.5, 5655503.5]}}, {"type": "Feature", "properties": {"kind": "mast", "z": 127.06, "h": 25.1, "r": 2.5, "rt": 0.88}, "geometry": {"type": "Point", "coordinates": [408846.5, 5655498.5]}}, {"type": "Feature", "properties": {"kind": "mast", "z": 126.93, "h": 27.2, "r": 2.5, "rt": 0.88}, "geometry": {"type": "Point", "coordinates": [408874.5, 5655505.5]}}, {"type": "Feature", "properties": {"kind": "chimney", "z": 129.44, "h": 10.5, "r": 2.52, "rt": 1.51}, "geometry": {"type": "Point", "coordinates": [408938.5, 5654833.5]}}, {"type": "Feature", "properties": {"kind": "mast", "z": 139.3, "h": 23.0, "r": 0.56, "rt": 0.2}, "geometry": {"type": "Point", "coordinates": [408489.5, 5654746.5]}}, {"type": "Feature", "properties": {"kind": "mast", "z": 127.24, "h": 29.7, "r": 0.8, "rt": 0.28}, "geometry": {"type": "Point", "coordinates": [408836.5, 5655455.5]}}, {"type": "Feature", "properties": {"kind": "mast", "z": 127.68, "h": 19.6, "r": 2.5, "rt": 0.88}, "geometry": {"type": "Point", "coordinates": [408951.5, 5654674.5]}}, {"type": "Feature", "properties": {"kind": "chimney", "z": 121.42, "h": 79.5, "r": 3.31, "rt": 1.99}, "geometry": {"type": "Point", "coordinates": [409433.39, 5655271.24]}}, {"type": "Feature", "properties": {"kind": "tower", "z": 136.57, "h": 12.9, "r": 2.65, "rt": 2.39, "name": "Glockenturm"}, "geometry": {"type": "Point", "coordinates": [408498.71, 5654888.49]}}, {"type": "Feature", "properties": {"kind": "chimney", "z": 119.14, "h": 29.8, "r": 1.24, "rt": 0.75}, "geometry": {"type": "Point", "coordinates": [409928.13, 5655108.02]}}, {"type": "Feature", "properties": {"kind": "chimney", "z": 121.37, "h": 79.6, "r": 3.32, "rt": 1.99}, "geometry": {"type": "Point", "coordinates": [409438.25, 5655266.22]}}, {"type": "Feature", "properties": {"kind": "chimney", "z": 121.31, "h": 79.6, "r": 3.32, "rt": 1.99}, "geometry": {"type": "Point", "coordinates": [409443.3, 5655261.37]}}, {"type": "Feature", "properties": {"kind": "building", "z": 120.5, "h": 17.5}, "geometry": {"type": "Polygon", "coordinates": [[[409629.02, 5655504.34], [409633.55, 5655505.71], [409638.28, 5655505.45], [409642.63, 5655503.59], [409646.08, 5655500.36], [409648.22, 5655496.14], [409648.78, 5655491.46], [409647.7, 5655486.87], [409645.11, 5655482.91], [409641.32, 5655480.08], [409636.79, 5655478.71], [409632.06, 5655478.97], [409627.71, 5655480.84], [409624.26, 5655484.07], [409622.12, 5655488.28], [409621.56, 5655492.97], [409622.64, 5655497.57], [409625.23, 5655501.52], [409629.02, 5655504.34]]]}}, {"type": "Feature", "properties": {"kind": "building", "z": 137.01, "h": 12.5}, "geometry": {"type": "Polygon", "coordinates": [[[409863.66, 5653995.67], [409851.38, 5654004.64], [409858.82, 5654014.76], [409870.92, 5654005.93], [409869.34, 5654003.78], [409870.88, 5654002.65], [409867.95, 5653998.56], [409866.55, 5653999.59], [409863.66, 5653995.67]]]}}, {"type": "Feature", "properties": {"kind": "building", "z": 137.14, "h": 7.2}, "geometry": {"type": "Polygon", "coordinates": [[[409700.69, 5654011.21], [409701.97, 5654010.23], [409702.73, 5654011.21], [409706.82, 5654008.08], [409706.06, 5654007.11], [409709.79, 5654004.26], [409704.09, 5653996.84], [409694.99, 5654003.79], [409700.69, 5654011.21]]]}}, {"type": "Feature", "properties": {"kind": "building", "z": 137.14, "h": 12.5}, "geometry": {"type": "Polygon", "coordinates": [[[409930.52, 5653998.51], [409938.32, 5654009.64], [409926.58, 5654017.82], [409925.39, 5654016.12], [409922.81, 5654017.91], [409919.07, 5654012.57], [409921.66, 5654010.76], [409918.8, 5654006.68], [409930.52, 5653998.51]]]}}, {"type": "Feature", "properties": {"kind": "building", "z": 131.57, "h": 9.7}, "geometry": {"type": "Polygon", "coordinates": [[[409146.51, 5654008.14], [409134.29, 5654016.38], [409129.68, 5654009.57], [409131.48, 5654008.36], [409126.02, 5654000.28], [409136.45, 5653993.27], [409146.51, 5654008.14]]]}}, {"type": "Feature", "properties": {"kind": "building", "z": 172.79, "h": 8.8}, "geometry": {"type": "Polygon", "coordinates": [[[408006.25, 5654235.6], [407996.3, 5654233.12], [407998.32, 5654225.1], [408008.27, 5654227.58], [408006.25, 5654235.6]]]}}, {"type": "Feature", "properties": {"kind": "building", "z": 165.82, "h": 4.8}, "geometry": {"type": "Polygon", "coordinates": [[[408008.07, 5654411.27], [408001.3, 5654415.43], [408004.38, 5654420.43], [408011.15, 5654416.27], [408008.07, 5654411.27]]]}}, {"type": "Feature", "properties": {"kind": "building", "z": 135.54, "h": 13.3}, "geometry": {"type": "Polygon", "coordinates": [[[408012.19, 5655338.57], [408014.52, 5655322.58], [407998.72, 5655320.29], [407996.38, 5655336.27], [408012.19, 5655338.57]]]}}, {"type": "Feature", "properties": {"kind": "building", "z": 126.4, "h": 4.5}, "geometry": {"type": "Polygon", "coordinates": [[[409569.01, 5654513.99], [409578.23, 5654507.78], [409580.62, 5654511.32], [409571.41, 5654517.53], [409569.01, 5654513.99]]]}}, {"type": "Feature", "properties": {"kind": "building", "z": 176.11, "h": 9.8}, "geometry": {"type": "Polygon", "coordinates": [[[408163.53, 5654010.64], [408157.47, 5654002.82], [408168.73, 5653994.13], [408174.79, 5654001.94], [408163.53, 5654010.64]]]}}, {"type": "Feature", "properties": {"kind": "building", "z": 153.42, "h": 13.5}, "geometry": {"type": "Polygon", "coordinates": [[[408484.61, 5654276.43], [408474.83, 5654281.44], [408493.09, 5654316.83], [408502.86, 5654311.82], [408484.61, 5654276.43]]]}}, {"type": "Feature", "properties": {"kind": "building", "z": 130.81, "h": 17.2}, "geometry": {"type": "Polygon", "coordinates": [[[409169.8, 5653993.07], [409178.0, 5654004.66], [409166.29, 5654012.88], [409164.06, 5654009.53], [409162.5, 5654010.7], [409158.93, 5654005.62], [409160.52, 5654004.38], [409158.27, 5654001.3], [409169.8, 5653993.07]]]}}, {"type": "Feature", "properties": {"kind": "building", "z": 129.28, "h": 8.4}, "geometry": {"type": "Polygon", "coordinates": [[[409012.55, 5654007.37], [409020.67, 5654004.5], [409029.66, 5654029.7], [409021.67, 5654032.63], [409012.55, 5654007.37]]]}}, {"type": "Feature", "properties": {"kind": "building", "z": 129.04, "h": 7.4}, "geometry": {"type": "Polygon", "coordinates": [[[409010.99, 5654130.03], [409007.03, 5654131.17], [409009.83, 5654140.88], [409013.79, 5654139.74], [409010.99, 5654130.03]]]}}, {"type": "Feature", "properties": {"kind": "building", "z": 151.82, "h": 7.8}, "geometry": {"type": "Polygon", "coordinates": [[[407997.35, 5654699.89], [408009.58, 5654702.23], [408011.7, 5654691.23], [407999.46, 5654688.89], [407997.35, 5654699.89]]]}}, {"type": "Feature", "properties": {"kind": "building", "z": 120.75, "h": 10.3}, "geometry": {"type": "Polygon", "coordinates": [[[409551.68, 5655332.51], [409550.0, 5655327.89], [409511.19, 5655343.05], [409512.87, 5655347.67], [409551.68, 5655332.51]]]}}, {"type": "Feature", "properties": {"kind": "building", "z": 131.53, "h": 17.3}, "geometry": {"type": "Polygon", "coordinates": [[[409208.29, 5654016.83], [409219.48, 5654009.04], [409216.9, 5654005.21], [409218.33, 5654004.13], [409214.75, 5653998.81], [409213.23, 5653999.86], [409211.1, 5653996.84], [409199.77, 5654004.4], [409208.29, 5654016.83]]]}}, {"type": "Feature", "properties": {"kind": "building", "z": 137.3, "h": 5.8}, "geometry": {"type": "Polygon", "coordinates": [[[409740.65, 5654004.72], [409746.42, 5654012.3], [409756.87, 5654004.23], [409749.13, 5653993.86], [409741.75, 5653999.34], [409743.94, 5654002.29], [409740.65, 5654004.72]]]}}, {"type": "Feature", "properties": {"kind": "building", "z": 137.34, "h": 12.4}, "geometry": {"type": "Polygon", "coordinates": [[[408829.2, 5653992.5], [408820.59, 5653995.73], [408811.5, 5654001.74], [408804.75, 5654008.8], [408799.2, 5654017.54], [408795.33, 5654027.12], [408793.84, 5654036.54], [408806.66, 5654037.49], [408807.89, 5654030.33], [408810.95, 5654022.76], [408814.9, 5654016.92], [408820.1, 5654011.69], [408826.24, 5654007.54], [408833.02, 5654004.92], [408829.2, 5653992.5]]]}}, {"type": "Feature", "properties": {"kind": "building", "z": 116.85, "h": 22.0, "name": "L\u00d666 Gesundheitszentrum Dresden Mitte"}, "geometry": {"type": "Polygon", "coordinates": [[[409536.88, 5655988.72], [409566.65, 5656022.8], [409589.66, 5656002.81], [409559.89, 5655968.73], [409536.88, 5655988.72]]]}}, {"type": "Feature", "properties": {"kind": "building", "z": 134.91, "h": 12.4}, "geometry": {"type": "Polygon", "coordinates": [[[409923.05, 5654260.85], [409935.33, 5654251.72], [409943.49, 5654262.65], [409931.22, 5654271.77], [409923.05, 5654260.85]]]}}, {"type": "Feature", "properties": {"kind": "building", "z": 126.74, "h": 12.4, "name": "Verein Lebenshilfe e.V."}, "geometry": {"type": "Polygon", "coordinates": [[[408921.28, 5655661.4], [408917.04, 5655663.0], [408910.02, 5655686.62], [408923.08, 5655690.37], [408926.64, 5655678.47], [408939.84, 5655687.46], [408943.66, 5655681.72], [408941.24, 5655680.02], [408943.57, 5655676.63], [408921.28, 5655661.4]]]}}, {"type": "Feature", "properties": {"kind": "building", "z": 126.96, "h": 15.0, "name": "Stadthaus Reisewitz"}, "geometry": {"type": "Polygon", "coordinates": [[[408946.03, 5655458.09], [408947.12, 5655443.78], [408949.12, 5655443.93], [408949.5, 5655438.93], [408947.5, 5655438.78], [408948.42, 5655426.75], [408959.86, 5655427.61], [408959.71, 5655429.67], [408966.18, 5655430.16], [408965.33, 5655441.2], [408958.74, 5655440.69], [408957.34, 5655458.96], [408946.03, 5655458.09]]]}}, {"type": "Feature", "properties": {"kind": "building", "z": 123.34, "h": 3.1}, "geometry": {"type": "Polygon", "coordinates": [[[409675.99, 5654796.52], [409674.33, 5654794.97], [409673.32, 5654796.04], [409669.36, 5654792.36], [409674.85, 5654786.49], [409678.58, 5654789.96], [409675.87, 5654792.86], [409677.77, 5654794.62], [409675.99, 5654796.52]]]}}, {"type": "Feature", "properties": {"kind": "building", "z": 127.0, "h": 15.3}, "geometry": {"type": "Polygon", "coordinates": [[[408972.06, 5655623.91], [408986.17, 5655627.87], [408990.23, 5655613.41], [408976.13, 5655609.47], [408972.06, 5655623.91]]]}}, {"type": "Feature", "properties": {"kind": "building", "z": 118.37, "h": 7.2, "name": "DGH Gewerbehof Freiberger Stra\u00dfe 112"}, "geometry": {"type": "Polygon", "coordinates": [[[409503.23, 5655604.89], [409573.83, 5655631.02], [409562.43, 5655661.65], [409491.83, 5655635.51], [409503.23, 5655604.89]]]}}, {"type": "Feature", "properties": {"kind": "building", "z": 131.25, "h": 15.7}, "geometry": {"type": "Polygon", "coordinates": [[[409275.79, 5654085.36], [409278.96, 5654085.73], [409289.9, 5654078.79], [409297.65, 5654089.44], [409281.34, 5654100.47], [409273.7, 5654099.37], [409275.79, 5654085.36]]]}}, {"type": "Feature", "properties": {"kind": "building", "z": 125.88, "h": 9.2}, "geometry": {"type": "Polygon", "coordinates": [[[408631.96, 5655789.67], [408628.83, 5655799.84], [408645.2, 5655804.84], [408648.32, 5655794.68], [408631.96, 5655789.67]]]}}, {"type": "Feature", "properties": {"kind": "building", "z": 126.93, "h": 14.9}, "geometry": {"type": "Polygon", "coordinates": [[[408604.66, 5655877.43], [408618.63, 5655880.91], [408622.85, 5655864.09], [408608.88, 5655860.61], [408604.66, 5655877.43]]]}}, {"type": "Feature", "properties": {"kind": "building", "z": 126.28, "h": 14.7}, "geometry": {"type": "Polygon", "coordinates": [[[408629.23, 5655844.75], [408633.7, 5655825.14], [408617.9, 5655821.56], [408613.43, 5655841.18], [408629.23, 5655844.75]]]}}, {"type": "Feature", "properties": {"kind": "building", "z": 125.97, "h": 15.0}, "geometry": {"type": "Polygon", "coordinates": [[[408636.3, 5655846.66], [408652.28, 5655850.27], [408656.99, 5655829.51], [408641.01, 5655825.9], [408636.3, 5655846.66]]]}}, {"type": "Feature", "properties": {"kind": "building", "z": 125.37, "h": 16.5, "name": "Cortile Bianco"}, "geometry": {"type": "Polygon", "coordinates": [[[408822.72, 5655659.93], [408834.42, 5655619.67], [408830.35, 5655616.84], [408828.28, 5655619.53], [408800.6, 5655600.06], [408811.09, 5655585.25], [408857.51, 5655617.21], [408842.1, 5655672.63], [408822.72, 5655659.93]]]}}, {"type": "Feature", "properties": {"kind": "building", "z": 131.47, "h": 16.4}, "geometry": {"type": "Polygon", "coordinates": [[[408144.12, 5655575.84], [408148.52, 5655556.08], [408169.41, 5655560.7], [408165.02, 5655580.46], [408144.12, 5655575.84]]]}}, {"type": "Feature", "properties": {"kind": "building", "z": 137.61, "h": 16.7}, "geometry": {"type": "Polygon", "coordinates": [[[408482.77, 5654828.02], [408483.93, 5654812.22], [408501.92, 5654813.52], [408500.77, 5654829.33], [408482.77, 5654828.02]]]}}, {"type": "Feature", "properties": {"kind": "building", "z": 128.78, "h": 14.8}, "geometry": {"type": "Polygon", "coordinates": [[[409072.82, 5654396.08], [409066.59, 5654383.74], [409081.43, 5654376.3], [409087.66, 5654388.64], [409072.82, 5654396.08]]]}}, {"type": "Feature", "properties": {"kind": "building", "z": 124.53, "h": 3.8}, "geometry": {"type": "Polygon", "coordinates": [[[409532.5, 5654616.29], [409527.74, 5654618.52], [409524.02, 5654610.64], [409528.78, 5654608.41], [409532.5, 5654616.29]]]}}, {"type": "Feature", "properties": {"kind": "building", "z": 126.14, "h": 19.6}, "geometry": {"type": "Polygon", "coordinates": [[[408925.09, 5655463.41], [408922.61, 5655485.25], [408889.64, 5655480.89], [408890.85, 5655465.85], [408911.21, 5655468.2], [408911.76, 5655462.12], [408925.09, 5655463.41]]]}}, {"type": "Feature", "properties": {"kind": "building", "z": 127.45, "h": 15.4}, "geometry": {"type": "Polygon", "coordinates": [[[408949.86, 5655416.16], [408950.84, 5655403.42], [408969.6, 5655404.87], [408968.61, 5655417.61], [408949.86, 5655416.16]]]}}, {"type": "Feature", "properties": {"kind": "building", "z": 119.7, "h": 2.8}, "geometry": {"type": "Polygon", "coordinates": [[[409836.59, 5655017.49], [409841.21, 5655013.3], [409847.21, 5655019.9], [409842.59, 5655024.08], [409836.59, 5655017.49]]]}}, {"type": "Feature", "properties": {"kind": "building", "z": 154.69, "h": 2.7}, "geometry": {"type": "Polygon", "coordinates": [[[408431.88, 5654328.52], [408431.91, 5654324.11], [408441.95, 5654324.19], [408441.92, 5654328.59], [408431.88, 5654328.52]]]}}, {"type": "Feature", "properties": {"kind": "relief", "z": 151.65, "h": 3.4, "of": "UUID_204051d1-d905-438b-8296-92aefd7a39a0", "grid": {"x": 409456.0, "y": 5655331.0, "res": 1.0, "cols": 23, "rows": 44, "z": [-1.0, -1.0, -1.0, -1.0, -1.0, -1.0, -1.0, -1.0, -1.0, -1.0, -1.0, -1.0, -1.0, -1.0, -1.0, -1.0, -1.0, -1.0, 2.0, 1.6, -1.0, -1.0, -1.0, -1.0, -1.0, -1.0, -1.0, -1.0, -1.0, -1.0, -1.0, -1.0, -1.0, -1.0, -1.0, -1.0, -1.0, -1.0, -1.0, -1.0, 2.0, 2.0, 2.0, 2.1, 2.1, -1.0, -1.0, -1.0, -1.0, -1.0, -1.0, -1.0, -1.0, -1.0, -1.0, -1.0, -1.0, -1.0, -1.0, -1.0, -1.0, -1.0, 2.0, 2.0, 2.1, 2.0, 2.0, 2.0, 2.0, -1.0, -1.0, -1.0, -1.0, -1.0, -1.0, -1.0, -1.0, -1.0, -1.0, -1.0, -1.0, -1.0, -1.0, -1.0, 1.6, 2.0, 2.0, 2.0, 2.0, 2.0, 2.0, 2.0, -1.0, -1.0, -1.0, -1.0, -1.0, -1.0, -1.0, -1.0, -1.0, -1.0, -1.0, -1.0, -1.0, -1.0, -1.0, 2.1, 2.0, 2.0, 2.0, 2.0, 2.0, 2.0, 1.5, -1.0, -1.0, -1.0, -1.0, -1.0, -1.0, -1.0, -1.0, -1.0, -1.0, -1.0, -1.0, -1.0, -1.0, -1.0, 2.0, 2.0, 2.0, 2.0, 2.0, 2.0, 2.0, -1.0, -1.0, -1.0, -1.0, -1.0, -1.0, -1.0, -1.0, -1.0, -1.0, -1.0, -1.0, -1.0, -1.0, -1.0, 1.9, 2.0, 2.1, 2.0, 2.0, 2.0, 2.0, 2.1, -1.0, -1.0, -1.0, -1.0, -1.0, -1.0, -1.0, -1.0, -1.0, -1.0, -1.0, -1.0, -1.0, -1.0, -1.0, 2.0, 2.0, 2.1, 2.0, 2.0, 2.0, 2.0, -1.0, -1.0, -1.0, -1.0, -1.0, -1.0, -1.0, -1.0, -1.0, -1.0, -1.0, -1.0, -1.0, -1.0, -1.0, 1.7, 2.0, 2.0, 2.0, 2.0, 2.0, 2.0, 2.1, -1.0, -1.0, -1.0, -1.0, -1.0, -1.0, -1.0, -1.0, -1.0, -1.0, -1.0, -1.0, -1.0, -1.0, -1.0, 2.0, 2.0, 2.0, 2.0, 2.0, 2.0, 2.0, 2.0, -1.0, -1.0, -1.0, -1.0, -1.0, -1.0, -1.0, -1.0, -1.0, -1.0, -1.0, -1.0, -1.0, -1.0, -1.0, 2.0, 2.0, 2.0, 2.0, 2.0, 2.0, 2.0, 1.4, -1.0, -1.0, -1.0, -1.0, -1.0, -1.0, -1.0, -1.0, -1.0, -1.0, -1.0, -1.0, -1.0, -1.0, 2.0, 2.0, 2.0, 2.0, 2.0, 2.0, 2.0, 2.0, -1.0, -1.0, -1.0, -1.0, -1.0, -1.0, -1.0, -1.0, -1.0, -1.0, -1.0, -1.0, -1.0, -1.0, -1.0, 2.1, 2.0, 2.0, 2.0, 2.0, 2.0, 2.0, 1.8, -1.0, -1.0, -1.0, -1.0, -1.0, -1.0, -1.0, -1.0, -1.0, -1.0, -1.0, -1.0, -1.0, -1.0, 1.7, 2.0, 2.0, 2.0, 2.0, 2.0, 2.0, 2.0, -1.0, -1.0, -1.0, -1.0, -1.0, -1.0, -1.0, -1.0, -1.0, -1.0, -1.0, -1.0, -1.0, -1.0, 1.5, 1.8, 2.0, 2.0, 2.0, 2.0, 2.0, 2.0, 1.6, -1.0, -1.0, -1.0, -1.0, -1.0, -1.0, -1.0, -1.0, -1.0, -1.0, -1.0, -1.0, -1.0, 2.3, 2.6, 2.1, 2.1, 2.0, 2.0, 2.0, 2.0, 2.0, -1.0, -1.0, -1.0, -1.0, -1.0, -1.0, -1.0, -1.0, -1.0, -1.0, -1.0, -1.0, -1.0, 1.8, 3.3, 3.3, 2.5, 2.1, 2.0, 2.0, 2.0, 2.0, 2.0, -1.0, -1.0, -1.0, -1.0, -1.0, -1.0, -1.0, -1.0, -1.0, -1.0, -1.0, -1.0, -1.0, -1.0, 3.4, 3.0, 2.2, 2.1, 2.0, 2.0, 2.0, 2.0, 1.4, -1.0, -1.0, -1.0, -1.0, -1.0, -1.0, -1.0, -1.0, -1.0, -1.0, -1.0, -1.0, -1.0, -1.0, 2.6, 2.2, 2.1, 2.1, 2.0, 2.0, 2.0, 2.0, -1.0, -1.0, -1.0, -1.0, -1.0, -1.0, -1.0, -1.0, -1.0, -1.0, -1.0, -1.0, -1.0, -1.0, -1.0, 2.1, 2.1, 2.1, 2.0, 2.0, 2.0, 2.0, 2.1, -1.0, -1.0, -1.0, -1.0, -1.0, -1.0, -1.0, -1.0, -1.0, -1.0, -1.0, -1.0, -1.0, -1.0, -1.0, 2.1, 2.1, 2.0, 2.0, 2.0, 2.0, 2.0, -1.0, -1.0, -1.0, -1.0, -1.0, -1.0, -1.0, -1.0, -1.0, -1.0, -1.0, -1.0, -1.0, -1.0, -1.0, 1.7, 2.1, 2.1, 2.0, 2.0, 2.0, 2.0, 2.0, -1.0, -1.0, -1.0, -1.0, -1.0, -1.0, -1.0, -1.0, -1.0, -1.0, -1.0, -1.0, -1.0, -1.0, -1.0, 2.1, 2.0, 2.0, 2.0, 2.0, 2.0, 2.0, 1.9, -1.0, -1.0, -1.0, -1.0, -1.0, -1.0, -1.0, -1.0, -1.0, -1.0, -1.0, -1.0, -1.0, -1.0, 2.3, 2.1, 2.1, 2.1, 2.0, 2.0, 2.0, 2.0, -1.0, -1.0, -1.0, -1.0, -1.0, -1.0, -1.0, -1.0, -1.0, -1.0, -1.0, -1.0, -1.0, -1.0, 3.2, 3.2, 2.2, 2.1, 2.1, 2.0, 2.0, 2.0, 2.1, -1.0, -1.0, -1.0, -1.0, -1.0, -1.0, -1.0, -1.0, -1.0, -1.0, -1.0, -1.0, -1.0, -1.0, -1.0, 2.3, 2.1, 2.1, 2.0, 2.0, 2.0, 2.1, -1.0, -1.0, -1.0, -1.0, -1.0, -1.0, -1.0, -1.0, -1.0, -1.0, -1.0, -1.0, -1.0, -1.0, -1.0, -1.0, 2.1, 2.1, 2.0, 2.0, 2.0, 2.0, 2.1, -1.0, -1.0, -1.0, -1.0, -1.0, -1.0, -1.0, -1.0, -1.0, -1.0, -1.0, -1.0, -1.0, -1.0, -1.0, 2.0, 2.0, 2.0, 2.0, 2.0, 2.1, 2.0, 2.1, -1.0, -1.0, -1.0, -1.0, -1.0, -1.0, -1.0, -1.0, -1.0, -1.0, -1.0, -1.0, -1.0, -1.0, -1.0, 2.0, 2.0, 2.0, 2.0, 2.0, 2.0, 2.0, -1.0, -1.0, -1.0, -1.0, -1.0, -1.0, -1.0, -1.0, -1.0, -1.0, -1.0, -1.0, -1.0, -1.0, -1.0, 1.6, 2.0, 2.0, 2.0, 2.0, 2.0, 2.0, 2.1, -1.0, -1.0, -1.0, -1.0, -1.0, -1.0, -1.0, -1.0, -1.0, -1.0, -1.0, -1.0, -1.0, -1.0, -1.0, 2.1, 2.0, 2.1, 2.0, 2.0, 2.0, 2.0, 2.1, -1.0, -1.0, -1.0, -1.0, -1.0, -1.0, -1.0, -1.0, -1.0, -1.0, -1.0, -1.0, -1.0, -1.0, -1.0, 2.0, 2.0, 2.0, 2.0, 2.0, 2.0, 2.0, -1.0, -1.0, -1.0, -1.0, -1.0, -1.0, -1.0, -1.0, -1.0, -1.0, -1.0, -1.0, -1.0, -1.0, -1.0, 1.9, 2.0, 2.0, 2.0, 2.0, 2.0, 2.0, 1.6, -1.0, -1.0, -1.0, -1.0, -1.0, -1.0, -1.0, -1.0, -1.0, -1.0, -1.0, -1.0, -1.0, -1.0, -1.0, 2.1, 2.0, 2.0, 2.0, 2.0, 2.0, 2.0, 1.4, -1.0, -1.0, -1.0, -1.0, -1.0, -1.0, -1.0, -1.0, -1.0, -1.0, -1.0, -1.0, -1.0, -1.0, -1.0, 2.1, 2.0, 2.0, 2.0, 2.0, 2.0, 2.0, -1.0, -1.0, -1.0, -1.0, -1.0, -1.0, -1.0, -1.0, -1.0, -1.0, -1.0, -1.0, -1.0, -1.0, -1.0, 2.2, 2.1, 2.1, 2.0, 2.0, 2.1, 2.1, 2.1, -1.0, -1.0, -1.0, -1.0, -1.0, -1.0, -1.0, -1.0, -1.0, -1.0, -1.0, -1.0, -1.0, -1.0, -1.0, 2.1, 2.1, 2.0, 2.0, 2.1, 2.1, 2.1, -1.0, -1.0, -1.0, -1.0, -1.0, -1.0, -1.0, -1.0, -1.0, -1.0, -1.0, -1.0, -1.0, -1.0, -1.0, 2.9, 2.2, 2.1, 2.0, 2.0, 2.1, 2.1, 2.1, -1.0, -1.0, -1.0, -1.0, -1.0, -1.0, -1.0, -1.0, -1.0, -1.0, -1.0, -1.0, -1.0, -1.0, 3.1, 2.6, 2.1, 2.1, 2.1, 2.0, 2.0, 2.1, 2.1, -1.0, -1.0, -1.0, -1.0, -1.0, -1.0, -1.0, -1.0, -1.0, -1.0, -1.0, -1.0, -1.0, 2.3, 3.1, 2.2, 2.1, 2.1, 2.0, 2.0, 2.0, 2.0, -1.0, -1.0, -1.0, -1.0, -1.0, -1.0, -1.0, -1.0, -1.0, -1.0, -1.0, -1.0, -1.0, -1.0, -1.0, 2.4, 2.1, 2.1, 2.1, 2.0, 2.0, 2.0, 1.6, -1.0, -1.0, -1.0, -1.0, -1.0, -1.0, -1.0, -1.0, -1.0, -1.0, -1.0, -1.0, -1.0, -1.0, -1.0, -1.0, 2.1, 2.0, 2.0, 2.1, 2.1, 2.0, -1.0, -1.0, -1.0, -1.0, -1.0, -1.0, -1.0, -1.0, -1.0, -1.0, -1.0, -1.0, -1.0, -1.0, -1.0, -1.0, -1.0, -1.0, 1.6, 2.1, 2.1, 2.1, 2.1, -1.0, -1.0, -1.0, -1.0, -1.0, -1.0, -1.0, -1.0, -1.0, -1.0, -1.0, -1.0, -1.0, -1.0, -1.0, -1.0, -1.0, -1.0, -1.0, -1.0, -1.0, 2.2, -1.0, -1.0, -1.0, -1.0, -1.0, -1.0, -1.0, -1.0, -1.0, -1.0, -1.0, -1.0, -1.0, -1.0, -1.0, -1.0]}}, "geometry": {"type": "Polygon", "coordinates": [[[409474.0, 5655331.0], [409474.0, 5655330.0], [409473.0, 5655330.0], [409473.0, 5655329.0], [409471.0, 5655328.0], [409471.0, 5655325.0], [409470.0, 5655325.0], [409470.0, 5655323.0], [409469.0, 5655323.0], [409469.0, 5655320.0], [409468.0, 5655320.0], [409468.0, 5655318.0], [409467.0, 5655318.0], [409467.0, 5655317.0], [409466.0, 5655317.0], [409466.0, 5655316.0], [409464.0, 5655315.0], [409464.0, 5655314.0], [409465.0, 5655314.0], [409465.0, 5655310.0], [409464.0, 5655310.0], [409464.0, 5655308.0], [409462.0, 5655307.0], [409462.0, 5655306.0], [409463.0, 5655306.0], [409463.0, 5655304.0], [409462.0, 5655304.0], [409462.0, 5655302.0], [409461.0, 5655302.0], [409461.0, 5655299.0], [409460.0, 5655299.0], [409460.0, 5655296.0], [409459.0, 5655296.0], [409459.0, 5655294.0], [409458.0, 5655294.0], [409458.0, 5655293.0], [409456.0, 5655292.0], [409456.0, 5655291.0], [409457.0, 5655291.0], [409457.0, 5655290.0], [409458.0, 5655290.0], [409459.0, 5655288.0], [409462.0, 5655288.0], [409462.0, 5655287.0], [409464.0, 5655288.0], [409464.0, 5655290.0], [409465.0, 5655290.0], [409465.0, 5655292.0], [409466.0, 5655292.0], [409466.0, 5655295.0], [409467.0, 5655295.0], [409467.0, 5655297.0], [409468.0, 5655297.0], [409468.0, 5655300.0], [409469.0, 5655300.0], [409470.0, 5655306.0], [409471.0, 5655306.0], [409471.0, 5655308.0], [409472.0, 5655308.0], [409472.0, 5655311.0], [409473.0, 5655311.0], [409473.0, 5655313.0], [409474.0, 5655313.0], [409474.0, 5655316.0], [409475.0, 5655316.0], [409475.0, 5655318.0], [409476.0, 5655318.0], [409476.0, 5655320.0], [409477.0, 5655320.0], [409477.0, 5655324.0], [409478.0, 5655324.0], [409478.0, 5655326.0], [409479.0, 5655326.0], [409479.0, 5655329.0], [409478.0, 5655329.0], [409478.0, 5655330.0], [409476.0, 5655330.0], [409476.0, 5655331.0], [409474.0, 5655331.0]]]}}, {"type": "Feature", "properties": {"kind": "relief", "z": 151.65, "h": 3.2, "of": "UUID_204051d1-d905-438b-8296-92aefd7a39a0", "grid": {"x": 409454.0, "y": 5655320.0, "res": 1.0, "cols": 10, "rows": 13, "z": [-1.0, -1.0, -1.0, -1.0, -1.0, 2.7, 1.8, -1.0, -1.0, -1.0, -1.0, -1.0, -1.0, -1.0, 2.8, 3.0, 3.0, 3.0, 2.3, -1.0, -1.0, -1.0, -1.0, -1.0, 2.9, 3.1, 3.1, 3.1, 2.9, 1.6, -1.0, -1.0, -1.0, 1.9, 3.0, 3.1, 3.1, 3.1, 3.0, -1.0, -1.0, -1.0, -1.0, 2.8, 3.1, 3.1, 3.1, 3.1, 2.4, -1.0, -1.0, -1.0, 3.0, 3.0, 3.1, 3.2, 3.2, 3.1, -1.0, -1.0, -1.0, -1.0, 2.1, 3.0, 3.1, 3.2, 3.2, 3.1, -1.0, -1.0, -1.0, 1.7, 2.7, 3.1, 3.1, 3.2, 3.1, -1.0, -1.0, -1.0, -1.0, 2.3, 2.9, 3.1, 3.1, 3.1, 3.0, -1.0, -1.0, -1.0, -1.0, 2.7, 3.0, 3.1, 3.1, 3.0, 1.8, -1.0, -1.0, -1.0, 1.8, 2.9, 3.1, 3.1, 3.1, 3.1, -1.0, -1.0, -1.0, -1.0, -1.0, 3.0, 3.1, 3.1, 3.1, 3.1, -1.0, -1.0, -1.0, -1.0, -1.0, -1.0, 2.8, 3.1, 3.1, -1.0, -1.0, -1.0, -1.0, -1.0]}}, "geometry": {"type": "Polygon", "coordinates": [[[409459.0, 5655320.0], [409459.0, 5655319.0], [409458.0, 5655319.0], [409458.0, 5655317.0], [409457.0, 5655317.0], [409457.0, 5655315.0], [409456.0, 5655315.0], [409456.0, 5655313.0], [409455.0, 5655313.0], [409455.0, 5655310.0], [409454.0, 5655310.0], [409454.0, 5655309.0], [409455.0, 5655309.0], [409456.0, 5655307.0], [409459.0, 5655307.0], [409459.0, 5655308.0], [409460.0, 5655308.0], [409460.0, 5655310.0], [409461.0, 5655310.0], [409461.0, 5655313.0], [409462.0, 5655313.0], [409462.0, 5655315.0], [409463.0, 5655315.0], [409463.0, 5655317.0], [409464.0, 5655317.0], [409463.0, 5655319.0], [409459.0, 5655320.0]]]}}, {"type": "Feature", "properties": {"kind": "relief", "z": 151.65, "h": 3.2, "of": "UUID_204051d1-d905-438b-8296-92aefd7a39a0", "grid": {"x": 409437.0, "y": 5655319.0, "res": 1.0, "cols": 7, "rows": 7, "z": [-1.0, -1.0, 2.9, 3.1, 3.0, 1.8, -1.0, -1.0, 2.1, 3.0, 3.1, 3.1, 3.0, 2.9, -1.0, 2.7, 3.1, 3.1, 3.1, 3.0, 1.9, -1.0, 2.9, 3.1, 3.1, 3.2, 3.1, -1.0, 2.6, 3.1, 3.1, 3.1, 3.1, 3.0, -1.0, -1.0, 3.1, 3.1, 3.1, 3.0, 1.9, -1.0, -1.0, -1.0, -1.0, 2.6, 3.0, -1.0, -1.0]}}, "geometry": {"type": "Polygon", "coordinates": [[[409439.0, 5655319.0], [409439.0, 5655318.0], [409438.0, 5655318.0], [409438.0, 5655315.0], [409437.0, 5655315.0], [409437.0, 5655314.0], [409438.0, 5655314.0], [409438.0, 5655313.0], [409440.0, 5655313.0], [409440.0, 5655312.0], [409442.0, 5655312.0], [409442.0, 5655313.0], [409443.0, 5655313.0], [409443.0, 5655316.0], [409444.0, 5655316.0], [409444.0, 5655318.0], [409443.0, 5655318.0], [409443.0, 5655319.0], [409439.0, 5655319.0]]]}}, {"type": "Feature", "properties": {"kind": "relief", "z": 151.65, "h": 1.7, "of": "UUID_204051d1-d905-438b-8296-92aefd7a39a0", "grid": {"x": 409440.0, "y": 5655311.0, "res": 1.0, "cols": 3, "rows": 4, "z": [-1.0, 1.2, -1.0, 1.4, 1.2, 1.7, 1.7, 1.6, 1.7, -1.0, 1.6, -1.0]}}, "geometry": {"type": "Polygon", "coordinates": [[[409441.0, 5655311.0], [409441.0, 5655310.0], [409440.0, 5655310.0], [409440.0, 5655308.0], [409442.0, 5655307.0], [409442.0, 5655308.0], [409443.0, 5655308.0], [409443.0, 5655310.0], [409441.0, 5655311.0]]]}}, {"type": "Feature", "properties": {"kind": "relief", "z": 151.65, "h": 4.0, "of": "UUID_204051d1-d905-438b-8296-92aefd7a39a0", "grid": {"x": 409430.0, "y": 5655306.0, "res": 1.0, "cols": 9, "rows": 13, "z": [-1.0, -1.0, -1.0, -1.0, 2.0, -1.0, -1.0, -1.0, -1.0, -1.0, -1.0, -1.0, 2.4, 2.9, 3.1, 3.1, 2.9, -1.0, -1.0, -1.0, 1.6, 2.7, 3.0, 3.1, 3.1, 3.1, 3.2, -1.0, -1.0, -1.0, 2.9, 3.1, 3.1, 3.1, 3.1, -1.0, -1.0, -1.0, 2.6, 3.0, 3.1, 3.1, 3.1, 3.0, -1.0, -1.0, -1.0, 2.8, 3.1, 3.1, 3.1, 3.0, 2.0, -1.0, -1.0, 2.2, 3.0, 3.1, 3.1, 3.1, 2.4, -1.0, -1.0, -1.0, 2.7, 3.0, 3.1, 3.2, 3.2, 4.0, -1.0, -1.0, -1.0, 2.9, 3.1, 3.1, 3.2, 3.2, -1.0, -1.0, -1.0, 2.2, 3.0, 3.2, 3.1, 3.1, 3.2, -1.0, -1.0, -1.0, 2.8, 3.1, 3.1, 3.2, 3.1, 3.2, -1.0, -1.0, -1.0, -1.0, 3.1, 3.1, 3.1, 3.1, -1.0, -1.0, -1.0, -1.0, -1.0, -1.0, 3.1, 3.1, -1.0, -1.0, -1.0, -1.0, -1.0]}}, "geometry": {"type": "Polygon", "coordinates": [[[409434.0, 5655306.0], [409434.0, 5655305.0], [409432.0, 5655304.0], [409433.0, 5655302.0], [409432.0, 5655302.0], [409432.0, 5655300.0], [409431.0, 5655300.0], [409431.0, 5655297.0], [409430.0, 5655297.0], [409430.0, 5655295.0], [409431.0, 5655295.0], [409432.0, 5655293.0], [409434.0, 5655293.0], [409434.0, 5655294.0], [409436.0, 5655295.0], [409436.0, 5655298.0], [409437.0, 5655298.0], [409437.0, 5655300.0], [409438.0, 5655300.0], [409438.0, 5655303.0], [409439.0, 5655303.0], [409438.0, 5655305.0], [409435.0, 5655305.0], [409435.0, 5655306.0], [409434.0, 5655306.0]]]}}, {"type": "Feature", "properties": {"kind": "relief", "z": 151.65, "h": 3.1, "of": "UUID_204051d1-d905-438b-8296-92aefd7a39a0", "grid": {"x": 409451.0, "y": 5655299.0, "res": 1.0, "cols": 6, "rows": 7, "z": [-1.0, -1.0, 3.0, 2.3, 2.5, -1.0, -1.0, 2.9, 3.1, 3.1, 3.1, 3.1, 2.0, 3.0, 3.1, 3.1, 3.1, 3.0, 2.7, 3.1, 3.1, 3.1, 3.0, 1.8, 3.0, 3.1, 3.1, 3.1, 3.1, -1.0, 3.0, 3.0, 3.0, 3.1, 3.1, -1.0, -1.0, 1.7, 2.6, 3.0, -1.0, -1.0]}}, "geometry": {"type": "Polygon", "coordinates": [[[409453.0, 5655299.0], [409453.0, 5655298.0], [409451.0, 5655297.0], [409451.0, 5655293.0], [409452.0, 5655293.0], [409452.0, 5655292.0], [409455.0, 5655292.0], [409455.0, 5655293.0], [409456.0, 5655293.0], [409456.0, 5655295.0], [409457.0, 5655295.0], [409457.0, 5655298.0], [409456.0, 5655298.0], [409456.0, 5655299.0], [409453.0, 5655299.0]]]}}, {"type": "Feature", "properties": {"kind": "relief", "z": 151.65, "h": 2.0, "of": "UUID_204051d1-d905-438b-8296-92aefd7a39a0", "grid": {"x": 409436.0, "y": 5655284.0, "res": 1.0, "cols": 3, "rows": 4, "z": [-1.0, 1.4, -1.0, 1.6, 1.4, 2.0, 2.0, 1.8, 1.6, -1.0, 1.9, -1.0]}}, "geometry": {"type": "Polygon", "coordinates": [[[409437.0, 5655284.0], [409437.0, 5655283.0], [409436.0, 5655283.0], [409436.0, 5655281.0], [409438.0, 5655280.0], [409438.0, 5655281.0], [409439.0, 5655281.0], [409439.0, 5655283.0], [409437.0, 5655284.0]]]}}, {"type": "Feature", "properties": {"kind": "relief", "z": 151.65, "h": 2.2, "of": "UUID_204051d1-d905-438b-8296-92aefd7a39a0", "grid": {"x": 409451.0, "y": 5655269.0, "res": 1.0, "cols": 4, "rows": 5, "z": [-1.0, -1.0, 2.1, -1.0, -1.0, 2.0, 2.2, 2.1, 1.8, 2.1, 2.1, 2.1, -1.0, 2.1, 2.1, 1.8, -1.0, -1.0, 2.1, -1.0]}}, "geometry": {"type": "Polygon", "coordinates": [[[409453.0, 5655269.0], [409453.0, 5655268.0], [409452.0, 5655268.0], [409451.0, 5655266.0], [409452.0, 5655266.0], [409452.0, 5655265.0], [409454.0, 5655264.0], [409454.0, 5655265.0], [409455.0, 5655265.0], [409455.0, 5655268.0], [409453.0, 5655269.0]]]}}, {"type": "Feature", "properties": {"kind": "relief", "z": 151.65, "h": 3.8, "of": "UUID_204051d1-d905-438b-8296-92aefd7a39a0", "grid": {"x": 409464.0, "y": 5655259.0, "res": 1.0, "cols": 11, "rows": 7, "z": [-1.0, -1.0, 3.1, 3.0, 1.9, -1.0, -1.0, -1.0, -1.0, -1.0, -1.0, -1.0, 2.7, 3.0, 2.9, 3.1, 3.1, -1.0, -1.0, -1.0, -1.0, -1.0, -1.0, 3.1, 3.0, 3.0, 3.1, 3.2, 3.2, 3.1, 1.9, -1.0, -1.0, -1.0, 3.0, 3.0, 3.1, 3.4, 3.8, 3.4, 3.0, 2.5, 2.1, -1.0, 3.0, 3.0, 3.0, 3.2, 3.1, 3.1, 3.2, 2.9, 2.3, 1.7, 1.3, -1.0, 3.1, 3.7, 3.0, 2.2, 2.5, 3.0, 2.7, 2.1, 1.5, -1.0, -1.0, -1.0, 2.6, 3.1, -1.0, -1.0, -1.0, -1.0, 2.1, -1.0, -1.0]}}, "geometry": {"type": "Polygon", "coordinates": [[[409466.0, 5655259.0], [409466.0, 5655258.0], [409465.0, 5655258.0], [409465.0, 5655255.0], [409464.0, 5655255.0], [409464.0, 5655254.0], [409465.0, 5655254.0], [409466.0, 5655252.0], [409468.0, 5655252.0], [409468.0, 5655253.0], [409472.0, 5655253.0], [409472.0, 5655252.0], [409473.0, 5655252.0], [409473.0, 5655253.0], [409475.0, 5655254.0], [409475.0, 5655255.0], [409474.0, 5655255.0], [409473.0, 5655257.0], [409470.0, 5655257.0], [409469.0, 5655259.0], [409466.0, 5655259.0]]]}}, {"type": "Feature", "properties": {"kind": "relief", "z": 139.9, "h": 15.7, "of": "UUID_c5bd393d-d068-4196-b178-f79dc73edb5d", "grid": {"x": 409470.0, "y": 5655342.0, "res": 1.0, "cols": 14, "rows": 10, "z": [-1.0, -1.0, 3.6, -1.0, -1.0, -1.0, -1.0, -1.0, -1.0, -1.0, -1.0, -1.0, -1.0, -1.0, -1.0, 13.0, 8.1, 6.6, -1.0, -1.0, -1.0, -1.0, -1.0, -1.0, -1.0, -1.0, -1.0, -1.0, 15.7, 15.2, 9.4, 11.9, 8.2, -1.0, -1.0, -1.0, -1.0, -1.0, -1.0, -1.0, -1.0, -1.0, 13.3, 15.4, 14.2, 12.6, 8.2, -1.0, 8.0, -1.0, -1.0, -1.0, -1.0, -1.0, -1.0, -1.0, 14.0, 15.2, 13.6, 12.7, 5.5, 6.4, 8.0, 4.8, -1.0, 7.3, -1.0, -1.0, -1.0, -1.0, -1.0, 15.2, 14.1, 12.7, 5.1, 5.7, 8.0, 6.6, 5.6, 6.0, 3.4, -1.0, -1.0, -1.0, -1.0, -1.0, 5.9, -1.0, -1.0, -1.0, 6.1, 6.7, 5.3, 4.8, 2.8, -1.0, -1.0, -1.0, -1.0, -1.0, -1.0, -1.0, -1.0, -1.0, -1.0, 5.9, 5.1, 4.2, 1.8, 1.6, 1.4, -1.0, -1.0, -1.0, -1.0, -1.0, -1.0, -1.0, -1.0, -1.0, -1.0, -1.0, 1.6, 1.5, 1.4, 1.2, -1.0, -1.0, -1.0, -1.0, -1.0, -1.0, -1.0, -1.0, -1.0, -1.0, -1.0, -1.0, 1.2, -1.0]}}, "geometry": {"type": "Polygon", "coordinates": [[[409472.0, 5655342.0], [409472.0, 5655341.0], [409470.0, 5655340.0], [409470.0, 5655337.0], [409471.0, 5655337.0], [409472.0, 5655335.0], [409473.0, 5655335.0], [409473.0, 5655336.0], [409476.0, 5655336.0], [409477.0, 5655334.0], [409480.0, 5655334.0], [409480.0, 5655333.0], [409482.0, 5655333.0], [409482.0, 5655332.0], [409484.0, 5655333.0], [409483.0, 5655335.0], [409481.0, 5655335.0], [409481.0, 5655337.0], [409480.0, 5655337.0], [409480.0, 5655338.0], [409479.0, 5655338.0], [409479.0, 5655337.0], [409478.0, 5655337.0], [409477.0, 5655339.0], [409475.0, 5655338.0], [409475.0, 5655340.0], [409474.0, 5655340.0], [409474.0, 5655341.0], [409472.0, 5655342.0]]]}}, {"type": "Feature", "properties": {"kind": "relief", "z": 127.69, "h": 7.1, "of": "UUID_7ebdb90a-a83c-4c86-9843-09628dce3970", "grid": {"x": 409552.0, "y": 5654740.0, "res": 1.0, "cols": 28, "rows": 42, "z": [-1.0, -1.0, -1.0, -1.0, -1.0, -1.0, -1.0, -1.0, -1.0, -1.0, -1.0, -1.0, -1.0, -1.0, -1.0, -1.0, 5.6, 3.2, -1.0, -1.0, -1.0, -1.0, -1.0, -1.0, -1.0, -1.0, -1.0, -1.0, -1.0, -1.0, -1.0, -1.0, -1.0, -1.0, -1.0, -1.0, -1.0, -1.0, -1.0, -1.0, -1.0, -1.0, -1.0, 5.8, 6.2, 5.5, 5.2, 5.2, -1.0, -1.0, -1.0, -1.0, -1.0, -1.0, -1.0, -1.0, -1.0, -1.0, -1.0, -1.0, -1.0, -1.0, -1.0, -1.0, -1.0, -1.0, -1.0, -1.0, -1.0, -1.0, -1.0, 5.8, 5.7, 5.6, 5.5, 5.6, 5.7, 5.1, 2.9, -1.0, -1.0, -1.0, -1.0, -1.0, -1.0, -1.0, -1.0, -1.0, -1.0, -1.0, -1.0, -1.0, -1.0, -1.0, -1.0, -1.0, -1.0, -1.0, 5.8, 5.8, 5.7, 5.7, 5.6, 5.5, 5.5, 5.4, 5.5, 5.5, 4.1, -1.0, -1.0, -1.0, -1.0, -1.0, -1.0, -1.0, -1.0, -1.0, -1.0, -1.0, -1.0, -1.0, -1.0, -1.0, -1.0, -1.0, 5.8, 6.4, 6.5, 5.8, 5.7, 5.6, 5.5, 5.5, 5.4, 5.4, 5.5, 4.5, 3.1, -1.0, -1.0, -1.0, -1.0, -1.0, -1.0, -1.0, -1.0, -1.0, -1.0, -1.0, -1.0, -1.0, -1.0, 5.8, 5.7, 5.8, 6.3, 6.6, 6.1, 6.0, 5.7, 5.6, 5.5, 5.4, 5.3, 5.2, 5.3, 5.6, -1.0, -1.0, -1.0, -1.0, -1.0, -1.0, -1.0, -1.0, -1.0, -1.0, -1.0, -1.0, -1.0, 5.7, 5.7, 5.8, 6.8, 6.9, 5.9, 6.4, 6.3, 6.0, 5.5, 5.4, 5.4, 5.4, 5.5, 5.7, -1.0, -1.0, -1.0, -1.0, -1.0, -1.0, -1.0, -1.0, -1.0, -1.0, -1.0, -1.0, -1.0, 5.7, 5.7, 5.9, 6.9, 6.1, 5.7, 5.6, 6.0, 6.3, 5.5, 5.4, 5.4, 5.4, 5.5, 5.8, -1.0, -1.0, -1.0, -1.0, -1.0, -1.0, -1.0, -1.0, -1.0, -1.0, -1.0, -1.0, 5.8, 5.7, 5.8, 6.6, 6.3, 5.7, 5.6, 5.5, 5.5, 5.5, 5.4, 5.4, 5.4, 5.4, 5.6, -1.0, -1.0, -1.0, -1.0, -1.0, -1.0, -1.0, -1.0, -1.0, -1.0, -1.0, -1.0, -1.0, 5.8, 5.8, 5.9, 6.9, 6.2, 5.6, 5.5, 5.5, 5.4, 5.4, 5.4, 5.4, 5.4, 5.4, 5.7, -1.0, -1.0, -1.0, -1.0, -1.0, -1.0, -1.0, -1.0, -1.0, -1.0, -1.0, -1.0, 6.0, 6.8, 6.6, 6.4, 6.8, 6.0, 5.6, 5.5, 5.4, 5.4, 5.4, 5.4, 5.4, 5.4, 5.6, -1.0, -1.0, -1.0, -1.0, -1.0, -1.0, -1.0, -1.0, -1.0, -1.0, -1.0, -1.0, -1.0, 5.8, 5.9, 5.9, 6.9, 6.2, 5.8, 5.6, 5.5, 5.4, 5.4, 5.4, 5.4, 5.4, 5.4, 5.7, -1.0, -1.0, -1.0, -1.0, -1.0, -1.0, -1.0, -1.0, -1.0, -1.0, -1.0, -1.0, 5.8, 5.8, 5.8, 6.1, 6.7, 5.9, 6.7, 5.8, 5.5, 5.5, 5.4, 5.4, 5.4, 5.4, 5.5, -1.0, -1.0, -1.0, -1.0, -1.0, -1.0, -1.0, -1.0, -1.0, -1.0, -1.0, -1.0, -1.0, 5.8, 6.1, 5.9, 6.5, 6.5, 5.9, 5.8, 5.6, 5.7, 5.9, 5.5, 5.5, 5.4, 5.4, 5.7, -1.0, -1.0, -1.0, -1.0, -1.0, -1.0, -1.0, -1.0, -1.0, -1.0, -1.0, -1.0, 5.9, 6.0, 6.5, 6.6, 6.6, 6.6, 6.5, 5.9, 5.5, 5.5, 5.5, 6.5, 6.0, 5.5, 5.5, 5.8, -1.0, -1.0, -1.0, -1.0, -1.0, -1.0, -1.0, -1.0, -1.0, -1.0, -1.0, -1.0, 5.8, 5.8, 5.9, 6.8, 6.7, 6.6, 6.5, 5.7, 5.5, 5.4, 5.5, 5.5, 5.5, 5.5, 5.9, -1.0, -1.0, -1.0, -1.0, -1.0, -1.0, -1.0, -1.0, -1.0, -1.0, -1.0, -1.0, -1.0, 5.7, 5.8, 6.2, 7.0, 6.5, 5.8, 6.1, 5.6, 5.5, 5.4, 5.4, 5.4, 5.4, 5.5, 5.8, -1.0, -1.0, -1.0, -1.0, -1.0, -1.0, -1.0, -1.0, -1.0, -1.0, -1.0, -1.0, 5.8, 6.0, 5.9, 6.9, 7.0, 5.8, 5.6, 5.6, 5.5, 5.4, 5.4, 5.4, 5.4, 5.4, 5.5, -1.0, -1.0, -1.0, -1.0, -1.0, -1.0, -1.0, -1.0, -1.0, -1.0, -1.0, -1.0, -1.0, 5.7, 5.8, 6.1, 7.0, 6.4, 5.7, 5.5, 5.5, 5.4, 5.4, 5.4, 5.4, 5.4, 5.4, 5.7, -1.0, -1.0, -1.0, -1.0, -1.0, -1.0, -1.0, -1.0, -1.0, -1.0, -1.0, -1.0, 5.7, 5.7, 5.8, 6.3, 7.0, 6.0, 5.6, 5.5, 5.5, 5.4, 5.4, 5.4, 5.4, 5.4, 5.5, -1.0, -1.0, -1.0, -1.0, -1.0, -1.0, -1.0, -1.0, -1.0, -1.0, -1.0, -1.0, -1.0, 5.7, 5.7, 6.0, 6.9, 6.8, 5.7, 5.5, 5.5, 5.4, 5.4, 5.4, 5.4, 5.4, 5.4, 5.6, -1.0, -1.0, -1.0, -1.0, -1.0, -1.0, -1.0, -1.0, -1.0, -1.0, -1.0, -1.0, 5.7, 5.7, 5.7, 6.2, 6.7, 6.0, 5.6, 5.5, 5.4, 5.4, 5.4, 5.4, 5.4, 5.4, 5.5, -1.0, -1.0, -1.0, -1.0, -1.0, -1.0, -1.0, -1.0, -1.0, -1.0, -1.0, -1.0, -1.0, 5.7, 5.7, 5.8, 6.4, 6.4, 5.7, 5.6, 5.5, 5.4, 5.4, 5.4, 5.4, 5.4, 5.4, 5.6, -1.0, -1.0, -1.0, -1.0, -1.0, -1.0, -1.0, -1.0, -1.0, -1.0, -1.0, -1.0, 5.9, 5.8, 5.8, 5.9, 6.4, 5.8, 5.7, 5.6, 5.5, 5.4, 5.4, 5.4, 5.4, 5.4, 5.4, 4.3, -1.0, -1.0, -1.0, -1.0, -1.0, -1.0, -1.0, -1.0, -1.0, -1.0, -1.0, -1.0, 5.9, 6.8, 5.9, 6.5, 6.2, 6.4, 5.9, 5.7, 5.6, 5.5, 5.4, 5.4, 5.4, 5.4, 5.5, -1.0, -1.0, -1.0, -1.0, -1.0, -1.0, -1.0, -1.0, -1.0, -1.0, -1.0, -1.0, -1.0, 5.8, 5.8, 6.0, 6.9, 7.0, 6.3, 6.5, 6.5, 6.0, 5.6, 5.4, 5.4, 5.4, 5.5, 5.7, -1.0, -1.0, -1.0, -1.0, -1.0, -1.0, -1.0, -1.0, -1.0, -1.0, -1.0, -1.0, 5.7, 5.7, 5.8, 6.3, 6.5, 6.0, 6.7, 7.1, 6.6, 6.4, 6.3, 5.5, 5.4, 5.4, 5.6, -1.0, -1.0, -1.0, -1.0, -1.0, -1.0, -1.0, -1.0, -1.0, -1.0, -1.0, -1.0, -1.0, 5.7, 5.7, 6.0, 7.1, 6.3, 5.7, 5.7, 5.7, 6.2, 6.3, 5.6, 5.5, 5.4, 5.5, 5.8, -1.0, -1.0, -1.0, -1.0, -1.0, -1.0, -1.0, -1.0, -1.0, -1.0, -1.0, -1.0, 5.7, 5.7, 5.8, 6.2, 6.8, 5.8, 5.6, 5.5, 5.5, 5.5, 5.5, 5.6, 6.2, 5.6, 5.6, -1.0, -1.0, -1.0, -1.0, -1.0, -1.0, -1.0, -1.0, -1.0, -1.0, -1.0, -1.0, -1.0, 5.7, 5.7, 5.7, 6.9, 6.1, 5.6, 5.5, 5.5, 5.4, 5.4, 5.4, 5.4, 5.5, 5.7, 6.0, -1.0, -1.0, -1.0, -1.0, -1.0, -1.0, -1.0, -1.0, -1.0, -1.0, -1.0, -1.0, 5.8, 5.7, 5.6, 5.7, 5.7, 5.7, 5.5, 5.5, 5.4, 5.4, 5.4, 5.4, 5.4, 5.4, 5.6, -1.0, -1.0, -1.0, -1.0, -1.0, -1.0, -1.0, -1.0, -1.0, -1.0, -1.0, -1.0, -1.0, 5.7, 5.6, 5.6, 5.6, 5.6, 5.5, 5.5, 5.5, 5.5, 5.4, 5.4, 5.4, 5.4, 5.4, 5.7, -1.0, -1.0, -1.0, -1.0, -1.0, -1.0, -1.0, -1.0, -1.0, -1.0, -1.0, -1.0, 5.8, 5.8, 5.6, 5.6, 5.6, 5.5, 5.5, 5.5, 5.5, 5.5, 5.8, 5.5, 5.4, 5.4, 5.4, -1.0, -1.0, -1.0, -1.0, -1.0, -1.0, -1.0, -1.0, -1.0, -1.0, -1.0, -1.0, -1.0, 5.7, 5.7, 5.6, 5.6, 5.5, 5.5, 5.5, 5.5, 5.4, 5.4, 5.4, 5.4, 5.4, 5.4, 5.6, -1.0, -1.0, -1.0, -1.0, -1.0, -1.0, -1.0, -1.0, -1.0, -1.0, -1.0, -1.0, -1.0, 5.7, 5.6, 5.6, 5.6, 5.5, 5.5, 5.5, 5.5, 5.4, 5.4, 5.4, 5.4, 5.4, 5.5, 5.8, -1.0, -1.0, -1.0, -1.0, -1.0, -1.0, -1.0, -1.0, -1.0, -1.0, -1.0, -1.0, 5.7, 5.6, 5.6, 5.6, 5.6, 5.6, 5.5, 5.5, 5.4, 5.4, 5.4, 5.4, 5.4, 5.4, 5.6, -1.0, -1.0, -1.0, -1.0, -1.0, -1.0, -1.0, -1.0, -1.0, -1.0, -1.0, -1.0, -1.0, 5.7, 5.6, 5.6, 5.6, 5.9, 5.8, 5.5, 5.5, 5.4, 5.4, 5.4, 5.4, 5.4, 5.5, 5.8, -1.0, -1.0, -1.0, -1.0, -1.0, -1.0, -1.0, -1.0, -1.0, -1.0, -1.0, -1.0, -1.0, -1.0, 5.7, 5.6, 5.6, 5.9, 5.8, 5.5, 5.4, 5.4, 5.4, 5.4, 5.4, 5.5, 5.6, -1.0, -1.0, -1.0, -1.0, -1.0, -1.0, -1.0, -1.0, -1.0, -1.0, -1.0, -1.0, -1.0, -1.0, -1.0, -1.0, 3.9, 5.5, 5.5, 5.6, 5.5, 5.4, 5.4, 5.4, 5.4, 5.4, 5.5, 5.8, -1.0, -1.0, -1.0, -1.0, -1.0, -1.0, -1.0, -1.0, -1.0, -1.0, -1.0, -1.0, -1.0, -1.0, -1.0, -1.0, -1.0, -1.0, 3.5, 5.5, 5.4, 5.3, 5.3, 5.4, 5.4, 5.4, 5.5, -1.0, -1.0, -1.0, -1.0, -1.0, -1.0, -1.0, -1.0, -1.0, -1.0, -1.0, -1.0, -1.0, -1.0, -1.0, -1.0, -1.0, -1.0, -1.0, -1.0, -1.0, 3.2, 3.4, 5.3, 5.3, 5.5, 5.5, 5.8, -1.0, -1.0, -1.0, -1.0, -1.0, -1.0, -1.0, -1.0, -1.0, -1.0, -1.0, -1.0, -1.0, -1.0, -1.0, -1.0, -1.0, -1.0, -1.0, -1.0, -1.0, -1.0, -1.0, 2.7, 4.5, 5.6, 5.7, -1.0, -1.0, -1.0, -1.0, -1.0, -1.0, -1.0, -1.0, -1.0, -1.0, -1.0, -1.0, -1.0, -1.0, -1.0, -1.0]}}, "geometry": {"type": "Polygon", "coordinates": [[[409568.0, 5654740.0], [409568.0, 5654739.0], [409567.0, 5654739.0], [409567.0, 5654737.0], [409566.0, 5654737.0], [409566.0, 5654735.0], [409565.0, 5654735.0], [409565.0, 5654732.0], [409564.0, 5654732.0], [409564.0, 5654730.0], [409563.0, 5654730.0], [409563.0, 5654728.0], [409562.0, 5654728.0], [409562.0, 5654726.0], [409561.0, 5654726.0], [409561.0, 5654723.0], [409560.0, 5654723.0], [409560.0, 5654721.0], [409559.0, 5654721.0], [409559.0, 5654719.0], [409558.0, 5654719.0], [409558.0, 5654717.0], [409557.0, 5654717.0], [409557.0, 5654714.0], [409556.0, 5654714.0], [409556.0, 5654712.0], [409555.0, 5654712.0], [409555.0, 5654710.0], [409554.0, 5654710.0], [409554.0, 5654708.0], [409553.0, 5654708.0], [409553.0, 5654705.0], [409552.0, 5654705.0], [409552.0, 5654703.0], [409553.0, 5654703.0], [409554.0, 5654701.0], [409556.0, 5654701.0], [409556.0, 5654700.0], [409558.0, 5654700.0], [409558.0, 5654699.0], [409560.0, 5654699.0], [409560.0, 5654698.0], [409564.0, 5654698.0], [409564.0, 5654699.0], [409565.0, 5654699.0], [409565.0, 5654701.0], [409566.0, 5654701.0], [409566.0, 5654703.0], [409567.0, 5654703.0], [409567.0, 5654705.0], [409568.0, 5654705.0], [409568.0, 5654708.0], [409569.0, 5654708.0], [409569.0, 5654710.0], [409570.0, 5654710.0], [409570.0, 5654712.0], [409571.0, 5654712.0], [409571.0, 5654714.0], [409572.0, 5654714.0], [409572.0, 5654716.0], [409573.0, 5654716.0], [409573.0, 5654719.0], [409574.0, 5654719.0], [409574.0, 5654721.0], [409575.0, 5654721.0], [409575.0, 5654723.0], [409576.0, 5654723.0], [409576.0, 5654725.0], [409577.0, 5654725.0], [409577.0, 5654728.0], [409578.0, 5654728.0], [409578.0, 5654730.0], [409579.0, 5654730.0], [409579.0, 5654732.0], [409580.0, 5654732.0], [409580.0, 5654735.0], [409579.0, 5654735.0], [409579.0, 5654736.0], [409577.0, 5654736.0], [409577.0, 5654737.0], [409575.0, 5654737.0], [409575.0, 5654738.0], [409572.0, 5654738.0], [409572.0, 5654739.0], [409568.0, 5654740.0]]]}}, {"type": "Feature", "properties": {"kind": "relief", "z": 133.99, "h": 5.2, "of": "DESNATPU1000HmkX", "grid": {"x": 409059.0, "y": 5655473.0, "res": 1.0, "cols": 30, "rows": 10, "z": [-1.0, 2.1, -1.0, 2.3, -1.0, 2.8, -1.0, -1.0, -1.0, -1.0, -1.0, -1.0, -1.0, -1.0, -1.0, 3.7, 3.9, 3.8, 4.3, 4.3, 4.4, 4.4, 4.4, 4.4, 4.4, -1.0, -1.0, -1.0, -1.0, -1.0, 2.4, 2.5, 2.5, 2.7, 3.9, 4.3, 4.4, 4.4, 4.4, 4.4, 4.2, 2.3, 2.4, -1.0, 2.6, 2.9, 2.2, 3.6, 4.2, 4.3, 4.2, 4.1, 4.1, 4.1, 4.1, 4.1, -1.0, -1.0, -1.0, -1.0, 2.6, 2.6, 2.6, 2.3, 4.1, 4.8, 4.9, 4.5, 4.4, 4.4, 4.3, 4.1, 4.1, 4.1, 3.9, 3.3, 3.2, 4.1, 4.7, 4.3, 4.1, 4.1, 4.1, 4.1, 4.1, 4.1, 4.2, -1.0, -1.0, -1.0, 2.6, 2.6, 2.6, -1.0, 3.8, 4.8, 4.7, 4.3, 4.3, 4.3, 4.1, 4.1, 4.1, 4.1, 3.9, 3.6, 3.8, 5.0, 5.2, 4.4, 4.1, 4.1, 4.0, 4.1, 4.2, 4.2, 4.1, -1.0, 2.3, -1.0, 2.6, 2.6, 2.6, -1.0, -1.0, 4.3, 2.7, 2.3, -1.0, -1.0, 2.4, 2.6, -1.0, 2.4, -1.0, 2.1, -1.0, 4.7, 4.8, 4.3, 4.1, 4.1, 4.1, 4.1, 4.1, 4.1, 4.0, 2.4, 2.5, 1.6, 2.5, 2.4, 2.5, -1.0, -1.0, -1.0, -1.0, -1.0, -1.0, -1.0, -1.0, -1.0, -1.0, -1.0, -1.0, -1.0, -1.0, 4.6, 4.5, 4.2, 4.1, 4.1, 4.1, 4.1, 4.1, 4.1, 4.0, 2.3, 2.5, -1.0, -1.0, 1.7, -1.0, -1.0, -1.0, -1.0, -1.0, -1.0, -1.0, -1.0, -1.0, -1.0, -1.0, -1.0, -1.0, -1.0, -1.0, 4.3, 4.3, 4.2, 4.1, 4.1, 4.1, 4.1, 4.1, 4.1, 4.1, -1.0, -1.0, -1.0, -1.0, -1.0, -1.0, -1.0, -1.0, -1.0, -1.0, -1.0, -1.0, -1.0, -1.0, -1.0, -1.0, -1.0, -1.0, -1.0, -1.0, 3.5, 3.8, 4.1, 4.1, 4.1, 4.1, 4.1, 4.1, 4.1, 4.2, -1.0, -1.0, -1.0, -1.0, -1.0, -1.0, -1.0, -1.0, -1.0, -1.0, -1.0, -1.0, -1.0, -1.0, -1.0, -1.0, -1.0, -1.0, -1.0, -1.0, -1.0, 3.9, 4.2, 3.9, 4.2, 4.2, 4.1, 3.9, 3.9, 4.1, -1.0, -1.0, -1.0, -1.0, -1.0, -1.0, -1.0, -1.0, -1.0, -1.0, -1.0, -1.0, -1.0, -1.0, -1.0, -1.0, -1.0, -1.0, -1.0, -1.0, -1.0, -1.0, -1.0, -1.0, -1.0, -1.0, -1.0, 2.2, 2.1, -1.0, -1.0, -1.0, -1.0]}}, "geometry": {"type": "Polygon", "coordinates": [[[409060.0, 5655473.0], [409060.0, 5655472.0], [409059.0, 5655472.0], [409059.0, 5655467.0], [409060.0, 5655467.0], [409060.0, 5655466.0], [409062.0, 5655467.0], [409062.0, 5655470.0], [409063.0, 5655470.0], [409064.0, 5655468.0], [409067.0, 5655468.0], [409067.0, 5655469.0], [409069.0, 5655469.0], [409069.0, 5655468.0], [409071.0, 5655468.0], [409071.0, 5655469.0], [409073.0, 5655468.0], [409073.0, 5655469.0], [409074.0, 5655469.0], [409074.0, 5655468.0], [409075.0, 5655468.0], [409075.0, 5655469.0], [409076.0, 5655469.0], [409076.0, 5655465.0], [409077.0, 5655465.0], [409077.0, 5655464.0], [409083.0, 5655464.0], [409083.0, 5655463.0], [409085.0, 5655463.0], [409085.0, 5655464.0], [409086.0, 5655464.0], [409086.0, 5655467.0], [409088.0, 5655467.0], [409088.0, 5655468.0], [409089.0, 5655468.0], [409088.0, 5655470.0], [409086.0, 5655469.0], [409086.0, 5655471.0], [409085.0, 5655471.0], [409084.0, 5655473.0], [409074.0, 5655473.0], [409073.0, 5655471.0], [409072.0, 5655471.0], [409072.0, 5655472.0], [409065.0, 5655472.0], [409065.0, 5655473.0], [409064.0, 5655473.0], [409064.0, 5655472.0], [409063.0, 5655472.0], [409063.0, 5655473.0], [409061.0, 5655472.0], [409061.0, 5655473.0], [409060.0, 5655473.0]]]}}, {"type": "Feature", "properties": {"kind": "relief", "z": 133.99, "h": 5.6, "of": "DESNATPU1000HmkX", "grid": {"x": 409131.0, "y": 5655452.0, "res": 1.0, "cols": 11, "rows": 14, "z": [-1.0, -1.0, -1.0, -1.0, -1.0, -1.0, -1.0, 2.8, -1.0, -1.0, -1.0, -1.0, -1.0, -1.0, -1.0, 2.5, 4.2, 4.3, 4.3, 4.9, -1.0, -1.0, -1.0, -1.0, -1.0, 4.2, 4.2, 4.2, 4.3, 4.3, 4.5, 5.5, -1.0, -1.0, -1.0, 3.0, 4.2, 4.2, 4.2, 4.3, 4.4, 4.4, 4.8, -1.0, -1.0, -1.0, 4.3, 4.2, 4.2, 4.2, 4.3, 4.3, 4.3, 4.5, 5.6, -1.0, -1.0, 4.3, 4.2, 4.2, 4.2, 4.2, 4.2, 4.3, 4.4, 5.1, -1.0, 4.3, 4.3, 4.2, 4.2, 4.2, 4.2, 4.2, 4.3, 4.4, 5.6, 2.8, 4.2, 4.2, 4.2, 4.2, 4.2, 4.2, 4.2, 4.3, 4.7, -1.0, 4.1, 4.1, 4.2, 4.2, 4.2, 4.2, 4.2, 4.3, 4.4, 5.5, -1.0, -1.0, 3.0, 4.1, 4.1, 4.2, 4.2, 4.2, 4.3, 4.7, -1.0, -1.0, -1.0, -1.0, -1.0, 2.6, 4.1, 4.3, 4.3, 4.4, 5.5, -1.0, -1.0, -1.0, -1.0, -1.0, -1.0, -1.0, 4.3, 4.3, 4.8, -1.0, -1.0, -1.0, -1.0, -1.0, -1.0, -1.0, -1.0, 2.5, 3.1, 5.2, -1.0, -1.0, -1.0, -1.0, -1.0, -1.0, -1.0, -1.0, -1.0, 2.3, -1.0, -1.0, -1.0, -1.0]}}, "geometry": {"type": "Polygon", "coordinates": [[[409138.0, 5655452.0], [409138.0, 5655451.0], [409135.0, 5655451.0], [409135.0, 5655450.0], [409133.0, 5655449.0], [409133.0, 5655446.0], [409131.0, 5655445.0], [409131.0, 5655443.0], [409132.0, 5655443.0], [409132.0, 5655442.0], [409134.0, 5655442.0], [409134.0, 5655441.0], [409136.0, 5655441.0], [409136.0, 5655439.0], [409137.0, 5655439.0], [409137.0, 5655438.0], [409139.0, 5655439.0], [409139.0, 5655441.0], [409140.0, 5655441.0], [409140.0, 5655443.0], [409141.0, 5655443.0], [409141.0, 5655445.0], [409142.0, 5655445.0], [409142.0, 5655448.0], [409141.0, 5655448.0], [409141.0, 5655450.0], [409140.0, 5655450.0], [409140.0, 5655451.0], [409138.0, 5655452.0]]]}}, {"type": "Feature", "properties": {"kind": "relief", "z": 133.99, "h": 4.3, "of": "DESNATPU1000HmkX", "grid": {"x": 409039.0, "y": 5655429.0, "res": 1.0, "cols": 9, "rows": 6, "z": [-1.0, 2.0, 1.8, -1.0, -1.0, -1.0, -1.0, -1.0, -1.0, 4.1, 3.5, 3.4, 3.5, 3.6, 3.5, 3.0, 3.4, -1.0, 4.2, 3.5, 3.5, 3.4, 3.4, 3.4, 3.4, 3.3, 2.0, 4.2, 3.6, 3.5, 3.5, 3.5, 3.4, 3.6, 3.4, 2.3, -1.0, 3.7, 3.6, 3.6, 3.5, 3.5, 3.6, 3.5, -1.0, -1.0, -1.0, 4.2, 4.2, 4.3, 4.3, 4.2, -1.0, -1.0]}}, "geometry": {"type": "Polygon", "coordinates": [[[409040.0, 5655429.0], [409040.0, 5655428.0], [409039.0, 5655428.0], [409039.0, 5655425.0], [409040.0, 5655425.0], [409041.0, 5655423.0], [409046.0, 5655423.0], [409046.0, 5655424.0], [409048.0, 5655425.0], [409048.0, 5655427.0], [409047.0, 5655427.0], [409047.0, 5655428.0], [409042.0, 5655428.0], [409042.0, 5655429.0], [409040.0, 5655429.0]]]}}, {"type": "Feature", "properties": {"kind": "relief", "z": 133.99, "h": 5.0, "of": "DESNATPU1000HmkX", "grid": {"x": 409080.0, "y": 5655414.0, "res": 1.0, "cols": 16, "rows": 7, "z": [-1.0, 3.6, 3.6, 3.6, 3.5, 3.4, 3.0, 2.1, 2.6, 1.8, 1.9, -1.0, 1.9, -1.0, -1.0, -1.0, 3.8, 3.6, 3.4, 3.4, 3.4, 3.4, 3.3, 3.3, 3.3, 3.3, 3.4, 3.6, 3.4, 3.4, 3.5, -1.0, 3.0, 3.6, 3.4, 3.5, 3.4, 3.4, 3.4, 3.4, 3.4, 3.4, 3.6, 4.1, 3.5, 3.4, 3.5, 3.6, -1.0, 3.5, 3.4, 3.4, 3.4, 3.4, 3.4, 3.4, 3.4, 3.6, 4.4, 4.6, 3.8, 3.4, 3.4, 3.6, -1.0, -1.0, 3.5, 3.5, 3.5, 3.5, 3.4, 3.5, 3.5, 3.7, 5.0, 4.4, 4.0, 3.6, 3.4, 3.6, -1.0, -1.0, -1.0, -1.0, -1.0, -1.0, -1.0, -1.0, -1.0, -1.0, -1.0, 3.7, 3.5, 3.4, 3.4, 3.6, -1.0, -1.0, -1.0, -1.0, -1.0, -1.0, -1.0, -1.0, -1.0, -1.0, -1.0, -1.0, 2.3, 3.4, 3.5, -1.0]}}, "geometry": {"type": "Polygon", "coordinates": [[[409081.0, 5655414.0], [409081.0, 5655413.0], [409080.0, 5655413.0], [409080.0, 5655411.0], [409081.0, 5655411.0], [409082.0, 5655409.0], [409091.0, 5655409.0], [409092.0, 5655407.0], [409095.0, 5655407.0], [409095.0, 5655408.0], [409096.0, 5655408.0], [409096.0, 5655412.0], [409095.0, 5655412.0], [409095.0, 5655413.0], [409093.0, 5655413.0], [409093.0, 5655414.0], [409092.0, 5655414.0], [409092.0, 5655413.0], [409091.0, 5655413.0], [409091.0, 5655414.0], [409081.0, 5655414.0]]]}}, {"type": "Feature", "properties": {"kind": "relief", "z": 133.99, "h": 1.8, "of": "DESNATPU1000HmkX", "grid": {"x": 409068.0, "y": 5655413.0, "res": 1.0, "cols": 4, "rows": 3, "z": [-1.0, 1.5, 1.8, -1.0, 1.7, 1.8, 1.8, 1.8, -1.0, 1.6, 1.4, -1.0]}}, "geometry": {"type": "Polygon", "coordinates": [[[409069.0, 5655413.0], [409068.0, 5655411.0], [409069.0, 5655411.0], [409069.0, 5655410.0], [409071.0, 5655410.0], [409072.0, 5655412.0], [409071.0, 5655412.0], [409071.0, 5655413.0], [409069.0, 5655413.0]]]}}, {"type": "Feature", "properties": {"kind": "relief", "z": 133.99, "h": 2.8, "of": "DESNATPU1000HmkX", "grid": {"x": 409101.0, "y": 5655411.0, "res": 1.0, "cols": 6, "rows": 4, "z": [-1.0, 2.8, 2.7, 1.9, -1.0, -1.0, 2.8, 2.8, 2.7, 2.7, 2.7, -1.0, -1.0, 2.8, 2.8, 2.7, 2.7, 2.7, -1.0, -1.0, -1.0, -1.0, 1.8, -1.0]}}, "geometry": {"type": "Polygon", "coordinates": [[[409102.0, 5655411.0], [409102.0, 5655410.0], [409101.0, 5655410.0], [409102.0, 5655408.0], [409105.0, 5655408.0], [409105.0, 5655407.0], [409107.0, 5655408.0], [409107.0, 5655409.0], [409106.0, 5655409.0], [409105.0, 5655411.0], [409102.0, 5655411.0]]]}}, {"type": "Feature", "properties": {"kind": "relief", "z": 124.96, "h": 5.3, "of": "UUID_9dc61a51-4a7f-4088-b853-cdea4bb8b59a", "grid": {"x": 409895.0, "y": 5655173.0, "res": 1.0, "cols": 34, "rows": 27, "z": [-1.0, -1.0, -1.0, 3.2, -1.0, -1.0, -1.0, -1.0, -1.0, -1.0, -1.0, -1.0, -1.0, -1.0, -1.0, -1.0, -1.0, -1.0, -1.0, -1.0, -1.0, -1.0, -1.0, -1.0, -1.0, -1.0, -1.0, -1.0, -1.0, -1.0, -1.0, -1.0, -1.0, -1.0, -1.0, -1.0, 3.4, 3.3, 3.3, -1.0, -1.0, -1.0, -1.0, -1.0, -1.0, -1.0, -1.0, -1.0, -1.0, -1.0, -1.0, -1.0, -1.0, -1.0, -1.0, -1.0, -1.0, -1.0, -1.0, -1.0, -1.0, -1.0, -1.0, -1.0, -1.0, -1.0, -1.0, -1.0, -1.0, 3.5, 3.3, 3.3, 3.3, 3.3, 3.2, -1.0, -1.0, -1.0, -1.0, -1.0, -1.0, -1.0, -1.0, -1.0, -1.0, -1.0, -1.0, -1.0, -1.0, -1.0, -1.0, -1.0, -1.0, -1.0, -1.0, -1.0, -1.0, -1.0, -1.0, -1.0, -1.0, -1.0, 3.6, 3.4, 3.3, 3.3, 3.3, 3.3, 3.3, 3.3, -1.0, -1.0, -1.0, -1.0, -1.0, -1.0, -1.0, -1.0, -1.0, -1.0, -1.0, -1.0, -1.0, -1.0, -1.0, -1.0, -1.0, -1.0, -1.0, -1.0, -1.0, -1.0, -1.0, -1.0, -1.0, -1.0, 3.9, 3.5, 3.4, 3.3, 3.3, 3.3, 3.3, 3.4, 3.9, 3.8, -1.0, -1.0, -1.0, -1.0, -1.0, -1.0, -1.0, -1.0, -1.0, -1.0, -1.0, -1.0, -1.0, -1.0, -1.0, -1.0, -1.0, -1.0, -1.0, -1.0, -1.0, -1.0, -1.0, -1.0, -1.0, 3.9, 3.5, 3.4, 3.4, 3.3, 3.4, 3.5, 4.2, 3.6, 3.3, -1.0, -1.0, -1.0, -1.0, -1.0, -1.0, -1.0, -1.0, -1.0, -1.0, -1.0, -1.0, -1.0, -1.0, -1.0, -1.0, -1.0, -1.0, -1.0, -1.0, -1.0, -1.0, -1.0, -1.0, -1.0, 4.3, 3.6, 3.5, 3.4, 3.5, 3.8, 3.9, 3.5, 3.3, 3.3, 3.2, -1.0, -1.0, -1.0, -1.0, -1.0, -1.0, -1.0, -1.0, -1.0, -1.0, -1.0, -1.0, -1.0, -1.0, -1.0, -1.0, -1.0, -1.0, -1.0, -1.0, -1.0, -1.0, -1.0, -1.0, 4.3, 4.4, 3.7, 3.8, 4.5, 4.6, 3.6, 3.4, 3.3, 3.3, 3.3, -1.0, -1.0, -1.0, -1.0, -1.0, -1.0, -1.0, -1.0, -1.0, -1.0, -1.0, -1.0, -1.0, -1.0, -1.0, -1.0, -1.0, -1.0, -1.0, -1.0, -1.0, -1.0, -1.0, -1.0, 4.5, 4.6, 4.0, 4.4, 4.9, 4.8, 3.7, 3.4, 3.3, 3.3, 3.3, 3.2, -1.0, -1.0, -1.0, -1.0, -1.0, -1.0, -1.0, -1.0, -1.0, -1.0, -1.0, -1.0, -1.0, -1.0, -1.0, -1.0, -1.0, -1.0, -1.0, -1.0, -1.0, -1.0, -1.0, -1.0, 4.7, 4.4, 3.9, 4.9, 4.8, 3.8, 3.6, 3.4, 3.3, 3.3, 3.3, -1.0, -1.0, -1.0, -1.0, -1.0, -1.0, -1.0, -1.0, -1.0, -1.0, -1.0, -1.0, -1.0, -1.0, -1.0, -1.0, -1.0, -1.0, -1.0, -1.0, -1.0, -1.0, -1.0, -1.0, 4.7, 4.8, 4.0, 5.1, 5.0, 4.8, 3.9, 3.5, 3.4, 3.3, 3.3, -1.0, -1.0, -1.0, -1.0, -1.0, -1.0, -1.0, -1.0, -1.0, -1.0, -1.0, -1.0, -1.0, -1.0, -1.0, -1.0, -1.0, -1.0, -1.0, -1.0, -1.0, -1.0, -1.0, -1.0, -1.0, 5.0, 5.3, 4.9, 5.0, 4.9, 4.1, 3.5, 3.4, 3.3, 3.3, 3.3, -1.0, -1.0, -1.0, -1.0, -1.0, -1.0, -1.0, -1.0, -1.0, -1.0, -1.0, -1.0, -1.0, -1.0, -1.0, -1.0, -1.0, -1.0, -1.0, -1.0, -1.0, -1.0, -1.0, -1.0, 5.0, 4.8, 4.2, 4.7, 4.8, 4.2, 3.5, 3.4, 3.3, 3.3, 3.3, -1.0, -1.0, -1.0, -1.0, -1.0, -1.0, -1.0, -1.0, -1.0, -1.0, -1.0, -1.0, -1.0, -1.0, -1.0, -1.0, -1.0, -1.0, -1.0, -1.0, -1.0, -1.0, -1.0, -1.0, -1.0, 5.0, 4.4, 3.9, 4.4, 4.3, 3.6, 3.4, 3.3, 3.3, 3.3, 3.4, -1.0, -1.0, -1.0, -1.0, -1.0, -1.0, -1.0, -1.0, -1.0, -1.0, -1.0, -1.0, -1.0, -1.0, -1.0, -1.0, -1.0, -1.0, -1.0, -1.0, -1.0, -1.0, -1.0, -1.0, 5.0, 4.8, 3.9, 4.3, 4.7, 3.9, 3.5, 3.4, 3.3, 3.5, 4.5, -1.0, -1.0, -1.0, -1.0, -1.0, -1.0, -1.0, -1.0, -1.0, -1.0, -1.0, -1.0, -1.0, -1.0, -1.0, -1.0, -1.0, -1.0, -1.0, -1.0, -1.0, -1.0, -1.0, -1.0, -1.0, 5.0, 4.1, 3.9, 4.8, 4.0, 3.6, 3.4, 3.4, 3.4, 3.4, 3.3, -1.0, -1.0, -1.0, -1.0, -1.0, -1.0, -1.0, -1.0, -1.0, -1.0, -1.0, -1.0, -1.0, -1.0, -1.0, -1.0, -1.0, -1.0, -1.0, -1.0, -1.0, -1.0, -1.0, -1.0, 5.1, 4.4, 3.9, 4.8, 4.7, 3.6, 3.5, 3.4, 3.4, 3.3, 3.3, -1.0, -1.0, -1.0, -1.0, -1.0, -1.0, -1.0, -1.0, -1.0, -1.0, -1.0, -1.0, -1.0, -1.0, -1.0, -1.0, -1.0, -1.0, -1.0, -1.0, -1.0, -1.0, -1.0, -1.0, 5.0, 5.1, 4.2, 4.1, 4.8, 4.0, 3.5, 3.4, 3.3, 3.3, 3.3, 3.2, -1.0, -1.0, -1.0, -1.0, -1.0, -1.0, -1.0, -1.0, -1.0, -1.0, -1.0, -1.0, -1.0, -1.0, -1.0, -1.0, -1.0, -1.0, -1.0, -1.0, -1.0, -1.0, -1.0, -1.0, 5.1, 4.1, 4.0, 4.8, 4.0, 3.4, 3.3, 3.3, 3.3, 3.3, 3.2, -1.0, -1.0, -1.0, -1.0, -1.0, -1.0, -1.0, -1.0, -1.0, -1.0, -1.0, -1.0, -1.0, -1.0, -1.0, -1.0, -1.0, -1.0, -1.0, -1.0, -1.0, -1.0, -1.0, -1.0, 4.9, 5.1, 4.8, 3.8, 3.4, 3.3, 3.3, 3.3, 3.3, 3.3, 3.3, 3.2, -1.0, -1.0, -1.0, -1.0, -1.0, -1.0, -1.0, -1.0, -1.0, -1.0, -1.0, -1.0, -1.0, -1.0, -1.0, -1.0, -1.0, -1.0, -1.0, -1.0, -1.0, -1.0, -1.0, -1.0, 5.0, 3.7, 3.5, 3.4, 3.4, 3.3, 3.3, 3.3, 3.3, 3.3, 3.3, -1.0, -1.0, -1.0, -1.0, -1.0, -1.0, -1.0, -1.0, -1.0, -1.0, -1.0, -1.0, -1.0, -1.0, -1.0, -1.0, -1.0, -1.0, -1.0, -1.0, -1.0, -1.0, -1.0, -1.0, 4.7, 4.6, 3.6, 3.5, 3.4, 3.3, 3.3, 3.3, 3.3, 3.3, 3.5, -1.0, -1.0, -1.0, -1.0, -1.0, -1.0, -1.0, -1.0, -1.0, -1.0, -1.0, -1.0, -1.0, -1.0, -1.0, -1.0, -1.0, -1.0, -1.0, -1.0, -1.0, -1.0, -1.0, -1.0, -1.0, 4.6, 4.0, 3.7, 3.4, 3.4, 3.3, 3.3, 3.5, 3.6, -1.0, -1.0, -1.0, -1.0, -1.0, -1.0, -1.0, -1.0, -1.0, -1.0, -1.0, -1.0, -1.0, -1.0, -1.0, -1.0, -1.0, -1.0, -1.0, -1.0, -1.0, -1.0, -1.0, -1.0, -1.0, -1.0, 4.7, 4.3, 3.5, 3.4, 3.4, 3.4, 3.6, -1.0, -1.0, -1.0, -1.0, -1.0, -1.0, -1.0, -1.0, -1.0, -1.0, -1.0, -1.0, -1.0, -1.0, -1.0, -1.0, -1.0, -1.0, -1.0, -1.0, -1.0, -1.0, -1.0, -1.0, -1.0, -1.0, -1.0, -1.0, -1.0, 4.5, 3.6, 3.4, 3.5, -1.0, -1.0, -1.0, -1.0, -1.0, -1.0, -1.0, -1.0, -1.0, -1.0, -1.0, -1.0, -1.0, -1.0, -1.0, -1.0, -1.0, -1.0, -1.0, -1.0, -1.0, -1.0, -1.0, -1.0, -1.0, -1.0, -1.0, -1.0, -1.0, -1.0, -1.0, 4.5, 3.6, 3.1, -1.0, -1.0, -1.0, -1.0, -1.0, -1.0, -1.0, -1.0, -1.0, -1.0, -1.0, -1.0, -1.0, -1.0, -1.0, -1.0, -1.0, -1.0, -1.0, -1.0, -1.0, -1.0, -1.0, -1.0, -1.0, -1.0, -1.0, -1.0, -1.0, -1.0, -1.0, -1.0, 4.2, -1.0, -1.0, -1.0]}}, "geometry": {"type": "Polygon", "coordinates": [[[409898.0, 5655173.0], [409898.0, 5655172.0], [409897.0, 5655172.0], [409897.0, 5655171.0], [409895.0, 5655170.0], [409895.0, 5655168.0], [409896.0, 5655168.0], [409896.0, 5655167.0], [409897.0, 5655167.0], [409897.0, 5655166.0], [409898.0, 5655166.0], [409899.0, 5655164.0], [409901.0, 5655164.0], [409902.0, 5655162.0], [409904.0, 5655162.0], [409905.0, 5655160.0], [409907.0, 5655160.0], [409908.0, 5655158.0], [409910.0, 5655158.0], [409910.0, 5655157.0], [409911.0, 5655157.0], [409912.0, 5655155.0], [409914.0, 5655155.0], [409915.0, 5655153.0], [409917.0, 5655153.0], [409918.0, 5655151.0], [409920.0, 5655151.0], [409921.0, 5655149.0], [409923.0, 5655149.0], [409923.0, 5655148.0], [409924.0, 5655148.0], [409925.0, 5655146.0], [409927.0, 5655147.0], [409927.0, 5655149.0], [409929.0, 5655150.0], [409929.0, 5655152.0], [409928.0, 5655152.0], [409927.0, 5655154.0], [409925.0, 5655154.0], [409924.0, 5655156.0], [409922.0, 5655156.0], [409921.0, 5655158.0], [409919.0, 5655158.0], [409918.0, 5655160.0], [409916.0, 5655160.0], [409916.0, 5655161.0], [409915.0, 5655161.0], [409915.0, 5655162.0], [409913.0, 5655162.0], [409913.0, 5655163.0], [409912.0, 5655163.0], [409911.0, 5655165.0], [409909.0, 5655165.0], [409908.0, 5655167.0], [409906.0, 5655167.0], [409905.0, 5655169.0], [409903.0, 5655169.0], [409902.0, 5655171.0], [409900.0, 5655171.0], [409900.0, 5655172.0], [409898.0, 5655173.0]]]}}, {"type": "Feature", "properties": {"kind": "relief", "z": 124.96, "h": 15.9, "of": "UUID_9dc61a51-4a7f-4088-b853-cdea4bb8b59a", "grid": {"x": 409929.0, "y": 5655149.0, "res": 1.0, "cols": 9, "rows": 9, "z": [-1.0, -1.0, -1.0, -1.0, 15.6, -1.0, -1.0, -1.0, -1.0, -1.0, -1.0, -1.0, 15.3, 15.7, 15.8, -1.0, -1.0, -1.0, -1.0, -1.0, 12.0, 15.4, 15.7, 15.8, 15.8, 15.7, -1.0, -1.0, 6.0, 14.6, 15.5, 15.8, 15.9, 15.8, 15.8, 15.7, 5.2, 13.7, 15.1, 15.7, 15.9, 15.9, 15.9, 15.8, 15.8, -1.0, 14.9, 15.6, 15.9, 15.9, 15.9, 15.8, 15.8, -1.0, -1.0, -1.0, 15.8, 15.9, 15.9, 15.8, 15.8, -1.0, -1.0, -1.0, -1.0, -1.0, -1.0, 15.8, 15.8, 15.7, -1.0, -1.0, -1.0, -1.0, -1.0, -1.0, -1.0, 15.7, -1.0, -1.0, -1.0]}}, "geometry": {"type": "Polygon", "coordinates": [[[409933.0, 5655149.0], [409933.0, 5655148.0], [409932.0, 5655148.0], [409932.0, 5655147.0], [409931.0, 5655147.0], [409931.0, 5655146.0], [409930.0, 5655146.0], [409929.0, 5655144.0], [409930.0, 5655144.0], [409931.0, 5655142.0], [409933.0, 5655142.0], [409933.0, 5655141.0], [409935.0, 5655140.0], [409935.0, 5655141.0], [409936.0, 5655141.0], [409936.0, 5655143.0], [409938.0, 5655144.0], [409938.0, 5655146.0], [409937.0, 5655146.0], [409937.0, 5655147.0], [409935.0, 5655147.0], [409935.0, 5655148.0], [409933.0, 5655149.0]]]}}, {"type": "Feature", "properties": {"kind": "relief", "z": 151.65, "h": 3.4, "of": "UUID_204051d1-d905-438b-8296-92aefd7a39a0", "grid": {"x": 409456.0, "y": 5655331.0, "res": 1.0, "cols": 23, "rows": 44, "z": [-1.0, -1.0, -1.0, -1.0, -1.0, -1.0, -1.0, -1.0, -1.0, -1.0, -1.0, -1.0, -1.0, -1.0, -1.0, -1.0, -1.0, -1.0, 2.0, 1.6, -1.0, -1.0, -1.0, -1.0, -1.0, -1.0, -1.0, -1.0, -1.0, -1.0, -1.0, -1.0, -1.0, -1.0, -1.0, -1.0, -1.0, -1.0, -1.0, -1.0, 2.0, 2.0, 2.0, 2.1, 2.1, -1.0, -1.0, -1.0, -1.0, -1.0, -1.0, -1.0, -1.0, -1.0, -1.0, -1.0, -1.0, -1.0, -1.0, -1.0, -1.0, -1.0, 2.0, 2.0, 2.1, 2.0, 2.0, 2.0, 2.0, -1.0, -1.0, -1.0, -1.0, -1.0, -1.0, -1.0, -1.0, -1.0, -1.0, -1.0, -1.0, -1.0, -1.0, -1.0, 1.6, 2.0, 2.0, 2.0, 2.0, 2.0, 2.0, 2.0, -1.0, -1.0, -1.0, -1.0, -1.0, -1.0, -1.0, -1.0, -1.0, -1.0, -1.0, -1.0, -1.0, -1.0, -1.0, 2.1, 2.0, 2.0, 2.0, 2.0, 2.0, 2.0, 1.5, -1.0, -1.0, -1.0, -1.0, -1.0, -1.0, -1.0, -1.0, -1.0, -1.0, -1.0, -1.0, -1.0, -1.0, -1.0, 2.0, 2.0, 2.0, 2.0, 2.0, 2.0, 2.0, -1.0, -1.0, -1.0, -1.0, -1.0, -1.0, -1.0, -1.0, -1.0, -1.0, -1.0, -1.0, -1.0, -1.0, -1.0, 1.9, 2.0, 2.1, 2.0, 2.0, 2.0, 2.0, 2.1, -1.0, -1.0, -1.0, -1.0, -1.0, -1.0, -1.0, -1.0, -1.0, -1.0, -1.0, -1.0, -1.0, -1.0, -1.0, 2.0, 2.0, 2.1, 2.0, 2.0, 2.0, 2.0, -1.0, -1.0, -1.0, -1.0, -1.0, -1.0, -1.0, -1.0, -1.0, -1.0, -1.0, -1.0, -1.0, -1.0, -1.0, 1.7, 2.0, 2.0, 2.0, 2.0, 2.0, 2.0, 2.1, -1.0, -1.0, -1.0, -1.0, -1.0, -1.0, -1.0, -1.0, -1.0, -1.0, -1.0, -1.0, -1.0, -1.0, -1.0, 2.0, 2.0, 2.0, 2.0, 2.0, 2.0, 2.0, 2.0, -1.0, -1.0, -1.0, -1.0, -1.0, -1.0, -1.0, -1.0, -1.0, -1.0, -1.0, -1.0, -1.0, -1.0, -1.0, 2.0, 2.0, 2.0, 2.0, 2.0, 2.0, 2.0, 1.4, -1.0, -1.0, -1.0, -1.0, -1.0, -1.0, -1.0, -1.0, -1.0, -1.0, -1.0, -1.0, -1.0, -1.0, 2.0, 2.0, 2.0, 2.0, 2.0, 2.0, 2.0, 2.0, -1.0, -1.0, -1.0, -1.0, -1.0, -1.0, -1.0, -1.0, -1.0, -1.0, -1.0, -1.0, -1.0, -1.0, -1.0, 2.1, 2.0, 2.0, 2.0, 2.0, 2.0, 2.0, 1.8, -1.0, -1.0, -1.0, -1.0, -1.0, -1.0, -1.0, -1.0, -1.0, -1.0, -1.0, -1.0, -1.0, -1.0, 1.7, 2.0, 2.0, 2.0, 2.0, 2.0, 2.0, 2.0, -1.0, -1.0, -1.0, -1.0, -1.0, -1.0, -1.0, -1.0, -1.0, -1.0, -1.0, -1.0, -1.0, -1.0, 1.5, 1.8, 2.0, 2.0, 2.0, 2.0, 2.0, 2.0, 1.6, -1.0, -1.0, -1.0, -1.0, -1.0, -1.0, -1.0, -1.0, -1.0, -1.0, -1.0, -1.0, -1.0, 2.3, 2.6, 2.1, 2.1, 2.0, 2.0, 2.0, 2.0, 2.0, -1.0, -1.0, -1.0, -1.0, -1.0, -1.0, -1.0, -1.0, -1.0, -1.0, -1.0, -1.0, -1.0, 1.8, 3.3, 3.3, 2.5, 2.1, 2.0, 2.0, 2.0, 2.0, 2.0, -1.0, -1.0, -1.0, -1.0, -1.0, -1.0, -1.0, -1.0, -1.0, -1.0, -1.0, -1.0, -1.0, -1.0, 3.4, 3.0, 2.2, 2.1, 2.0, 2.0, 2.0, 2.0, 1.4, -1.0, -1.0, -1.0, -1.0, -1.0, -1.0, -1.0, -1.0, -1.0, -1.0, -1.0, -1.0, -1.0, -1.0, 2.6, 2.2, 2.1, 2.1, 2.0, 2.0, 2.0, 2.0, -1.0, -1.0, -1.0, -1.0, -1.0, -1.0, -1.0, -1.0, -1.0, -1.0, -1.0, -1.0, -1.0, -1.0, -1.0, 2.1, 2.1, 2.1, 2.0, 2.0, 2.0, 2.0, 2.1, -1.0, -1.0, -1.0, -1.0, -1.0, -1.0, -1.0, -1.0, -1.0, -1.0, -1.0, -1.0, -1.0, -1.0, -1.0, 2.1, 2.1, 2.0, 2.0, 2.0, 2.0, 2.0, -1.0, -1.0, -1.0, -1.0, -1.0, -1.0, -1.0, -1.0, -1.0, -1.0, -1.0, -1.0, -1.0, -1.0, -1.0, 1.7, 2.1, 2.1, 2.0, 2.0, 2.0, 2.0, 2.0, -1.0, -1.0, -1.0, -1.0, -1.0, -1.0, -1.0, -1.0, -1.0, -1.0, -1.0, -1.0, -1.0, -1.0, -1.0, 2.1, 2.0, 2.0, 2.0, 2.0, 2.0, 2.0, 1.9, -1.0, -1.0, -1.0, -1.0, -1.0, -1.0, -1.0, -1.0, -1.0, -1.0, -1.0, -1.0, -1.0, -1.0, 2.3, 2.1, 2.1, 2.1, 2.0, 2.0, 2.0, 2.0, -1.0, -1.0, -1.0, -1.0, -1.0, -1.0, -1.0, -1.0, -1.0, -1.0, -1.0, -1.0, -1.0, -1.0, 3.2, 3.2, 2.2, 2.1, 2.1, 2.0, 2.0, 2.0, 2.1, -1.0, -1.0, -1.0, -1.0, -1.0, -1.0, -1.0, -1.0, -1.0, -1.0, -1.0, -1.0, -1.0, -1.0, -1.0, 2.3, 2.1, 2.1, 2.0, 2.0, 2.0, 2.1, -1.0, -1.0, -1.0, -1.0, -1.0, -1.0, -1.0, -1.0, -1.0, -1.0, -1.0, -1.0, -1.0, -1.0, -1.0, -1.0, 2.1, 2.1, 2.0, 2.0, 2.0, 2.0, 2.1, -1.0, -1.0, -1.0, -1.0, -1.0, -1.0, -1.0, -1.0, -1.0, -1.0, -1.0, -1.0, -1.0, -1.0, -1.0, 2.0, 2.0, 2.0, 2.0, 2.0, 2.1, 2.0, 2.1, -1.0, -1.0, -1.0, -1.0, -1.0, -1.0, -1.0, -1.0, -1.0, -1.0, -1.0, -1.0, -1.0, -1.0, -1.0, 2.0, 2.0, 2.0, 2.0, 2.0, 2.0, 2.0, -1.0, -1.0, -1.0, -1.0, -1.0, -1.0, -1.0, -1.0, -1.0, -1.0, -1.0, -1.0, -1.0, -1.0, -1.0, 1.6, 2.0, 2.0, 2.0, 2.0, 2.0, 2.0, 2.1, -1.0, -1.0, -1.0, -1.0, -1.0, -1.0, -1.0, -1.0, -1.0, -1.0, -1.0, -1.0, -1.0, -1.0, -1.0, 2.1, 2.0, 2.1, 2.0, 2.0, 2.0, 2.0, 2.1, -1.0, -1.0, -1.0, -1.0, -1.0, -1.0, -1.0, -1.0, -1.0, -1.0, -1.0, -1.0, -1.0, -1.0, -1.0, 2.0, 2.0, 2.0, 2.0, 2.0, 2.0, 2.0, -1.0, -1.0, -1.0, -1.0, -1.0, -1.0, -1.0, -1.0, -1.0, -1.0, -1.0, -1.0, -1.0, -1.0, -1.0, 1.9, 2.0, 2.0, 2.0, 2.0, 2.0, 2.0, 1.6, -1.0, -1.0, -1.0, -1.0, -1.0, -1.0, -1.0, -1.0, -1.0, -1.0, -1.0, -1.0, -1.0, -1.0, -1.0, 2.1, 2.0, 2.0, 2.0, 2.0, 2.0, 2.0, 1.4, -1.0, -1.0, -1.0, -1.0, -1.0, -1.0, -1.0, -1.0, -1.0, -1.0, -1.0, -1.0, -1.0, -1.0, -1.0, 2.1, 2.0, 2.0, 2.0, 2.0, 2.0, 2.0, -1.0, -1.0, -1.0, -1.0, -1.0, -1.0, -1.0, -1.0, -1.0, -1.0, -1.0, -1.0, -1.0, -1.0, -1.0, 2.2, 2.1, 2.1, 2.0, 2.0, 2.1, 2.1, 2.1, -1.0, -1.0, -1.0, -1.0, -1.0, -1.0, -1.0, -1.0, -1.0, -1.0, -1.0, -1.0, -1.0, -1.0, -1.0, 2.1, 2.1, 2.0, 2.0, 2.1, 2.1, 2.1, -1.0, -1.0, -1.0, -1.0, -1.0, -1.0, -1.0, -1.0, -1.0, -1.0, -1.0, -1.0, -1.0, -1.0, -1.0, 2.9, 2.2, 2.1, 2.0, 2.0, 2.1, 2.1, 2.1, -1.0, -1.0, -1.0, -1.0, -1.0, -1.0, -1.0, -1.0, -1.0, -1.0, -1.0, -1.0, -1.0, -1.0, 3.1, 2.6, 2.1, 2.1, 2.1, 2.0, 2.0, 2.1, 2.1, -1.0, -1.0, -1.0, -1.0, -1.0, -1.0, -1.0, -1.0, -1.0, -1.0, -1.0, -1.0, -1.0, 2.3, 3.1, 2.2, 2.1, 2.1, 2.0, 2.0, 2.0, 2.0, -1.0, -1.0, -1.0, -1.0, -1.0, -1.0, -1.0, -1.0, -1.0, -1.0, -1.0, -1.0, -1.0, -1.0, -1.0, 2.4, 2.1, 2.1, 2.1, 2.0, 2.0, 2.0, 1.6, -1.0, -1.0, -1.0, -1.0, -1.0, -1.0, -1.0, -1.0, -1.0, -1.0, -1.0, -1.0, -1.0, -1.0, -1.0, -1.0, 2.1, 2.0, 2.0, 2.1, 2.1, 2.0, -1.0, -1.0, -1.0, -1.0, -1.0, -1.0, -1.0, -1.0, -1.0, -1.0, -1.0, -1.0, -1.0, -1.0, -1.0, -1.0, -1.0, -1.0, 1.6, 2.1, 2.1, 2.1, 2.1, -1.0, -1.0, -1.0, -1.0, -1.0, -1.0, -1.0, -1.0, -1.0, -1.0, -1.0, -1.0, -1.0, -1.0, -1.0, -1.0, -1.0, -1.0, -1.0, -1.0, -1.0, 2.2, -1.0, -1.0, -1.0, -1.0, -1.0, -1.0, -1.0, -1.0, -1.0, -1.0, -1.0, -1.0, -1.0, -1.0, -1.0, -1.0]}}, "geometry": {"type": "Polygon", "coordinates": [[[409474.0, 5655331.0], [409474.0, 5655330.0], [409473.0, 5655330.0], [409473.0, 5655329.0], [409471.0, 5655328.0], [409471.0, 5655325.0], [409470.0, 5655325.0], [409470.0, 5655323.0], [409469.0, 5655323.0], [409469.0, 5655320.0], [409468.0, 5655320.0], [409468.0, 5655318.0], [409467.0, 5655318.0], [409467.0, 5655317.0], [409466.0, 5655317.0], [409466.0, 5655316.0], [409464.0, 5655315.0], [409464.0, 5655314.0], [409465.0, 5655314.0], [409465.0, 5655310.0], [409464.0, 5655310.0], [409464.0, 5655308.0], [409462.0, 5655307.0], [409462.0, 5655306.0], [409463.0, 5655306.0], [409463.0, 5655304.0], [409462.0, 5655304.0], [409462.0, 5655302.0], [409461.0, 5655302.0], [409461.0, 5655299.0], [409460.0, 5655299.0], [409460.0, 5655296.0], [409459.0, 5655296.0], [409459.0, 5655294.0], [409458.0, 5655294.0], [409458.0, 5655293.0], [409456.0, 5655292.0], [409456.0, 5655291.0], [409457.0, 5655291.0], [409457.0, 5655290.0], [409458.0, 5655290.0], [409459.0, 5655288.0], [409462.0, 5655288.0], [409462.0, 5655287.0], [409464.0, 5655288.0], [409464.0, 5655290.0], [409465.0, 5655290.0], [409465.0, 5655292.0], [409466.0, 5655292.0], [409466.0, 5655295.0], [409467.0, 5655295.0], [409467.0, 5655297.0], [409468.0, 5655297.0], [409468.0, 5655300.0], [409469.0, 5655300.0], [409470.0, 5655306.0], [409471.0, 5655306.0], [409471.0, 5655308.0], [409472.0, 5655308.0], [409472.0, 5655311.0], [409473.0, 5655311.0], [409473.0, 5655313.0], [409474.0, 5655313.0], [409474.0, 5655316.0], [409475.0, 5655316.0], [409475.0, 5655318.0], [409476.0, 5655318.0], [409476.0, 5655320.0], [409477.0, 5655320.0], [409477.0, 5655324.0], [409478.0, 5655324.0], [409478.0, 5655326.0], [409479.0, 5655326.0], [409479.0, 5655329.0], [409478.0, 5655329.0], [409478.0, 5655330.0], [409476.0, 5655330.0], [409476.0, 5655331.0], [409474.0, 5655331.0]]]}}, {"type": "Feature", "properties": {"kind": "relief", "z": 151.65, "h": 3.2, "of": "UUID_204051d1-d905-438b-8296-92aefd7a39a0", "grid": {"x": 409454.0, "y": 5655320.0, "res": 1.0, "cols": 10, "rows": 13, "z": [-1.0, -1.0, -1.0, -1.0, -1.0, 2.7, 1.8, -1.0, -1.0, -1.0, -1.0, -1.0, -1.0, -1.0, 2.8, 3.0, 3.0, 3.0, 2.3, -1.0, -1.0, -1.0, -1.0, -1.0, 2.9, 3.1, 3.1, 3.1, 2.9, 1.6, -1.0, -1.0, -1.0, 1.9, 3.0, 3.1, 3.1, 3.1, 3.0, -1.0, -1.0, -1.0, -1.0, 2.8, 3.1, 3.1, 3.1, 3.1, 2.4, -1.0, -1.0, -1.0, 3.0, 3.0, 3.1, 3.2, 3.2, 3.1, -1.0, -1.0, -1.0, -1.0, 2.1, 3.0, 3.1, 3.2, 3.2, 3.1, -1.0, -1.0, -1.0, 1.7, 2.7, 3.1, 3.1, 3.2, 3.1, -1.0, -1.0, -1.0, -1.0, 2.3, 2.9, 3.1, 3.1, 3.1, 3.0, -1.0, -1.0, -1.0, -1.0, 2.7, 3.0, 3.1, 3.1, 3.0, 1.8, -1.0, -1.0, -1.0, 1.8, 2.9, 3.1, 3.1, 3.1, 3.1, -1.0, -1.0, -1.0, -1.0, -1.0, 3.0, 3.1, 3.1, 3.1, 3.1, -1.0, -1.0, -1.0, -1.0, -1.0, -1.0, 2.8, 3.1, 3.1, -1.0, -1.0, -1.0, -1.0, -1.0]}}, "geometry": {"type": "Polygon", "coordinates": [[[409459.0, 5655320.0], [409459.0, 5655319.0], [409458.0, 5655319.0], [409458.0, 5655317.0], [409457.0, 5655317.0], [409457.0, 5655315.0], [409456.0, 5655315.0], [409456.0, 5655313.0], [409455.0, 5655313.0], [409455.0, 5655310.0], [409454.0, 5655310.0], [409454.0, 5655309.0], [409455.0, 5655309.0], [409456.0, 5655307.0], [409459.0, 5655307.0], [409459.0, 5655308.0], [409460.0, 5655308.0], [409460.0, 5655310.0], [409461.0, 5655310.0], [409461.0, 5655313.0], [409462.0, 5655313.0], [409462.0, 5655315.0], [409463.0, 5655315.0], [409463.0, 5655317.0], [409464.0, 5655317.0], [409463.0, 5655319.0], [409459.0, 5655320.0]]]}}, {"type": "Feature", "properties": {"kind": "relief", "z": 151.65, "h": 3.2, "of": "UUID_204051d1-d905-438b-8296-92aefd7a39a0", "grid": {"x": 409437.0, "y": 5655319.0, "res": 1.0, "cols": 7, "rows": 7, "z": [-1.0, -1.0, 2.9, 3.1, 3.0, 1.8, -1.0, -1.0, 2.1, 3.0, 3.1, 3.1, 3.0, 2.9, -1.0, 2.7, 3.1, 3.1, 3.1, 3.0, 1.9, -1.0, 2.9, 3.1, 3.1, 3.2, 3.1, -1.0, 2.6, 3.1, 3.1, 3.1, 3.1, 3.0, -1.0, -1.0, 3.1, 3.1, 3.1, 3.0, 1.9, -1.0, -1.0, -1.0, -1.0, 2.6, 3.0, -1.0, -1.0]}}, "geometry": {"type": "Polygon", "coordinates": [[[409439.0, 5655319.0], [409439.0, 5655318.0], [409438.0, 5655318.0], [409438.0, 5655315.0], [409437.0, 5655315.0], [409437.0, 5655314.0], [409438.0, 5655314.0], [409438.0, 5655313.0], [409440.0, 5655313.0], [409440.0, 5655312.0], [409442.0, 5655312.0], [409442.0, 5655313.0], [409443.0, 5655313.0], [409443.0, 5655316.0], [409444.0, 5655316.0], [409444.0, 5655318.0], [409443.0, 5655318.0], [409443.0, 5655319.0], [409439.0, 5655319.0]]]}}, {"type": "Feature", "properties": {"kind": "relief", "z": 151.65, "h": 1.7, "of": "UUID_204051d1-d905-438b-8296-92aefd7a39a0", "grid": {"x": 409440.0, "y": 5655311.0, "res": 1.0, "cols": 3, "rows": 4, "z": [-1.0, 1.2, -1.0, 1.4, 1.2, 1.7, 1.7, 1.6, 1.7, -1.0, 1.6, -1.0]}}, "geometry": {"type": "Polygon", "coordinates": [[[409441.0, 5655311.0], [409441.0, 5655310.0], [409440.0, 5655310.0], [409440.0, 5655308.0], [409442.0, 5655307.0], [409442.0, 5655308.0], [409443.0, 5655308.0], [409443.0, 5655310.0], [409441.0, 5655311.0]]]}}, {"type": "Feature", "properties": {"kind": "relief", "z": 151.65, "h": 4.0, "of": "UUID_204051d1-d905-438b-8296-92aefd7a39a0", "grid": {"x": 409430.0, "y": 5655306.0, "res": 1.0, "cols": 9, "rows": 13, "z": [-1.0, -1.0, -1.0, -1.0, 2.0, -1.0, -1.0, -1.0, -1.0, -1.0, -1.0, -1.0, 2.4, 2.9, 3.1, 3.1, 2.9, -1.0, -1.0, -1.0, 1.6, 2.7, 3.0, 3.1, 3.1, 3.1, 3.2, -1.0, -1.0, -1.0, 2.9, 3.1, 3.1, 3.1, 3.1, -1.0, -1.0, -1.0, 2.6, 3.0, 3.1, 3.1, 3.1, 3.0, -1.0, -1.0, -1.0, 2.8, 3.1, 3.1, 3.1, 3.0, 2.0, -1.0, -1.0, 2.2, 3.0, 3.1, 3.1, 3.1, 2.4, -1.0, -1.0, -1.0, 2.7, 3.0, 3.1, 3.2, 3.2, 4.0, -1.0, -1.0, -1.0, 2.9, 3.1, 3.1, 3.2, 3.2, -1.0, -1.0, -1.0, 2.2, 3.0, 3.2, 3.1, 3.1, 3.2, -1.0, -1.0, -1.0, 2.8, 3.1, 3.1, 3.2, 3.1, 3.2, -1.0, -1.0, -1.0, -1.0, 3.1, 3.1, 3.1, 3.1, -1.0, -1.0, -1.0, -1.0, -1.0, -1.0, 3.1, 3.1, -1.0, -1.0, -1.0, -1.0, -1.0]}}, "geometry": {"type": "Polygon", "coordinates": [[[409434.0, 5655306.0], [409434.0, 5655305.0], [409432.0, 5655304.0], [409433.0, 5655302.0], [409432.0, 5655302.0], [409432.0, 5655300.0], [409431.0, 5655300.0], [409431.0, 5655297.0], [409430.0, 5655297.0], [409430.0, 5655295.0], [409431.0, 5655295.0], [409432.0, 5655293.0], [409434.0, 5655293.0], [409434.0, 5655294.0], [409436.0, 5655295.0], [409436.0, 5655298.0], [409437.0, 5655298.0], [409437.0, 5655300.0], [409438.0, 5655300.0], [409438.0, 5655303.0], [409439.0, 5655303.0], [409438.0, 5655305.0], [409435.0, 5655305.0], [409435.0, 5655306.0], [409434.0, 5655306.0]]]}}, {"type": "Feature", "properties": {"kind": "relief", "z": 151.65, "h": 3.1, "of": "UUID_204051d1-d905-438b-8296-92aefd7a39a0", "grid": {"x": 409451.0, "y": 5655299.0, "res": 1.0, "cols": 6, "rows": 7, "z": [-1.0, -1.0, 3.0, 2.3, 2.5, -1.0, -1.0, 2.9, 3.1, 3.1, 3.1, 3.1, 2.0, 3.0, 3.1, 3.1, 3.1, 3.0, 2.7, 3.1, 3.1, 3.1, 3.0, 1.8, 3.0, 3.1, 3.1, 3.1, 3.1, -1.0, 3.0, 3.0, 3.0, 3.1, 3.1, -1.0, -1.0, 1.7, 2.6, 3.0, -1.0, -1.0]}}, "geometry": {"type": "Polygon", "coordinates": [[[409453.0, 5655299.0], [409453.0, 5655298.0], [409451.0, 5655297.0], [409451.0, 5655293.0], [409452.0, 5655293.0], [409452.0, 5655292.0], [409455.0, 5655292.0], [409455.0, 5655293.0], [409456.0, 5655293.0], [409456.0, 5655295.0], [409457.0, 5655295.0], [409457.0, 5655298.0], [409456.0, 5655298.0], [409456.0, 5655299.0], [409453.0, 5655299.0]]]}}, {"type": "Feature", "properties": {"kind": "relief", "z": 151.65, "h": 2.0, "of": "UUID_204051d1-d905-438b-8296-92aefd7a39a0", "grid": {"x": 409436.0, "y": 5655284.0, "res": 1.0, "cols": 3, "rows": 4, "z": [-1.0, 1.4, -1.0, 1.6, 1.4, 2.0, 2.0, 1.8, 1.6, -1.0, 1.9, -1.0]}}, "geometry": {"type": "Polygon", "coordinates": [[[409437.0, 5655284.0], [409437.0, 5655283.0], [409436.0, 5655283.0], [409436.0, 5655281.0], [409438.0, 5655280.0], [409438.0, 5655281.0], [409439.0, 5655281.0], [409439.0, 5655283.0], [409437.0, 5655284.0]]]}}, {"type": "Feature", "properties": {"kind": "relief", "z": 151.65, "h": 2.2, "of": "UUID_204051d1-d905-438b-8296-92aefd7a39a0", "grid": {"x": 409451.0, "y": 5655269.0, "res": 1.0, "cols": 4, "rows": 5, "z": [-1.0, -1.0, 2.1, -1.0, -1.0, 2.0, 2.2, 2.1, 1.8, 2.1, 2.1, 2.1, -1.0, 2.1, 2.1, 1.8, -1.0, -1.0, 2.1, -1.0]}}, "geometry": {"type": "Polygon", "coordinates": [[[409453.0, 5655269.0], [409453.0, 5655268.0], [409452.0, 5655268.0], [409451.0, 5655266.0], [409452.0, 5655266.0], [409452.0, 5655265.0], [409454.0, 5655264.0], [409454.0, 5655265.0], [409455.0, 5655265.0], [409455.0, 5655268.0], [409453.0, 5655269.0]]]}}, {"type": "Feature", "properties": {"kind": "relief", "z": 151.65, "h": 3.8, "of": "UUID_204051d1-d905-438b-8296-92aefd7a39a0", "grid": {"x": 409464.0, "y": 5655259.0, "res": 1.0, "cols": 11, "rows": 7, "z": [-1.0, -1.0, 3.1, 3.0, 1.9, -1.0, -1.0, -1.0, -1.0, -1.0, -1.0, -1.0, 2.7, 3.0, 2.9, 3.1, 3.1, -1.0, -1.0, -1.0, -1.0, -1.0, -1.0, 3.1, 3.0, 3.0, 3.1, 3.2, 3.2, 3.1, 1.9, -1.0, -1.0, -1.0, 3.0, 3.0, 3.1, 3.4, 3.8, 3.4, 3.0, 2.5, 2.1, -1.0, 3.0, 3.0, 3.0, 3.2, 3.1, 3.1, 3.2, 2.9, 2.3, 1.7, 1.3, -1.0, 3.1, 3.7, 3.0, 2.2, 2.5, 3.0, 2.7, 2.1, 1.5, -1.0, -1.0, -1.0, 2.6, 3.1, -1.0, -1.0, -1.0, -1.0, 2.1, -1.0, -1.0]}}, "geometry": {"type": "Polygon", "coordinates": [[[409466.0, 5655259.0], [409466.0, 5655258.0], [409465.0, 5655258.0], [409465.0, 5655255.0], [409464.0, 5655255.0], [409464.0, 5655254.0], [409465.0, 5655254.0], [409466.0, 5655252.0], [409468.0, 5655252.0], [409468.0, 5655253.0], [409472.0, 5655253.0], [409472.0, 5655252.0], [409473.0, 5655252.0], [409473.0, 5655253.0], [409475.0, 5655254.0], [409475.0, 5655255.0], [409474.0, 5655255.0], [409473.0, 5655257.0], [409470.0, 5655257.0], [409469.0, 5655259.0], [409466.0, 5655259.0]]]}}, {"type": "Feature", "properties": {"kind": "relief", "z": 139.9, "h": 15.7, "of": "UUID_c5bd393d-d068-4196-b178-f79dc73edb5d", "grid": {"x": 409470.0, "y": 5655342.0, "res": 1.0, "cols": 14, "rows": 10, "z": [-1.0, -1.0, 3.6, -1.0, -1.0, -1.0, -1.0, -1.0, -1.0, -1.0, -1.0, -1.0, -1.0, -1.0, -1.0, 13.0, 8.1, 6.6, -1.0, -1.0, -1.0, -1.0, -1.0, -1.0, -1.0, -1.0, -1.0, -1.0, 15.7, 15.2, 9.4, 11.9, 8.2, -1.0, -1.0, -1.0, -1.0, -1.0, -1.0, -1.0, -1.0, -1.0, 13.3, 15.4, 14.2, 12.6, 8.2, -1.0, 8.0, -1.0, -1.0, -1.0, -1.0, -1.0, -1.0, -1.0, 14.0, 15.2, 13.6, 12.7, 5.5, 6.4, 8.0, 4.8, -1.0, 7.3, -1.0, -1.0, -1.0, -1.0, -1.0, 15.2, 14.1, 12.7, 5.1, 5.7, 8.0, 6.6, 5.6, 6.0, 3.4, -1.0, -1.0, -1.0, -1.0, -1.0, 5.9, -1.0, -1.0, -1.0, 6.1, 6.7, 5.3, 4.8, 2.8, -1.0, -1.0, -1.0, -1.0, -1.0, -1.0, -1.0, -1.0, -1.0, -1.0, 5.9, 5.1, 4.2, 1.8, 1.6, 1.4, -1.0, -1.0, -1.0, -1.0, -1.0, -1.0, -1.0, -1.0, -1.0, -1.0, -1.0, 1.6, 1.5, 1.4, 1.2, -1.0, -1.0, -1.0, -1.0, -1.0, -1.0, -1.0, -1.0, -1.0, -1.0, -1.0, -1.0, 1.2, -1.0]}}, "geometry": {"type": "Polygon", "coordinates": [[[409472.0, 5655342.0], [409472.0, 5655341.0], [409470.0, 5655340.0], [409470.0, 5655337.0], [409471.0, 5655337.0], [409472.0, 5655335.0], [409473.0, 5655335.0], [409473.0, 5655336.0], [409476.0, 5655336.0], [409477.0, 5655334.0], [409480.0, 5655334.0], [409480.0, 5655333.0], [409482.0, 5655333.0], [409482.0, 5655332.0], [409484.0, 5655333.0], [409483.0, 5655335.0], [409481.0, 5655335.0], [409481.0, 5655337.0], [409480.0, 5655337.0], [409480.0, 5655338.0], [409479.0, 5655338.0], [409479.0, 5655337.0], [409478.0, 5655337.0], [409477.0, 5655339.0], [409475.0, 5655338.0], [409475.0, 5655340.0], [409474.0, 5655340.0], [409474.0, 5655341.0], [409472.0, 5655342.0]]]}}]}