{"type": "FeatureCollection", "attribution": "\u00a9 OpenStreetMap contributors (ODbL)", "crs": {"type": "name", "properties": {"name": "urn:ogc:def:crs:EPSG::25833"}}, "features": [{"type": "Feature", "properties": {"kind": "mast", "z": 113.37, "h": 28.7, "r": 2.5, "rt": 0.88}, "geometry": {"type": "Point", "coordinates": [414676.5, 5657131.5]}}, {"type": "Feature", "properties": {"kind": "mast", "z": 107.64, "h": 14.6, "r": 2.5, "rt": 0.88}, "geometry": {"type": "Point", "coordinates": [414299.5, 5657748.5]}}, {"type": "Feature", "properties": {"kind": "mast", "z": 113.61, "h": 21.0, "r": 0.8, "rt": 0.28}, "geometry": {"type": "Point", "coordinates": [415471.5, 5656025.5]}}, {"type": "Feature", "properties": {"kind": "mast", "z": 112.9, "h": 33.5, "r": 0.98, "rt": 0.34}, "geometry": {"type": "Point", "coordinates": [414929.5, 5656462.5]}}, {"type": "Feature", "properties": {"kind": "mast", "z": 112.98, "h": 28.8, "r": 2.5, "rt": 0.88}, "geometry": {"type": "Point", "coordinates": [414934.5, 5656409.5]}}, {"type": "Feature", "properties": {"kind": "mast", "z": 113.49, "h": 53.0, "r": 2.5, "rt": 0.88}, "geometry": {"type": "Point", "coordinates": [414226.5, 5656325.5]}}, {"type": "Feature", "properties": {"kind": "mast", "z": 112.53, "h": 16.3, "r": 1.13, "rt": 0.39}, "geometry": {"type": "Point", "coordinates": [414310.5, 5656403.5]}}, {"type": "Feature", "properties": {"kind": "mast", "z": 113.14, "h": 48.2, "r": 2.5, "rt": 0.88}, "geometry": {"type": "Point", "coordinates": [414231.5, 5656310.5]}}, {"type": "Feature", "properties": {"kind": "chimney", "z": 113.26, "h": 50.0, "r": 2.25, "rt": 1.35}, "geometry": {"type": "Point", "coordinates": [414508.78, 5656714.76]}}, {"type": "Feature", "properties": {"kind": "building", "z": 113.62, "h": 3.4}, "geometry": {"type": "Polygon", "coordinates": [[[414788.19, 5656870.8], [414787.66, 5656848.02], [414793.82, 5656847.89], [414794.34, 5656870.66], [414788.19, 5656870.8]]]}}, {"type": "Feature", "properties": {"kind": "building", "z": 112.57, "h": 15.4}, "geometry": {"type": "Polygon", "coordinates": [[[414414.39, 5656415.16], [414421.51, 5656416.21], [414421.29, 5656417.68], [414423.96, 5656418.08], [414426.63, 5656418.47], [414426.84, 5656417.04], [414434.64, 5656418.19], [414436.6, 5656404.93], [414433.74, 5656404.51], [414434.27, 5656400.92], [414420.08, 5656398.83], [414419.49, 5656402.77], [414416.31, 5656402.3], [414414.39, 5656415.16]]]}}, {"type": "Feature", "properties": {"kind": "building", "z": 113.77, "h": 9.2}, "geometry": {"type": "Polygon", "coordinates": [[[414817.11, 5656989.74], [414809.83, 5656989.92], [414809.74, 5656985.78], [414806.52, 5656985.86], [414806.68, 5656992.8], [414802.05, 5656992.91], [414801.75, 5656980.59], [414806.26, 5656980.48], [414806.34, 5656983.59], [414816.97, 5656983.35], [414817.11, 5656989.74]]]}}, {"type": "Feature", "properties": {"kind": "building", "z": 112.45, "h": 7.0}, "geometry": {"type": "Polygon", "coordinates": [[[414798.34, 5656276.32], [414810.15, 5656266.73], [414800.59, 5656255.02], [414788.78, 5656264.61], [414798.34, 5656276.32]]]}}, {"type": "Feature", "properties": {"kind": "building", "z": 113.27, "h": 12.4}, "geometry": {"type": "Polygon", "coordinates": [[[414368.43, 5656034.25], [414381.46, 5656024.81], [414370.44, 5656009.68], [414357.41, 5656019.11], [414368.43, 5656034.25]]]}}, {"type": "Feature", "properties": {"kind": "building", "z": 114.01, "h": 13.2}, "geometry": {"type": "Polygon", "coordinates": [[[415121.65, 5656568.79], [415123.58, 5656587.95], [415118.31, 5656588.48], [415116.38, 5656569.33], [415121.65, 5656568.79]]]}}, {"type": "Feature", "properties": {"kind": "building", "z": 112.8, "h": 21.7}, "geometry": {"type": "Polygon", "coordinates": [[[414362.17, 5656452.68], [414361.73, 5656445.6], [414364.22, 5656437.35], [414366.38, 5656434.34], [414369.56, 5656433.19], [414381.76, 5656434.78], [414384.89, 5656435.84], [414385.95, 5656437.58], [414384.49, 5656447.58], [414383.65, 5656449.87], [414381.71, 5656451.18], [414379.12, 5656451.23], [414379.14, 5656452.82], [414363.83, 5656454.03], [414362.17, 5656452.68]]]}}, {"type": "Feature", "properties": {"kind": "building", "z": 112.58, "h": 18.2}, "geometry": {"type": "Polygon", "coordinates": [[[414362.82, 5656408.05], [414359.87, 5656383.53], [414375.16, 5656382.25], [414375.7, 5656386.85], [414388.09, 5656388.49], [414387.46, 5656395.16], [414395.02, 5656396.41], [414392.64, 5656412.5], [414362.82, 5656408.05]]]}}, {"type": "Feature", "properties": {"kind": "building", "z": 112.91, "h": 22.7}, "geometry": {"type": "Polygon", "coordinates": [[[414168.72, 5656227.09], [414182.41, 5656217.96], [414191.16, 5656230.12], [414196.98, 5656240.42], [414211.08, 5656261.64], [414215.5, 5656269.45], [414223.39, 5656279.49], [414210.65, 5656287.98], [414202.1, 5656277.77], [414197.32, 5656268.29], [414192.0, 5656262.45], [414187.24, 5656252.78], [414182.42, 5656246.94], [414177.27, 5656237.31], [414168.72, 5656227.09]]]}}, {"type": "Feature", "properties": {"kind": "building", "z": 113.22, "h": 4.8, "name": "Liegendanfahrt Notaufnahme Innere/Neurologie (DINZ) - Haus 27"}, "geometry": {"type": "Polygon", "coordinates": [[[414595.12, 5656843.75], [414595.62, 5656833.9], [414579.06, 5656833.05], [414578.55, 5656842.89], [414595.12, 5656843.75]]]}}, {"type": "Feature", "properties": {"kind": "building", "z": 113.66, "h": 15.1}, "geometry": {"type": "Polygon", "coordinates": [[[414970.6, 5656553.46], [414973.12, 5656552.08], [414978.02, 5656553.97], [414978.56, 5656556.13], [414976.78, 5656560.73], [414974.81, 5656561.69], [414969.9, 5656559.79], [414969.05, 5656557.48], [414970.6, 5656553.46]]]}}, {"type": "Feature", "properties": {"kind": "building", "z": 114.55, "h": 2.8}, "geometry": {"type": "Polygon", "coordinates": [[[414988.39, 5656550.62], [414990.9, 5656549.24], [414995.8, 5656551.13], [414996.35, 5656553.29], [414994.56, 5656557.9], [414992.59, 5656558.85], [414987.68, 5656556.96], [414986.83, 5656554.64], [414988.39, 5656550.62]]]}}, {"type": "Feature", "properties": {"kind": "building", "z": 114.1, "h": 3.7}, "geometry": {"type": "Polygon", "coordinates": [[[415265.59, 5656575.95], [415266.05, 5656583.29], [415273.55, 5656582.83], [415273.09, 5656575.47], [415265.59, 5656575.95]]]}}, {"type": "Feature", "properties": {"kind": "building", "z": 112.07, "h": 3.9}, "geometry": {"type": "Polygon", "coordinates": [[[415676.48, 5656975.85], [415669.4, 5656979.07], [415671.05, 5656982.68], [415684.13, 5656976.74], [415683.36, 5656975.05], [415677.36, 5656977.78], [415676.48, 5656975.85]]]}}, {"type": "Feature", "properties": {"kind": "building", "z": 114.29, "h": 3.0}, "geometry": {"type": "Polygon", "coordinates": [[[415951.87, 5656629.89], [415957.63, 5656625.91], [415953.48, 5656619.96], [415947.74, 5656623.95], [415951.87, 5656629.89]]]}}, {"type": "Feature", "properties": {"kind": "building", "z": 131.84, "h": 11.0}, "geometry": {"type": "Polygon", "coordinates": [[[415203.23, 5657742.65], [415204.51, 5657746.97], [415196.84, 5657749.41], [415193.56, 5657751.45], [415187.99, 5657756.58], [415186.29, 5657759.83], [415185.68, 5657763.45], [415181.03, 5657763.56], [415181.89, 5657758.24], [415184.11, 5657754.01], [415187.01, 5657750.84], [415194.65, 5657745.42], [415203.23, 5657742.65]]]}}, {"type": "Feature", "properties": {"kind": "building", "z": 113.34, "h": 15.0}, "geometry": {"type": "Polygon", "coordinates": [[[414778.21, 5656838.44], [414782.91, 5656838.51], [414783.03, 5656829.88], [414778.34, 5656829.81], [414778.21, 5656838.44]]]}}, {"type": "Feature", "properties": {"kind": "building", "z": 113.76, "h": 3.7}, "geometry": {"type": "Polygon", "coordinates": [[[414792.14, 5657039.14], [414798.05, 5657038.98], [414799.11, 5657074.8], [414793.19, 5657074.97], [414792.14, 5657039.14]]]}}]}