{"type": "FeatureCollection", "attribution": "\u00a9 OpenStreetMap contributors (ODbL)", "crs": {"type": "name", "properties": {"name": "urn:ogc:def:crs:EPSG::25833"}}, "features": [{"type": "Feature", "properties": {"kind": "tower", "z": 112.38, "h": 21.1, "r": 6.46, "rt": 5.81}, "geometry": {"type": "Point", "coordinates": [409297.5, 5657526.5]}}, {"type": "Feature", "properties": {"kind": "mast", "z": 116.1, "h": 16.2, "r": 0.56, "rt": 0.2}, "geometry": {"type": "Point", "coordinates": [408378.5, 5656793.5]}}, {"type": "Feature", "properties": {"kind": "mast", "z": 116.14, "h": 16.2, "r": 0.98, "rt": 0.34}, "geometry": {"type": "Point", "coordinates": [408406.5, 5656757.5]}}, {"type": "Feature", "properties": {"kind": "mast", "z": 116.12, "h": 16.3, "r": 0.98, "rt": 0.34}, "geometry": {"type": "Point", "coordinates": [408436.5, 5656718.5]}}, {"type": "Feature", "properties": {"kind": "mast", "z": 116.14, "h": 16.0, "r": 1.13, "rt": 0.39}, "geometry": {"type": "Point", "coordinates": [408357.5, 5656717.5]}}, {"type": "Feature", "properties": {"kind": "mast", "z": 116.15, "h": 13.2, "r": 0.8, "rt": 0.28}, "geometry": {"type": "Point", "coordinates": [408386.5, 5656680.5]}}, {"type": "Feature", "properties": {"kind": "mast", "z": 115.03, "h": 35.8, "r": 1.49, "rt": 0.52}, "geometry": {"type": "Point", "coordinates": [409126.5, 5656635.5]}}, {"type": "Feature", "properties": {"kind": "mast", "z": 115.05, "h": 35.9, "r": 2.26, "rt": 0.79}, "geometry": {"type": "Point", "coordinates": [409030.5, 5656659.5]}}, {"type": "Feature", "properties": {"kind": "mast", "z": 115.17, "h": 35.7, "r": 2.5, "rt": 0.88}, "geometry": {"type": "Point", "coordinates": [408931.5, 5656683.5]}}, {"type": "Feature", "properties": {"kind": "mast", "z": 115.28, "h": 35.6, "r": 1.69, "rt": 0.59}, "geometry": {"type": "Point", "coordinates": [408830.5, 5656707.5]}}, {"type": "Feature", "properties": {"kind": "mast", "z": 115.39, "h": 36.0, "r": 1.6, "rt": 0.56}, "geometry": {"type": "Point", "coordinates": [408735.5, 5656730.5]}}, {"type": "Feature", "properties": {"kind": "mast", "z": 114.98, "h": 35.7, "r": 1.69, "rt": 0.59}, "geometry": {"type": "Point", "coordinates": [409303.5, 5656593.5]}}, {"type": "Feature", "properties": {"kind": "mast", "z": 115.23, "h": 36.0, "r": 1.49, "rt": 0.52}, "geometry": {"type": "Point", "coordinates": [409208.5, 5656606.5]}}, {"type": "Feature", "properties": {"kind": "water_tower", "z": 108.67, "h": 67.2, "r": 6.7, "rt": 6.7, "name": "Wasserturm Bienertsche Hafenm\u00fchle"}, "geometry": {"type": "Point", "coordinates": [409688.71, 5657587.7]}}, {"type": "Feature", "properties": {"kind": "building", "z": 126.61, "h": 12.9}, "geometry": {"type": "Polygon", "coordinates": [[[408015.66, 5656112.41], [408014.69, 5656101.17], [408008.66, 5656101.58], [408008.39, 5656097.62], [407997.5, 5656098.04], [407997.56, 5656112.27], [407999.83, 5656114.12], [408015.66, 5656112.41]]]}}, {"type": "Feature", "properties": {"kind": "building", "z": 126.68, "h": 15.4}, "geometry": {"type": "Polygon", "coordinates": [[[408009.18, 5656089.89], [408009.88, 5656070.96], [407997.99, 5656070.53], [407997.29, 5656089.45], [408009.18, 5656089.89]]]}}, {"type": "Feature", "properties": {"kind": "building", "z": 127.13, "h": 15.4}, "geometry": {"type": "Polygon", "coordinates": [[[408015.02, 5656061.6], [408016.99, 5656047.22], [408000.27, 5656044.72], [407998.71, 5656061.14], [408015.02, 5656061.6]]]}}, {"type": "Feature", "properties": {"kind": "building", "z": 126.75, "h": 13.2}, "geometry": {"type": "Polygon", "coordinates": [[[407997.64, 5656135.89], [408009.05, 5656134.61], [408011.09, 5656152.65], [408001.44, 5656153.73], [407993.82, 5656146.12], [407990.51, 5656139.38], [407997.64, 5656135.89]]]}}, {"type": "Feature", "properties": {"kind": "building", "z": 132.39, "h": 2.9}, "geometry": {"type": "Polygon", "coordinates": [[[408355.93, 5656059.19], [408361.82, 5656048.23], [408366.36, 5656050.58], [408366.92, 5656049.55], [408368.79, 5656050.41], [408367.62, 5656052.67], [408365.72, 5656051.76], [408361.0, 5656059.5], [408355.93, 5656059.19]]]}}, {"type": "Feature", "properties": {"kind": "building", "z": 111.73, "h": 14.1}, "geometry": {"type": "Polygon", "coordinates": [[[408643.32, 5657475.21], [408641.96, 5657472.08], [408639.83, 5657469.41], [408637.08, 5657467.39], [408633.89, 5657466.13], [408630.5, 5657465.74], [408627.12, 5657466.25], [408623.98, 5657467.62], [408621.31, 5657469.73], [408619.27, 5657472.48], [408618.03, 5657475.65], [408617.74, 5657478.12], [408618.15, 5657482.41], [408619.5, 5657485.54], [408621.63, 5657488.2], [408624.38, 5657490.24], [408627.57, 5657491.48], [408630.96, 5657491.86], [408634.34, 5657491.36], [408637.48, 5657490.0], [408640.15, 5657487.88], [408642.19, 5657485.14], [408643.61, 5657480.45], [408643.82, 5657478.58], [408643.32, 5657475.21]]]}}, {"type": "Feature", "properties": {"kind": "building", "z": 111.43, "h": 14.3}, "geometry": {"type": "Polygon", "coordinates": [[[408551.34, 5657530.25], [408549.98, 5657527.13], [408547.85, 5657524.46], [408545.1, 5657522.43], [408541.92, 5657521.18], [408538.53, 5657520.8], [408535.15, 5657521.3], [408532.01, 5657522.66], [408529.34, 5657524.79], [408527.3, 5657527.53], [408526.05, 5657530.7], [408525.67, 5657534.09], [408526.17, 5657537.46], [408527.53, 5657540.58], [408529.66, 5657543.25], [408532.41, 5657545.28], [408535.6, 5657546.52], [408538.99, 5657546.91], [408542.37, 5657546.4], [408545.5, 5657545.05], [408548.18, 5657542.92], [408550.21, 5657540.18], [408551.46, 5657537.01], [408551.85, 5657533.62], [408551.34, 5657530.25]]]}}, {"type": "Feature", "properties": {"kind": "building", "z": 111.71, "h": 14.2}, "geometry": {"type": "Polygon", "coordinates": [[[408608.69, 5657471.86], [408607.32, 5657468.74], [408605.2, 5657466.07], [408602.45, 5657464.04], [408599.26, 5657462.79], [408595.87, 5657462.41], [408592.49, 5657462.91], [408589.35, 5657464.27], [408586.68, 5657466.4], [408584.64, 5657469.14], [408583.39, 5657472.31], [408583.01, 5657475.7], [408583.51, 5657479.07], [408584.87, 5657482.19], [408587.0, 5657484.87], [408589.75, 5657486.89], [408592.94, 5657488.13], [408596.33, 5657488.52], [408599.71, 5657488.01], [408602.85, 5657486.66], [408605.52, 5657484.54], [408607.55, 5657481.79], [408608.96, 5657477.32], [408609.19, 5657475.23], [408608.69, 5657471.86]]]}}, {"type": "Feature", "properties": {"kind": "building", "z": 111.5, "h": 13.9}, "geometry": {"type": "Polygon", "coordinates": [[[408650.03, 5657525.34], [408648.42, 5657521.66], [408645.9, 5657518.5], [408642.66, 5657516.11], [408638.9, 5657514.63], [408634.89, 5657514.18], [408630.89, 5657514.77], [408627.19, 5657516.38], [408624.03, 5657518.88], [408621.63, 5657522.13], [408620.15, 5657525.87], [408619.69, 5657529.87], [408620.29, 5657533.86], [408621.9, 5657537.55], [408624.42, 5657540.7], [408627.67, 5657543.09], [408631.42, 5657544.57], [408635.43, 5657545.02], [408639.43, 5657544.43], [408643.13, 5657542.82], [408646.29, 5657540.31], [408648.69, 5657537.08], [408650.17, 5657533.33], [408650.62, 5657529.33], [408650.03, 5657525.34]]]}}, {"type": "Feature", "properties": {"kind": "building", "z": 111.64, "h": 14.1}, "geometry": {"type": "Polygon", "coordinates": [[[408677.65, 5657477.7], [408676.28, 5657474.58], [408674.15, 5657471.91], [408671.41, 5657469.88], [408668.23, 5657468.64], [408664.83, 5657468.25], [408661.45, 5657468.76], [408658.32, 5657470.11], [408655.64, 5657472.24], [408653.61, 5657474.98], [408652.35, 5657478.15], [408651.87, 5657481.16], [408652.47, 5657484.91], [408653.84, 5657488.05], [408655.97, 5657490.71], [408658.72, 5657492.73], [408661.9, 5657493.99], [408665.29, 5657494.37], [408668.68, 5657493.87], [408671.81, 5657492.5], [408674.48, 5657490.38], [408676.51, 5657487.64], [408677.77, 5657484.46], [408678.16, 5657481.07], [408677.65, 5657477.7]]]}}, {"type": "Feature", "properties": {"kind": "building", "z": 111.35, "h": 14.0}, "geometry": {"type": "Polygon", "coordinates": [[[408613.58, 5657544.94], [408611.97, 5657541.24], [408609.46, 5657538.1], [408606.21, 5657535.71], [408602.45, 5657534.23], [408598.44, 5657533.78], [408594.45, 5657534.37], [408590.75, 5657535.98], [408587.59, 5657538.48], [408585.19, 5657541.72], [408583.7, 5657545.47], [408583.5, 5657547.27], [408583.25, 5657549.47], [408583.84, 5657553.46], [408585.46, 5657557.15], [408587.98, 5657560.3], [408591.22, 5657562.69], [408594.98, 5657564.17], [408598.99, 5657564.62], [408602.98, 5657564.03], [408606.69, 5657562.42], [408609.84, 5657559.91], [408612.25, 5657556.68], [408613.72, 5657552.93], [408614.18, 5657548.92], [408613.58, 5657544.94]]]}}, {"type": "Feature", "properties": {"kind": "building", "z": 111.57, "h": 13.9}, "geometry": {"type": "Polygon", "coordinates": [[[408559.85, 5657468.71], [408558.49, 5657465.58], [408556.36, 5657462.91], [408553.61, 5657460.89], [408550.43, 5657459.63], [408547.03, 5657459.25], [408543.65, 5657459.75], [408540.52, 5657461.12], [408537.84, 5657463.24], [408535.81, 5657465.99], [408534.55, 5657469.16], [408534.17, 5657472.55], [408534.67, 5657475.92], [408536.04, 5657479.04], [408538.17, 5657481.71], [408540.92, 5657483.74], [408544.1, 5657484.98], [408547.49, 5657485.37], [408550.88, 5657484.86], [408554.01, 5657483.51], [408556.69, 5657481.38], [408558.72, 5657478.64], [408559.97, 5657475.47], [408560.36, 5657472.08], [408559.85, 5657468.71]]]}}, {"type": "Feature", "properties": {"kind": "building", "z": 111.53, "h": 14.1}, "geometry": {"type": "Polygon", "coordinates": [[[408542.55, 5657497.34], [408541.18, 5657494.21], [408539.05, 5657491.55], [408536.3, 5657489.51], [408533.12, 5657488.27], [408529.73, 5657487.89], [408526.34, 5657488.39], [408523.21, 5657489.75], [408520.54, 5657491.87], [408518.5, 5657494.61], [408517.25, 5657497.78], [408516.86, 5657501.17], [408517.37, 5657504.54], [408518.74, 5657507.67], [408520.87, 5657510.34], [408523.61, 5657512.36], [408526.79, 5657513.62], [408530.19, 5657514.01], [408533.57, 5657513.5], [408536.7, 5657512.13], [408539.38, 5657510.02], [408541.41, 5657507.27], [408542.67, 5657504.1], [408543.05, 5657500.71], [408542.55, 5657497.34]]]}}, {"type": "Feature", "properties": {"kind": "building", "z": 111.21, "h": 3.3}, "geometry": {"type": "Polygon", "coordinates": [[[408918.32, 5657853.83], [408926.76, 5657857.56], [408923.47, 5657864.98], [408912.9, 5657860.31], [408913.89, 5657858.08], [408916.02, 5657859.01], [408918.32, 5657853.83]]]}}, {"type": "Feature", "properties": {"kind": "building", "z": 110.21, "h": 4.1}, "geometry": {"type": "Polygon", "coordinates": [[[409574.48, 5657902.86], [409574.69, 5657908.94], [409581.27, 5657908.72], [409581.06, 5657902.63], [409574.48, 5657902.86]]]}}, {"type": "Feature", "properties": {"kind": "building", "z": 112.37, "h": 7.2}, "geometry": {"type": "Polygon", "coordinates": [[[408690.18, 5657623.96], [408686.88, 5657623.14], [408684.02, 5657621.31], [408681.9, 5657618.66], [408680.75, 5657615.47], [408680.71, 5657612.02], [408681.79, 5657608.73], [408683.9, 5657605.99], [408686.79, 5657604.09], [408690.15, 5657603.23], [408693.59, 5657603.51], [408696.77, 5657604.92], [408699.3, 5657607.27], [408700.91, 5657610.33], [408701.44, 5657613.74], [408700.84, 5657617.08], [408699.19, 5657620.04], [408696.68, 5657622.32], [408693.56, 5657623.68], [408690.18, 5657623.96]]]}}, {"type": "Feature", "properties": {"kind": "building", "z": 110.35, "h": 13.2}, "geometry": {"type": "Polygon", "coordinates": [[[408979.43, 5657745.96], [408998.77, 5657744.77], [408998.99, 5657746.83], [409005.94, 5657746.34], [409006.44, 5657753.36], [409011.23, 5657753.09], [409010.78, 5657748.88], [409016.88, 5657748.58], [409016.69, 5657758.61], [409032.83, 5657757.2], [409032.48, 5657753.65], [409038.31, 5657753.16], [409038.42, 5657754.66], [409048.85, 5657753.92], [409048.69, 5657750.46], [409033.67, 5657751.76], [409024.62, 5657739.62], [409004.25, 5657741.12], [409004.11, 5657738.77], [409000.55, 5657739.03], [409000.04, 5657731.63], [408995.07, 5657731.99], [408995.41, 5657740.71], [408979.07, 5657741.74], [408979.43, 5657745.96]]]}}, {"type": "Feature", "properties": {"kind": "building", "z": 110.3, "h": 2.8}, "geometry": {"type": "Polygon", "coordinates": [[[408954.42, 5657763.01], [408960.05, 5657762.68], [408959.58, 5657754.81], [408953.95, 5657755.14], [408954.42, 5657763.01]]]}}, {"type": "Feature", "properties": {"kind": "building", "z": 113.21, "h": 6.0}, "geometry": {"type": "Polygon", "coordinates": [[[407986.42, 5657401.55], [407984.06, 5657418.82], [408026.03, 5657424.51], [408028.39, 5657407.24], [407986.42, 5657401.55]]]}}, {"type": "Feature", "properties": {"kind": "building", "z": 113.38, "h": 6.1}, "geometry": {"type": "Polygon", "coordinates": [[[407989.78, 5657378.16], [408029.78, 5657383.03], [408032.01, 5657364.77], [407992.01, 5657359.91], [407989.78, 5657378.16]]]}}, {"type": "Feature", "properties": {"kind": "building", "z": 112.7, "h": 20.1}, "geometry": {"type": "Polygon", "coordinates": [[[409983.8, 5656893.1], [409976.36, 5656879.84], [409934.8, 5656902.58], [409942.93, 5656917.88], [409953.07, 5656912.4], [409951.83, 5656910.0], [409983.8, 5656893.1]]]}}, {"type": "Feature", "properties": {"kind": "building", "z": 114.17, "h": 19.0}, "geometry": {"type": "Polygon", "coordinates": [[[409929.8, 5656311.88], [409957.79, 5656281.96], [409948.27, 5656273.11], [409931.0, 5656291.57], [409901.4, 5656264.04], [409892.76, 5656273.29], [409922.35, 5656300.82], [409920.29, 5656303.02], [409929.8, 5656311.88]]]}}, {"type": "Feature", "properties": {"kind": "building", "z": 114.39, "h": 6.6}, "geometry": {"type": "Polygon", "coordinates": [[[409253.93, 5657083.78], [409256.42, 5657095.75], [409262.62, 5657094.46], [409260.11, 5657082.44], [409253.93, 5657083.78]]]}}, {"type": "Feature", "properties": {"kind": "building", "z": 112.97, "h": 4.7}, "geometry": {"type": "Polygon", "coordinates": [[[409370.16, 5657429.09], [409394.6, 5657428.02], [409394.03, 5657415.05], [409369.59, 5657416.12], [409370.16, 5657429.09]]]}}, {"type": "Feature", "properties": {"kind": "building", "z": 113.05, "h": 4.7}, "geometry": {"type": "Polygon", "coordinates": [[[409368.07, 5657406.63], [409392.44, 5657405.73], [409391.97, 5657392.92], [409367.6, 5657393.83], [409368.07, 5657406.63]]]}}, {"type": "Feature", "properties": {"kind": "building", "z": 112.97, "h": 4.7}, "geometry": {"type": "Polygon", "coordinates": [[[409366.92, 5657383.74], [409391.37, 5657382.89], [409390.93, 5657370.24], [409366.48, 5657371.1], [409366.92, 5657383.74]]]}}, {"type": "Feature", "properties": {"kind": "building", "z": 113.0, "h": 4.7}, "geometry": {"type": "Polygon", "coordinates": [[[409366.46, 5657365.45], [409390.34, 5657364.56], [409389.84, 5657351.26], [409365.96, 5657352.15], [409366.46, 5657365.45]]]}}, {"type": "Feature", "properties": {"kind": "building", "z": 112.98, "h": 4.7}, "geometry": {"type": "Polygon", "coordinates": [[[409365.94, 5657346.05], [409389.73, 5657345.35], [409389.37, 5657332.97], [409365.58, 5657333.65], [409365.94, 5657346.05]]]}}, {"type": "Feature", "properties": {"kind": "building", "z": 112.88, "h": 4.7}, "geometry": {"type": "Polygon", "coordinates": [[[409366.16, 5657327.36], [409390.21, 5657326.56], [409389.78, 5657313.93], [409365.74, 5657314.72], [409366.16, 5657327.36]]]}}, {"type": "Feature", "properties": {"kind": "building", "z": 112.44, "h": 4.7, "name": "Asylbewerber Erstaufnahmeeinrichtung"}, "geometry": {"type": "Polygon", "coordinates": [[[409324.55, 5657447.81], [409348.63, 5657448.72], [409349.13, 5657435.59], [409325.06, 5657434.67], [409324.55, 5657447.81]]]}}, {"type": "Feature", "properties": {"kind": "building", "z": 113.37, "h": 4.7}, "geometry": {"type": "Polygon", "coordinates": [[[409321.91, 5657409.13], [409345.68, 5657410.14], [409346.2, 5657397.72], [409322.44, 5657396.72], [409321.91, 5657409.13]]]}}, {"type": "Feature", "properties": {"kind": "building", "z": 113.54, "h": 4.8}, "geometry": {"type": "Polygon", "coordinates": [[[409322.73, 5657386.93], [409346.98, 5657387.54], [409347.31, 5657374.31], [409323.06, 5657373.71], [409322.73, 5657386.93]]]}}, {"type": "Feature", "properties": {"kind": "building", "z": 113.87, "h": 4.8}, "geometry": {"type": "Polygon", "coordinates": [[[409323.65, 5657368.39], [409347.91, 5657368.77], [409348.1, 5657356.28], [409323.85, 5657355.91], [409323.65, 5657368.39]]]}}, {"type": "Feature", "properties": {"kind": "building", "z": 114.08, "h": 4.7}, "geometry": {"type": "Polygon", "coordinates": [[[409323.5, 5657349.26], [409347.28, 5657349.52], [409347.41, 5657336.95], [409323.64, 5657336.7], [409323.5, 5657349.26]]]}}, {"type": "Feature", "properties": {"kind": "building", "z": 114.16, "h": 4.7}, "geometry": {"type": "Polygon", "coordinates": [[[409324.25, 5657330.82], [409348.47, 5657331.54], [409348.86, 5657318.35], [409324.64, 5657317.63], [409324.25, 5657330.82]]]}}, {"type": "Feature", "properties": {"kind": "building", "z": 110.63, "h": 13.2}, "geometry": {"type": "Polygon", "coordinates": [[[408722.08, 5657566.65], [408724.25, 5657566.74], [408726.32, 5657566.12], [408728.07, 5657564.85], [408729.3, 5657563.06], [408729.87, 5657560.98], [408729.71, 5657558.83], [408728.89, 5657556.91], [408727.51, 5657555.35], [408725.7, 5657554.33], [408723.65, 5657553.92], [408721.58, 5657554.19], [408719.71, 5657555.11], [408718.22, 5657556.57], [408717.29, 5657558.43], [408716.99, 5657560.49], [408717.37, 5657562.54], [408718.44, 5657564.42], [408720.07, 5657565.84], [408722.08, 5657566.65]]]}}, {"type": "Feature", "properties": {"kind": "building", "z": 111.37, "h": 3.1}, "geometry": {"type": "Polygon", "coordinates": [[[408754.78, 5657501.09], [408758.22, 5657501.34], [408759.34, 5657486.09], [408755.89, 5657485.84], [408754.78, 5657501.09]]]}}, {"type": "Feature", "properties": {"kind": "building", "z": 111.45, "h": 3.1}, "geometry": {"type": "Polygon", "coordinates": [[[408759.04, 5657501.6], [408762.06, 5657501.85], [408763.38, 5657486.41], [408760.35, 5657486.15], [408759.04, 5657501.6]]]}}, {"type": "Feature", "properties": {"kind": "building", "z": 116.67, "h": 11.6}, "geometry": {"type": "Polygon", "coordinates": [[[409027.7, 5656583.15], [409053.5, 5656575.69], [409035.29, 5656513.09], [409009.51, 5656520.55], [409027.7, 5656583.15]]]}}, {"type": "Feature", "properties": {"kind": "building", "z": 130.09, "h": 15.5, "name": "L\u00f6btauer G\u00e4rten"}, "geometry": {"type": "Polygon", "coordinates": [[[408542.98, 5656007.02], [408547.12, 5655988.79], [408565.76, 5655993.0], [408561.63, 5656011.24], [408542.98, 5656007.02]]]}}, {"type": "Feature", "properties": {"kind": "building", "z": 130.86, "h": 15.4, "name": "L\u00f6btauer G\u00e4rten"}, "geometry": {"type": "Polygon", "coordinates": [[[408537.54, 5656032.42], [408541.76, 5656014.07], [408559.84, 5656018.2], [408555.62, 5656036.56], [408537.54, 5656032.42]]]}}, {"type": "Feature", "properties": {"kind": "building", "z": 130.86, "h": 15.5, "name": "L\u00f6btauer G\u00e4rten"}, "geometry": {"type": "Polygon", "coordinates": [[[408529.02, 5656068.57], [408535.46, 5656042.27], [408551.9, 5656046.04], [408549.87, 5656053.68], [408562.89, 5656053.94], [408558.16, 5656069.1], [408529.02, 5656068.57]]]}}, {"type": "Feature", "properties": {"kind": "building", "z": 132.44, "h": 3.5}, "geometry": {"type": "Polygon", "coordinates": [[[408367.68, 5656047.73], [408369.76, 5656043.98], [408380.35, 5656049.97], [408377.94, 5656053.8], [408367.68, 5656047.73]]]}}, {"type": "Feature", "properties": {"kind": "building", "z": 110.44, "h": 17.6, "name": "M\u00f6max"}, "geometry": {"type": "Polygon", "coordinates": [[[408411.66, 5657464.05], [408323.92, 5657488.77], [408339.81, 5657542.01], [408427.47, 5657518.14], [408411.66, 5657464.05]]]}}, {"type": "Feature", "properties": {"kind": "building", "z": 112.89, "h": 12.3}, "geometry": {"type": "Polygon", "coordinates": [[[409667.45, 5657339.49], [409675.84, 5657356.62], [409690.35, 5657349.44], [409691.9, 5657352.38], [409712.19, 5657342.13], [409700.12, 5657319.32], [409680.32, 5657327.85], [409678.36, 5657323.56], [409669.71, 5657328.14], [409673.37, 5657337.09], [409667.45, 5657339.49]]]}}, {"type": "Feature", "properties": {"kind": "building", "z": 112.96, "h": 21.8}, "geometry": {"type": "Polygon", "coordinates": [[[409922.57, 5656802.06], [409884.56, 5656822.1], [409891.54, 5656835.27], [409929.55, 5656815.22], [409922.57, 5656802.06]]]}}, {"type": "Feature", "properties": {"kind": "building", "z": 112.78, "h": 17.3}, "geometry": {"type": "Polygon", "coordinates": [[[409530.89, 5657176.03], [409528.88, 5657163.98], [409531.45, 5657163.56], [409529.98, 5657154.8], [409526.77, 5657155.33], [409526.53, 5657153.92], [409523.36, 5657154.45], [409523.57, 5657155.69], [409519.83, 5657156.31], [409520.32, 5657159.23], [409515.25, 5657160.06], [409515.91, 5657164.02], [409520.98, 5657163.19], [409521.35, 5657165.37], [409525.24, 5657164.72], [409525.53, 5657166.47], [409525.02, 5657166.54], [409525.75, 5657170.94], [409524.75, 5657171.12], [409525.72, 5657176.88], [409530.89, 5657176.03]]]}}, {"type": "Feature", "properties": {"kind": "building", "z": 112.49, "h": 20.7}, "geometry": {"type": "Polygon", "coordinates": [[[409970.83, 5656899.7], [409980.17, 5656917.1], [409993.38, 5656910.15], [409983.8, 5656893.1], [409970.83, 5656899.7]]]}}, {"type": "Feature", "properties": {"kind": "building", "z": 123.76, "h": 15.7}, "geometry": {"type": "Polygon", "coordinates": [[[408452.39, 5656331.25], [408456.25, 5656314.19], [408439.65, 5656310.46], [408437.22, 5656321.21], [408440.65, 5656321.99], [408439.94, 5656325.15], [408445.92, 5656326.49], [408445.21, 5656329.64], [408452.39, 5656331.25]]]}}, {"type": "Feature", "properties": {"kind": "building", "z": 128.22, "h": 14.6}, "geometry": {"type": "Polygon", "coordinates": [[[408281.3, 5656164.14], [408301.42, 5656166.76], [408304.47, 5656143.59], [408290.9, 5656141.82], [408289.9, 5656149.5], [408283.33, 5656148.65], [408281.3, 5656164.14]]]}}, {"type": "Feature", "properties": {"kind": "building", "z": 124.53, "h": 3.6}, "geometry": {"type": "Polygon", "coordinates": [[[408400.09, 5656324.06], [408399.44, 5656329.76], [408413.21, 5656330.11], [408416.5, 5656333.47], [408419.67, 5656330.28], [408422.01, 5656330.31], [408422.2, 5656324.46], [408400.09, 5656324.06]]]}}, {"type": "Feature", "properties": {"kind": "building", "z": 112.54, "h": 7.0}, "geometry": {"type": "Polygon", "coordinates": [[[409549.21, 5657158.2], [409555.15, 5657155.53], [409557.07, 5657159.79], [409570.35, 5657163.34], [409575.54, 5657161.42], [409577.8, 5657167.46], [409570.55, 5657170.16], [409552.56, 5657165.66], [409549.21, 5657158.2]]]}}, {"type": "Feature", "properties": {"kind": "building", "z": 113.04, "h": 10.3}, "geometry": {"type": "Polygon", "coordinates": [[[409603.97, 5657157.54], [409613.71, 5657152.67], [409594.6, 5657114.61], [409584.85, 5657119.49], [409603.97, 5657157.54]]]}}, {"type": "Feature", "properties": {"kind": "building", "z": 111.31, "h": 3.1}, "geometry": {"type": "Polygon", "coordinates": [[[409025.09, 5657534.78], [409025.68, 5657528.65], [409034.74, 5657529.49], [409034.14, 5657535.62], [409025.09, 5657534.78]]]}}, {"type": "Feature", "properties": {"kind": "building", "z": 111.22, "h": 4.3}, "geometry": {"type": "Polygon", "coordinates": [[[409540.96, 5657541.3], [409538.83, 5657541.42], [409538.89, 5657542.57], [409537.83, 5657542.63], [409538.13, 5657547.79], [409534.92, 5657547.96], [409534.62, 5657542.8], [409533.33, 5657542.88], [409533.01, 5657537.42], [409538.32, 5657537.1], [409538.39, 5657538.44], [409540.74, 5657538.3], [409540.96, 5657541.3]]]}}, {"type": "Feature", "properties": {"kind": "building", "z": 113.28, "h": 10.4}, "geometry": {"type": "Polygon", "coordinates": [[[409029.22, 5657156.13], [409025.58, 5657139.0], [409010.51, 5657142.18], [409014.15, 5657159.33], [409029.22, 5657156.13]]]}}, {"type": "Feature", "properties": {"kind": "building", "z": 112.17, "h": 7.9}, "geometry": {"type": "Polygon", "coordinates": [[[409100.92, 5657140.17], [409091.27, 5657096.97], [409061.42, 5657103.6], [409064.83, 5657118.88], [409080.39, 5657115.42], [409086.62, 5657143.34], [409100.92, 5657140.17]]]}}, {"type": "Feature", "properties": {"kind": "building", "z": 110.52, "h": 10.4}, "geometry": {"type": "Polygon", "coordinates": [[[410014.59, 5657393.14], [410011.58, 5657387.41], [409966.11, 5657411.06], [409959.64, 5657398.68], [410017.78, 5657368.42], [410027.26, 5657386.55], [410014.59, 5657393.14]]]}}, {"type": "Feature", "properties": {"kind": "building", "z": 112.94, "h": 21.7}, "geometry": {"type": "Polygon", "coordinates": [[[409884.56, 5656822.1], [409867.21, 5656831.25], [409873.4, 5656842.92], [409890.75, 5656833.77], [409884.56, 5656822.1]]]}}, {"type": "Feature", "properties": {"kind": "building", "z": 117.86, "h": 12.6}, "geometry": {"type": "Polygon", "coordinates": [[[409277.74, 5656228.97], [409285.17, 5656209.6], [409327.87, 5656225.86], [409320.44, 5656245.26], [409277.74, 5656228.97]]]}}, {"type": "Feature", "properties": {"kind": "building", "z": 117.95, "h": 12.6}, "geometry": {"type": "Polygon", "coordinates": [[[409288.95, 5656206.0], [409291.43, 5656183.67], [409336.3, 5656188.61], [409333.81, 5656210.94], [409288.95, 5656206.0]]]}}, {"type": "Feature", "properties": {"kind": "building", "z": 113.71, "h": 3.1}, "geometry": {"type": "Polygon", "coordinates": [[[409169.44, 5657241.7], [409193.95, 5657236.37], [409195.62, 5657244.02], [409171.04, 5657249.34], [409169.44, 5657241.7]]]}}, {"type": "Feature", "properties": {"kind": "relief", "z": 156.81, "h": 2.55, "of": "DESNATPU1000HoeQ"}, "geometry": {"type": "Polygon", "coordinates": [[[409681.0, 5657595.0], [409686.0, 5657595.0], [409686.0, 5657594.0], [409697.0, 5657594.0], [409697.0, 5657589.0], [409698.0, 5657589.0], [409698.0, 5657587.0], [409697.0, 5657587.0], [409697.0, 5657581.0], [409696.0, 5657581.0], [409696.0, 5657580.0], [409693.0, 5657580.0], [409693.0, 5657581.0], [409680.0, 5657581.0], [409680.0, 5657587.0], [409681.0, 5657587.0], [409681.0, 5657588.0], [409680.0, 5657588.0], [409680.0, 5657594.0], [409681.0, 5657594.0], [409681.0, 5657595.0]]]}}, {"type": "Feature", "properties": {"kind": "relief", "z": 159.36, "h": 2.55, "of": "DESNATPU1000HoeQ"}, "geometry": {"type": "Polygon", "coordinates": [[[409684.0, 5657595.0], [409686.0, 5657595.0], [409686.0, 5657594.0], [409694.0, 5657594.0], [409694.0, 5657593.0], [409697.0, 5657593.0], [409697.0, 5657588.0], [409698.0, 5657588.0], [409698.0, 5657587.0], [409697.0, 5657587.0], [409697.0, 5657582.0], [409696.0, 5657582.0], [409696.0, 5657580.0], [409694.0, 5657580.0], [409694.0, 5657581.0], [409684.0, 5657581.0], [409684.0, 5657582.0], [409680.0, 5657582.0], [409680.0, 5657587.0], [409681.0, 5657587.0], [409681.0, 5657591.0], [409680.0, 5657591.0], [409680.0, 5657592.0], [409681.0, 5657592.0], [409681.0, 5657594.0], [409684.0, 5657594.0], [409684.0, 5657595.0]]]}}, {"type": "Feature", "properties": {"kind": "relief", "z": 161.9, "h": 2.55, "of": "DESNATPU1000HoeQ"}, "geometry": {"type": "Polygon", "coordinates": [[[409681.0, 5657594.0], [409692.0, 5657594.0], [409692.0, 5657593.0], [409693.0, 5657593.0], [409693.0, 5657594.0], [409694.0, 5657594.0], [409694.0, 5657593.0], [409697.0, 5657593.0], [409697.0, 5657588.0], [409698.0, 5657588.0], [409698.0, 5657587.0], [409697.0, 5657587.0], [409697.0, 5657583.0], [409696.0, 5657583.0], [409696.0, 5657581.0], [409685.0, 5657581.0], [409685.0, 5657582.0], [409680.0, 5657582.0], [409680.0, 5657587.0], [409681.0, 5657587.0], [409681.0, 5657594.0]]]}}, {"type": "Feature", "properties": {"kind": "relief", "z": 164.45, "h": 2.55, "of": "DESNATPU1000HoeQ"}, "geometry": {"type": "Polygon", "coordinates": [[[409681.0, 5657594.0], [409684.0, 5657594.0], [409684.0, 5657593.0], [409693.0, 5657593.0], [409693.0, 5657592.0], [409694.0, 5657592.0], [409694.0, 5657593.0], [409697.0, 5657593.0], [409697.0, 5657592.0], [409696.0, 5657592.0], [409696.0, 5657589.0], [409698.0, 5657588.0], [409698.0, 5657587.0], [409696.0, 5657586.0], [409696.0, 5657583.0], [409695.0, 5657583.0], [409695.0, 5657582.0], [409681.0, 5657582.0], [409681.0, 5657594.0]]]}}, {"type": "Feature", "properties": {"kind": "relief", "z": 167.0, "h": 2.55, "of": "DESNATPU1000HoeQ"}, "geometry": {"type": "Polygon", "coordinates": [[[409682.0, 5657593.0], [409691.0, 5657593.0], [409691.0, 5657592.0], [409696.0, 5657592.0], [409696.0, 5657585.0], [409695.0, 5657585.0], [409695.0, 5657582.0], [409690.0, 5657582.0], [409690.0, 5657583.0], [409681.0, 5657583.0], [409681.0, 5657587.0], [409682.0, 5657587.0], [409682.0, 5657593.0]]]}}, {"type": "Feature", "properties": {"kind": "relief", "z": 169.54, "h": 2.55, "of": "DESNATPU1000HoeQ"}, "geometry": {"type": "Polygon", "coordinates": [[[409683.0, 5657592.0], [409689.0, 5657592.0], [409689.0, 5657591.0], [409690.0, 5657591.0], [409690.0, 5657592.0], [409691.0, 5657592.0], [409691.0, 5657591.0], [409695.0, 5657591.0], [409695.0, 5657584.0], [409694.0, 5657584.0], [409694.0, 5657583.0], [409691.0, 5657583.0], [409691.0, 5657584.0], [409682.0, 5657584.0], [409682.0, 5657585.0], [409683.0, 5657585.0], [409683.0, 5657592.0]]]}}, {"type": "Feature", "properties": {"kind": "relief", "z": 172.09, "h": 2.55, "of": "DESNATPU1000HoeQ"}, "geometry": {"type": "Polygon", "coordinates": [[[409684.0, 5657590.0], [409693.0, 5657590.0], [409693.0, 5657585.0], [409687.0, 5657585.0], [409687.0, 5657586.0], [409684.0, 5657586.0], [409684.0, 5657590.0]]]}}, {"type": "Feature", "properties": {"kind": "relief", "z": 120.86, "h": 2.0, "of": "UUID_1179ed69-624a-4839-9ea4-a3122f7081a6"}, "geometry": {"type": "Polygon", "coordinates": [[[409784.0, 5657307.0], [409786.0, 5657307.0], [409787.0, 5657305.0], [409790.0, 5657305.0], [409790.0, 5657306.0], [409792.0, 5657306.0], [409792.0, 5657307.0], [409793.0, 5657307.0], [409793.0, 5657306.0], [409794.0, 5657306.0], [409794.0, 5657302.0], [409795.0, 5657302.0], [409795.0, 5657301.0], [409797.0, 5657301.0], [409798.0, 5657299.0], [409800.0, 5657299.0], [409800.0, 5657298.0], [409801.0, 5657298.0], [409801.0, 5657299.0], [409803.0, 5657299.0], [409804.0, 5657301.0], [409805.0, 5657301.0], [409805.0, 5657300.0], [409806.0, 5657300.0], [409806.0, 5657296.0], [409808.0, 5657295.0], [409808.0, 5657294.0], [409810.0, 5657294.0], [409810.0, 5657293.0], [409812.0, 5657293.0], [409812.0, 5657292.0], [409814.0, 5657292.0], [409815.0, 5657294.0], [409818.0, 5657294.0], [409818.0, 5657289.0], [409819.0, 5657289.0], [409819.0, 5657288.0], [409821.0, 5657288.0], [409821.0, 5657287.0], [409823.0, 5657287.0], [409823.0, 5657286.0], [409826.0, 5657286.0], [409827.0, 5657288.0], [409829.0, 5657288.0], [409829.0, 5657287.0], [409830.0, 5657287.0], [409830.0, 5657283.0], [409832.0, 5657282.0], [409832.0, 5657281.0], [409834.0, 5657281.0], [409834.0, 5657280.0], [409836.0, 5657280.0], [409836.0, 5657279.0], [409835.0, 5657279.0], [409835.0, 5657277.0], [409834.0, 5657277.0], [409834.0, 5657275.0], [409833.0, 5657275.0], [409833.0, 5657273.0], [409832.0, 5657273.0], [409832.0, 5657271.0], [409830.0, 5657270.0], [409829.0, 5657266.0], [409828.0, 5657266.0], [409828.0, 5657264.0], [409827.0, 5657264.0], [409827.0, 5657262.0], [409823.0, 5657263.0], [409822.0, 5657265.0], [409819.0, 5657265.0], [409818.0, 5657263.0], [409816.0, 5657263.0], [409816.0, 5657264.0], [409815.0, 5657264.0], [409815.0, 5657268.0], [409814.0, 5657268.0], [409814.0, 5657269.0], [409812.0, 5657269.0], [409812.0, 5657270.0], [409810.0, 5657270.0], [409810.0, 5657271.0], [409807.0, 5657271.0], [409806.0, 5657269.0], [409804.0, 5657269.0], [409804.0, 5657270.0], [409803.0, 5657270.0], [409803.0, 5657274.0], [409801.0, 5657275.0], [409801.0, 5657276.0], [409799.0, 5657276.0], [409799.0, 5657277.0], [409795.0, 5657277.0], [409795.0, 5657276.0], [409792.0, 5657276.0], [409792.0, 5657278.0], [409791.0, 5657278.0], [409791.0, 5657279.0], [409792.0, 5657279.0], [409792.0, 5657280.0], [409790.0, 5657281.0], [409790.0, 5657282.0], [409788.0, 5657282.0], [409788.0, 5657283.0], [409786.0, 5657283.0], [409786.0, 5657284.0], [409782.0, 5657283.0], [409782.0, 5657282.0], [409780.0, 5657282.0], [409780.0, 5657283.0], [409779.0, 5657283.0], [409779.0, 5657285.0], [409780.0, 5657285.0], [409780.0, 5657286.0], [409778.0, 5657287.0], [409778.0, 5657288.0], [409777.0, 5657288.0], [409777.0, 5657289.0], [409776.0, 5657289.0], [409776.0, 5657291.0], [409777.0, 5657291.0], [409777.0, 5657293.0], [409778.0, 5657293.0], [409778.0, 5657295.0], [409779.0, 5657295.0], [409779.0, 5657297.0], [409780.0, 5657297.0], [409780.0, 5657299.0], [409781.0, 5657299.0], [409781.0, 5657301.0], [409782.0, 5657301.0], [409782.0, 5657303.0], [409783.0, 5657303.0], [409783.0, 5657305.0], [409784.0, 5657305.0], [409784.0, 5657307.0]]]}}, {"type": "Feature", "properties": {"kind": "relief", "z": 122.86, "h": 2.0, "of": "UUID_1179ed69-624a-4839-9ea4-a3122f7081a6"}, "geometry": {"type": "Polygon", "coordinates": [[[409791.0, 5657304.0], [409792.0, 5657304.0], [409792.0, 5657298.0], [409791.0, 5657298.0], [409791.0, 5657296.0], [409793.0, 5657295.0], [409793.0, 5657294.0], [409795.0, 5657294.0], [409795.0, 5657293.0], [409797.0, 5657293.0], [409797.0, 5657292.0], [409798.0, 5657292.0], [409799.0, 5657294.0], [409800.0, 5657294.0], [409800.0, 5657295.0], [409801.0, 5657295.0], [409801.0, 5657296.0], [409802.0, 5657296.0], [409802.0, 5657297.0], [409803.0, 5657297.0], [409803.0, 5657298.0], [409804.0, 5657298.0], [409804.0, 5657292.0], [409803.0, 5657292.0], [409803.0, 5657290.0], [409805.0, 5657289.0], [409805.0, 5657288.0], [409807.0, 5657288.0], [409807.0, 5657287.0], [409809.0, 5657287.0], [409809.0, 5657286.0], [409811.0, 5657287.0], [409811.0, 5657288.0], [409812.0, 5657288.0], [409812.0, 5657289.0], [409813.0, 5657289.0], [409813.0, 5657290.0], [409814.0, 5657290.0], [409814.0, 5657291.0], [409816.0, 5657291.0], [409816.0, 5657286.0], [409815.0, 5657286.0], [409815.0, 5657283.0], [409817.0, 5657282.0], [409817.0, 5657281.0], [409820.0, 5657281.0], [409820.0, 5657280.0], [409822.0, 5657280.0], [409823.0, 5657282.0], [409824.0, 5657282.0], [409824.0, 5657283.0], [409825.0, 5657283.0], [409825.0, 5657284.0], [409826.0, 5657284.0], [409826.0, 5657285.0], [409828.0, 5657285.0], [409828.0, 5657280.0], [409827.0, 5657280.0], [409827.0, 5657277.0], [409829.0, 5657276.0], [409829.0, 5657275.0], [409831.0, 5657275.0], [409831.0, 5657274.0], [409833.0, 5657274.0], [409833.0, 5657273.0], [409832.0, 5657273.0], [409832.0, 5657271.0], [409830.0, 5657270.0], [409830.0, 5657268.0], [409829.0, 5657268.0], [409829.0, 5657269.0], [409827.0, 5657269.0], [409827.0, 5657270.0], [409825.0, 5657270.0], [409825.0, 5657271.0], [409823.0, 5657271.0], [409822.0, 5657269.0], [409821.0, 5657269.0], [409821.0, 5657268.0], [409820.0, 5657268.0], [409820.0, 5657267.0], [409819.0, 5657267.0], [409819.0, 5657266.0], [409818.0, 5657266.0], [409818.0, 5657265.0], [409817.0, 5657265.0], [409817.0, 5657271.0], [409818.0, 5657271.0], [409818.0, 5657274.0], [409816.0, 5657275.0], [409816.0, 5657276.0], [409813.0, 5657276.0], [409813.0, 5657277.0], [409811.0, 5657277.0], [409810.0, 5657275.0], [409809.0, 5657275.0], [409809.0, 5657274.0], [409808.0, 5657274.0], [409808.0, 5657273.0], [409807.0, 5657273.0], [409807.0, 5657272.0], [409805.0, 5657272.0], [409806.0, 5657280.0], [409804.0, 5657281.0], [409804.0, 5657282.0], [409802.0, 5657282.0], [409802.0, 5657283.0], [409799.0, 5657283.0], [409798.0, 5657281.0], [409797.0, 5657281.0], [409797.0, 5657280.0], [409796.0, 5657280.0], [409796.0, 5657279.0], [409795.0, 5657279.0], [409795.0, 5657278.0], [409793.0, 5657278.0], [409793.0, 5657280.0], [409794.0, 5657280.0], [409794.0, 5657287.0], [409793.0, 5657287.0], [409793.0, 5657288.0], [409791.0, 5657288.0], [409791.0, 5657289.0], [409789.0, 5657289.0], [409789.0, 5657290.0], [409787.0, 5657289.0], [409787.0, 5657288.0], [409786.0, 5657288.0], [409786.0, 5657287.0], [409785.0, 5657287.0], [409785.0, 5657286.0], [409783.0, 5657286.0], [409782.0, 5657284.0], [409781.0, 5657284.0], [409781.0, 5657287.0], [409782.0, 5657287.0], [409782.0, 5657292.0], [409783.0, 5657292.0], [409783.0, 5657293.0], [409779.0, 5657295.0], [409779.0, 5657297.0], [409780.0, 5657297.0], [409780.0, 5657299.0], [409781.0, 5657299.0], [409781.0, 5657301.0], [409782.0, 5657301.0], [409782.0, 5657300.0], [409784.0, 5657300.0], [409784.0, 5657299.0], [409787.0, 5657299.0], [409787.0, 5657300.0], [409788.0, 5657300.0], [409788.0, 5657302.0], [409790.0, 5657302.0], [409791.0, 5657304.0]]]}}, {"type": "Feature", "properties": {"kind": "relief", "z": 124.86, "h": 2.0, "of": "UUID_1179ed69-624a-4839-9ea4-a3122f7081a6"}, "geometry": {"type": "Polygon", "coordinates": [[[409788.0, 5657298.0], [409789.0, 5657298.0], [409789.0, 5657296.0], [409788.0, 5657296.0], [409788.0, 5657294.0], [409787.0, 5657294.0], [409787.0, 5657292.0], [409785.0, 5657291.0], [409785.0, 5657293.0], [409786.0, 5657293.0], [409786.0, 5657295.0], [409787.0, 5657295.0], [409787.0, 5657297.0], [409788.0, 5657297.0], [409788.0, 5657298.0]]]}}, {"type": "Feature", "properties": {"kind": "relief", "z": 124.86, "h": 2.0, "of": "UUID_1179ed69-624a-4839-9ea4-a3122f7081a6"}, "geometry": {"type": "Polygon", "coordinates": [[[409800.0, 5657292.0], [409801.0, 5657292.0], [409801.0, 5657290.0], [409800.0, 5657290.0], [409800.0, 5657287.0], [409798.0, 5657286.0], [409798.0, 5657284.0], [409797.0, 5657284.0], [409797.0, 5657287.0], [409798.0, 5657287.0], [409798.0, 5657289.0], [409799.0, 5657289.0], [409799.0, 5657291.0], [409800.0, 5657291.0], [409800.0, 5657292.0]]]}}, {"type": "Feature", "properties": {"kind": "relief", "z": 124.86, "h": 2.0, "of": "UUID_1179ed69-624a-4839-9ea4-a3122f7081a6"}, "geometry": {"type": "Polygon", "coordinates": [[[409812.0, 5657286.0], [409813.0, 5657286.0], [409813.0, 5657284.0], [409812.0, 5657284.0], [409812.0, 5657281.0], [409810.0, 5657280.0], [409810.0, 5657278.0], [409809.0, 5657278.0], [409809.0, 5657277.0], [409808.0, 5657277.0], [409808.0, 5657279.0], [409809.0, 5657279.0], [409809.0, 5657281.0], [409810.0, 5657281.0], [409810.0, 5657283.0], [409811.0, 5657283.0], [409811.0, 5657285.0], [409812.0, 5657285.0], [409812.0, 5657286.0]]]}}, {"type": "Feature", "properties": {"kind": "relief", "z": 124.86, "h": 2.0, "of": "UUID_1179ed69-624a-4839-9ea4-a3122f7081a6"}, "geometry": {"type": "Polygon", "coordinates": [[[409823.0, 5657278.0], [409824.0, 5657278.0], [409824.0, 5657275.0], [409822.0, 5657274.0], [409822.0, 5657272.0], [409821.0, 5657272.0], [409821.0, 5657271.0], [409820.0, 5657271.0], [409820.0, 5657273.0], [409821.0, 5657273.0], [409821.0, 5657275.0], [409822.0, 5657275.0], [409822.0, 5657277.0], [409823.0, 5657277.0], [409823.0, 5657278.0]]]}}, {"type": "Feature", "properties": {"kind": "relief", "z": 121.79, "h": 2.0, "of": "UUID_c6c42177-df18-4414-a98d-308667f29611"}, "geometry": {"type": "Polygon", "coordinates": [[[408990.0, 5656593.0], [408993.0, 5656593.0], [408993.0, 5656590.0], [408992.0, 5656590.0], [408992.0, 5656588.0], [408991.0, 5656588.0], [408991.0, 5656584.0], [408990.0, 5656584.0], [408990.0, 5656581.0], [408989.0, 5656581.0], [408989.0, 5656577.0], [408988.0, 5656577.0], [408988.0, 5656573.0], [408987.0, 5656573.0], [408987.0, 5656571.0], [408986.0, 5656571.0], [408986.0, 5656566.0], [408985.0, 5656566.0], [408985.0, 5656564.0], [408984.0, 5656564.0], [408984.0, 5656561.0], [408982.0, 5656560.0], [408982.0, 5656561.0], [408981.0, 5656561.0], [408981.0, 5656563.0], [408982.0, 5656563.0], [408982.0, 5656567.0], [408983.0, 5656567.0], [408983.0, 5656570.0], [408984.0, 5656570.0], [408984.0, 5656574.0], [408985.0, 5656574.0], [408985.0, 5656577.0], [408986.0, 5656577.0], [408986.0, 5656581.0], [408987.0, 5656581.0], [408987.0, 5656584.0], [408988.0, 5656584.0], [408988.0, 5656588.0], [408989.0, 5656588.0], [408989.0, 5656591.0], [408990.0, 5656591.0], [408990.0, 5656593.0]]]}}, {"type": "Feature", "properties": {"kind": "relief", "z": 123.79, "h": 2.0, "of": "UUID_c6c42177-df18-4414-a98d-308667f29611"}, "geometry": {"type": "Polygon", "coordinates": [[[408990.0, 5656593.0], [408993.0, 5656593.0], [408993.0, 5656591.0], [408992.0, 5656591.0], [408992.0, 5656589.0], [408991.0, 5656589.0], [408991.0, 5656584.0], [408990.0, 5656584.0], [408990.0, 5656581.0], [408989.0, 5656581.0], [408989.0, 5656577.0], [408988.0, 5656577.0], [408988.0, 5656574.0], [408987.0, 5656574.0], [408987.0, 5656571.0], [408986.0, 5656571.0], [408986.0, 5656569.0], [408985.0, 5656569.0], [408985.0, 5656565.0], [408984.0, 5656565.0], [408984.0, 5656562.0], [408983.0, 5656562.0], [408983.0, 5656560.0], [408982.0, 5656560.0], [408982.0, 5656561.0], [408981.0, 5656561.0], [408981.0, 5656563.0], [408982.0, 5656563.0], [408982.0, 5656567.0], [408983.0, 5656567.0], [408983.0, 5656570.0], [408984.0, 5656570.0], [408984.0, 5656574.0], [408985.0, 5656574.0], [408985.0, 5656577.0], [408986.0, 5656577.0], [408986.0, 5656581.0], [408987.0, 5656581.0], [408987.0, 5656584.0], [408988.0, 5656584.0], [408988.0, 5656588.0], [408989.0, 5656588.0], [408989.0, 5656591.0], [408990.0, 5656591.0], [408990.0, 5656593.0]]]}}, {"type": "Feature", "properties": {"kind": "relief", "z": 125.79, "h": 2.0, "of": "UUID_c6c42177-df18-4414-a98d-308667f29611"}, "geometry": {"type": "Polygon", "coordinates": [[[408990.0, 5656593.0], [408992.0, 5656593.0], [408992.0, 5656589.0], [408991.0, 5656589.0], [408991.0, 5656586.0], [408990.0, 5656586.0], [408990.0, 5656583.0], [408989.0, 5656583.0], [408989.0, 5656579.0], [408988.0, 5656579.0], [408988.0, 5656576.0], [408987.0, 5656576.0], [408987.0, 5656573.0], [408986.0, 5656573.0], [408986.0, 5656569.0], [408985.0, 5656569.0], [408985.0, 5656565.0], [408984.0, 5656565.0], [408984.0, 5656562.0], [408983.0, 5656562.0], [408983.0, 5656560.0], [408982.0, 5656560.0], [408982.0, 5656561.0], [408981.0, 5656561.0], [408981.0, 5656563.0], [408982.0, 5656563.0], [408982.0, 5656567.0], [408983.0, 5656567.0], [408983.0, 5656570.0], [408984.0, 5656570.0], [408984.0, 5656574.0], [408985.0, 5656574.0], [408985.0, 5656577.0], [408986.0, 5656577.0], [408986.0, 5656581.0], [408987.0, 5656581.0], [408987.0, 5656584.0], [408988.0, 5656584.0], [408988.0, 5656588.0], [408989.0, 5656588.0], [408989.0, 5656591.0], [408990.0, 5656591.0], [408990.0, 5656593.0]]]}}]}