{"type": "FeatureCollection", "attribution": "\u00a9 OpenStreetMap contributors (ODbL)", "crs": {"type": "name", "properties": {"name": "urn:ogc:def:crs:EPSG::25833"}}, "features": [{"type": "Feature", "properties": {"kind": "mast", "z": 124.87, "h": 9.3, "r": 1.26, "rt": 0.44}, "geometry": {"type": "Point", "coordinates": [414347.5, 5658013.5]}}, {"type": "Feature", "properties": {"kind": "building", "z": 142.76, "h": 14.0}, "geometry": {"type": "Polygon", "coordinates": [[[414381.45, 5659048.37], [414373.47, 5659041.72], [414382.01, 5659031.52], [414389.99, 5659038.18], [414381.45, 5659048.37]]]}}, {"type": "Feature", "properties": {"kind": "building", "z": 135.1, "h": 3.5}, "geometry": {"type": "Polygon", "coordinates": [[[414361.38, 5658225.61], [414348.86, 5658228.67], [414348.55, 5658235.09], [414357.76, 5658237.9], [414357.3, 5658239.76], [414343.95, 5658235.73], [414344.69, 5658222.61], [414359.94, 5658219.15], [414361.38, 5658225.61]]]}}, {"type": "Feature", "properties": {"kind": "building", "z": 141.0, "h": 14.2}, "geometry": {"type": "Polygon", "coordinates": [[[414365.27, 5658977.77], [414357.29, 5658971.11], [414365.83, 5658960.92], [414373.81, 5658967.57], [414365.27, 5658977.77]]]}}, {"type": "Feature", "properties": {"kind": "building", "z": 129.72, "h": 6.0, "name": "Hotel Am Waldschl\u00f6sschen"}, "geometry": {"type": "Polygon", "coordinates": [[[414358.89, 5658088.31], [414358.07, 5658084.59], [414406.3, 5658073.98], [414407.01, 5658077.61], [414358.89, 5658088.31]]]}}, {"type": "Feature", "properties": {"kind": "building", "z": 133.67, "h": 7.7}, "geometry": {"type": "Polygon", "coordinates": [[[414798.49, 5658008.57], [414777.02, 5658009.67], [414778.03, 5658029.45], [414779.68, 5658029.37], [414780.08, 5658037.3], [414794.12, 5658036.57], [414793.72, 5658028.66], [414799.49, 5658028.37], [414798.49, 5658008.57]]]}}, {"type": "Feature", "properties": {"kind": "building", "z": 165.54, "h": 4.7}, "geometry": {"type": "Polygon", "coordinates": [[[415545.12, 5658648.19], [415550.52, 5658642.14], [415567.98, 5658657.66], [415562.58, 5658663.71], [415560.11, 5658661.52], [415563.54, 5658657.68], [415557.65, 5658652.45], [415554.22, 5658656.29], [415545.12, 5658648.19]]]}}, {"type": "Feature", "properties": {"kind": "building", "z": 168.17, "h": 22.1}, "geometry": {"type": "Polygon", "coordinates": [[[415566.35, 5658724.19], [415575.53, 5658712.29], [415579.06, 5658715.0], [415569.88, 5658726.9], [415566.35, 5658724.19]]]}}, {"type": "Feature", "properties": {"kind": "building", "z": 144.97, "h": 21.3}, "geometry": {"type": "Polygon", "coordinates": [[[415395.56, 5658239.22], [415387.94, 5658234.56], [415385.35, 5658238.77], [415392.96, 5658243.44], [415395.56, 5658239.22]]]}}, {"type": "Feature", "properties": {"kind": "building", "z": 141.5, "h": 3.1}, "geometry": {"type": "Polygon", "coordinates": [[[414914.36, 5658295.14], [414922.9, 5658294.68], [414922.61, 5658289.05], [414914.06, 5658289.49], [414914.36, 5658295.14]]]}}, {"type": "Feature", "properties": {"kind": "building", "z": 140.23, "h": 4.6}, "geometry": {"type": "Polygon", "coordinates": [[[414217.24, 5658517.28], [414226.22, 5658512.4], [414217.79, 5658496.97], [414208.8, 5658501.86], [414217.24, 5658517.28]]]}}, {"type": "Feature", "properties": {"kind": "building", "z": 144.94, "h": 3.6}, "geometry": {"type": "Polygon", "coordinates": [[[414170.74, 5659036.5], [414173.17, 5659032.91], [414164.75, 5659027.27], [414162.33, 5659030.85], [414170.74, 5659036.5]]]}}, {"type": "Feature", "properties": {"kind": "building", "z": 139.94, "h": 3.0}, "geometry": {"type": "Polygon", "coordinates": [[[414819.19, 5658292.4], [414818.74, 5658285.59], [414825.01, 5658285.18], [414825.46, 5658291.99], [414819.19, 5658292.4]]]}}, {"type": "Feature", "properties": {"kind": "building", "z": 139.35, "h": 17.1}, "geometry": {"type": "Polygon", "coordinates": [[[414648.63, 5658547.99], [414650.76, 5658541.62], [414648.02, 5658540.69], [414649.47, 5658536.36], [414646.25, 5658535.29], [414642.65, 5658546.01], [414648.63, 5658547.99]]]}}]}