{"type": "FeatureCollection", "attribution": "\u00a9 OpenStreetMap contributors (ODbL)", "crs": {"type": "name", "properties": {"name": "urn:ogc:def:crs:EPSG::25833"}}, "features": [{"type": "Feature", "properties": {"kind": "mast", "z": 114.27, "h": 16.2, "r": 1.13, "rt": 0.39}, "geometry": {"type": "Point", "coordinates": [412740.5, 5655684.5]}}, {"type": "Feature", "properties": {"kind": "mast", "z": 114.26, "h": 38.3, "r": 2.5, "rt": 0.88}, "geometry": {"type": "Point", "coordinates": [412753.5, 5655477.5]}}, {"type": "Feature", "properties": {"kind": "mast", "z": 114.11, "h": 38.3, "r": 2.5, "rt": 0.88}, "geometry": {"type": "Point", "coordinates": [412726.5, 5655489.5]}}, {"type": "Feature", "properties": {"kind": "mast", "z": 114.12, "h": 24.8, "r": 2.5, "rt": 0.88}, "geometry": {"type": "Point", "coordinates": [412721.5, 5655492.5]}}, {"type": "Feature", "properties": {"kind": "mast", "z": 114.1, "h": 24.8, "r": 2.5, "rt": 0.88}, "geometry": {"type": "Point", "coordinates": [412726.5, 5655528.5]}}, {"type": "Feature", "properties": {"kind": "mast", "z": 114.1, "h": 24.7, "r": 2.5, "rt": 0.88}, "geometry": {"type": "Point", "coordinates": [412737.5, 5655545.5]}}, {"type": "Feature", "properties": {"kind": "mast", "z": 114.1, "h": 24.8, "r": 2.5, "rt": 0.88}, "geometry": {"type": "Point", "coordinates": [412733.5, 5655539.5]}}, {"type": "Feature", "properties": {"kind": "mast", "z": 114.1, "h": 24.8, "r": 2.5, "rt": 0.88}, "geometry": {"type": "Point", "coordinates": [412733.5, 5655539.5]}}, {"type": "Feature", "properties": {"kind": "mast", "z": 114.1, "h": 24.8, "r": 2.5, "rt": 0.88}, "geometry": {"type": "Point", "coordinates": [412733.5, 5655539.5]}}, {"type": "Feature", "properties": {"kind": "mast", "z": 114.1, "h": 24.8, "r": 2.5, "rt": 0.88}, "geometry": {"type": "Point", "coordinates": [412733.5, 5655539.5]}}, {"type": "Feature", "properties": {"kind": "mast", "z": 113.27, "h": 36.8, "r": 2.5, "rt": 0.88}, "geometry": {"type": "Point", "coordinates": [412852.5, 5655822.5]}}, {"type": "Feature", "properties": {"kind": "mast", "z": 113.62, "h": 36.3, "r": 2.5, "rt": 0.88}, "geometry": {"type": "Point", "coordinates": [412847.5, 5655810.5]}}, {"type": "Feature", "properties": {"kind": "mast", "z": 116.23, "h": 15.8, "r": 2.5, "rt": 0.88}, "geometry": {"type": "Point", "coordinates": [412136.5, 5655258.5]}}, {"type": "Feature", "properties": {"kind": "mast", "z": 116.12, "h": 16.5, "r": 2.5, "rt": 0.88}, "geometry": {"type": "Point", "coordinates": [412116.5, 5655224.5]}}, {"type": "Feature", "properties": {"kind": "mast", "z": 116.29, "h": 15.5, "r": 1.13, "rt": 0.39}, "geometry": {"type": "Point", "coordinates": [412102.5, 5655191.5]}}, {"type": "Feature", "properties": {"kind": "mast", "z": 116.4, "h": 21.5, "r": 2.5, "rt": 0.88}, "geometry": {"type": "Point", "coordinates": [412164.5, 5655146.5]}}, {"type": "Feature", "properties": {"kind": "mast", "z": 116.38, "h": 21.7, "r": 2.5, "rt": 0.88}, "geometry": {"type": "Point", "coordinates": [412185.5, 5655177.5]}}, {"type": "Feature", "properties": {"kind": "mast", "z": 116.41, "h": 19.9, "r": 2.26, "rt": 0.79}, "geometry": {"type": "Point", "coordinates": [412205.5, 5655208.5]}}, {"type": "Feature", "properties": {"kind": "mast", "z": 114.16, "h": 16.7, "r": 1.13, "rt": 0.39}, "geometry": {"type": "Point", "coordinates": [412689.5, 5655678.5]}}, {"type": "Feature", "properties": {"kind": "mast", "z": 114.06, "h": 23.0, "r": 2.5, "rt": 0.88}, "geometry": {"type": "Point", "coordinates": [412709.5, 5655729.5]}}, {"type": "Feature", "properties": {"kind": "tower", "z": 114.09, "h": 41.2, "r": 12.0, "rt": 10.8}, "geometry": {"type": "Point", "coordinates": [412738.93, 5655481.68]}}, {"type": "Feature", "properties": {"kind": "building", "z": 112.52, "h": 25.7, "name": "G\u00e4stekurve"}, "geometry": {"type": "Polygon", "coordinates": [[[412128.32, 5655101.58], [412166.09, 5655089.68], [412165.85, 5655086.78], [412166.74, 5655084.14], [412130.93, 5655066.73], [412126.85, 5655077.99], [412126.15, 5655090.07], [412128.32, 5655101.58]]]}}, {"type": "Feature", "properties": {"kind": "building", "z": 120.41, "h": 14.4}, "geometry": {"type": "Polygon", "coordinates": [[[412676.69, 5654063.62], [412711.37, 5654017.25], [412698.68, 5654007.81], [412664.0, 5654054.17], [412676.69, 5654063.62]]]}}, {"type": "Feature", "properties": {"kind": "building", "z": 120.51, "h": 14.0}, "geometry": {"type": "Polygon", "coordinates": [[[412644.1, 5654039.79], [412678.79, 5653993.42], [412666.09, 5653983.98], [412631.41, 5654030.34], [412644.1, 5654039.79]]]}}, {"type": "Feature", "properties": {"kind": "building", "z": 122.97, "h": 5.5, "name": "Verband der Reservisten der Bundeswehr e.V."}, "geometry": {"type": "Polygon", "coordinates": [[[412617.68, 5654016.63], [412627.37, 5654003.81], [412620.51, 5653998.66], [412610.77, 5654011.48], [412617.68, 5654016.63]]]}}, {"type": "Feature", "properties": {"kind": "building", "z": 117.52, "h": 11.4}, "geometry": {"type": "Polygon", "coordinates": [[[413155.91, 5654017.93], [413151.89, 5654010.55], [413153.59, 5654009.63], [413147.84, 5653999.07], [413162.34, 5653991.22], [413172.1, 5654009.15], [413166.61, 5654012.13], [413167.46, 5654013.68], [413161.27, 5654017.02], [413160.43, 5654015.48], [413155.91, 5654017.93]]]}}, {"type": "Feature", "properties": {"kind": "building", "z": 118.98, "h": 13.0}, "geometry": {"type": "Polygon", "coordinates": [[[412987.0, 5654003.47], [413000.47, 5653996.16], [413001.51, 5653998.05], [413004.08, 5653996.66], [413009.14, 5654005.92], [413004.71, 5654008.32], [413005.62, 5654009.98], [412994.0, 5654016.3], [412987.0, 5654003.47]]]}}, {"type": "Feature", "properties": {"kind": "building", "z": 117.36, "h": 13.9}, "geometry": {"type": "Polygon", "coordinates": [[[413960.37, 5654020.1], [413973.53, 5654011.67], [413962.58, 5653994.68], [413949.43, 5654003.11], [413960.37, 5654020.1]]]}}, {"type": "Feature", "properties": {"kind": "building", "z": 120.54, "h": 9.9}, "geometry": {"type": "Polygon", "coordinates": [[[412649.03, 5654033.21], [412668.72, 5654047.86], [412675.92, 5654038.23], [412656.23, 5654023.58], [412649.03, 5654033.21]]]}}, {"type": "Feature", "properties": {"kind": "building", "z": 120.48, "h": 9.9}, "geometry": {"type": "Polygon", "coordinates": [[[412688.62, 5654047.68], [412681.42, 5654057.3], [412700.7, 5654071.65], [412707.9, 5654062.03], [412688.62, 5654047.68]]]}}, {"type": "Feature", "properties": {"kind": "building", "z": 117.53, "h": 2.7}, "geometry": {"type": "Polygon", "coordinates": [[[413982.62, 5654004.12], [413986.17, 5654009.52], [413999.1, 5654001.05], [413995.55, 5653995.65], [413982.62, 5654004.12]]]}}, {"type": "Feature", "properties": {"kind": "building", "z": 117.59, "h": 8.3}, "geometry": {"type": "Polygon", "coordinates": [[[413255.65, 5654002.1], [413266.28, 5653996.57], [413270.59, 5654004.81], [413259.96, 5654010.34], [413255.65, 5654002.1]]]}}, {"type": "Feature", "properties": {"kind": "building", "z": 117.79, "h": 3.4}, "geometry": {"type": "Polygon", "coordinates": [[[413255.14, 5654007.52], [413249.83, 5654010.38], [413245.87, 5654003.06], [413251.18, 5654000.21], [413255.14, 5654007.52]]]}}, {"type": "Feature", "properties": {"kind": "building", "z": 113.13, "h": 3.0}, "geometry": {"type": "Polygon", "coordinates": [[[413039.51, 5655000.23], [413051.09, 5655017.03], [413051.97, 5655016.43], [413052.63, 5655017.4], [413057.17, 5655014.28], [413056.69, 5655013.6], [413057.41, 5655013.11], [413045.64, 5654996.04], [413039.51, 5655000.23]]]}}, {"type": "Feature", "properties": {"kind": "building", "z": 117.93, "h": 3.4}, "geometry": {"type": "Polygon", "coordinates": [[[413210.08, 5654010.76], [413215.94, 5654007.73], [413211.82, 5653999.83], [413205.96, 5654002.88], [413210.08, 5654010.76]]]}}, {"type": "Feature", "properties": {"kind": "building", "z": 114.0, "h": 3.8, "name": "Zoo"}, "geometry": {"type": "Polygon", "coordinates": [[[412549.4, 5654659.81], [412551.65, 5654659.92], [412552.96, 5654658.75], [412553.33, 5654656.65], [412555.39, 5654656.15], [412556.16, 5654654.58], [412556.05, 5654652.87], [412555.35, 5654652.0], [412553.6, 5654651.26], [412551.84, 5654652.08], [412551.09, 5654653.04], [412551.5, 5654654.89], [412550.41, 5654654.79], [412548.25, 5654656.0], [412546.06, 5654655.9], [412544.69, 5654656.83], [412544.18, 5654658.22], [412544.53, 5654659.95], [412545.94, 5654661.05], [412547.86, 5654661.05], [412549.4, 5654659.81]]]}}, {"type": "Feature", "properties": {"kind": "building", "z": 113.48, "h": 6.8}, "geometry": {"type": "Polygon", "coordinates": [[[412991.84, 5654836.13], [412986.08, 5654827.6], [413012.47, 5654810.24], [413017.92, 5654819.3], [412991.84, 5654836.13]]]}}, {"type": "Feature", "properties": {"kind": "relief", "z": 138.79, "h": 2.0, "of": "DESNATPU1000Dfzd"}, "geometry": {"type": "Polygon", "coordinates": [[[412734.0, 5655497.0], [412743.0, 5655497.0], [412743.0, 5655496.0], [412745.0, 5655496.0], [412745.0, 5655495.0], [412748.0, 5655495.0], [412749.0, 5655493.0], [412750.0, 5655493.0], [412750.0, 5655492.0], [412751.0, 5655492.0], [412751.0, 5655491.0], [412752.0, 5655491.0], [412752.0, 5655489.0], [412754.0, 5655488.0], [412755.0, 5655480.0], [412754.0, 5655480.0], [412754.0, 5655476.0], [412753.0, 5655476.0], [412753.0, 5655474.0], [412752.0, 5655474.0], [412752.0, 5655472.0], [412750.0, 5655471.0], [412750.0, 5655470.0], [412749.0, 5655470.0], [412749.0, 5655469.0], [412745.0, 5655468.0], [412745.0, 5655467.0], [412742.0, 5655467.0], [412742.0, 5655466.0], [412740.0, 5655466.0], [412740.0, 5655467.0], [412734.0, 5655467.0], [412734.0, 5655468.0], [412732.0, 5655468.0], [412732.0, 5655469.0], [412730.0, 5655469.0], [412729.0, 5655471.0], [412728.0, 5655471.0], [412728.0, 5655472.0], [412727.0, 5655472.0], [412727.0, 5655473.0], [412726.0, 5655473.0], [412726.0, 5655475.0], [412725.0, 5655475.0], [412725.0, 5655478.0], [412724.0, 5655478.0], [412724.0, 5655485.0], [412725.0, 5655485.0], [412725.0, 5655488.0], [412726.0, 5655488.0], [412726.0, 5655490.0], [412728.0, 5655491.0], [412728.0, 5655492.0], [412729.0, 5655492.0], [412729.0, 5655493.0], [412730.0, 5655493.0], [412730.0, 5655494.0], [412731.0, 5655494.0], [412731.0, 5655495.0], [412733.0, 5655495.0], [412734.0, 5655497.0]]]}}, {"type": "Feature", "properties": {"kind": "relief", "z": 140.8, "h": 2.0, "of": "DESNATPU1000Dfzd"}, "geometry": {"type": "Polygon", "coordinates": [[[412737.0, 5655497.0], [412743.0, 5655497.0], [412743.0, 5655496.0], [412745.0, 5655496.0], [412745.0, 5655495.0], [412748.0, 5655495.0], [412749.0, 5655493.0], [412750.0, 5655493.0], [412750.0, 5655492.0], [412751.0, 5655492.0], [412751.0, 5655491.0], [412752.0, 5655491.0], [412753.0, 5655487.0], [412754.0, 5655487.0], [412754.0, 5655484.0], [412755.0, 5655484.0], [412755.0, 5655483.0], [412754.0, 5655483.0], [412754.0, 5655482.0], [412755.0, 5655482.0], [412755.0, 5655480.0], [412754.0, 5655480.0], [412754.0, 5655476.0], [412753.0, 5655476.0], [412753.0, 5655474.0], [412752.0, 5655474.0], [412752.0, 5655473.0], [412751.0, 5655473.0], [412751.0, 5655471.0], [412750.0, 5655471.0], [412750.0, 5655470.0], [412748.0, 5655470.0], [412747.0, 5655468.0], [412745.0, 5655468.0], [412745.0, 5655467.0], [412741.0, 5655467.0], [412741.0, 5655466.0], [412740.0, 5655466.0], [412740.0, 5655467.0], [412734.0, 5655467.0], [412734.0, 5655468.0], [412732.0, 5655468.0], [412732.0, 5655469.0], [412730.0, 5655469.0], [412729.0, 5655471.0], [412728.0, 5655471.0], [412728.0, 5655472.0], [412727.0, 5655472.0], [412727.0, 5655473.0], [412726.0, 5655473.0], [412726.0, 5655475.0], [412725.0, 5655475.0], [412725.0, 5655478.0], [412724.0, 5655478.0], [412724.0, 5655485.0], [412725.0, 5655485.0], [412725.0, 5655488.0], [412726.0, 5655488.0], [412726.0, 5655490.0], [412728.0, 5655491.0], [412728.0, 5655492.0], [412729.0, 5655492.0], [412729.0, 5655493.0], [412730.0, 5655493.0], [412730.0, 5655494.0], [412731.0, 5655494.0], [412731.0, 5655495.0], [412733.0, 5655495.0], [412733.0, 5655496.0], [412737.0, 5655496.0], [412737.0, 5655497.0]]]}}, {"type": "Feature", "properties": {"kind": "relief", "z": 142.8, "h": 2.0, "of": "DESNATPU1000Dfzd"}, "geometry": {"type": "Polygon", "coordinates": [[[412737.0, 5655497.0], [412741.0, 5655497.0], [412741.0, 5655496.0], [412742.0, 5655496.0], [412742.0, 5655497.0], [412743.0, 5655497.0], [412743.0, 5655496.0], [412745.0, 5655496.0], [412745.0, 5655495.0], [412747.0, 5655495.0], [412747.0, 5655494.0], [412749.0, 5655494.0], [412750.0, 5655492.0], [412751.0, 5655492.0], [412751.0, 5655490.0], [412753.0, 5655489.0], [412753.0, 5655486.0], [412754.0, 5655486.0], [412754.0, 5655476.0], [412752.0, 5655475.0], [412751.0, 5655471.0], [412749.0, 5655471.0], [412748.0, 5655469.0], [412747.0, 5655469.0], [412747.0, 5655468.0], [412745.0, 5655468.0], [412745.0, 5655467.0], [412741.0, 5655467.0], [412741.0, 5655466.0], [412740.0, 5655466.0], [412740.0, 5655467.0], [412734.0, 5655467.0], [412734.0, 5655468.0], [412732.0, 5655468.0], [412732.0, 5655469.0], [412730.0, 5655469.0], [412729.0, 5655471.0], [412728.0, 5655471.0], [412728.0, 5655472.0], [412727.0, 5655472.0], [412727.0, 5655473.0], [412726.0, 5655473.0], [412726.0, 5655475.0], [412725.0, 5655475.0], [412725.0, 5655478.0], [412724.0, 5655478.0], [412724.0, 5655485.0], [412725.0, 5655485.0], [412725.0, 5655488.0], [412726.0, 5655488.0], [412726.0, 5655490.0], [412728.0, 5655491.0], [412728.0, 5655492.0], [412729.0, 5655492.0], [412729.0, 5655493.0], [412730.0, 5655493.0], [412730.0, 5655494.0], [412731.0, 5655494.0], [412731.0, 5655495.0], [412733.0, 5655495.0], [412733.0, 5655496.0], [412737.0, 5655496.0], [412737.0, 5655497.0]]]}}, {"type": "Feature", "properties": {"kind": "relief", "z": 144.8, "h": 2.0, "of": "DESNATPU1000Dfzd"}, "geometry": {"type": "Polygon", "coordinates": [[[412737.0, 5655497.0], [412745.0, 5655496.0], [412745.0, 5655495.0], [412747.0, 5655495.0], [412747.0, 5655494.0], [412749.0, 5655494.0], [412750.0, 5655492.0], [412751.0, 5655492.0], [412751.0, 5655490.0], [412753.0, 5655489.0], [412753.0, 5655486.0], [412754.0, 5655486.0], [412754.0, 5655477.0], [412753.0, 5655477.0], [412753.0, 5655475.0], [412752.0, 5655475.0], [412752.0, 5655473.0], [412751.0, 5655473.0], [412751.0, 5655471.0], [412749.0, 5655471.0], [412748.0, 5655469.0], [412747.0, 5655469.0], [412747.0, 5655468.0], [412745.0, 5655468.0], [412745.0, 5655467.0], [412741.0, 5655467.0], [412741.0, 5655466.0], [412740.0, 5655466.0], [412740.0, 5655467.0], [412734.0, 5655467.0], [412734.0, 5655468.0], [412732.0, 5655468.0], [412732.0, 5655469.0], [412730.0, 5655469.0], [412729.0, 5655471.0], [412728.0, 5655471.0], [412728.0, 5655472.0], [412727.0, 5655472.0], [412727.0, 5655473.0], [412726.0, 5655473.0], [412726.0, 5655475.0], [412725.0, 5655475.0], [412725.0, 5655478.0], [412724.0, 5655478.0], [412724.0, 5655485.0], [412725.0, 5655485.0], [412725.0, 5655488.0], [412726.0, 5655488.0], [412726.0, 5655490.0], [412728.0, 5655491.0], [412728.0, 5655492.0], [412729.0, 5655492.0], [412729.0, 5655493.0], [412730.0, 5655493.0], [412730.0, 5655494.0], [412731.0, 5655494.0], [412731.0, 5655495.0], [412733.0, 5655495.0], [412733.0, 5655496.0], [412737.0, 5655496.0], [412737.0, 5655497.0]]]}}, {"type": "Feature", "properties": {"kind": "relief", "z": 146.8, "h": 2.0, "of": "DESNATPU1000Dfzd"}, "geometry": {"type": "Polygon", "coordinates": [[[412737.0, 5655497.0], [412741.0, 5655497.0], [412741.0, 5655496.0], [412745.0, 5655496.0], [412745.0, 5655495.0], [412747.0, 5655495.0], [412748.0, 5655493.0], [412750.0, 5655493.0], [412750.0, 5655492.0], [412751.0, 5655492.0], [412752.0, 5655488.0], [412753.0, 5655488.0], [412753.0, 5655486.0], [412754.0, 5655486.0], [412754.0, 5655477.0], [412753.0, 5655477.0], [412753.0, 5655475.0], [412752.0, 5655475.0], [412752.0, 5655473.0], [412751.0, 5655473.0], [412751.0, 5655471.0], [412749.0, 5655471.0], [412748.0, 5655469.0], [412747.0, 5655469.0], [412747.0, 5655468.0], [412745.0, 5655468.0], [412745.0, 5655467.0], [412741.0, 5655467.0], [412741.0, 5655466.0], [412740.0, 5655466.0], [412740.0, 5655467.0], [412734.0, 5655467.0], [412734.0, 5655468.0], [412732.0, 5655468.0], [412732.0, 5655469.0], [412730.0, 5655469.0], [412729.0, 5655471.0], [412728.0, 5655471.0], [412728.0, 5655472.0], [412727.0, 5655472.0], [412727.0, 5655473.0], [412726.0, 5655473.0], [412726.0, 5655475.0], [412725.0, 5655475.0], [412725.0, 5655478.0], [412724.0, 5655478.0], [412724.0, 5655485.0], [412725.0, 5655485.0], [412725.0, 5655488.0], [412726.0, 5655488.0], [412726.0, 5655490.0], [412728.0, 5655491.0], [412728.0, 5655492.0], [412729.0, 5655492.0], [412729.0, 5655493.0], [412730.0, 5655493.0], [412730.0, 5655494.0], [412731.0, 5655494.0], [412731.0, 5655495.0], [412737.0, 5655496.0], [412737.0, 5655497.0]]]}}, {"type": "Feature", "properties": {"kind": "relief", "z": 148.81, "h": 2.0, "of": "DESNATPU1000Dfzd"}, "geometry": {"type": "Polygon", "coordinates": [[[412737.0, 5655497.0], [412741.0, 5655497.0], [412741.0, 5655496.0], [412745.0, 5655496.0], [412745.0, 5655495.0], [412747.0, 5655495.0], [412748.0, 5655493.0], [412750.0, 5655493.0], [412750.0, 5655491.0], [412752.0, 5655490.0], [412753.0, 5655486.0], [412754.0, 5655486.0], [412754.0, 5655477.0], [412753.0, 5655477.0], [412753.0, 5655475.0], [412752.0, 5655475.0], [412752.0, 5655473.0], [412750.0, 5655472.0], [412750.0, 5655471.0], [412749.0, 5655471.0], [412749.0, 5655470.0], [412748.0, 5655470.0], [412748.0, 5655469.0], [412747.0, 5655469.0], [412747.0, 5655468.0], [412745.0, 5655468.0], [412745.0, 5655467.0], [412734.0, 5655467.0], [412734.0, 5655468.0], [412732.0, 5655468.0], [412732.0, 5655469.0], [412730.0, 5655469.0], [412729.0, 5655471.0], [412728.0, 5655471.0], [412728.0, 5655472.0], [412727.0, 5655472.0], [412727.0, 5655473.0], [412726.0, 5655473.0], [412726.0, 5655475.0], [412725.0, 5655475.0], [412725.0, 5655478.0], [412724.0, 5655478.0], [412724.0, 5655485.0], [412725.0, 5655485.0], [412725.0, 5655488.0], [412726.0, 5655488.0], [412726.0, 5655490.0], [412728.0, 5655491.0], [412728.0, 5655492.0], [412729.0, 5655492.0], [412729.0, 5655493.0], [412730.0, 5655493.0], [412730.0, 5655494.0], [412734.0, 5655495.0], [412734.0, 5655496.0], [412737.0, 5655496.0], [412737.0, 5655497.0]]]}}, {"type": "Feature", "properties": {"kind": "relief", "z": 150.81, "h": 2.0, "of": "DESNATPU1000Dfzd"}, "geometry": {"type": "Polygon", "coordinates": [[[412736.0, 5655496.0], [412737.0, 5655496.0], [412737.0, 5655495.0], [412742.0, 5655495.0], [412742.0, 5655496.0], [412743.0, 5655496.0], [412743.0, 5655493.0], [412739.0, 5655494.0], [412738.0, 5655492.0], [412739.0, 5655492.0], [412739.0, 5655491.0], [412741.0, 5655491.0], [412741.0, 5655490.0], [412744.0, 5655490.0], [412744.0, 5655489.0], [412746.0, 5655489.0], [412747.0, 5655485.0], [412748.0, 5655485.0], [412748.0, 5655477.0], [412746.0, 5655476.0], [412746.0, 5655474.0], [412743.0, 5655474.0], [412742.0, 5655472.0], [412736.0, 5655472.0], [412736.0, 5655473.0], [412734.0, 5655473.0], [412733.0, 5655475.0], [412732.0, 5655475.0], [412732.0, 5655476.0], [412731.0, 5655476.0], [412731.0, 5655478.0], [412730.0, 5655478.0], [412730.0, 5655486.0], [412732.0, 5655487.0], [412732.0, 5655489.0], [412731.0, 5655489.0], [412731.0, 5655494.0], [412733.0, 5655494.0], [412733.0, 5655495.0], [412736.0, 5655495.0], [412736.0, 5655496.0]]]}}, {"type": "Feature", "properties": {"kind": "relief", "z": 137.01, "h": 2.0, "of": "UUID_4689ab70-780e-4c78-a2b4-54940e6f9b32"}, "geometry": {"type": "Polygon", "coordinates": [[[412726.0, 5655795.0], [412728.0, 5655795.0], [412729.0, 5655793.0], [412730.0, 5655793.0], [412730.0, 5655791.0], [412729.0, 5655791.0], [412729.0, 5655790.0], [412725.0, 5655791.0], [412725.0, 5655794.0], [412726.0, 5655794.0], [412726.0, 5655795.0]]]}}, {"type": "Feature", "properties": {"kind": "relief", "z": 137.01, "h": 2.0, "of": "UUID_4689ab70-780e-4c78-a2b4-54940e6f9b32"}, "geometry": {"type": "Polygon", "coordinates": [[[412720.0, 5655785.0], [412721.0, 5655785.0], [412721.0, 5655784.0], [412723.0, 5655784.0], [412723.0, 5655783.0], [412726.0, 5655783.0], [412726.0, 5655784.0], [412727.0, 5655784.0], [412727.0, 5655783.0], [412728.0, 5655783.0], [412728.0, 5655779.0], [412727.0, 5655779.0], [412727.0, 5655776.0], [412726.0, 5655776.0], [412726.0, 5655774.0], [412725.0, 5655774.0], [412725.0, 5655772.0], [412724.0, 5655772.0], [412724.0, 5655770.0], [412723.0, 5655770.0], [412723.0, 5655768.0], [412722.0, 5655768.0], [412722.0, 5655766.0], [412721.0, 5655766.0], [412721.0, 5655763.0], [412719.0, 5655762.0], [412719.0, 5655760.0], [412718.0, 5655760.0], [412718.0, 5655757.0], [412717.0, 5655757.0], [412717.0, 5655755.0], [412716.0, 5655755.0], [412716.0, 5655753.0], [412715.0, 5655753.0], [412715.0, 5655751.0], [412714.0, 5655751.0], [412714.0, 5655749.0], [412712.0, 5655748.0], [412712.0, 5655745.0], [412710.0, 5655744.0], [412710.0, 5655745.0], [412709.0, 5655745.0], [412709.0, 5655744.0], [412707.0, 5655744.0], [412706.0, 5655742.0], [412705.0, 5655742.0], [412705.0, 5655745.0], [412706.0, 5655745.0], [412706.0, 5655746.0], [412704.0, 5655747.0], [412704.0, 5655748.0], [412702.0, 5655748.0], [412702.0, 5655749.0], [412700.0, 5655748.0], [412699.0, 5655752.0], [412700.0, 5655752.0], [412700.0, 5655754.0], [412701.0, 5655754.0], [412701.0, 5655755.0], [412702.0, 5655755.0], [412702.0, 5655757.0], [412704.0, 5655758.0], [412704.0, 5655760.0], [412706.0, 5655761.0], [412707.0, 5655765.0], [412708.0, 5655765.0], [412708.0, 5655767.0], [412709.0, 5655767.0], [412709.0, 5655769.0], [412711.0, 5655770.0], [412711.0, 5655771.0], [412712.0, 5655771.0], [412713.0, 5655775.0], [412715.0, 5655776.0], [412715.0, 5655778.0], [412717.0, 5655779.0], [412718.0, 5655783.0], [412720.0, 5655784.0], [412720.0, 5655785.0]]]}}, {"type": "Feature", "properties": {"kind": "relief", "z": 137.01, "h": 2.0, "of": "UUID_4689ab70-780e-4c78-a2b4-54940e6f9b32"}, "geometry": {"type": "Polygon", "coordinates": [[[412695.0, 5655741.0], [412697.0, 5655741.0], [412697.0, 5655737.0], [412696.0, 5655737.0], [412696.0, 5655736.0], [412694.0, 5655737.0], [412694.0, 5655738.0], [412693.0, 5655738.0], [412694.0, 5655740.0], [412695.0, 5655740.0], [412695.0, 5655741.0]]]}}, {"type": "Feature", "properties": {"kind": "relief", "z": 139.01, "h": 2.0, "of": "UUID_4689ab70-780e-4c78-a2b4-54940e6f9b32"}, "geometry": {"type": "Polygon", "coordinates": [[[412705.0, 5655752.0], [412706.0, 5655752.0], [412706.0, 5655751.0], [412708.0, 5655751.0], [412706.0, 5655747.0], [412704.0, 5655748.0], [412705.0, 5655752.0]]]}}]}