{"type": "FeatureCollection", "attribution": "Verkehrsmengen \u00a9 Landeshauptstadt Dresden (dl-de/by-2-0)", "crs": {"type": "name", "properties": {"name": "urn:ogc:def:crs:EPSG::25833"}}, "features": [{"type": "Feature", "properties": {"t": 15000, "f": 9000, "hf": 0.073, "b": 6000, "hb": 0.067, "y": 2025, "m": "detector", "n": "Antonstra\u00dfe"}, "geometry": {"type": "LineString", "coordinates": [[412000.0, 5657734.64], [411953.6, 5657751.13]]}}, {"type": "Feature", "properties": {"t": 15000, "f": 9000, "hf": 0.073, "b": 6000, "hb": 0.067, "y": 2025, "m": "detector", "n": "Antonstra\u00dfe"}, "geometry": {"type": "LineString", "coordinates": [[411953.6, 5657751.13], [411881.37, 5657766.46], [411861.77, 5657771.97]]}}, {"type": "Feature", "properties": {"t": 15000, "f": 9000, "hf": 0.073, "b": 6000, "hb": 0.067, "y": 2025, "m": "detector", "n": "Antonstra\u00dfe"}, "geometry": {"type": "LineString", "coordinates": [[411861.77, 5657771.97], [411813.83, 5657778.97], [411769.88, 5657782.57], [411755.97, 5657781.02], [411747.22, 5657778.45], [411737.25, 5657776.03]]}}, {"type": "Feature", "properties": {"t": 16800, "f": 10200, "hf": 0.049, "b": 6600, "hb": 0.021, "y": 2025, "m": "loop", "n": "Antonstra\u00dfe"}, "geometry": {"type": "LineString", "coordinates": [[411737.25, 5657776.03], [411709.25, 5657758.21], [411621.8, 5657710.75], [411590.36, 5657690.21]]}}, {"type": "Feature", "properties": {"t": 16800, "f": 10200, "hf": 0.049, "b": 6600, "hb": 0.021, "y": 2025, "m": "loop", "n": "Antonstra\u00dfe"}, "geometry": {"type": "LineString", "coordinates": [[411590.36, 5657690.21], [411544.69, 5657649.91], [411502.04, 5657613.04]]}}, {"type": "Feature", "properties": {"t": 20800, "f": 17800, "hf": 0.06, "b": 3000, "hb": 0.067, "y": 2025, "m": "detector", "n": "Antonstra\u00dfe"}, "geometry": {"type": "LineString", "coordinates": [[411502.04, 5657613.04], [411413.55, 5657525.26], [411387.18, 5657498.22], [411359.35, 5657470.39], [411322.0, 5657437.79]]}}, {"type": "Feature", "properties": {"t": 35700, "f": 17900, "hf": 0.021, "b": 17800, "hb": 0.007, "y": 2025, "m": "detector", "n": "Marienbr\u00fccke", "br": 1}, "geometry": {"type": "LineString", "coordinates": [[410922.3, 5657193.42], [410941.57, 5657216.86], [410954.42, 5657231.54], [410961.76, 5657239.18], [410975.52, 5657252.33], [410997.85, 5657273.13], [411009.76, 5657283.34], [411022.99, 5657293.86], [411038.83, 5657305.85], [411051.37, 5657313.81], [411070.84, 5657325.15], [411101.38, 5657339.45], [411238.93, 5657401.44], [411300.68, 5657428.83], [411311.33, 5657433.08], [411322.0, 5657437.79]]}}, {"type": "Feature", "properties": {"t": 30700, "f": 17800, "hf": 0.06, "b": 12900, "hb": 0.022, "y": 2025, "m": "estimate", "n": "K\u00f6nneritzstra\u00dfe"}, "geometry": {"type": "LineString", "coordinates": [[410922.3, 5657193.42], [410909.7, 5657171.55], [410897.15, 5657141.33], [410886.2, 5657125.95], [410847.14, 5657081.42], [410808.83, 5657040.22]]}}, {"type": "Feature", "properties": {"t": 18900, "f": 8700, "hf": 0.023, "b": 10200, "hb": 0.02, "y": 2025, "m": "man", "n": "K\u00f6nneritzstra\u00dfe"}, "geometry": {"type": "LineString", "coordinates": [[410808.83, 5657040.22], [410803.5, 5657035.18], [410768.6, 5656996.72], [410734.68, 5656958.26], [410714.01, 5656933.38]]}}, {"type": "Feature", "properties": {"t": 18500, "f": 7600, "hf": 0.026, "b": 10900, "hb": 0.021, "y": 2025, "m": "man", "n": "K\u00f6nneritzstra\u00dfe"}, "geometry": {"type": "LineString", "coordinates": [[410714.01, 5656933.38], [410688.72, 5656904.91], [410659.09, 5656870.18], [410629.43, 5656834.71]]}}, {"type": "Feature", "properties": {"t": 18500, "f": 7600, "hf": 0.026, "b": 10900, "hb": 0.021, "y": 2025, "m": "man", "n": "K\u00f6nneritzstra\u00dfe"}, "geometry": {"type": "LineString", "coordinates": [[410629.43, 5656834.71], [410536.32, 5656730.4]]}}, {"type": "Feature", "properties": {"t": 17900, "f": 7900, "hf": 0.047, "b": 10000, "hb": 0.048, "y": 2025, "m": "man", "n": "K\u00f6nneritzstra\u00dfe"}, "geometry": {"type": "LineString", "coordinates": [[410536.32, 5656730.4], [410502.26, 5656688.45], [410463.38, 5656643.28], [410444.55, 5656615.35]]}}, {"type": "Feature", "properties": {"t": 22300, "f": 11300, "hf": 0.03, "b": 11000, "hb": 0.079, "y": 2026, "m": "estimate", "n": "K\u00f6nneritzstra\u00dfe"}, "geometry": {"type": "LineString", "coordinates": [[410444.55, 5656615.35], [410422.15, 5656578.31]]}}, {"type": "Feature", "properties": {"t": 22300, "f": 11300, "hf": 0.03, "b": 11000, "hb": 0.079, "y": 2026, "m": "estimate", "n": "K\u00f6nneritzstra\u00dfe"}, "geometry": {"type": "LineString", "coordinates": [[410422.15, 5656578.31], [410402.22, 5656542.28], [410390.86, 5656517.94]]}}, {"type": "Feature", "properties": {"t": 22300, "f": 11300, "hf": 0.03, "b": 11000, "hb": 0.079, "y": 2026, "m": "estimate", "n": "K\u00f6nneritzstra\u00dfe"}, "geometry": {"type": "LineString", "coordinates": [[410390.86, 5656517.94], [410382.66, 5656500.53], [410362.23, 5656459.37], [410329.34, 5656386.27], [410317.59, 5656353.04], [410315.48, 5656339.97], [410315.07, 5656334.63], [410313.73, 5656303.83], [410313.91, 5656297.55]]}}, {"type": "Feature", "properties": {"t": 22300, "f": 11300, "hf": 0.03, "b": 11000, "hb": 0.079, "y": 2026, "m": "estimate", "n": "Ammonstra\u00dfe"}, "geometry": {"type": "LineString", "coordinates": [[410313.91, 5656297.55], [410316.49, 5656199.5], [410322.71, 5656093.41]]}}, {"type": "Feature", "properties": {"t": 24400, "f": 14000, "hf": 0.031, "b": 10400, "hb": 0.035, "y": 2025, "m": "loop", "n": "Ammonstra\u00dfe"}, "geometry": {"type": "LineString", "coordinates": [[410322.71, 5656093.41], [410342.62, 5656020.85], [410348.66, 5656000.0]]}}, {"type": "Feature", "properties": {"t": 10, "b": 10, "hb": 0.0, "y": 2025, "m": "man", "n": "Hauptstra\u00dfe"}, "geometry": {"type": "LineString", "coordinates": [[411963.61, 5657300.4], [411988.98, 5657336.98]]}}, {"type": "Feature", "properties": {"t": 500, "f": 100, "hf": 0.0, "b": 400, "hb": 0.05, "y": 2026, "m": "man", "n": "Theresienstra\u00dfe"}, "geometry": {"type": "LineString", "coordinates": [[411668.36, 5657562.04], [411593.87, 5657546.79], [411522.68, 5657530.5]]}}, {"type": "Feature", "properties": {"t": 2900, "f": 2300, "hf": 0.017, "b": 600, "hb": 0.033, "y": 2026, "m": "man", "n": "Theresienstra\u00dfe"}, "geometry": {"type": "LineString", "coordinates": [[411668.36, 5657562.04], [411723.28, 5657561.55], [411773.83, 5657560.53]]}}, {"type": "Feature", "properties": {"t": 2900, "f": 2300, "hf": 0.017, "b": 600, "hb": 0.033, "y": 2026, "m": "man", "n": "Theresienstra\u00dfe"}, "geometry": {"type": "LineString", "coordinates": [[411773.83, 5657560.53], [411844.78, 5657561.13], [411920.48, 5657562.52]]}}, {"type": "Feature", "properties": {"t": 3500, "f": 2800, "hf": 0.021, "b": 700, "hb": 0.029, "y": 2015, "m": "man", "n": "Theresienstra\u00dfe"}, "geometry": {"type": "LineString", "coordinates": [[411920.48, 5657562.52], [412000.0, 5657561.88]]}}, {"type": "Feature", "properties": {"t": 3100, "f": 2000, "hf": 0.03, "b": 1100, "hb": 0.073, "y": 2017, "m": "man", "n": "K\u00f6nigstra\u00dfe"}, "geometry": {"type": "LineString", "coordinates": [[411676.77, 5657312.66], [411734.37, 5657342.06]]}}, {"type": "Feature", "properties": {"t": 3100, "f": 2000, "hf": 0.03, "b": 1100, "hb": 0.073, "y": 2017, "m": "man", "n": "K\u00f6nigstra\u00dfe"}, "geometry": {"type": "LineString", "coordinates": [[411734.37, 5657342.06], [411800.46, 5657373.48]]}}, {"type": "Feature", "properties": {"t": 3100, "f": 2000, "hf": 0.03, "b": 1100, "hb": 0.073, "y": 2017, "m": "man", "n": "K\u00f6nigstra\u00dfe"}, "geometry": {"type": "LineString", "coordinates": [[411800.46, 5657373.48], [411850.12, 5657400.42]]}}, {"type": "Feature", "properties": {"t": 3100, "f": 2000, "hf": 0.03, "b": 1100, "hb": 0.073, "y": 2017, "m": "man", "n": "K\u00f6nigstra\u00dfe"}, "geometry": {"type": "LineString", "coordinates": [[411850.12, 5657400.42], [411883.71, 5657416.11]]}}, {"type": "Feature", "properties": {"t": 3100, "f": 2000, "hf": 0.03, "b": 1100, "hb": 0.073, "y": 2017, "m": "man", "n": "K\u00f6nigstra\u00dfe"}, "geometry": {"type": "LineString", "coordinates": [[411883.71, 5657416.11], [411995.73, 5657471.75]]}}, {"type": "Feature", "properties": {"t": 3100, "f": 2000, "hf": 0.03, "b": 1100, "hb": 0.073, "y": 2017, "m": "man", "n": "K\u00f6nigstra\u00dfe"}, "geometry": {"type": "LineString", "coordinates": [[411995.73, 5657471.75], [412000.0, 5657473.97]]}}, {"type": "Feature", "properties": {"t": 16100, "f": 8700, "hf": 0.018, "b": 7400, "hb": 0.068, "y": 2026, "m": "estimate", "n": "K\u00f6pckestra\u00dfe"}, "geometry": {"type": "LineString", "coordinates": [[412000.0, 5656949.95], [411995.67, 5656949.98]]}}, {"type": "Feature", "properties": {"t": 16100, "f": 8700, "hf": 0.018, "b": 7400, "hb": 0.068, "y": 2026, "m": "estimate", "n": "K\u00f6pckestra\u00dfe"}, "geometry": {"type": "LineString", "coordinates": [[411995.67, 5656949.98], [411974.84, 5656951.52], [411938.89, 5656955.66]]}}, {"type": "Feature", "properties": {"t": 16100, "f": 8700, "hf": 0.018, "b": 7400, "hb": 0.068, "y": 2025, "m": "estimate", "n": "K\u00f6pckestra\u00dfe"}, "geometry": {"type": "LineString", "coordinates": [[411938.89, 5656955.66], [411910.85, 5656959.27], [411885.75, 5656963.67], [411860.95, 5656969.32], [411834.43, 5656977.24], [411806.67, 5656987.25], [411788.89, 5656996.56]]}}, {"type": "Feature", "properties": {"t": 600, "f": 400, "hf": 0.175, "b": 200, "hb": 0.15, "y": 2025, "m": "man", "n": "Augustusbr\u00fccke", "br": 1}, "geometry": {"type": "LineString", "coordinates": [[411582.68, 5656564.78], [411593.18, 5656585.37], [411603.01, 5656599.81], [411696.97, 5656804.46], [411736.28, 5656894.51]]}}, {"type": "Feature", "properties": {"t": 400, "f": 200, "hf": 0.0, "b": 200, "hb": 0.1, "y": 2025, "m": "man", "n": "Neust\u00e4dter Markt"}, "geometry": {"type": "LineString", "coordinates": [[411736.28, 5656894.51], [411760.57, 5656940.08], [411784.28, 5656988.27], [411788.89, 5656996.56]]}}, {"type": "Feature", "properties": {"t": 10, "f": 10, "hf": 0.0, "y": 2025, "m": "man", "n": "Neust\u00e4dter Markt"}, "geometry": {"type": "LineString", "coordinates": [[411788.89, 5656996.56], [411768.8, 5657012.93], [411809.64, 5657074.38]]}}, {"type": "Feature", "properties": {"t": 15200, "f": 7500, "hf": 0.025, "b": 7700, "hb": 0.045, "y": 2025, "m": "estimate", "n": "Gro\u00dfe Mei\u00dfner Stra\u00dfe"}, "geometry": {"type": "LineString", "coordinates": [[411788.89, 5656996.56], [411775.46, 5657005.33], [411761.96, 5657016.05], [411739.65, 5657033.04], [411691.67, 5657075.97], [411673.52, 5657095.77], [411651.27, 5657125.6], [411629.09, 5657162.77], [411620.96, 5657180.25], [411614.27, 5657197.51]]}}, {"type": "Feature", "properties": {"t": 15200, "f": 7500, "hf": 0.025, "b": 7700, "hb": 0.045, "y": 2025, "m": "estimate", "n": "Palaisplatz"}, "geometry": {"type": "LineString", "coordinates": [[411614.27, 5657197.51], [411606.17, 5657217.34], [411582.55, 5657298.41], [411575.8, 5657320.04], [411567.84, 5657349.97], [411557.98, 5657381.46], [411548.64, 5657413.29], [411545.34, 5657427.82]]}}, {"type": "Feature", "properties": {"t": 14200, "f": 11100, "hf": 0.021, "b": 3100, "hb": 0.023, "y": 2025, "m": "man", "n": "Palaisplatz"}, "geometry": {"type": "LineString", "coordinates": [[411545.34, 5657427.82], [411613.47, 5657450.4]]}}, {"type": "Feature", "properties": {"t": 5500, "f": 1300, "hf": 0.031, "b": 4200, "hb": 0.031, "y": 2017, "m": "man", "n": "Palaisplatz"}, "geometry": {"type": "LineString", "coordinates": [[411613.47, 5657450.4], [411621.5, 5657427.55], [411656.95, 5657356.04], [411676.77, 5657312.66]]}}, {"type": "Feature", "properties": {"t": 5000, "f": 500, "hf": 0.04, "b": 4500, "hb": 0.018, "y": 2017, "m": "man", "n": "Palaisplatz"}, "geometry": {"type": "LineString", "coordinates": [[411676.77, 5657312.66], [411645.05, 5657257.25], [411631.42, 5657234.52], [411620.14, 5657208.15], [411614.27, 5657197.51]]}}, {"type": "Feature", "properties": {"t": 900, "f": 300, "hf": 0.067, "b": 600, "hb": 0.017, "y": 2017, "m": "man", "n": "Heinrichstra\u00dfe"}, "geometry": {"type": "LineString", "coordinates": [[411833.33, 5657175.4], [411767.44, 5657222.26]]}}, {"type": "Feature", "properties": {"t": 900, "f": 300, "hf": 0.067, "b": 600, "hb": 0.017, "y": 2017, "m": "man", "n": "Heinrichstra\u00dfe"}, "geometry": {"type": "LineString", "coordinates": [[411767.44, 5657222.26], [411710.13, 5657260.53], [411699.03, 5657269.3], [411689.21, 5657283.76], [411676.77, 5657312.66]]}}, {"type": "Feature", "properties": {"t": 16000, "f": 4000, "hf": 0.072, "b": 12000, "hb": 0.095, "y": 2026, "m": "man", "n": "Hainstra\u00dfe"}, "geometry": {"type": "LineString", "coordinates": [[411737.25, 5657776.03], [411742.23, 5657748.23], [411741.54, 5657736.81], [411738.95, 5657726.95], [411691.89, 5657615.71], [411668.36, 5657562.04]]}}, {"type": "Feature", "properties": {"t": 15400, "f": 2700, "hf": 0.096, "b": 12700, "hb": 0.091, "y": 2026, "m": "man", "n": "Hainstra\u00dfe"}, "geometry": {"type": "LineString", "coordinates": [[411668.36, 5657562.04], [411646.56, 5657507.06], [411637.22, 5657485.43], [411628.22, 5657466.75], [411621.99, 5657458.44], [411613.47, 5657450.4]]}}, {"type": "Feature", "properties": {"t": 13400, "f": 8600, "hf": 0.019, "b": 4800, "hb": 0.031, "y": 2025, "m": "man", "n": "Robert-Blum-Stra\u00dfe"}, "geometry": {"type": "LineString", "coordinates": [[411545.34, 5657427.82], [411544.08, 5657437.05], [411536.13, 5657476.81], [411522.68, 5657530.5]]}}, {"type": "Feature", "properties": {"t": 14000, "f": 9100, "hf": 0.019, "b": 4900, "hb": 0.029, "y": 2025, "m": "man", "n": "Robert-Blum-Stra\u00dfe"}, "geometry": {"type": "LineString", "coordinates": [[411522.68, 5657530.5], [411511.96, 5657571.31], [411502.04, 5657613.04]]}}, {"type": "Feature", "properties": {"t": 1100, "f": 300, "hf": 0.067, "b": 800, "hb": 0.013, "y": 2025, "m": "man", "n": "An der Dreik\u00f6nigskirche"}, "geometry": {"type": "LineString", "coordinates": [[411974.25, 5657347.73], [411913.14, 5657392.35]]}}, {"type": "Feature", "properties": {"t": 1100, "f": 300, "hf": 0.067, "b": 800, "hb": 0.013, "y": 2025, "m": "man", "n": "An der Dreik\u00f6nigskirche"}, "geometry": {"type": "LineString", "coordinates": [[411913.14, 5657392.35], [411896.93, 5657404.21], [411883.71, 5657416.11]]}}, {"type": "Feature", "properties": {"t": 16900, "f": 8400, "hf": 0.027, "b": 8500, "hb": 0.032, "y": 2026, "m": "man", "n": "Terrassenufer"}, "geometry": {"type": "LineString", "coordinates": [[412000.0, 5656518.08], [411863.86, 5656526.04], [411789.24, 5656534.83]]}}, {"type": "Feature", "properties": {"t": 16900, "f": 8400, "hf": 0.027, "b": 8500, "hb": 0.032, "y": 2026, "m": "man", "n": "Terrassenufer"}, "geometry": {"type": "LineString", "coordinates": [[411789.24, 5656534.83], [411766.91, 5656539.37], [411703.02, 5656556.09]]}}, {"type": "Feature", "properties": {"t": 16900, "f": 8400, "hf": 0.027, "b": 8500, "hb": 0.032, "y": 2026, "m": "man", "n": "Terrassenufer"}, "geometry": {"type": "LineString", "coordinates": [[411703.02, 5656556.09], [411653.27, 5656577.03], [411634.31, 5656584.67], [411603.01, 5656599.81], [411551.5, 5656627.85]]}}, {"type": "Feature", "properties": {"t": 16900, "f": 8400, "hf": 0.027, "b": 8500, "hb": 0.032, "y": 2026, "m": "man", "n": "Terrassenufer"}, "geometry": {"type": "LineString", "coordinates": [[411551.5, 5656627.85], [411531.15, 5656640.08], [411508.98, 5656654.42], [411467.32, 5656683.95], [411451.09, 5656693.67], [411435.38, 5656702.25]]}}, {"type": "Feature", "properties": {"t": 21300, "f": 10800, "hf": 0.045, "b": 10500, "hb": 0.04, "y": 2011, "m": "man", "n": "Terrassenufer"}, "geometry": {"type": "LineString", "coordinates": [[411435.38, 5656702.25], [411423.37, 5656713.62], [411395.04, 5656738.69], [411370.67, 5656767.86], [411348.61, 5656797.31], [411331.49, 5656818.93]]}}, {"type": "Feature", "properties": {"t": 12100, "f": 4700, "hf": 0.04, "b": 7400, "hb": 0.031, "y": 2025, "m": "man", "n": "Pirnaischer Platz"}, "geometry": {"type": "LineString", "coordinates": [[411975.15, 5656076.45], [412000.0, 5656055.87]]}}, {"type": "Feature", "properties": {"t": 800, "f": 400, "hf": 0.05, "b": 400, "hb": 0.0, "y": 2012, "m": "man", "n": "Am See"}, "geometry": {"type": "LineString", "coordinates": [[411027.53, 5656158.65], [411044.53, 5656121.57], [411062.47, 5656080.04], [411080.01, 5656043.62]]}}, {"type": "Feature", "properties": {"t": 2500, "f": 1100, "hf": 0.045, "b": 1400, "hb": 0.021, "y": 2022, "m": "man", "n": "Annenstra\u00dfe"}, "geometry": {"type": "LineString", "coordinates": [[411145.06, 5656211.39], [411119.45, 5656203.15], [411081.5, 5656186.31], [411055.31, 5656173.69], [411027.53, 5656158.65]]}}, {"type": "Feature", "properties": {"t": 2900, "f": 1200, "hf": 0.042, "b": 1700, "hb": 0.024, "y": 2022, "m": "man", "n": "Annenstra\u00dfe"}, "geometry": {"type": "LineString", "coordinates": [[411027.53, 5656158.65], [410961.89, 5656123.55]]}}, {"type": "Feature", "properties": {"t": 1800, "f": 200, "hf": 0.0, "b": 1600, "hb": 0.019, "y": 2022, "m": "man", "n": "Annenstra\u00dfe"}, "geometry": {"type": "LineString", "coordinates": [[410961.89, 5656123.55], [410957.0, 5656116.79], [410947.35, 5656108.58], [410933.31, 5656098.17], [410893.29, 5656073.03]]}}, {"type": "Feature", "properties": {"t": 1800, "f": 200, "hf": 0.0, "b": 1600, "hb": 0.019, "y": 2022, "m": "man", "n": "Annenstra\u00dfe"}, "geometry": {"type": "LineString", "coordinates": [[410893.29, 5656073.03], [410857.04, 5656053.04], [410844.19, 5656044.22]]}}, {"type": "Feature", "properties": {"t": 3800, "f": 1700, "hf": 0.006, "b": 2100, "hb": 0.014, "y": 2012, "m": "man", "n": "Annenstra\u00dfe"}, "geometry": {"type": "LineString", "coordinates": [[410844.19, 5656044.22], [410827.51, 5656023.03], [410811.35, 5656000.0]]}}, {"type": "Feature", "properties": {"t": 540, "f": 500, "hf": 0.02, "b": 40, "hb": 0.0, "y": 2019, "m": "man", "n": "Rosenstra\u00dfe"}, "geometry": {"type": "LineString", "coordinates": [[410734.48, 5656056.82], [410717.75, 5656046.01], [410667.64, 5656022.05], [410654.8, 5656015.41], [410642.0, 5656005.44], [410636.43, 5656000.0]]}}, {"type": "Feature", "properties": {"t": 2000, "f": 1000, "hf": 0.01, "b": 1000, "hb": 0.02, "y": 2012, "m": "man", "n": "Freiberger Platz"}, "geometry": {"type": "LineString", "coordinates": [[410844.19, 5656044.22], [410827.04, 5656048.81], [410809.79, 5656055.61], [410797.72, 5656060.99], [410763.65, 5656079.58]]}}, {"type": "Feature", "properties": {"t": 2400, "f": 1200, "hf": 0.017, "b": 1200, "hb": 0.033, "y": 2018, "m": "man", "n": "Freiberger Platz"}, "geometry": {"type": "LineString", "coordinates": [[410763.65, 5656079.58], [410763.6, 5656080.12], [410708.49, 5656121.42], [410642.49, 5656183.46]]}}, {"type": "Feature", "properties": {"t": 500, "f": 200, "hf": 0.05, "b": 300, "hb": 0.0, "y": 2022, "m": "man", "n": "Ehrlichstra\u00dfe"}, "geometry": {"type": "LineString", "coordinates": [[410564.8, 5656378.6], [410444.67, 5656337.41]]}}, {"type": "Feature", "properties": {"t": 500, "f": 200, "hf": 0.05, "b": 300, "hb": 0.0, "y": 2022, "m": "man", "n": "Ehrlichstra\u00dfe"}, "geometry": {"type": "LineString", "coordinates": [[410444.67, 5656337.41], [410377.54, 5656315.63], [410313.91, 5656297.55]]}}, {"type": "Feature", "properties": {"t": 2300, "f": 1200, "hf": 0.017, "b": 1100, "hb": 0.027, "y": 2018, "m": "man", "n": "Alfred-Althus-Stra\u00dfe"}, "geometry": {"type": "LineString", "coordinates": [[410642.49, 5656183.46], [410630.86, 5656213.32], [410617.35, 5656245.85]]}}, {"type": "Feature", "properties": {"t": 2400, "f": 1200, "hf": 0.033, "b": 1200, "hb": 0.017, "y": 2018, "m": "man", "n": "Alfred-Althus-Stra\u00dfe"}, "geometry": {"type": "LineString", "coordinates": [[410617.35, 5656245.85], [410607.8, 5656268.14]]}}, {"type": "Feature", "properties": {"t": 2400, "f": 1100, "hf": 0.018, "b": 1300, "hb": 0.008, "y": 2012, "m": "man", "n": "Alfred-Althus-Stra\u00dfe"}, "geometry": {"type": "LineString", "coordinates": [[410607.8, 5656268.14], [410605.23, 5656274.8], [410593.11, 5656310.29]]}}, {"type": "Feature", "properties": {"t": 2400, "f": 1100, "hf": 0.018, "b": 1300, "hb": 0.008, "y": 2012, "m": "man", "n": "Alfred-Althus-Stra\u00dfe"}, "geometry": {"type": "LineString", "coordinates": [[410593.11, 5656310.29], [410577.72, 5656344.14], [410564.8, 5656378.6]]}}, {"type": "Feature", "properties": {"t": 2400, "f": 1100, "hf": 0.018, "b": 1300, "hb": 0.008, "y": 2012, "m": "man", "n": "Alfred-Althus-Stra\u00dfe"}, "geometry": {"type": "LineString", "coordinates": [[410564.8, 5656378.6], [410550.65, 5656424.8], [410541.18, 5656457.5]]}}, {"type": "Feature", "properties": {"t": 1000, "f": 500, "hf": 0.0, "b": 500, "hb": 0.02, "y": 2025, "m": "man", "n": "Schweriner Stra\u00dfe"}, "geometry": {"type": "LineString", "coordinates": [[411077.7, 5656302.25], [411020.77, 5656331.06]]}}, {"type": "Feature", "properties": {"t": 1000, "f": 500, "hf": 0.0, "b": 500, "hb": 0.02, "y": 2025, "m": "man", "n": "Schweriner Stra\u00dfe"}, "geometry": {"type": "LineString", "coordinates": [[411020.77, 5656331.06], [410987.1, 5656346.89], [410908.47, 5656385.14]]}}, {"type": "Feature", "properties": {"t": 7800, "f": 4000, "hf": 0.102, "b": 3800, "hb": 0.108, "y": 2025, "m": "estimate", "n": "Schweriner Stra\u00dfe"}, "geometry": {"type": "LineString", "coordinates": [[410908.47, 5656385.14], [410865.23, 5656406.67], [410807.67, 5656434.73]]}}, {"type": "Feature", "properties": {"t": 7800, "f": 4000, "hf": 0.102, "b": 3800, "hb": 0.108, "y": 2025, "m": "estimate", "n": "Schweriner Stra\u00dfe"}, "geometry": {"type": "LineString", "coordinates": [[410807.67, 5656434.73], [410780.2, 5656448.15]]}}, {"type": "Feature", "properties": {"t": 7800, "f": 4000, "hf": 0.102, "b": 3800, "hb": 0.108, "y": 2025, "m": "estimate", "n": "Schweriner Stra\u00dfe"}, "geometry": {"type": "LineString", "coordinates": [[410780.2, 5656448.15], [410734.11, 5656470.77], [410692.96, 5656489.9], [410653.17, 5656509.98], [410618.15, 5656528.26]]}}, {"type": "Feature", "properties": {"t": 8200, "f": 3700, "hf": 0.035, "b": 4500, "hb": 0.033, "y": 2025, "m": "man", "n": "Schweriner Stra\u00dfe"}, "geometry": {"type": "LineString", "coordinates": [[410618.15, 5656528.26], [410563.69, 5656554.92], [410537.8, 5656568.1]]}}, {"type": "Feature", "properties": {"t": 8200, "f": 3700, "hf": 0.035, "b": 4500, "hb": 0.033, "y": 2025, "m": "man", "n": "Schweriner Stra\u00dfe"}, "geometry": {"type": "LineString", "coordinates": [[410537.8, 5656568.1], [410505.25, 5656583.06], [410474.27, 5656598.8], [410444.55, 5656615.35]]}}, {"type": "Feature", "properties": {"t": 18200, "f": 7300, "hf": 0.033, "b": 10900, "hb": 0.037, "y": 2025, "m": "man", "n": "Schweriner Stra\u00dfe"}, "geometry": {"type": "LineString", "coordinates": [[410444.55, 5656615.35], [410409.73, 5656632.17], [410382.2, 5656644.86]]}}, {"type": "Feature", "properties": {"t": 18200, "f": 7400, "hf": 0.032, "b": 10800, "hb": 0.038, "y": 2025, "m": "man", "n": "Schweriner Stra\u00dfe"}, "geometry": {"type": "LineString", "coordinates": [[410382.2, 5656644.86], [410302.73, 5656689.87]]}}, {"type": "Feature", "properties": {"t": 600, "f": 300, "hf": 0.0, "b": 300, "hb": 0.0, "y": 2023, "m": "man", "n": "Sch\u00fctzengasse"}, "geometry": {"type": "LineString", "coordinates": [[410823.58, 5656636.94], [410796.23, 5656638.38], [410766.79, 5656640.39]]}}, {"type": "Feature", "properties": {"t": 600, "f": 300, "hf": 0.0, "b": 300, "hb": 0.0, "y": 2023, "m": "man", "n": "Sch\u00fctzengasse"}, "geometry": {"type": "LineString", "coordinates": [[410766.79, 5656640.39], [410687.88, 5656645.63], [410676.86, 5656642.54]]}}, {"type": "Feature", "properties": {"t": 600, "f": 300, "hf": 0.0, "b": 300, "hb": 0.0, "y": 2023, "m": "man", "n": "Sch\u00fctzengasse"}, "geometry": {"type": "LineString", "coordinates": [[410676.86, 5656642.54], [410642.08, 5656630.7], [410611.13, 5656618.58], [410596.43, 5656609.97], [410588.63, 5656608.44]]}}, {"type": "Feature", "properties": {"t": 7200, "f": 3200, "hf": 0.037, "b": 4000, "hb": 0.025, "y": 2025, "m": "man", "n": "Hertha-Lindner-Stra\u00dfe"}, "geometry": {"type": "LineString", "coordinates": [[411081.76, 5656528.67], [411026.24, 5656498.48], [410998.04, 5656481.81]]}}, {"type": "Feature", "properties": {"t": 7200, "f": 3200, "hf": 0.037, "b": 4000, "hb": 0.025, "y": 2025, "m": "man", "n": "Hertha-Lindner-Stra\u00dfe"}, "geometry": {"type": "LineString", "coordinates": [[410998.04, 5656481.81], [410959.9, 5656460.1]]}}, {"type": "Feature", "properties": {"t": 7200, "f": 3200, "hf": 0.037, "b": 4000, "hb": 0.025, "y": 2025, "m": "man", "n": "Hertha-Lindner-Stra\u00dfe"}, "geometry": {"type": "LineString", "coordinates": [[410959.9, 5656460.1], [410948.96, 5656451.66], [410939.33, 5656441.34], [410930.05, 5656426.67], [410920.04, 5656409.83], [410908.47, 5656385.14]]}}, {"type": "Feature", "properties": {"t": 13200, "f": 6200, "hf": 0.077, "b": 7000, "hb": 0.067, "y": 2025, "m": "man", "n": "Hertha-Lindner-Stra\u00dfe"}, "geometry": {"type": "LineString", "coordinates": [[410908.47, 5656385.14], [410910.8, 5656342.19], [410916.13, 5656282.15], [410918.19, 5656250.89]]}}, {"type": "Feature", "properties": {"t": 4900, "f": 2000, "hf": 0.03, "b": 2900, "hb": 0.028, "y": 2025, "m": "man", "n": "Hertha-Lindner-Stra\u00dfe"}, "geometry": {"type": "LineString", "coordinates": [[410918.19, 5656250.89], [410924.07, 5656229.08], [410937.69, 5656186.83], [410953.57, 5656147.13], [410959.47, 5656135.12], [410961.21, 5656129.58], [410961.89, 5656123.55]]}}, {"type": "Feature", "properties": {"t": 4200, "f": 2600, "hf": 0.085, "b": 1600, "hb": 0.037, "y": 2007, "m": "man", "n": "Ostra-Allee"}, "geometry": {"type": "LineString", "coordinates": [[411127.44, 5656442.16], [411111.4, 5656472.73], [411093.89, 5656504.05], [411081.76, 5656528.67]]}}, {"type": "Feature", "properties": {"t": 4400, "f": 2000, "hf": 0.075, "b": 2400, "hb": 0.054, "y": 2007, "m": "man", "n": "Ostra-Allee"}, "geometry": {"type": "LineString", "coordinates": [[411081.76, 5656528.67], [411058.88, 5656567.16], [411026.73, 5656628.98]]}}, {"type": "Feature", "properties": {"t": 4400, "f": 2000, "hf": 0.075, "b": 2400, "hb": 0.054, "y": 2007, "m": "man", "n": "Ostra-Allee"}, "geometry": {"type": "LineString", "coordinates": [[411026.73, 5656628.98], [411005.5, 5656667.09], [410983.65, 5656705.48]]}}, {"type": "Feature", "properties": {"t": 4400, "f": 2000, "hf": 0.075, "b": 2400, "hb": 0.054, "y": 2007, "m": "man", "n": "Ostra-Allee"}, "geometry": {"type": "LineString", "coordinates": [[410983.65, 5656705.48], [410955.82, 5656758.19], [410929.96, 5656805.21]]}}, {"type": "Feature", "properties": {"t": 4400, "f": 2000, "hf": 0.075, "b": 2400, "hb": 0.054, "y": 2007, "m": "man", "n": "Ostra-Allee"}, "geometry": {"type": "LineString", "coordinates": [[410929.96, 5656805.21], [410903.98, 5656853.35], [410885.2, 5656890.57]]}}, {"type": "Feature", "properties": {"t": 3180, "f": 3100, "hf": 0.039, "b": 80, "hb": 0.125, "y": 2023, "m": "man", "n": "Ostra-Allee"}, "geometry": {"type": "LineString", "coordinates": [[410885.2, 5656890.57], [410861.43, 5656940.64], [410838.81, 5656983.68], [410818.08, 5657024.04], [410808.83, 5657040.22]]}}, {"type": "Feature", "properties": {"t": 4200, "f": 1200, "hf": 0.017, "b": 3000, "hb": 0.013, "y": 2025, "m": "man", "n": "Maxstra\u00dfe"}, "geometry": {"type": "LineString", "coordinates": [[410885.2, 5656890.57], [410809.16, 5656911.36], [410767.63, 5656923.39], [410734.58, 5656931.66], [410723.84, 5656933.33], [410714.01, 5656933.38]]}}, {"type": "Feature", "properties": {"t": 1800, "f": 1200, "hf": 0.058, "b": 600, "hb": 0.017, "y": 2025, "m": "man", "n": "Kleine Packhofstra\u00dfe"}, "geometry": {"type": "LineString", "coordinates": [[410929.96, 5656805.21], [410950.56, 5656818.1], [411047.44, 5656867.68], [411124.1, 5656914.42]]}}, {"type": "Feature", "properties": {"t": 300, "f": 200, "hf": 0.05, "b": 100, "hb": 0.0, "y": 2025, "m": "man", "n": "Kleine Packhofstra\u00dfe"}, "geometry": {"type": "LineString", "coordinates": [[411124.1, 5656914.42], [411172.29, 5656946.41], [411197.28, 5656961.78]]}}, {"type": "Feature", "properties": {"t": 8500, "f": 2200, "hf": 0.018, "b": 6300, "hb": 0.029, "y": 2025, "m": "man", "n": "Devrientstra\u00dfe"}, "geometry": {"type": "LineString", "coordinates": [[411230.65, 5656753.79], [411124.1, 5656914.42]]}}, {"type": "Feature", "properties": {"t": 9000, "f": 2700, "hf": 0.022, "b": 6300, "hb": 0.024, "y": 2025, "m": "man", "n": "Devrientstra\u00dfe"}, "geometry": {"type": "LineString", "coordinates": [[411124.1, 5656914.42], [411101.53, 5656945.27], [411083.79, 5656974.02], [411072.17, 5656998.79], [411062.99, 5657022.95], [411057.79, 5657046.5], [411055.63, 5657076.65]]}}, {"type": "Feature", "properties": {"t": 4600, "f": 4200, "hf": 0.021, "b": 400, "hb": 0.075, "y": 2025, "m": "man", "n": "Devrientstra\u00dfe"}, "geometry": {"type": "LineString", "coordinates": [[411055.63, 5657076.65], [411037.37, 5657072.89], [411028.78, 5657072.84], [411020.94, 5657076.25], [410941.57, 5657172.51], [410922.3, 5657193.42]]}}, {"type": "Feature", "properties": {"t": 3400, "f": 1200, "hf": 0.125, "b": 2200, "hb": 0.091, "y": 2013, "m": "man", "n": "Theaterplatz"}, "geometry": {"type": "LineString", "coordinates": [[411526.92, 5656589.07], [411454.9, 5656637.51], [411433.19, 5656655.87], [411428.15, 5656665.74], [411428.98, 5656674.1], [411435.38, 5656702.25]]}}, {"type": "Feature", "properties": {"t": 3400, "f": 2200, "hf": 0.091, "b": 1200, "hb": 0.125, "y": 2013, "m": "man", "n": "Sophienstra\u00dfe"}, "geometry": {"type": "LineString", "coordinates": [[411381.39, 5656457.11], [411422.36, 5656506.89]]}}, {"type": "Feature", "properties": {"t": 3400, "f": 2200, "hf": 0.091, "b": 1200, "hb": 0.125, "y": 2013, "m": "man", "n": "Sophienstra\u00dfe"}, "geometry": {"type": "LineString", "coordinates": [[411422.36, 5656506.89], [411460.74, 5656551.54]]}}, {"type": "Feature", "properties": {"t": 3300, "f": 1000, "hf": 0.13, "b": 2300, "hb": 0.048, "y": 2013, "m": "man", "n": "Sophienstra\u00dfe"}, "geometry": {"type": "LineString", "coordinates": [[411460.74, 5656551.54], [411475.51, 5656563.59], [411526.92, 5656589.07]]}}, {"type": "Feature", "properties": {"t": 150, "f": 90, "hf": 0.111, "b": 60, "hb": 0.0, "y": 2022, "m": "man", "n": "Sophienstra\u00dfe"}, "geometry": {"type": "LineString", "coordinates": [[411526.92, 5656589.07], [411552.39, 5656577.48], [411582.68, 5656564.78]]}}, {"type": "Feature", "properties": {"t": 4000, "f": 2200, "hf": 0.023, "b": 1800, "hb": 0.039, "y": 2022, "m": "man", "n": "Marienstra\u00dfe"}, "geometry": {"type": "LineString", "coordinates": [[411145.06, 5656211.39], [411148.13, 5656180.21], [411153.34, 5656147.91]]}}, {"type": "Feature", "properties": {"t": 4000, "f": 2200, "hf": 0.023, "b": 1800, "hb": 0.039, "y": 2022, "m": "man", "n": "Marienstra\u00dfe"}, "geometry": {"type": "LineString", "coordinates": [[411153.34, 5656147.91], [411171.79, 5656072.66]]}}, {"type": "Feature", "properties": {"t": 4800, "f": 2400, "hf": 0.046, "b": 2400, "hb": 0.033, "y": 2025, "m": "man", "n": "Marienstra\u00dfe"}, "geometry": {"type": "LineString", "coordinates": [[411171.79, 5656072.66], [411189.61, 5656000.0]]}}, {"type": "Feature", "properties": {"t": 12100, "f": 4700, "hf": 0.04, "b": 7400, "hb": 0.031, "y": 2025, "m": "man", "n": "Wilsdruffer Stra\u00dfe"}, "geometry": {"type": "LineString", "coordinates": [[411222.93, 5656245.94], [411272.49, 5656235.62], [411311.18, 5656228.38], [411489.9, 5656187.43]]}}, {"type": "Feature", "properties": {"t": 12100, "f": 4700, "hf": 0.04, "b": 7400, "hb": 0.031, "y": 2025, "m": "man", "n": "Wilsdruffer Stra\u00dfe"}, "geometry": {"type": "LineString", "coordinates": [[411489.9, 5656187.43], [411550.72, 5656174.4], [411612.25, 5656159.97]]}}, {"type": "Feature", "properties": {"t": 12100, "f": 4700, "hf": 0.04, "b": 7400, "hb": 0.031, "y": 2025, "m": "man", "n": "Wilsdruffer Stra\u00dfe"}, "geometry": {"type": "LineString", "coordinates": [[411612.25, 5656159.97], [411667.46, 5656146.86], [411721.63, 5656134.88]]}}, {"type": "Feature", "properties": {"t": 12100, "f": 4700, "hf": 0.04, "b": 7400, "hb": 0.031, "y": 2025, "m": "man", "n": "Wilsdruffer Stra\u00dfe"}, "geometry": {"type": "LineString", "coordinates": [[411721.63, 5656134.88], [411769.29, 5656124.28], [411837.6, 5656107.79]]}}, {"type": "Feature", "properties": {"t": 12100, "f": 4700, "hf": 0.04, "b": 7400, "hb": 0.031, "y": 2025, "m": "man", "n": "Wilsdruffer Stra\u00dfe"}, "geometry": {"type": "LineString", "coordinates": [[411837.6, 5656107.79], [411975.15, 5656076.45]]}}, {"type": "Feature", "properties": {"t": 10100, "f": 4700, "hf": 0.04, "b": 5400, "hb": 0.094, "y": 2025, "m": "man", "n": "Postplatz"}, "geometry": {"type": "LineString", "coordinates": [[411154.75, 5656260.12], [411222.93, 5656245.94]]}}, {"type": "Feature", "properties": {"t": 2500, "f": 1300, "hf": 0.031, "b": 1200, "hb": 0.033, "y": 2022, "m": "man", "n": "Postplatz"}, "geometry": {"type": "LineString", "coordinates": [[411154.75, 5656260.12], [411145.06, 5656211.39]]}}, {"type": "Feature", "properties": {"t": 13800, "f": 13800, "hf": 0.026, "y": 2025, "m": "detector", "n": "Kleine Marienbr\u00fccke", "br": 1}, "geometry": {"type": "LineString", "coordinates": [[411322.0, 5657437.79], [411333.83, 5657437.12], [411357.82, 5657440.74], [411388.01, 5657443.43], [411415.96, 5657442.74], [411437.43, 5657439.71], [411445.48, 5657438.11], [411467.42, 5657431.03], [411495.38, 5657423.27], [411509.56, 5657420.74], [411525.42, 5657422.68], [411545.34, 5657427.82]]}}, {"type": "Feature", "properties": {"t": 22200, "f": 10500, "hf": 0.041, "b": 11700, "hb": 0.034, "y": 2018, "m": "man", "n": "Bernhard-von-Lindenau-Platz"}, "geometry": {"type": "LineString", "coordinates": [[411230.65, 5656753.79], [411288.91, 5656792.31], [411331.49, 5656818.93]]}}, {"type": "Feature", "properties": {"t": 17500, "f": 9300, "hf": 0.018, "b": 8200, "hb": 0.023, "y": 2025, "m": "man", "n": "Leipziger Stra\u00dfe"}, "geometry": {"type": "LineString", "coordinates": [[411502.04, 5657613.04], [411482.09, 5657651.77], [411459.8, 5657681.71]]}}, {"type": "Feature", "properties": {"t": 17500, "f": 9300, "hf": 0.018, "b": 8200, "hb": 0.023, "y": 2025, "m": "man", "n": "Leipziger Stra\u00dfe"}, "geometry": {"type": "LineString", "coordinates": [[411459.8, 5657681.71], [411445.82, 5657700.93], [411357.32, 5657828.94], [411338.8, 5657854.72], [411295.28, 5657906.73], [411284.83, 5657920.57]]}}, {"type": "Feature", "properties": {"t": 17500, "f": 9300, "hf": 0.018, "b": 8200, "hb": 0.023, "y": 2025, "m": "man", "n": "Leipziger Stra\u00dfe"}, "geometry": {"type": "LineString", "coordinates": [[411284.83, 5657920.57], [411239.68, 5657980.41], [411226.53, 5658000.0]]}}, {"type": "Feature", "properties": {"t": 1900, "f": 1700, "hf": 0.018, "b": 200, "hb": 0.05, "y": 2019, "m": "man", "n": "Eisenbahnstra\u00dfe"}, "geometry": {"type": "LineString", "coordinates": [[411649.79, 5657895.83], [411610.92, 5657868.94], [411603.14, 5657862.47], [411579.63, 5657839.32], [411572.22, 5657829.7], [411565.56, 5657818.4], [411553.16, 5657792.3], [411542.6, 5657772.86], [411529.32, 5657751.02]]}}, {"type": "Feature", "properties": {"t": 3600, "f": 2700, "hf": 0.011, "b": 900, "hb": 0.011, "y": 2025, "m": "man", "n": "Eisenbahnstra\u00dfe"}, "geometry": {"type": "LineString", "coordinates": [[411529.32, 5657751.02], [411557.76, 5657723.52], [411590.36, 5657690.21]]}}, {"type": "Feature", "properties": {"t": 30300, "f": 17200, "hf": 0.022, "b": 13100, "hb": 0.02, "y": 2024, "m": "man", "n": "Hansastra\u00dfe"}, "geometry": {"type": "LineString", "coordinates": [[411737.25, 5657776.03], [411733.81, 5657780.74], [411724.9, 5657794.65], [411690.82, 5657841.22], [411666.27, 5657872.76], [411649.79, 5657895.83]]}}, {"type": "Feature", "properties": {"t": 26400, "f": 15400, "hf": 0.034, "b": 11000, "hb": 0.031, "y": 2025, "m": "loop", "n": "Hansastra\u00dfe"}, "geometry": {"type": "LineString", "coordinates": [[411649.79, 5657895.83], [411652.14, 5658000.0]]}}, {"type": "Feature", "properties": {"t": 3700, "f": 700, "hf": 0.014, "b": 3000, "hb": 0.047, "y": 2021, "n": "Schlesischer Platz"}, "geometry": {"type": "LineString", "coordinates": [[411861.77, 5657771.97], [411865.66, 5657831.11]]}}, {"type": "Feature", "properties": {"t": 200, "b": 200, "hb": 0.0, "y": 2024, "m": "man", "n": "Schlesischer Platz"}, "geometry": {"type": "LineString", "coordinates": [[411823.57, 5657868.06], [411760.27, 5657805.29], [411751.93, 5657791.45], [411737.25, 5657776.03]]}}, {"type": "Feature", "properties": {"t": 4900, "f": 1500, "hf": 0.013, "b": 3400, "hb": 0.044, "y": 2021, "m": "man", "n": "Dr.-Friedrich-Wolf-Stra\u00dfe"}, "geometry": {"type": "LineString", "coordinates": [[411983.03, 5657956.48], [412000.0, 5657972.64]]}}, {"type": "Feature", "properties": {"t": 600, "f": 300, "hf": 0.0, "b": 300, "hb": 0.033, "y": 2016, "m": "man", "n": "Erna-Berger-Stra\u00dfe"}, "geometry": {"type": "LineString", "coordinates": [[411920.48, 5657562.52], [411943.53, 5657694.14]]}}, {"type": "Feature", "properties": {"t": 600, "f": 300, "hf": 0.0, "b": 300, "hb": 0.033, "y": 2016, "m": "man", "n": "Erna-Berger-Stra\u00dfe"}, "geometry": {"type": "LineString", "coordinates": [[411943.53, 5657694.14], [411953.6, 5657751.13]]}}, {"type": "Feature", "properties": {"t": 1200, "f": 900, "hf": 0.022, "b": 300, "hb": 0.033, "y": 2016, "m": "man", "n": "Erna-Berger-Stra\u00dfe"}, "geometry": {"type": "LineString", "coordinates": [[411953.6, 5657751.13], [411962.79, 5657778.94], [411986.54, 5657835.26], [412000.0, 5657869.29]]}}, {"type": "Feature", "properties": {"t": 9000, "f": 4500, "hf": 0.109, "b": 4500, "hb": 0.113, "y": 2025, "m": "detector", "n": "Freiberger Stra\u00dfe"}, "geometry": {"type": "LineString", "coordinates": [[411154.75, 5656260.12], [411140.48, 5656260.5], [411116.16, 5656259.86], [411030.17, 5656252.19], [410988.77, 5656248.02], [410953.3, 5656245.83], [410931.79, 5656248.34], [410918.19, 5656250.89]]}}, {"type": "Feature", "properties": {"t": 5100, "f": 2900, "hf": 0.066, "b": 2200, "hb": 0.073, "y": 2025, "m": "man", "n": "Freiberger Stra\u00dfe"}, "geometry": {"type": "LineString", "coordinates": [[410918.19, 5656250.89], [410898.42, 5656248.88], [410871.27, 5656245.01], [410819.0, 5656237.22], [410791.96, 5656232.78], [410742.26, 5656221.65], [410691.74, 5656207.44], [410673.66, 5656201.31], [410666.83, 5656198.52], [410654.77, 5656190.02], [410642.49, 5656183.46]]}}, {"type": "Feature", "properties": {"t": 7700, "f": 4100, "hf": 0.02, "b": 3600, "hb": 0.022, "y": 2025, "m": "man", "n": "Freiberger Stra\u00dfe"}, "geometry": {"type": "LineString", "coordinates": [[410642.49, 5656183.46], [410572.76, 5656167.07], [410507.14, 5656149.87]]}}, {"type": "Feature", "properties": {"t": 7700, "f": 4100, "hf": 0.02, "b": 3600, "hb": 0.022, "y": 2025, "m": "man", "n": "Freiberger Stra\u00dfe"}, "geometry": {"type": "LineString", "coordinates": [[410507.14, 5656149.87], [410414.64, 5656122.46], [410322.71, 5656093.41]]}}, {"type": "Feature", "properties": {"t": 4400, "f": 1900, "hf": 0.026, "b": 2500, "hb": 0.024, "y": 2025, "m": "man", "n": "Freiberger Stra\u00dfe"}, "geometry": {"type": "LineString", "coordinates": [[410322.71, 5656093.41], [410287.45, 5656084.21]]}}, {"type": "Feature", "properties": {"t": 4400, "f": 1900, "hf": 0.026, "b": 2500, "hb": 0.024, "y": 2025, "m": "man", "n": "Freiberger Stra\u00dfe"}, "geometry": {"type": "LineString", "coordinates": [[410287.45, 5656084.21], [410242.08, 5656070.59], [410216.76, 5656061.86]]}}, {"type": "Feature", "properties": {"t": 3800, "f": 2000, "hf": 0.055, "b": 1800, "hb": 0.039, "y": 2025, "m": "man", "n": "Freiberger Stra\u00dfe"}, "geometry": {"type": "LineString", "coordinates": [[410216.76, 5656061.86], [410172.75, 5656045.42], [410121.6, 5656027.25]]}}, {"type": "Feature", "properties": {"t": 3800, "f": 2000, "hf": 0.055, "b": 1800, "hb": 0.039, "y": 2025, "m": "man", "n": "Freiberger Stra\u00dfe"}, "geometry": {"type": "LineString", "coordinates": [[410121.6, 5656027.25], [410070.59, 5656004.91], [410060.04, 5656000.0]]}}, {"type": "Feature", "properties": {"t": 6800, "f": 6700, "hf": 0.022, "b": 100, "hb": 0.0, "y": 2024, "m": "man", "n": "Magdeburger Stra\u00dfe"}, "geometry": {"type": "LineString", "coordinates": [[410808.83, 5657040.22], [410801.62, 5657048.06], [410782.84, 5657066.55], [410762.8, 5657087.74], [410725.35, 5657128.34]]}}, {"type": "Feature", "properties": {"t": 11600, "f": 6200, "hf": 0.029, "b": 5400, "hb": 0.106, "y": 2025, "m": "estimate", "n": "Magdeburger Stra\u00dfe"}, "geometry": {"type": "LineString", "coordinates": [[410725.35, 5657128.34], [410702.4, 5657147.13], [410649.49, 5657188.73], [410613.71, 5657217.78], [410580.97, 5657245.94], [410542.34, 5657278.46], [410501.77, 5657313.51], [410484.95, 5657330.33], [410442.44, 5657378.96], [410414.61, 5657411.69], [410388.92, 5657441.05], [410368.12, 5657462.46], [410340.9, 5657485.4], [410310.62, 5657508.95], [410286.27, 5657525.31], [410250.95, 5657544.41], [410214.89, 5657560.82], [410182.49, 5657572.3], [410150.97, 5657582.35], [410116.72, 5657589.08], [410086.14, 5657593.98], [410056.47, 5657597.95], [410005.47, 5657602.55]]}}, {"type": "Feature", "properties": {"t": 15200, "f": 7600, "hf": 0.07, "b": 7600, "hb": 0.066, "y": 2010, "m": "man", "n": "Magdeburger Stra\u00dfe"}, "geometry": {"type": "LineString", "coordinates": [[410005.47, 5657602.55], [410000.0, 5657602.31]]}}, {"type": "Feature", "properties": {"t": 3200, "f": 1500, "hf": 0.033, "b": 1700, "hb": 0.041, "y": 2026, "m": "man", "n": "Pieschener Allee"}, "geometry": {"type": "LineString", "coordinates": [[410851.04, 5657295.26], [410854.68, 5657312.51], [410888.48, 5657372.72]]}}, {"type": "Feature", "properties": {"t": 3200, "f": 1500, "hf": 0.033, "b": 1700, "hb": 0.041, "y": 2026, "m": "man", "n": "Pieschener Allee"}, "geometry": {"type": "LineString", "coordinates": [[410888.48, 5657372.72], [410899.41, 5657395.3], [410906.16, 5657428.38], [410908.86, 5657454.04], [410903.33, 5657516.9], [410894.6, 5657553.93], [410885.08, 5657578.79], [410864.71, 5657619.78], [410826.63, 5657679.56], [410633.56, 5657963.35], [410625.43, 5657973.34]]}}, {"type": "Feature", "properties": {"t": 3200, "f": 1500, "hf": 0.033, "b": 1700, "hb": 0.041, "y": 2026, "m": "man", "n": "Messering"}, "geometry": {"type": "LineString", "coordinates": [[410625.43, 5657973.34], [410578.43, 5658000.0]]}}, {"type": "Feature", "properties": {"t": 1400, "f": 800, "hf": 0.15, "b": 600, "hb": 0.167, "y": 2008, "m": "man", "n": "Schlachthofstra\u00dfe"}, "geometry": {"type": "LineString", "coordinates": [[410043.86, 5657893.01], [410058.7, 5658000.0]]}}, {"type": "Feature", "properties": {"t": 20100, "f": 7600, "hf": 0.03, "b": 12500, "hb": 0.034, "y": 2026, "m": "man", "n": "Ostra-Ufer"}, "geometry": {"type": "LineString", "coordinates": [[411055.63, 5657076.65], [411044.95, 5657114.09], [411021.4, 5657153.85], [411004.88, 5657180.15], [410988.67, 5657204.62], [410961.26, 5657236.07], [410951.05, 5657245.61], [410914.62, 5657270.26], [410901.68, 5657278.09], [410881.29, 5657286.47], [410865.84, 5657291.87], [410851.04, 5657295.26]]}}, {"type": "Feature", "properties": {"t": 4400, "f": 2200, "hf": 0.023, "b": 2200, "hb": 0.018, "y": 2025, "m": "man", "n": "Friedrichstra\u00dfe"}, "geometry": {"type": "LineString", "coordinates": [[410714.01, 5656933.38], [410686.52, 5656962.59], [410661.01, 5656988.35], [410642.54, 5657008.81]]}}, {"type": "Feature", "properties": {"t": 4100, "f": 2800, "hf": 0.032, "b": 1300, "hb": 0.077, "y": 2019, "m": "man", "n": "Friedrichstra\u00dfe"}, "geometry": {"type": "LineString", "coordinates": [[410642.54, 5657008.81], [410610.35, 5657027.69], [410576.84, 5657048.02], [410527.4, 5657076.16], [410479.57, 5657101.26], [410364.75, 5657164.1]]}}, {"type": "Feature", "properties": {"t": 4100, "f": 2800, "hf": 0.032, "b": 1300, "hb": 0.077, "y": 2019, "m": "man", "n": "Friedrichstra\u00dfe"}, "geometry": {"type": "LineString", "coordinates": [[410364.75, 5657164.1], [410319.92, 5657189.35], [410270.58, 5657214.32], [410224.02, 5657240.05], [410170.68, 5657268.04]]}}, {"type": "Feature", "properties": {"t": 700, "f": 400, "hf": 0.03, "b": 300, "hb": 0.027, "y": 2009, "m": "man", "n": "Wachsbleichstra\u00dfe"}, "geometry": {"type": "LineString", "coordinates": [[410403.95, 5656784.93], [410381.24, 5656797.69], [410361.06, 5656807.98]]}}, {"type": "Feature", "properties": {"t": 700, "f": 400, "hf": 0.03, "b": 300, "hb": 0.027, "y": 2009, "m": "man", "n": "Wachsbleichstra\u00dfe"}, "geometry": {"type": "LineString", "coordinates": [[410361.06, 5656807.98], [410250.69, 5656866.06]]}}, {"type": "Feature", "properties": {"t": 700, "f": 400, "hf": 0.03, "b": 300, "hb": 0.027, "y": 2009, "m": "man", "n": "Wachsbleichstra\u00dfe"}, "geometry": {"type": "LineString", "coordinates": [[410250.69, 5656866.06], [410138.61, 5656925.54]]}}, {"type": "Feature", "properties": {"t": 11500, "f": 6000, "hf": 0.048, "b": 5500, "hb": 0.058, "y": 2025, "m": "man", "n": "Sch\u00e4ferstra\u00dfe"}, "geometry": {"type": "LineString", "coordinates": [[410302.73, 5656689.87], [410260.33, 5656714.23]]}}, {"type": "Feature", "properties": {"t": 11500, "f": 6000, "hf": 0.048, "b": 5500, "hb": 0.058, "y": 2025, "m": "man", "n": "Sch\u00e4ferstra\u00dfe"}, "geometry": {"type": "LineString", "coordinates": [[410260.33, 5656714.23], [410197.23, 5656748.31], [410133.68, 5656783.74], [410079.31, 5656813.33]]}}, {"type": "Feature", "properties": {"t": 11000, "f": 5200, "hf": 0.015, "b": 5800, "hb": 0.017, "y": 2024, "m": "man", "n": "Sch\u00e4ferstra\u00dfe"}, "geometry": {"type": "LineString", "coordinates": [[410079.31, 5656813.33], [410000.0, 5656855.82]]}}, {"type": "Feature", "properties": {"t": 2400, "f": 1200, "hf": 0.033, "b": 1200, "hb": 0.017, "y": 2019, "m": "man", "n": "Berliner Stra\u00dfe"}, "geometry": {"type": "LineString", "coordinates": [[410231.84, 5656611.26], [410223.79, 5656617.56], [410206.41, 5656632.35], [410175.63, 5656650.69], [410102.6, 5656691.54], [410033.93, 5656728.77]]}}, {"type": "Feature", "properties": {"t": 2400, "f": 1200, "hf": 0.033, "b": 1200, "hb": 0.017, "y": 2019, "m": "man", "n": "Berliner Stra\u00dfe"}, "geometry": {"type": "LineString", "coordinates": [[410033.93, 5656728.77], [410000.0, 5656747.11]]}}, {"type": "Feature", "properties": {"t": 19600, "f": 7400, "hf": 0.03, "b": 12200, "hb": 0.034, "y": 2026, "m": "man", "n": "Wei\u00dferitzstra\u00dfe"}, "geometry": {"type": "LineString", "coordinates": [[410851.04, 5657295.26], [410840.06, 5657289.24], [410831.61, 5657282.3], [410823.44, 5657273.2], [410807.27, 5657247.89], [410756.62, 5657175.65], [410725.35, 5657128.34]]}}, {"type": "Feature", "properties": {"t": 16700, "f": 9600, "hf": 0.015, "b": 7100, "hb": 0.013, "y": 2024, "m": "man", "n": "Wei\u00dferitzstra\u00dfe"}, "geometry": {"type": "LineString", "coordinates": [[410725.35, 5657128.34], [410690.73, 5657079.28], [410665.55, 5657042.99], [410642.54, 5657008.81]]}}, {"type": "Feature", "properties": {"t": 14800, "f": 9200, "hf": 0.06, "b": 5600, "hb": 0.071, "y": 2025, "m": "man", "n": "Wei\u00dferitzstra\u00dfe"}, "geometry": {"type": "LineString", "coordinates": [[410642.54, 5657008.81], [410628.64, 5656990.16], [410611.1, 5656968.69], [410597.12, 5656953.88], [410579.38, 5656938.16], [410542.45, 5656907.25], [410504.36, 5656875.99]]}}, {"type": "Feature", "properties": {"t": 14800, "f": 9200, "hf": 0.06, "b": 5600, "hb": 0.071, "y": 2025, "m": "man", "n": "Wei\u00dferitzstra\u00dfe"}, "geometry": {"type": "LineString", "coordinates": [[410504.36, 5656875.99], [410460.96, 5656836.78], [410440.74, 5656816.81]]}}, {"type": "Feature", "properties": {"t": 14800, "f": 9200, "hf": 0.06, "b": 5600, "hb": 0.071, "y": 2025, "m": "man", "n": "Wei\u00dferitzstra\u00dfe"}, "geometry": {"type": "LineString", "coordinates": [[410440.74, 5656816.81], [410422.83, 5656800.85], [410403.95, 5656784.93]]}}, {"type": "Feature", "properties": {"t": 14800, "f": 9200, "hf": 0.06, "b": 5600, "hb": 0.071, "y": 2025, "m": "man", "n": "Wei\u00dferitzstra\u00dfe"}, "geometry": {"type": "LineString", "coordinates": [[410403.95, 5656784.93], [410361.52, 5656747.73], [410327.69, 5656716.77], [410302.73, 5656689.87]]}}, {"type": "Feature", "properties": {"t": 15700, "f": 7700, "hf": 0.026, "b": 8000, "hb": 0.021, "y": 2025, "m": "loop", "n": "L\u00f6btauer Stra\u00dfe"}, "geometry": {"type": "LineString", "coordinates": [[410302.73, 5656689.87], [410292.24, 5656672.19], [410286.96, 5656667.44], [410231.84, 5656611.26]]}}, {"type": "Feature", "properties": {"t": 15700, "f": 7700, "hf": 0.026, "b": 8000, "hb": 0.021, "y": 2025, "m": "loop", "n": "L\u00f6btauer Stra\u00dfe"}, "geometry": {"type": "LineString", "coordinates": [[410231.84, 5656611.26], [410192.26, 5656575.01], [410159.99, 5656546.81]]}}, {"type": "Feature", "properties": {"t": 15700, "f": 7700, "hf": 0.026, "b": 8000, "hb": 0.021, "y": 2025, "m": "loop", "n": "L\u00f6btauer Stra\u00dfe"}, "geometry": {"type": "LineString", "coordinates": [[410159.99, 5656546.81], [410136.93, 5656525.41], [410111.89, 5656504.58], [410089.8, 5656483.43], [410072.78, 5656468.85]]}}, {"type": "Feature", "properties": {"t": 15700, "f": 7700, "hf": 0.026, "b": 8000, "hb": 0.021, "y": 2025, "m": "loop", "n": "L\u00f6btauer Stra\u00dfe"}, "geometry": {"type": "LineString", "coordinates": [[410072.78, 5656468.85], [410041.61, 5656442.35], [410013.6, 5656412.69]]}}, {"type": "Feature", "properties": {"t": 15700, "f": 7700, "hf": 0.026, "b": 8000, "hb": 0.021, "y": 2025, "m": "loop", "n": "L\u00f6btauer Stra\u00dfe"}, "geometry": {"type": "LineString", "coordinates": [[410013.6, 5656412.69], [410000.0, 5656399.71]]}}, {"type": "Feature", "properties": {"t": 2200, "f": 1200, "hf": 0.008, "b": 1000, "hb": 0.0, "y": 2025, "m": "estimate", "n": "Fr\u00f6belstra\u00dfe"}, "geometry": {"type": "LineString", "coordinates": [[410062.38, 5656198.1], [410000.0, 5656267.92]]}}, {"type": "Feature", "properties": {"t": 2200, "f": 1200, "hf": 0.008, "b": 1000, "hb": 0.0, "y": 2025, "m": "estimate", "n": "Flo\u00dfhofstra\u00dfe"}, "geometry": {"type": "LineString", "coordinates": [[410141.09, 5656265.55], [410109.42, 5656236.7], [410062.38, 5656198.1]]}}, {"type": "Feature", "properties": {"t": 1000, "f": 400, "hf": 0.0, "b": 600, "hb": 0.017, "y": 2024, "m": "man", "n": "Behringstra\u00dfe"}, "geometry": {"type": "LineString", "coordinates": [[410138.61, 5656925.54], [410119.04, 5656886.84], [410099.27, 5656850.95], [410079.31, 5656813.33]]}}, {"type": "Feature", "properties": {"t": 1900, "f": 900, "hf": 0.0, "b": 1000, "hb": 0.0, "y": 2024, "m": "man", "n": "Behringstra\u00dfe"}, "geometry": {"type": "LineString", "coordinates": [[410079.31, 5656813.33], [410061.56, 5656779.67], [410033.93, 5656728.77]]}}, {"type": "Feature", "properties": {"t": 1900, "f": 900, "hf": 0.0, "b": 1000, "hb": 0.0, "y": 2024, "m": "man", "n": "Behringstra\u00dfe"}, "geometry": {"type": "LineString", "coordinates": [[410033.93, 5656728.77], [410000.0, 5656669.11]]}}]}