{"type": "FeatureCollection", "attribution": "Verkehrsmengen \u00a9 Landeshauptstadt Dresden (dl-de/by-2-0)", "crs": {"type": "name", "properties": {"name": "urn:ogc:def:crs:EPSG::25833"}}, "features": [{"type": "Feature", "properties": {"t": 2300, "f": 1800, "hf": 0.017, "b": 500, "hb": 0.0, "y": 2022, "m": "man", "n": "K\u00f6tzschenbroder Stra\u00dfe"}, "geometry": {"type": "LineString", "coordinates": [[410079.65, 5659250.88], [410063.63, 5659250.21], [410049.74, 5659248.17], [410000.0, 5659231.24]]}}, {"type": "Feature", "properties": {"t": 10, "f": 10, "hf": 0.0, "y": 2022, "m": "man", "n": "\u00d6RW 29 - Mickten/Pieschen"}, "geometry": {"type": "LineString", "coordinates": [[410000.0, 5659215.66], [410010.56, 5659213.27], [410027.2, 5659210.41], [410066.51, 5659201.3], [410090.3, 5659194.07], [410157.85, 5659171.94], [410169.97, 5659182.98]]}}, {"type": "Feature", "properties": {"t": 17500, "f": 9300, "hf": 0.018, "b": 8200, "hb": 0.023, "y": 2025, "m": "man", "n": "Leipziger Stra\u00dfe"}, "geometry": {"type": "LineString", "coordinates": [[411226.53, 5658000.0], [411204.55, 5658034.94], [411175.02, 5658079.76], [411108.16, 5658188.93], [411086.68, 5658222.48], [411070.6, 5658252.63]]}}, {"type": "Feature", "properties": {"t": 17500, "f": 9300, "hf": 0.018, "b": 8200, "hb": 0.023, "y": 2025, "m": "man", "n": "Leipziger Stra\u00dfe"}, "geometry": {"type": "LineString", "coordinates": [[411070.6, 5658252.63], [411056.04, 5658282.72], [411032.2, 5658330.25]]}}, {"type": "Feature", "properties": {"t": 18100, "f": 9000, "hf": 0.028, "b": 9100, "hb": 0.024, "y": 2025, "m": "loop", "n": "Leipziger Stra\u00dfe"}, "geometry": {"type": "LineString", "coordinates": [[411032.2, 5658330.25], [411000.15, 5658393.13]]}}, {"type": "Feature", "properties": {"t": 18500, "f": 8200, "hf": 0.04, "b": 10300, "hb": 0.024, "y": 2025, "m": "estimate", "n": "Leipziger Stra\u00dfe"}, "geometry": {"type": "LineString", "coordinates": [[410955.17, 5658444.43], [410894.7, 5658501.14]]}}, {"type": "Feature", "properties": {"t": 18500, "f": 8200, "hf": 0.04, "b": 10300, "hb": 0.024, "y": 2025, "m": "estimate", "n": "Leipziger Stra\u00dfe"}, "geometry": {"type": "LineString", "coordinates": [[410894.7, 5658501.14], [410852.7, 5658539.07], [410814.23, 5658575.61]]}}, {"type": "Feature", "properties": {"t": 18500, "f": 8200, "hf": 0.04, "b": 10300, "hb": 0.024, "y": 2025, "m": "estimate", "n": "Leipziger Stra\u00dfe"}, "geometry": {"type": "LineString", "coordinates": [[410814.23, 5658575.61], [410760.71, 5658625.47], [410722.71, 5658665.39], [410671.55, 5658728.37]]}}, {"type": "Feature", "properties": {"t": 18500, "f": 8200, "hf": 0.04, "b": 10300, "hb": 0.024, "y": 2025, "m": "estimate", "n": "Leipziger Stra\u00dfe"}, "geometry": {"type": "LineString", "coordinates": [[410671.55, 5658728.37], [410642.6, 5658763.32], [410530.13, 5658903.45]]}}, {"type": "Feature", "properties": {"t": 18500, "f": 8200, "hf": 0.04, "b": 10300, "hb": 0.024, "y": 2025, "m": "estimate", "n": "Leipziger Stra\u00dfe"}, "geometry": {"type": "LineString", "coordinates": [[410530.13, 5658903.45], [410506.67, 5658923.9], [410469.28, 5658960.14]]}}, {"type": "Feature", "properties": {"t": 18500, "f": 8200, "hf": 0.04, "b": 10300, "hb": 0.024, "y": 2025, "m": "estimate", "n": "Leipziger Stra\u00dfe"}, "geometry": {"type": "LineString", "coordinates": [[410469.28, 5658960.14], [410409.62, 5659012.89], [410339.8, 5659065.3]]}}, {"type": "Feature", "properties": {"t": 18500, "f": 8200, "hf": 0.04, "b": 10300, "hb": 0.024, "y": 2025, "m": "estimate", "n": "Leipziger Stra\u00dfe"}, "geometry": {"type": "LineString", "coordinates": [[410339.8, 5659065.3], [410318.43, 5659079.9], [410277.97, 5659105.69]]}}, {"type": "Feature", "properties": {"t": 24500, "f": 10500, "hf": 0.032, "b": 14000, "hb": 0.031, "y": 2006, "m": "man", "n": "Leipziger Stra\u00dfe"}, "geometry": {"type": "LineString", "coordinates": [[410277.97, 5659105.69], [410231.19, 5659136.6], [410202.57, 5659158.63], [410169.97, 5659182.98]]}}, {"type": "Feature", "properties": {"t": 23100, "f": 11900, "hf": 0.034, "b": 11200, "hb": 0.033, "y": 2009, "m": "man", "n": "Leipziger Stra\u00dfe"}, "geometry": {"type": "LineString", "coordinates": [[410169.97, 5659182.98], [410113.07, 5659225.54]]}}, {"type": "Feature", "properties": {"t": 23100, "f": 11900, "hf": 0.034, "b": 11200, "hb": 0.033, "y": 2009, "m": "man", "n": "Leipziger Stra\u00dfe"}, "geometry": {"type": "LineString", "coordinates": [[410113.07, 5659225.54], [410079.65, 5659250.88]]}}, {"type": "Feature", "properties": {"t": 19600, "f": 11100, "hf": 0.023, "b": 8500, "hb": 0.039, "y": 2025, "m": "estimate", "n": "Leipziger Stra\u00dfe"}, "geometry": {"type": "LineString", "coordinates": [[410079.65, 5659250.88], [410044.77, 5659279.57], [410030.28, 5659294.67], [410019.55, 5659309.59], [410008.16, 5659330.66], [410000.0, 5659351.16]]}}, {"type": "Feature", "properties": {"t": 3300, "f": 1800, "hf": 0.028, "b": 1500, "hb": 0.027, "y": 2026, "m": "man", "n": "Erfurter Stra\u00dfe"}, "geometry": {"type": "LineString", "coordinates": [[411012.62, 5658442.73], [411108.44, 5658500.49]]}}, {"type": "Feature", "properties": {"t": 3300, "f": 1800, "hf": 0.028, "b": 1500, "hb": 0.027, "y": 2026, "m": "man", "n": "Erfurter Stra\u00dfe"}, "geometry": {"type": "LineString", "coordinates": [[411108.44, 5658500.49], [411167.4, 5658536.87]]}}, {"type": "Feature", "properties": {"t": 3300, "f": 1800, "hf": 0.028, "b": 1500, "hb": 0.027, "y": 2026, "m": "man", "n": "Erfurter Stra\u00dfe"}, "geometry": {"type": "LineString", "coordinates": [[411167.4, 5658536.87], [411274.0, 5658602.64], [411324.52, 5658634.99], [411358.05, 5658649.09]]}}, {"type": "Feature", "properties": {"t": 2000, "f": 800, "hf": 0.01, "b": 1200, "hb": 0.013, "y": 2026, "m": "man", "n": "Gehestra\u00dfe"}, "geometry": {"type": "LineString", "coordinates": [[411108.44, 5658500.49], [411127.02, 5658513.69], [411096.28, 5658624.94]]}}, {"type": "Feature", "properties": {"t": 2000, "f": 800, "hf": 0.01, "b": 1200, "hb": 0.013, "y": 2026, "m": "man", "n": "Gehestra\u00dfe"}, "geometry": {"type": "LineString", "coordinates": [[411096.28, 5658624.94], [411067.86, 5658729.63]]}}, {"type": "Feature", "properties": {"t": 2000, "f": 800, "hf": 0.01, "b": 1200, "hb": 0.013, "y": 2026, "m": "man", "n": "Gehestra\u00dfe"}, "geometry": {"type": "LineString", "coordinates": [[411067.86, 5658729.63], [411038.86, 5658839.31]]}}, {"type": "Feature", "properties": {"t": 2000, "f": 800, "hf": 0.01, "b": 1200, "hb": 0.013, "y": 2026, "m": "man", "n": "Gehestra\u00dfe"}, "geometry": {"type": "LineString", "coordinates": [[411038.86, 5658839.31], [411009.09, 5658942.06]]}}, {"type": "Feature", "properties": {"t": 2000, "f": 800, "hf": 0.01, "b": 1200, "hb": 0.013, "y": 2026, "m": "man", "n": "Gehestra\u00dfe"}, "geometry": {"type": "LineString", "coordinates": [[411009.09, 5658942.06], [411004.61, 5658966.19], [411000.17, 5658997.09], [410993.82, 5659056.15], [410993.3, 5659082.33]]}}, {"type": "Feature", "properties": {"t": 5100, "f": 3000, "hf": 0.017, "b": 2100, "hb": 0.024, "y": 2026, "m": "man", "n": "B\u00fcrgerstra\u00dfe"}, "geometry": {"type": "LineString", "coordinates": [[410959.27, 5659085.13], [410892.48, 5659102.97], [410856.38, 5659113.91], [410825.02, 5659122.61]]}}, {"type": "Feature", "properties": {"t": 5100, "f": 3000, "hf": 0.017, "b": 2100, "hb": 0.024, "y": 2026, "m": "man", "n": "B\u00fcrgerstra\u00dfe"}, "geometry": {"type": "LineString", "coordinates": [[410825.02, 5659122.61], [410753.52, 5659142.02], [410685.19, 5659162.55]]}}, {"type": "Feature", "properties": {"t": 5100, "f": 3000, "hf": 0.017, "b": 2100, "hb": 0.024, "y": 2026, "m": "man", "n": "B\u00fcrgerstra\u00dfe"}, "geometry": {"type": "LineString", "coordinates": [[410685.19, 5659162.55], [410623.22, 5659184.2], [410569.65, 5659201.2]]}}, {"type": "Feature", "properties": {"t": 5100, "f": 3000, "hf": 0.017, "b": 2100, "hb": 0.024, "y": 2026, "m": "man", "n": "B\u00fcrgerstra\u00dfe"}, "geometry": {"type": "LineString", "coordinates": [[410569.65, 5659201.2], [410529.66, 5659204.31], [410496.09, 5659207.94]]}}, {"type": "Feature", "properties": {"t": 5100, "f": 3000, "hf": 0.017, "b": 2100, "hb": 0.024, "y": 2026, "m": "man", "n": "B\u00fcrgerstra\u00dfe"}, "geometry": {"type": "LineString", "coordinates": [[410496.09, 5659207.94], [410454.64, 5659209.99], [410420.47, 5659212.72]]}}, {"type": "Feature", "properties": {"t": 5100, "f": 3000, "hf": 0.017, "b": 2100, "hb": 0.024, "y": 2026, "m": "man", "n": "B\u00fcrgerstra\u00dfe"}, "geometry": {"type": "LineString", "coordinates": [[410420.47, 5659212.72], [410392.66, 5659210.73], [410324.91, 5659208.3], [410303.45, 5659209.04]]}}, {"type": "Feature", "properties": {"t": 3500, "f": 3100, "hf": 0.01, "b": 400, "hb": 0.025, "y": 2015, "m": "man", "n": "B\u00fcrgerstra\u00dfe"}, "geometry": {"type": "LineString", "coordinates": [[410303.45, 5659209.04], [410276.06, 5659212.45], [410238.85, 5659220.12], [410215.88, 5659229.45], [410211.99, 5659231.81]]}}, {"type": "Feature", "properties": {"t": 3500, "f": 3100, "hf": 0.01, "b": 400, "hb": 0.025, "y": 2015, "m": "man", "n": "B\u00fcrgerstra\u00dfe"}, "geometry": {"type": "LineString", "coordinates": [[410211.99, 5659231.81], [410197.04, 5659239.69], [410177.48, 5659257.33], [410163.78, 5659272.69], [410163.15, 5659279.54]]}}, {"type": "Feature", "properties": {"t": 200, "f": 100, "hf": 0.0, "b": 100, "hb": 0.0, "y": 2017, "m": "man", "n": "Moritzburger Platz"}, "geometry": {"type": "LineString", "coordinates": [[410993.3, 5659082.33], [410975.71, 5659082.86], [410980.37, 5659140.24]]}}, {"type": "Feature", "properties": {"t": 5100, "f": 3000, "hf": 0.017, "b": 2100, "hb": 0.024, "y": 2026, "m": "man", "n": "Moritzburger Platz"}, "geometry": {"type": "LineString", "coordinates": [[410993.3, 5659082.33], [410987.59, 5659081.4], [410978.66, 5659081.16], [410968.63, 5659082.77], [410959.27, 5659085.13]]}}, {"type": "Feature", "properties": {"t": 4600, "f": 2000, "hf": 0.01, "b": 2600, "hb": 0.019, "y": 2017, "m": "man", "n": "Harkortstra\u00dfe"}, "geometry": {"type": "LineString", "coordinates": [[411222.23, 5659192.01], [411209.97, 5659192.67], [411195.49, 5659194.02], [411184.61, 5659193.39], [411172.92, 5659191.15], [411164.74, 5659188.17], [411154.77, 5659183.85], [411145.73, 5659178.38], [411082.58, 5659137.11]]}}, {"type": "Feature", "properties": {"t": 6200, "f": 3100, "hf": 0.016, "b": 3100, "hb": 0.016, "y": 2017, "m": "man", "n": "Harkortstra\u00dfe"}, "geometry": {"type": "LineString", "coordinates": [[411082.58, 5659137.11], [411035.46, 5659104.8], [411006.19, 5659087.1], [410999.58, 5659084.38], [410993.3, 5659082.33]]}}, {"type": "Feature", "properties": {"t": 1410, "f": 1400, "hf": 0.014, "b": 10, "hb": 0.0, "y": 2024, "m": "man", "n": "Liststra\u00dfe"}, "geometry": {"type": "LineString", "coordinates": [[411254.02, 5659068.57], [411124.22, 5659084.67], [411117.34, 5659086.26], [411112.9, 5659091.69], [411082.58, 5659137.11]]}}, {"type": "Feature", "properties": {"t": 170, "f": 80, "hf": 0.0, "b": 90, "hb": 0.0, "y": 2024, "m": "man", "n": "Kunzstra\u00dfe"}, "geometry": {"type": "LineString", "coordinates": [[411296.76, 5658955.72], [411180.33, 5658940.27]]}}, {"type": "Feature", "properties": {"t": 4500, "f": 3400, "hf": 0.015, "b": 1100, "hb": 0.018, "y": 2015, "m": "man", "n": "Rehefelder Stra\u00dfe"}, "geometry": {"type": "LineString", "coordinates": [[410277.97, 5659105.69], [410283.17, 5659130.12], [410303.45, 5659209.04]]}}, {"type": "Feature", "properties": {"t": 3400, "f": 1900, "hf": 0.016, "b": 1500, "hb": 0.007, "y": 2015, "m": "man", "n": "Rehefelder Stra\u00dfe"}, "geometry": {"type": "LineString", "coordinates": [[410303.45, 5659209.04], [410313.78, 5659280.0], [410324.39, 5659364.51]]}}, {"type": "Feature", "properties": {"t": 3300, "f": 1800, "hf": 0.028, "b": 1500, "hb": 0.033, "y": 2017, "m": "man", "n": "Rehefelder Stra\u00dfe"}, "geometry": {"type": "LineString", "coordinates": [[410324.39, 5659364.51], [410332.45, 5659429.75], [410339.58, 5659494.99]]}}, {"type": "Feature", "properties": {"t": 3300, "f": 1800, "hf": 0.028, "b": 1500, "hb": 0.033, "y": 2017, "m": "man", "n": "Rehefelder Stra\u00dfe"}, "geometry": {"type": "LineString", "coordinates": [[410339.58, 5659494.99], [410347.21, 5659553.39], [410356.99, 5659634.72]]}}, {"type": "Feature", "properties": {"t": 4200, "f": 2200, "hf": 0.023, "b": 2000, "hb": 0.015, "y": 2017, "m": "man", "n": "Rehefelder Stra\u00dfe"}, "geometry": {"type": "LineString", "coordinates": [[410356.99, 5659634.72], [410370.98, 5659745.46], [410378.02, 5659806.35]]}}, {"type": "Feature", "properties": {"t": 5500, "f": 3100, "hf": 0.01, "b": 2400, "hb": 0.013, "y": 2023, "m": "man", "n": "Rehefelder Stra\u00dfe"}, "geometry": {"type": "LineString", "coordinates": [[410378.02, 5659806.35], [410398.76, 5659980.73], [410399.69, 5659985.17], [410401.72, 5659988.87], [410409.99, 5660000.0]]}}, {"type": "Feature", "properties": {"t": 1700, "f": 900, "hf": 0.011, "b": 800, "hb": 0.013, "y": 2014, "m": "man", "n": "Robert-Matzke-Stra\u00dfe"}, "geometry": {"type": "LineString", "coordinates": [[410624.08, 5659575.52], [410562.15, 5659553.46], [410480.15, 5659521.28]]}}, {"type": "Feature", "properties": {"t": 1700, "f": 600, "hf": 0.017, "b": 1100, "hb": 0.009, "y": 2014, "m": "man", "n": "Leisniger Platz"}, "geometry": {"type": "LineString", "coordinates": [[410684.63, 5659507.09], [410624.08, 5659575.52]]}}, {"type": "Feature", "properties": {"t": 6700, "f": 3300, "hf": 0.058, "b": 3400, "hb": 0.065, "y": 2014, "m": "man", "n": "Leisniger Platz"}, "geometry": {"type": "LineString", "coordinates": [[410624.08, 5659575.52], [410634.64, 5659577.67], [410659.45, 5659586.56], [410690.92, 5659596.37], [410703.03, 5659600.71]]}}, {"type": "Feature", "properties": {"t": 7000, "f": 3500, "hf": 0.023, "b": 3500, "hb": 0.023, "y": 2025, "m": "man", "n": "Wurzener Stra\u00dfe"}, "geometry": {"type": "LineString", "coordinates": [[410356.99, 5659634.72], [410256.46, 5659615.98]]}}, {"type": "Feature", "properties": {"t": 7000, "f": 3500, "hf": 0.023, "b": 3500, "hb": 0.023, "y": 2025, "m": "man", "n": "Wurzener Stra\u00dfe"}, "geometry": {"type": "LineString", "coordinates": [[410256.46, 5659615.98], [410193.98, 5659605.2], [410131.68, 5659593.5]]}}, {"type": "Feature", "properties": {"t": 7000, "f": 3500, "hf": 0.023, "b": 3500, "hb": 0.023, "y": 2025, "m": "man", "n": "Wurzener Stra\u00dfe"}, "geometry": {"type": "LineString", "coordinates": [[410131.68, 5659593.5], [410028.94, 5659575.0]]}}, {"type": "Feature", "properties": {"t": 7000, "f": 3500, "hf": 0.023, "b": 3500, "hb": 0.023, "y": 2025, "m": "man", "n": "Wurzener Stra\u00dfe"}, "geometry": {"type": "LineString", "coordinates": [[410028.94, 5659575.0], [410000.0, 5659569.75]]}}, {"type": "Feature", "properties": {"t": 7100, "f": 3300, "hf": 0.067, "b": 3800, "hb": 0.05, "y": 2014, "m": "man", "n": "Leisniger Stra\u00dfe"}, "geometry": {"type": "LineString", "coordinates": [[410624.08, 5659575.52], [410586.26, 5659623.42], [410546.81, 5659670.24]]}}, {"type": "Feature", "properties": {"t": 9200, "f": 4800, "hf": 0.019, "b": 4400, "hb": 0.018, "y": 2019, "m": "man", "n": "Riesaer Stra\u00dfe"}, "geometry": {"type": "LineString", "coordinates": [[410776.79, 5659677.84], [410781.08, 5659717.82], [410787.41, 5659756.8]]}}, {"type": "Feature", "properties": {"t": 2500, "f": 1300, "hf": 0.015, "b": 1200, "hb": 0.017, "y": 2017, "m": "man", "n": "Heidestra\u00dfe"}, "geometry": {"type": "LineString", "coordinates": [[410853.51, 5659650.1], [410938.44, 5659714.86], [411034.08, 5659788.39]]}}, {"type": "Feature", "properties": {"t": 1500, "f": 800, "hf": 0.025, "b": 700, "hb": 0.014, "y": 2017, "m": "man", "n": "Heidestra\u00dfe"}, "geometry": {"type": "LineString", "coordinates": [[411034.08, 5659788.39], [411042.28, 5659794.73], [411071.96, 5659821.57], [411086.87, 5659836.0], [411108.75, 5659856.08], [411123.47, 5659870.11], [411146.26, 5659892.86], [411165.59, 5659913.46], [411184.56, 5659935.71], [411205.23, 5659959.26], [411244.95, 5660000.0]]}}, {"type": "Feature", "properties": {"t": 8000, "f": 4300, "hf": 0.051, "b": 3700, "hb": 0.057, "y": 2023, "m": "man", "n": "Trachenberger Stra\u00dfe"}, "geometry": {"type": "LineString", "coordinates": [[410787.41, 5659756.8], [410814.61, 5659817.97], [410866.66, 5659942.58], [410891.89, 5660000.0]]}}, {"type": "Feature", "properties": {"t": 18100, "f": 9000, "hf": 0.028, "b": 9100, "hb": 0.024, "y": 2025, "m": "loop", "n": "Alexander-Puschkin-Platz"}, "geometry": {"type": "LineString", "coordinates": [[411000.15, 5658393.13], [410990.01, 5658408.05], [410977.93, 5658421.73]]}}, {"type": "Feature", "properties": {"t": 18500, "f": 8200, "hf": 0.04, "b": 10300, "hb": 0.024, "y": 2025, "m": "estimate", "n": "Alexander-Puschkin-Platz"}, "geometry": {"type": "LineString", "coordinates": [[410977.93, 5658421.73], [410955.17, 5658444.43]]}}, {"type": "Feature", "properties": {"t": 3300, "f": 1800, "hf": 0.028, "b": 1500, "hb": 0.027, "y": 2026, "m": "man", "n": "Alexander-Puschkin-Platz"}, "geometry": {"type": "LineString", "coordinates": [[411000.15, 5658393.13], [410990.52, 5658429.62], [411012.62, 5658442.73]]}}, {"type": "Feature", "properties": {"t": 8000, "f": 4500, "hf": 0.047, "b": 3500, "hb": 0.063, "y": 2026, "m": "man", "n": "Gro\u00dfenhainer Stra\u00dfe"}, "geometry": {"type": "LineString", "coordinates": [[411654.94, 5658183.76], [411627.78, 5658192.83], [411599.4, 5658273.94]]}}, {"type": "Feature", "properties": {"t": 8000, "f": 4500, "hf": 0.047, "b": 3500, "hb": 0.063, "y": 2026, "m": "man", "n": "Gro\u00dfenhainer Stra\u00dfe"}, "geometry": {"type": "LineString", "coordinates": [[411599.4, 5658273.94], [411560.4, 5658384.26], [411520.42, 5658493.97]]}}, {"type": "Feature", "properties": {"t": 8000, "f": 4500, "hf": 0.047, "b": 3500, "hb": 0.063, "y": 2026, "m": "man", "n": "Gro\u00dfenhainer Stra\u00dfe"}, "geometry": {"type": "LineString", "coordinates": [[411520.42, 5658493.97], [411510.78, 5658515.71], [411500.52, 5658536.52]]}}, {"type": "Feature", "properties": {"t": 8000, "f": 4500, "hf": 0.047, "b": 3500, "hb": 0.063, "y": 2026, "m": "man", "n": "Gro\u00dfenhainer Stra\u00dfe"}, "geometry": {"type": "LineString", "coordinates": [[411500.52, 5658536.52], [411470.24, 5658591.43], [411434.18, 5658660.43]]}}, {"type": "Feature", "properties": {"t": 11000, "f": 5900, "hf": 0.019, "b": 5100, "hb": 0.012, "y": 2024, "m": "man", "n": "Gro\u00dfenhainer Stra\u00dfe"}, "geometry": {"type": "LineString", "coordinates": [[411413.66, 5658699.24], [411296.76, 5658955.72]]}}, {"type": "Feature", "properties": {"t": 17500, "f": 8500, "hf": 0.013, "b": 9000, "hb": 0.013, "y": 2024, "m": "man", "n": "Gro\u00dfenhainer Stra\u00dfe"}, "geometry": {"type": "LineString", "coordinates": [[411296.76, 5658955.72], [411286.15, 5658980.78], [411273.54, 5659012.37], [411254.02, 5659068.57]]}}, {"type": "Feature", "properties": {"t": 16200, "f": 7200, "hf": 0.013, "b": 9000, "hb": 0.013, "y": 2024, "m": "man", "n": "Gro\u00dfenhainer Stra\u00dfe"}, "geometry": {"type": "LineString", "coordinates": [[411254.02, 5659068.57], [411222.23, 5659192.01]]}}, {"type": "Feature", "properties": {"t": 10200, "f": 5000, "hf": 0.054, "b": 5200, "hb": 0.087, "y": 2025, "m": "estimate", "n": "Gro\u00dfenhainer Stra\u00dfe"}, "geometry": {"type": "LineString", "coordinates": [[411222.23, 5659192.01], [411219.57, 5659214.41], [411219.39, 5659229.78], [411220.31, 5659244.59], [411220.26, 5659263.6]]}}, {"type": "Feature", "properties": {"t": 10200, "f": 5000, "hf": 0.054, "b": 5200, "hb": 0.087, "y": 2025, "m": "estimate", "n": "Gro\u00dfenhainer Stra\u00dfe"}, "geometry": {"type": "LineString", "coordinates": [[411220.26, 5659263.6], [411218.09, 5659282.54], [411214.2, 5659311.24], [411203.47, 5659353.45], [411187.54, 5659406.21], [411176.89, 5659439.89]]}}, {"type": "Feature", "properties": {"t": 10200, "f": 5000, "hf": 0.054, "b": 5200, "hb": 0.087, "y": 2025, "m": "estimate", "n": "Gro\u00dfenhainer Stra\u00dfe"}, "geometry": {"type": "LineString", "coordinates": [[411176.89, 5659439.89], [411155.7, 5659505.08], [411111.33, 5659645.92]]}}, {"type": "Feature", "properties": {"t": 10200, "f": 5000, "hf": 0.054, "b": 5200, "hb": 0.087, "y": 2025, "m": "estimate", "n": "Gro\u00dfenhainer Stra\u00dfe"}, "geometry": {"type": "LineString", "coordinates": [[411111.33, 5659645.92], [411104.42, 5659662.81], [411099.24, 5659674.29], [411086.65, 5659697.62], [411034.08, 5659788.39]]}}, {"type": "Feature", "properties": {"t": 10200, "f": 5000, "hf": 0.054, "b": 5200, "hb": 0.087, "y": 2025, "m": "estimate", "n": "Gro\u00dfenhainer Stra\u00dfe"}, "geometry": {"type": "LineString", "coordinates": [[411034.08, 5659788.39], [410973.72, 5659882.77], [410914.41, 5659976.37]]}}, {"type": "Feature", "properties": {"t": 3300, "f": 1800, "hf": 0.028, "b": 1500, "hb": 0.027, "y": 2026, "m": "man", "n": "Gro\u00dfenhainer Platz"}, "geometry": {"type": "LineString", "coordinates": [[411358.05, 5658649.09], [411381.97, 5658658.95], [411434.18, 5658660.43]]}}, {"type": "Feature", "properties": {"t": 14500, "f": 7400, "hf": 0.038, "b": 7100, "hb": 0.018, "y": 2013, "m": "man", "n": "Gro\u00dfenhainer Platz"}, "geometry": {"type": "LineString", "coordinates": [[411434.18, 5658660.43], [411413.66, 5658699.24]]}}, {"type": "Feature", "properties": {"t": 12700, "f": 6600, "hf": 0.008, "b": 6100, "hb": 0.016, "y": 2024, "m": "man", "n": "Fritz-Reuter-Stra\u00dfe"}, "geometry": {"type": "LineString", "coordinates": [[412000.0, 5658649.54], [411949.6, 5658672.07]]}}, {"type": "Feature", "properties": {"t": 12700, "f": 6600, "hf": 0.008, "b": 6100, "hb": 0.016, "y": 2024, "m": "man", "n": "Fritz-Reuter-Stra\u00dfe"}, "geometry": {"type": "LineString", "coordinates": [[411949.6, 5658672.07], [411889.78, 5658700.62], [411827.11, 5658731.38]]}}, {"type": "Feature", "properties": {"t": 12700, "f": 6600, "hf": 0.008, "b": 6100, "hb": 0.016, "y": 2024, "m": "man", "n": "Fritz-Reuter-Stra\u00dfe"}, "geometry": {"type": "LineString", "coordinates": [[411827.11, 5658731.38], [411673.19, 5658804.79]]}}, {"type": "Feature", "properties": {"t": 8400, "f": 3600, "hf": 0.008, "b": 4800, "hb": 0.019, "y": 2024, "m": "man", "n": "Fritz-Reuter-Stra\u00dfe"}, "geometry": {"type": "LineString", "coordinates": [[411673.19, 5658804.79], [411544.81, 5658864.03], [411390.14, 5658934.7], [411329.05, 5658962.1], [411287.14, 5658980.47], [411296.76, 5658955.72]]}}, {"type": "Feature", "properties": {"t": 1800, "f": 800, "hf": 0.087, "b": 1000, "hb": 0.06, "y": 2013, "m": "man", "n": "Weinb\u00f6hlaer Stra\u00dfe"}, "geometry": {"type": "LineString", "coordinates": [[411176.89, 5659439.89], [411174.28, 5659454.92], [411211.46, 5659538.23], [411231.86, 5659586.27], [411270.13, 5659662.39], [411282.21, 5659689.7]]}}, {"type": "Feature", "properties": {"t": 1700, "f": 700, "hf": 0.086, "b": 1000, "hb": 0.06, "y": 2025, "m": "man", "n": "Weinb\u00f6hlaer Stra\u00dfe"}, "geometry": {"type": "LineString", "coordinates": [[411282.21, 5659689.7], [411298.61, 5659718.11], [411318.13, 5659748.21], [411344.92, 5659785.25], [411409.08, 5659866.28], [411482.29, 5659960.3], [411510.03, 5660000.0]]}}, {"type": "Feature", "properties": {"t": 10200, "f": 5000, "hf": 0.054, "b": 5200, "hb": 0.087, "y": 2025, "m": "estimate", "n": "Trachenberger Platz"}, "geometry": {"type": "LineString", "coordinates": [[410914.41, 5659976.37], [410898.5, 5660000.0]]}}, {"type": "Feature", "properties": {"t": 26400, "f": 15400, "hf": 0.034, "b": 11000, "hb": 0.031, "y": 2025, "m": "loop", "n": "Hansastra\u00dfe"}, "geometry": {"type": "LineString", "coordinates": [[411652.14, 5658000.0], [411654.56, 5658107.51]]}}, {"type": "Feature", "properties": {"t": 26400, "f": 15400, "hf": 0.034, "b": 11000, "hb": 0.031, "y": 2025, "m": "loop", "n": "Hansastra\u00dfe"}, "geometry": {"type": "LineString", "coordinates": [[411654.56, 5658107.51], [411656.52, 5658153.44], [411654.94, 5658183.76]]}}, {"type": "Feature", "properties": {"t": 21700, "f": 11900, "hf": 0.024, "b": 9800, "hb": 0.081, "y": 2025, "m": "estimate", "n": "Hansastra\u00dfe"}, "geometry": {"type": "LineString", "coordinates": [[411654.94, 5658183.76], [411657.95, 5658271.51]]}}, {"type": "Feature", "properties": {"t": 21700, "f": 11900, "hf": 0.024, "b": 9800, "hb": 0.081, "y": 2025, "m": "estimate", "n": "Hansastra\u00dfe"}, "geometry": {"type": "LineString", "coordinates": [[411657.95, 5658271.51], [411664.9, 5658494.07], [411665.25, 5658524.87], [411666.35, 5658551.36]]}}, {"type": "Feature", "properties": {"t": 21700, "f": 11900, "hf": 0.024, "b": 9800, "hb": 0.081, "y": 2025, "m": "estimate", "n": "Hansastra\u00dfe"}, "geometry": {"type": "LineString", "coordinates": [[411666.35, 5658551.36], [411667.08, 5658585.6], [411668.98, 5658629.96], [411671.82, 5658756.87], [411673.19, 5658804.79]]}}, {"type": "Feature", "properties": {"t": 22100, "f": 10300, "hf": 0.033, "b": 11800, "hb": 0.033, "y": 2025, "m": "loop", "n": "Hansastra\u00dfe"}, "geometry": {"type": "LineString", "coordinates": [[411673.19, 5658804.79], [411678.03, 5659043.72]]}}, {"type": "Feature", "properties": {"t": 22100, "f": 10300, "hf": 0.033, "b": 11800, "hb": 0.033, "y": 2025, "m": "loop", "n": "Hansastra\u00dfe"}, "geometry": {"type": "LineString", "coordinates": [[411678.03, 5659043.72], [411679.88, 5659086.1], [411684.99, 5659146.12], [411689.3, 5659210.33], [411692.8, 5659287.78], [411693.5, 5659330.15]]}}, {"type": "Feature", "properties": {"t": 22100, "f": 10300, "hf": 0.033, "b": 11800, "hb": 0.033, "y": 2025, "m": "loop", "n": "Hansastra\u00dfe"}, "geometry": {"type": "LineString", "coordinates": [[411693.5, 5659330.15], [411701.42, 5659661.54], [411702.45, 5659734.89], [411699.34, 5659778.14], [411692.77, 5659814.47], [411687.92, 5659833.51], [411679.45, 5659862.92], [411667.85, 5659893.02], [411657.65, 5659915.34], [411640.17, 5659947.52], [411616.3, 5659983.68], [411604.97, 5660000.0]]}}, {"type": "Feature", "properties": {"t": 3900, "f": 400, "hf": 0.05, "b": 3500, "hb": 0.069, "y": 2021, "m": "man", "n": "L\u00f6\u00dfnitzstra\u00dfe"}, "geometry": {"type": "LineString", "coordinates": [[411863.59, 5658179.18], [411828.05, 5658179.41]]}}, {"type": "Feature", "properties": {"t": 3200, "f": 300, "hf": 0.033, "b": 2900, "hb": 0.014, "y": 2024, "m": "man", "n": "L\u00f6\u00dfnitzstra\u00dfe"}, "geometry": {"type": "LineString", "coordinates": [[411828.05, 5658179.41], [411785.46, 5658179.94], [411745.23, 5658181.12]]}}, {"type": "Feature", "properties": {"t": 3200, "f": 300, "hf": 0.033, "b": 2900, "hb": 0.014, "y": 2024, "m": "man", "n": "L\u00f6\u00dfnitzstra\u00dfe"}, "geometry": {"type": "LineString", "coordinates": [[411745.23, 5658181.12], [411654.94, 5658183.76]]}}, {"type": "Feature", "properties": {"t": 9500, "f": 4300, "hf": 0.04, "b": 5200, "hb": 0.042, "y": 2025, "m": "loop", "n": "Hechtstra\u00dfe"}, "geometry": {"type": "LineString", "coordinates": [[412000.0, 5659880.06], [411953.39, 5659960.01], [411934.27, 5659992.05]]}}, {"type": "Feature", "properties": {"t": 9500, "f": 4300, "hf": 0.04, "b": 5200, "hb": 0.042, "y": 2025, "m": "loop", "n": "Hechtstra\u00dfe"}, "geometry": {"type": "LineString", "coordinates": [[411934.27, 5659992.05], [411930.11, 5659997.96], [411928.23, 5660000.0]]}}, {"type": "Feature", "properties": {"t": 3200, "f": 1500, "hf": 0.033, "b": 1700, "hb": 0.041, "y": 2026, "m": "man", "n": "Messering"}, "geometry": {"type": "LineString", "coordinates": [[410578.43, 5658000.0], [410526.67, 5658028.69], [410425.77, 5658085.92]]}}, {"type": "Feature", "properties": {"t": 3200, "f": 1500, "hf": 0.033, "b": 1700, "hb": 0.041, "y": 2026, "m": "man", "n": "Messering"}, "geometry": {"type": "LineString", "coordinates": [[410425.77, 5658085.92], [410380.14, 5658109.72], [410332.2, 5658134.03], [410297.13, 5658150.16]]}}, {"type": "Feature", "properties": {"t": 1700, "f": 800, "hf": 0.062, "b": 900, "hb": 0.067, "y": 2007, "m": "man", "n": "Messering"}, "geometry": {"type": "LineString", "coordinates": [[410297.13, 5658150.16], [410224.83, 5658175.9], [410190.57, 5658187.44]]}}, {"type": "Feature", "properties": {"t": 1700, "f": 800, "hf": 0.062, "b": 900, "hb": 0.067, "y": 2007, "m": "man", "n": "Messering"}, "geometry": {"type": "LineString", "coordinates": [[410190.57, 5658187.44], [410179.59, 5658203.58], [410157.98, 5658217.77], [410116.12, 5658233.3], [410070.87, 5658242.08], [410027.66, 5658244.78], [410000.0, 5658241.61]]}}, {"type": "Feature", "properties": {"t": 1700, "f": 800, "hf": 0.062, "b": 900, "hb": 0.067, "y": 2007, "m": "man", "n": "Messering"}, "geometry": {"type": "LineString", "coordinates": [[410190.57, 5658187.44], [410161.58, 5658189.95], [410088.77, 5658211.18]]}}, {"type": "Feature", "properties": {"t": 1400, "f": 800, "hf": 0.15, "b": 600, "hb": 0.167, "y": 2008, "m": "man", "n": "Schlachthofstra\u00dfe"}, "geometry": {"type": "LineString", "coordinates": [[410058.7, 5658000.0], [410072.21, 5658094.95], [410082.43, 5658172.01], [410088.77, 5658211.18]]}}]}