{"type": "FeatureCollection", "attribution": "Verkehrsmengen \u00a9 Landeshauptstadt Dresden (dl-de/by-2-0)", "crs": {"type": "name", "properties": {"name": "urn:ogc:def:crs:EPSG::25833"}}, "features": [{"type": "Feature", "properties": {"t": 6000, "b": 6000, "hb": 0.052, "y": 2021, "m": "man", "n": "Stauffenbergallee"}, "geometry": {"type": "LineString", "coordinates": [[414000.0, 5658389.45], [414148.38, 5658304.36], [414211.45, 5658297.72], [414227.73, 5658296.65]]}}, {"type": "Feature", "properties": {"t": 5300, "f": 5300, "hf": 0.04, "y": 2021, "m": "man", "n": "Stauffenbergallee"}, "geometry": {"type": "LineString", "coordinates": [[414000.0, 5658450.37], [414022.19, 5658451.0], [414180.93, 5658362.55], [414227.73, 5658296.65]]}}, {"type": "Feature", "properties": {"t": 8000, "f": 4200, "hf": 0.012, "b": 3800, "hb": 0.013, "y": 2019, "m": "man", "n": "Heideparkstra\u00dfe"}, "geometry": {"type": "LineString", "coordinates": [[415036.94, 5658232.52], [415014.86, 5658236.98], [414999.68, 5658239.01], [414895.64, 5658246.23], [414812.73, 5658251.22]]}}, {"type": "Feature", "properties": {"t": 6400, "f": 3500, "hf": 0.023, "b": 2900, "hb": 0.024, "y": 2016, "m": "man", "n": "Radeberger Stra\u00dfe"}, "geometry": {"type": "LineString", "coordinates": [[414000.0, 5658195.63], [414049.92, 5658229.05]]}}, {"type": "Feature", "properties": {"t": 6500, "f": 3400, "hf": 0.029, "b": 3100, "hb": 0.032, "y": 2021, "m": "man", "n": "Radeberger Stra\u00dfe"}, "geometry": {"type": "LineString", "coordinates": [[414049.92, 5658229.05], [414116.4, 5658267.72], [414129.73, 5658274.2], [414168.61, 5658285.49], [414194.53, 5658291.23], [414227.73, 5658296.65]]}}, {"type": "Feature", "properties": {"t": 9800, "f": 4800, "hf": 0.027, "b": 5000, "hb": 0.032, "y": 2021, "m": "man", "n": "Radeberger Stra\u00dfe"}, "geometry": {"type": "LineString", "coordinates": [[414227.73, 5658296.65], [414270.62, 5658309.92], [414285.99, 5658314.37], [414332.46, 5658329.18], [414385.59, 5658348.06], [414393.92, 5658350.47], [414403.08, 5658351.82]]}}, {"type": "Feature", "properties": {"t": 8200, "f": 3400, "hf": 0.053, "b": 4800, "hb": 0.058, "y": 2020, "m": "man", "n": "Waldschl\u00f6\u00dfchenstra\u00dfe"}, "geometry": {"type": "LineString", "coordinates": [[414267.24, 5658038.71], [414262.79, 5658087.47], [414254.82, 5658161.92]]}}, {"type": "Feature", "properties": {"t": 7100, "f": 2900, "hf": 0.045, "b": 4200, "hb": 0.062, "y": 2021, "m": "man", "n": "Waldschl\u00f6\u00dfchenstra\u00dfe"}, "geometry": {"type": "LineString", "coordinates": [[414254.82, 5658161.92], [414244.28, 5658247.8], [414241.87, 5658266.13], [414240.39, 5658275.02], [414237.25, 5658281.31], [414232.25, 5658288.72], [414227.73, 5658296.65]]}}, {"type": "Feature", "properties": {"t": 160, "f": 90, "hf": 0.0, "b": 70, "hb": 0.0, "y": 2012, "m": "man", "n": "Bettinastra\u00dfe"}, "geometry": {"type": "LineString", "coordinates": [[414671.88, 5658167.6], [414712.15, 5658141.8], [414754.47, 5658115.51]]}}, {"type": "Feature", "properties": {"t": 1800, "b": 1800, "hb": 0.006, "y": 2012, "m": "man", "n": "B\u00f6hmertstra\u00dfe"}, "geometry": {"type": "LineString", "coordinates": [[414976.47, 5658131.72], [414917.56, 5658151.59], [414877.76, 5658165.97], [414855.46, 5658181.39], [414817.33, 5658229.94], [414812.73, 5658251.22]]}}, {"type": "Feature", "properties": {"t": 300, "f": 100, "hf": 0.0, "b": 200, "hb": 0.0, "y": 2012, "m": "man", "n": "Klarastra\u00dfe"}, "geometry": {"type": "LineString", "coordinates": [[414671.88, 5658167.6], [414696.47, 5658217.82], [414715.05, 5658259.86]]}}, {"type": "Feature", "properties": {"t": 400, "f": 100, "hf": 0.0, "b": 300, "hb": 0.0, "y": 2012, "m": "man", "n": "Angelikastra\u00dfe"}, "geometry": {"type": "LineString", "coordinates": [[414754.47, 5658115.51], [414809.59, 5658229.69], [414812.73, 5658251.22]]}}, {"type": "Feature", "properties": {"t": 12100, "f": 6200, "hf": 0.023, "b": 5900, "hb": 0.025, "y": 2014, "m": "man", "n": "Charlottenstra\u00dfe"}, "geometry": {"type": "LineString", "coordinates": [[414403.08, 5658351.82], [414411.55, 5658350.29], [414419.39, 5658347.76], [414440.47, 5658340.03], [414455.46, 5658335.49]]}}, {"type": "Feature", "properties": {"t": 12100, "f": 6200, "hf": 0.023, "b": 5900, "hb": 0.025, "y": 2014, "m": "man", "n": "Charlottenstra\u00dfe"}, "geometry": {"type": "LineString", "coordinates": [[414455.46, 5658335.49], [414509.84, 5658316.09], [414574.03, 5658295.93], [414623.61, 5658282.61]]}}, {"type": "Feature", "properties": {"t": 12100, "f": 6200, "hf": 0.023, "b": 5900, "hb": 0.025, "y": 2014, "m": "man", "n": "Charlottenstra\u00dfe"}, "geometry": {"type": "LineString", "coordinates": [[414623.61, 5658282.61], [414668.84, 5658270.87], [414715.05, 5658259.86]]}}, {"type": "Feature", "properties": {"t": 12100, "f": 6200, "hf": 0.023, "b": 5900, "hb": 0.025, "y": 2014, "m": "man", "n": "Charlottenstra\u00dfe"}, "geometry": {"type": "LineString", "coordinates": [[414715.05, 5658259.86], [414763.65, 5658254.8], [414812.73, 5658251.22]]}}, {"type": "Feature", "properties": {"t": 10900, "f": 5700, "hf": 0.028, "b": 5200, "hb": 0.031, "y": 2020, "m": "man", "n": "Fischhausstra\u00dfe"}, "geometry": {"type": "LineString", "coordinates": [[414919.38, 5658000.0], [414933.93, 5658034.78]]}}, {"type": "Feature", "properties": {"t": 10900, "f": 5700, "hf": 0.028, "b": 5200, "hb": 0.031, "y": 2020, "m": "man", "n": "Fischhausstra\u00dfe"}, "geometry": {"type": "LineString", "coordinates": [[414933.93, 5658034.78], [414976.47, 5658131.72]]}}, {"type": "Feature", "properties": {"t": 10900, "f": 5700, "hf": 0.028, "b": 5200, "hb": 0.031, "y": 2020, "m": "man", "n": "Fischhausstra\u00dfe"}, "geometry": {"type": "LineString", "coordinates": [[414976.47, 5658131.72], [414987.39, 5658156.94], [415000.35, 5658182.67], [415017.57, 5658208.22], [415036.94, 5658232.52]]}}, {"type": "Feature", "properties": {"t": 11000, "f": 5600, "hf": 0.048, "b": 5400, "hb": 0.043, "y": 2025, "m": "loop", "n": "Fischhausstra\u00dfe"}, "geometry": {"type": "LineString", "coordinates": [[415036.94, 5658232.52], [415046.39, 5658240.92], [415122.2, 5658331.56]]}}, {"type": "Feature", "properties": {"t": 11000, "f": 5600, "hf": 0.048, "b": 5400, "hb": 0.043, "y": 2025, "m": "loop", "n": "Fischhausstra\u00dfe"}, "geometry": {"type": "LineString", "coordinates": [[415122.2, 5658331.56], [415215.96, 5658442.17], [415231.82, 5658459.96], [415247.21, 5658478.66], [415253.47, 5658485.22]]}}, {"type": "Feature", "properties": {"t": 11000, "f": 5600, "hf": 0.048, "b": 5400, "hb": 0.043, "y": 2025, "m": "loop", "n": "Fischhausstra\u00dfe"}, "geometry": {"type": "LineString", "coordinates": [[415253.47, 5658485.22], [415261.01, 5658495.83], [415272.5, 5658508.32], [415291.57, 5658525.72], [415319.9, 5658548.86], [415349.7, 5658574.97], [415366.73, 5658588.02], [415412.65, 5658625.88], [415430.42, 5658639.76], [415446.8, 5658653.98], [415468.05, 5658670.88], [415486.54, 5658686.64], [415511.08, 5658706.35], [415526.04, 5658719.01], [415546.79, 5658735.36], [415553.58, 5658741.63]]}}, {"type": "Feature", "properties": {"t": 300, "f": 200, "hf": 0.0, "b": 100, "hb": 0.0, "y": 2012, "m": "man", "n": "Judeichstra\u00dfe"}, "geometry": {"type": "LineString", "coordinates": [[414933.93, 5658034.78], [414894.65, 5658060.4], [414878.15, 5658069.31], [414850.89, 5658081.04], [414807.2, 5658096.63], [414775.33, 5658107.61], [414754.47, 5658115.51]]}}, {"type": "Feature", "properties": {"t": 500, "b": 500, "hb": 0.006, "y": 2010, "m": "man", "n": "Wilhelminenstra\u00dfe"}, "geometry": {"type": "LineString", "coordinates": [[415180.86, 5658000.0], [415174.19, 5658008.6], [415080.15, 5658068.42], [415011.53, 5658113.05], [414985.27, 5658129.3], [414976.47, 5658131.72]]}}, {"type": "Feature", "properties": {"t": 18300, "f": 5900, "hf": 0.031, "b": 12400, "hb": 0.032, "y": 2020, "m": "man", "n": "Bautzner Stra\u00dfe"}, "geometry": {"type": "LineString", "coordinates": [[414119.66, 5658000.0], [414188.52, 5658018.61], [414267.24, 5658038.71]]}}, {"type": "Feature", "properties": {"t": 9600, "f": 9600, "hf": 0.036, "y": 2020, "m": "man", "n": "Bautzner Stra\u00dfe"}, "geometry": {"type": "LineString", "coordinates": [[414267.24, 5658038.71], [414268.74, 5658031.56], [414280.88, 5658022.07], [414313.51, 5658009.08], [414335.69, 5658001.2], [414340.07, 5658000.0]]}}, {"type": "Feature", "properties": {"t": 14700, "b": 14700, "hb": 0.032, "y": 2020, "m": "man", "n": "Bautzner Stra\u00dfe"}, "geometry": {"type": "LineString", "coordinates": [[414267.24, 5658038.71], [414267.71, 5658040.58], [414311.57, 5658050.03], [414325.07, 5658050.96], [414338.63, 5658049.76]]}}, {"type": "Feature", "properties": {"t": 14700, "b": 14700, "hb": 0.032, "y": 2020, "m": "man", "n": "Bautzner Stra\u00dfe"}, "geometry": {"type": "LineString", "coordinates": [[414338.63, 5658049.76], [414369.35, 5658045.75], [414384.62, 5658040.68], [414394.81, 5658035.82], [414410.73, 5658027.62], [414436.6, 5658009.16], [414450.35, 5658000.0]]}}, {"type": "Feature", "properties": {"t": 11000, "f": 5600, "hf": 0.048, "b": 5400, "hb": 0.043, "y": 2025, "m": "loop", "n": "Radeberger Landstra\u00dfe"}, "geometry": {"type": "LineString", "coordinates": [[415553.58, 5658741.63], [415691.57, 5658855.07]]}}, {"type": "Feature", "properties": {"t": 11000, "f": 5600, "hf": 0.048, "b": 5400, "hb": 0.043, "y": 2025, "m": "loop", "n": "Radeberger Landstra\u00dfe"}, "geometry": {"type": "LineString", "coordinates": [[415691.57, 5658855.07], [415745.11, 5658894.55], [415773.67, 5658912.26], [415900.67, 5658992.99], [415928.7, 5659013.22], [415944.91, 5659026.13], [415961.22, 5659041.89], [415980.46, 5659064.82], [415991.94, 5659081.12], [416000.0, 5659094.14]]}}, {"type": "Feature", "properties": {"t": 7800, "f": 7800, "hf": 0.026, "y": 2014, "m": "man", "n": "Waldschl\u00f6\u00dfchenbr\u00fccke", "br": 1}, "geometry": {"type": "LineString", "coordinates": [[414290.18, 5658000.0], [414293.81, 5658002.23], [414304.17, 5658007.1], [414311.86, 5658009.8], [414320.52, 5658010.43], [414333.14, 5658010.43], [414346.9, 5658009.51], [414372.75, 5658006.0], [414383.49, 5658004.12], [414401.63, 5658000.0]]}}, {"type": "Feature", "properties": {"t": 22700, "f": 11900, "hf": 0.041, "b": 10800, "hb": 0.031, "y": 2014, "m": "man", "n": "Waldschl\u00f6\u00dfchenbr\u00fccke", "br": 1}, "geometry": {"type": "LineString", "coordinates": [[414272.4, 5658000.0], [414256.16, 5658137.8], [414252.83, 5658161.44], [414251.57, 5658181.88], [414241.3, 5658266.33], [414239.84, 5658274.59], [414221.58, 5658288.45], [414204.54, 5658304.03], [414178.92, 5658326.54], [414116.11, 5658361.4], [414000.0, 5658427.33]]}}]}