{"type": "FeatureCollection", "attribution": "Verkehrsmengen \u00a9 Landeshauptstadt Dresden (dl-de/by-2-0)", "crs": {"type": "name", "properties": {"name": "urn:ogc:def:crs:EPSG::25833"}}, "features": [{"type": "Feature", "properties": {"t": 4900, "f": 2300, "hf": 0.057, "b": 2600, "hb": 0.054, "y": 2025, "m": "man", "n": "Rosenstra\u00dfe"}, "geometry": {"type": "LineString", "coordinates": [[410000.0, 5655719.83], [409983.48, 5655713.42], [409918.44, 5655689.46], [409821.43, 5655656.32], [409814.36, 5655655.74], [409809.7, 5655658.34], [409806.9, 5655663.54], [409762.49, 5655761.69]]}}, {"type": "Feature", "properties": {"t": 18700, "f": 9600, "hf": 0.041, "b": 9100, "hb": 0.024, "y": 2026, "m": "man", "n": "Budapester Stra\u00dfe"}, "geometry": {"type": "LineString", "coordinates": [[410000.0, 5654770.47], [409960.31, 5654718.62]]}}, {"type": "Feature", "properties": {"t": 3800, "f": 2000, "hf": 0.055, "b": 1800, "hb": 0.039, "y": 2025, "m": "man", "n": "Freiberger Stra\u00dfe"}, "geometry": {"type": "LineString", "coordinates": [[410000.0, 5655971.44], [409959.32, 5655951.29], [409943.64, 5655942.16], [409927.92, 5655927.78]]}}, {"type": "Feature", "properties": {"t": 3800, "f": 2000, "hf": 0.055, "b": 1800, "hb": 0.039, "y": 2025, "m": "man", "n": "Freiberger Stra\u00dfe"}, "geometry": {"type": "LineString", "coordinates": [[409927.92, 5655927.78], [409844.71, 5655842.22], [409762.49, 5655761.69]]}}, {"type": "Feature", "properties": {"t": 3800, "f": 1500, "hf": 0.047, "b": 2300, "hb": 0.039, "y": 2010, "m": "man", "n": "Freiberger Stra\u00dfe"}, "geometry": {"type": "LineString", "coordinates": [[409762.49, 5655761.69], [409709.46, 5655712.03], [409681.88, 5655688.33], [409651.89, 5655660.66]]}}, {"type": "Feature", "properties": {"t": 1400, "f": 600, "hf": 0.117, "b": 800, "hb": 0.05, "y": 2019, "m": "man", "n": "Freiberger Stra\u00dfe"}, "geometry": {"type": "LineString", "coordinates": [[409651.89, 5655660.66], [409638.19, 5655648.53], [409629.3, 5655641.86], [409618.38, 5655635.57], [409600.97, 5655628.16], [409582.75, 5655621.52]]}}, {"type": "Feature", "properties": {"t": 1400, "f": 600, "hf": 0.117, "b": 800, "hb": 0.05, "y": 2019, "m": "man", "n": "Freiberger Stra\u00dfe"}, "geometry": {"type": "LineString", "coordinates": [[409493.09, 5655587.65], [409389.2, 5655548.91], [409370.43, 5655540.52], [409360.03, 5655534.18], [409333.59, 5655512.73]]}}, {"type": "Feature", "properties": {"t": 1400, "f": 600, "hf": 0.117, "b": 800, "hb": 0.05, "y": 2019, "m": "man", "n": "Freiberger Stra\u00dfe"}, "geometry": {"type": "LineString", "coordinates": [[409333.59, 5655512.73], [409304.66, 5655487.05], [409273.87, 5655459.14]]}}, {"type": "Feature", "properties": {"t": 3300, "f": 2600, "hf": 0.108, "b": 700, "hb": 0.271, "y": 2019, "m": "man", "n": "Freiberger Stra\u00dfe"}, "geometry": {"type": "LineString", "coordinates": [[409273.87, 5655459.14], [409248.79, 5655449.36], [409240.56, 5655445.77], [409232.97, 5655444.93], [409221.99, 5655446.62], [409217.77, 5655447.88], [409199.83, 5655455.06], [409164.92, 5655474.22]]}}, {"type": "Feature", "properties": {"t": 15200, "f": 8400, "hf": 0.054, "b": 6800, "hb": 0.047, "y": 2019, "m": "man", "n": "Tharandter Stra\u00dfe"}, "geometry": {"type": "LineString", "coordinates": [[409164.92, 5655474.22], [409142.28, 5655421.13], [409109.34, 5655351.29]]}}, {"type": "Feature", "properties": {"t": 14500, "f": 7600, "hf": 0.05, "b": 6900, "hb": 0.055, "y": 2016, "m": "man", "n": "Tharandter Stra\u00dfe"}, "geometry": {"type": "LineString", "coordinates": [[409127.62, 5655199.79], [409160.95, 5655119.16], [409179.38, 5655071.5]]}}, {"type": "Feature", "properties": {"t": 14600, "f": 7000, "hf": 0.053, "b": 7600, "hb": 0.049, "y": 2020, "m": "man", "n": "Tharandter Stra\u00dfe"}, "geometry": {"type": "LineString", "coordinates": [[409179.38, 5655071.5], [409190.59, 5655043.68], [409199.06, 5655021.17]]}}, {"type": "Feature", "properties": {"t": 14600, "f": 7000, "hf": 0.053, "b": 7600, "hb": 0.049, "y": 2020, "m": "man", "n": "Tharandter Stra\u00dfe"}, "geometry": {"type": "LineString", "coordinates": [[409199.06, 5655021.17], [409208.55, 5654989.78], [409213.64, 5654955.29], [409215.97, 5654924.49], [409216.33, 5654892.45]]}}, {"type": "Feature", "properties": {"t": 13900, "f": 6900, "hf": 0.052, "b": 7000, "hb": 0.051, "y": 2020, "m": "man", "n": "Tharandter Stra\u00dfe"}, "geometry": {"type": "LineString", "coordinates": [[409216.33, 5654892.45], [409215.76, 5654848.37], [409214.49, 5654801.56], [409211.42, 5654758.98], [409208.33, 5654729.62], [409204.59, 5654709.79]]}}, {"type": "Feature", "properties": {"t": 4000, "f": 1600, "hf": 0.013, "b": 2400, "hb": 0.042, "y": 2020, "m": "man", "n": "Tharandter Stra\u00dfe"}, "geometry": {"type": "LineString", "coordinates": [[409204.59, 5654709.79], [409199.7, 5654683.32], [409196.73, 5654670.49], [409192.43, 5654658.43], [409102.84, 5654480.62]]}}, {"type": "Feature", "properties": {"t": 12700, "f": 5800, "hf": 0.016, "b": 6900, "hb": 0.013, "y": 2020, "m": "man", "n": "Tharandter Stra\u00dfe"}, "geometry": {"type": "LineString", "coordinates": [[409102.84, 5654480.62], [409083.14, 5654443.7], [409040.7, 5654358.63], [409005.25, 5654292.39], [408999.37, 5654280.85]]}}, {"type": "Feature", "properties": {"t": 20100, "f": 10500, "hf": 0.048, "b": 9600, "hb": 0.05, "y": 2020, "m": "man", "n": "Tharandter Stra\u00dfe"}, "geometry": {"type": "LineString", "coordinates": [[408999.37, 5654280.85], [408992.54, 5654263.48], [408984.6, 5654246.1]]}}, {"type": "Feature", "properties": {"t": 13900, "f": 6800, "hf": 0.034, "b": 7100, "hb": 0.044, "y": 2022, "m": "loop", "n": "Tharandter Stra\u00dfe"}, "geometry": {"type": "LineString", "coordinates": [[408984.6, 5654246.1], [408970.67, 5654145.53], [408963.68, 5654098.1]]}}, {"type": "Feature", "properties": {"t": 13900, "f": 6800, "hf": 0.034, "b": 7100, "hb": 0.044, "y": 2022, "m": "loop", "n": "Tharandter Stra\u00dfe"}, "geometry": {"type": "LineString", "coordinates": [[408963.68, 5654098.1], [408959.33, 5654064.85], [408955.07, 5654044.65]]}}, {"type": "Feature", "properties": {"t": 11900, "f": 5700, "hf": 0.033, "b": 6200, "hb": 0.042, "y": 2025, "m": "loop", "n": "Tharandter Stra\u00dfe"}, "geometry": {"type": "LineString", "coordinates": [[408955.07, 5654044.65], [408953.38, 5654036.23], [408948.73, 5654024.33], [408935.7, 5654000.0]]}}, {"type": "Feature", "properties": {"t": 580, "f": 80, "hf": 0.0, "b": 500, "hb": 0.02, "y": 2022, "m": "man", "n": "Oederaner Stra\u00dfe"}, "geometry": {"type": "LineString", "coordinates": [[409435.01, 5655405.63], [409371.19, 5655316.42]]}}, {"type": "Feature", "properties": {"t": 410, "f": 10, "hf": 0.0, "b": 400, "hb": 0.025, "y": 2022, "m": "man", "n": "Oederaner Stra\u00dfe"}, "geometry": {"type": "LineString", "coordinates": [[409371.19, 5655316.42], [409361.92, 5655298.66], [409358.97, 5655276.06]]}}, {"type": "Feature", "properties": {"t": 5200, "f": 1900, "hf": 0.053, "b": 3300, "hb": 0.024, "y": 2016, "m": "man", "n": "Oederaner Stra\u00dfe"}, "geometry": {"type": "LineString", "coordinates": [[409320.87, 5655218.04], [409306.96, 5655206.37], [409261.65, 5655175.05], [409259.3, 5655172.88]]}}, {"type": "Feature", "properties": {"t": 4900, "f": 1800, "hf": 0.056, "b": 3100, "hb": 0.026, "y": 2016, "m": "man", "n": "Oederaner Stra\u00dfe"}, "geometry": {"type": "LineString", "coordinates": [[409259.3, 5655172.88], [409198.74, 5655092.46], [409179.38, 5655071.5]]}}, {"type": "Feature", "properties": {"t": 600, "f": 300, "hf": 0.067, "b": 300, "hb": 0.05, "y": 2003, "m": "man", "n": "Klingenberger Stra\u00dfe"}, "geometry": {"type": "LineString", "coordinates": [[409411.9, 5654170.6], [409387.3, 5654138.04], [409340.24, 5654070.85]]}}, {"type": "Feature", "properties": {"t": 9400, "f": 4800, "hf": 0.019, "b": 4600, "hb": 0.022, "y": 2025, "m": "man", "n": "Chemnitzer Stra\u00dfe"}, "geometry": {"type": "LineString", "coordinates": [[409960.31, 5654718.62], [409907.86, 5654649.22], [409895.42, 5654631.15], [409842.89, 5654558.38]]}}, {"type": "Feature", "properties": {"t": 9400, "f": 4800, "hf": 0.019, "b": 4600, "hb": 0.022, "y": 2025, "m": "man", "n": "Chemnitzer Stra\u00dfe"}, "geometry": {"type": "LineString", "coordinates": [[409842.89, 5654558.38], [409774.78, 5654466.28], [409752.92, 5654438.27], [409720.75, 5654395.38]]}}, {"type": "Feature", "properties": {"t": 9400, "f": 4800, "hf": 0.019, "b": 4600, "hb": 0.022, "y": 2025, "m": "man", "n": "Chemnitzer Stra\u00dfe"}, "geometry": {"type": "LineString", "coordinates": [[409720.75, 5654395.38], [409669.03, 5654324.3], [409598.81, 5654232.4]]}}, {"type": "Feature", "properties": {"t": 8400, "f": 4300, "hf": 0.019, "b": 4100, "hb": 0.022, "y": 2025, "m": "man", "n": "Chemnitzer Stra\u00dfe"}, "geometry": {"type": "LineString", "coordinates": [[409598.81, 5654232.4], [409578.85, 5654205.27], [409510.68, 5654110.8]]}}, {"type": "Feature", "properties": {"t": 8400, "f": 4300, "hf": 0.019, "b": 4100, "hb": 0.022, "y": 2025, "m": "man", "n": "Chemnitzer Stra\u00dfe"}, "geometry": {"type": "LineString", "coordinates": [[409510.68, 5654110.8], [409464.56, 5654048.73], [409433.33, 5654008.08]]}}, {"type": "Feature", "properties": {"t": 8400, "f": 4300, "hf": 0.019, "b": 4100, "hb": 0.022, "y": 2025, "m": "man", "n": "Chemnitzer Stra\u00dfe"}, "geometry": {"type": "LineString", "coordinates": [[409433.33, 5654008.08], [409427.51, 5654000.0]]}}, {"type": "Feature", "properties": {"t": 130, "f": 60, "hf": 0.0, "b": 70, "hb": 0.0, "y": 2022, "m": "man", "n": "Ebertplatz"}, "geometry": {"type": "LineString", "coordinates": [[409273.87, 5655459.14], [409260.9, 5655453.59], [409274.19, 5655379.53], [409285.11, 5655356.27], [409262.44, 5655350.22]]}}, {"type": "Feature", "properties": {"t": 130, "f": 60, "hf": 0.0, "b": 70, "hb": 0.0, "y": 2022, "m": "man", "n": "Siebenlehner Stra\u00dfe"}, "geometry": {"type": "LineString", "coordinates": [[409307.74, 5655391.41], [409304.26, 5655381.32], [409371.19, 5655316.42]]}}, {"type": "Feature", "properties": {"t": 600, "f": 300, "hf": 0.2, "b": 300, "hb": 0.167, "y": 2003, "m": "man", "n": "Fabrikstra\u00dfe"}, "geometry": {"type": "LineString", "coordinates": [[409651.89, 5655660.66], [409641.03, 5655632.8], [409632.8, 5655613.89]]}}, {"type": "Feature", "properties": {"t": 600, "f": 300, "hf": 0.2, "b": 300, "hb": 0.167, "y": 2003, "m": "man", "n": "Fabrikstra\u00dfe"}, "geometry": {"type": "LineString", "coordinates": [[409632.8, 5655613.89], [409529.95, 5655349.12], [409482.69, 5655229.98], [409461.76, 5655173.03], [409455.72, 5655161.52], [409434.99, 5655113.72]]}}, {"type": "Feature", "properties": {"t": 600, "f": 300, "hf": 0.2, "b": 300, "hb": 0.167, "y": 2003, "m": "man", "n": "Fabrikstra\u00dfe"}, "geometry": {"type": "LineString", "coordinates": [[409434.99, 5655113.72], [409425.1, 5655089.58], [409408.77, 5655044.26], [409395.7, 5655011.86], [409396.23, 5654995.66], [409400.93, 5654975.8], [409410.33, 5654951.76], [409418.7, 5654923.02], [409424.97, 5654891.67], [409426.01, 5654873.38], [409418.25, 5654826.81], [409406.48, 5654787.02], [409393.49, 5654751.09], [409370.24, 5654701.42]]}}, {"type": "Feature", "properties": {"t": 37500, "f": 18500, "hf": 0.047, "b": 19000, "hb": 0.04, "y": 2025, "m": "man", "n": "Nossener Br\u00fccke", "br": 1}, "geometry": {"type": "LineString", "coordinates": [[409461.76, 5655173.03], [409478.28, 5655163.75], [409533.63, 5655130.75], [409577.07, 5655101.76], [409617.5, 5655072.62], [409659.95, 5655042.85], [409673.12, 5655032.96], [409700.54, 5655010.34], [409733.64, 5654979.5], [409765.67, 5654944.5], [409808.25, 5654888.62], [409838.86, 5654846.27], [409866.62, 5654809.38], [409907.67, 5654763.71], [409936.14, 5654736.3], [409960.31, 5654718.62]]}}, {"type": "Feature", "properties": {"t": 1800, "f": 700, "hf": 0.057, "b": 1100, "hb": 0.055, "y": 2016, "m": "man", "n": "Zwickauer Stra\u00dfe"}, "geometry": {"type": "LineString", "coordinates": [[409896.48, 5654951.34], [409867.55, 5654924.84], [409838.68, 5654897.42], [409814.64, 5654878.22], [409762.83, 5654828.03], [409624.1, 5654700.65], [409604.61, 5654673.38], [409568.89, 5654607.46], [409549.5, 5654574.67], [409529.32, 5654535.49]]}}, {"type": "Feature", "properties": {"t": 2300, "f": 1100, "hf": 0.027, "b": 1200, "hb": 0.025, "y": 2017, "m": "man", "n": "Zwickauer Stra\u00dfe"}, "geometry": {"type": "LineString", "coordinates": [[409529.32, 5654535.49], [409452.78, 5654398.02], [409418.85, 5654334.46]]}}, {"type": "Feature", "properties": {"t": 1200, "f": 600, "hf": 0.0, "b": 600, "hb": 0.0, "y": 2017, "m": "man", "n": "Zwickauer Stra\u00dfe"}, "geometry": {"type": "LineString", "coordinates": [[409418.85, 5654334.46], [409359.73, 5654249.67]]}}, {"type": "Feature", "properties": {"t": 1200, "f": 600, "hf": 0.0, "b": 600, "hb": 0.0, "y": 2017, "m": "man", "n": "Zwickauer Stra\u00dfe"}, "geometry": {"type": "LineString", "coordinates": [[409359.73, 5654249.67], [409339.73, 5654224.01]]}}, {"type": "Feature", "properties": {"t": 1200, "f": 600, "hf": 0.0, "b": 600, "hb": 0.0, "y": 2017, "m": "man", "n": "Zwickauer Stra\u00dfe"}, "geometry": {"type": "LineString", "coordinates": [[409339.73, 5654224.01], [409269.21, 5654121.73]]}}, {"type": "Feature", "properties": {"t": 800, "f": 400, "hf": 0.075, "b": 400, "hb": 0.05, "y": 2009, "m": "man", "n": "Zwickauer Stra\u00dfe"}, "geometry": {"type": "LineString", "coordinates": [[409269.21, 5654121.73], [409184.8, 5654000.0]]}}, {"type": "Feature", "properties": {"t": 1700, "f": 400, "hf": 0.0, "b": 1300, "hb": 0.008, "y": 2022, "m": "man", "n": "Hohe Stra\u00dfe"}, "geometry": {"type": "LineString", "coordinates": [[409882.64, 5654276.94], [409819.35, 5654190.94], [409760.12, 5654111.61]]}}, {"type": "Feature", "properties": {"t": 1200, "f": 700, "hf": 0.0, "b": 500, "hb": 0.0, "y": 2022, "m": "man", "n": "Hohe Stra\u00dfe"}, "geometry": {"type": "LineString", "coordinates": [[409760.12, 5654111.61], [409718.46, 5654056.19], [409676.95, 5654000.0]]}}, {"type": "Feature", "properties": {"t": 600, "f": 300, "hf": 0.0, "b": 300, "hb": 0.0, "y": 2023, "m": "man", "n": "Kaitzer Stra\u00dfe"}, "geometry": {"type": "LineString", "coordinates": [[409861.19, 5654035.36], [409834.33, 5654000.0]]}}, {"type": "Feature", "properties": {"t": 27100, "f": 12200, "hf": 0.028, "b": 14900, "hb": 0.083, "y": 2025, "m": "estimate", "n": "N\u00fcrnberger Stra\u00dfe"}, "geometry": {"type": "LineString", "coordinates": [[409960.31, 5654718.62], [410000.0, 5654687.79]]}}, {"type": "Feature", "properties": {"t": 13600, "f": 6700, "hf": 0.049, "b": 6900, "hb": 0.046, "y": 2020, "m": "man", "n": "W\u00fcrzburger Stra\u00dfe"}, "geometry": {"type": "LineString", "coordinates": [[409102.84, 5654480.62], [409108.26, 5654475.93], [409115.11, 5654471.68], [409141.66, 5654461.95]]}}, {"type": "Feature", "properties": {"t": 12000, "f": 5400, "hf": 0.019, "b": 6600, "hb": 0.015, "y": 2018, "m": "man", "n": "W\u00fcrzburger Stra\u00dfe"}, "geometry": {"type": "LineString", "coordinates": [[409141.66, 5654461.95], [409223.49, 5654432.48]]}}, {"type": "Feature", "properties": {"t": 3300, "f": 1300, "hf": 0.008, "b": 2000, "hb": 0.015, "y": 2025, "m": "man", "n": "W\u00fcrzburger Stra\u00dfe"}, "geometry": {"type": "LineString", "coordinates": [[409223.49, 5654432.48], [409248.19, 5654421.67], [409272.35, 5654410.09], [409308.82, 5654391.86], [409348.89, 5654371.66], [409371.15, 5654359.09], [409418.85, 5654334.46]]}}, {"type": "Feature", "properties": {"t": 3300, "f": 1300, "hf": 0.008, "b": 2000, "hb": 0.015, "y": 2025, "m": "man", "n": "W\u00fcrzburger Stra\u00dfe"}, "geometry": {"type": "LineString", "coordinates": [[409418.85, 5654334.46], [409491.29, 5654294.32]]}}, {"type": "Feature", "properties": {"t": 3300, "f": 1300, "hf": 0.008, "b": 2000, "hb": 0.015, "y": 2025, "m": "man", "n": "W\u00fcrzburger Stra\u00dfe"}, "geometry": {"type": "LineString", "coordinates": [[409491.29, 5654294.32], [409549.25, 5654264.51], [409579.3, 5654246.61], [409598.81, 5654232.4]]}}, {"type": "Feature", "properties": {"t": 3100, "f": 1200, "hf": 0.0, "b": 1900, "hb": 0.011, "y": 2025, "m": "man", "n": "W\u00fcrzburger Stra\u00dfe"}, "geometry": {"type": "LineString", "coordinates": [[409598.81, 5654232.4], [409632.68, 5654205.54], [409730.69, 5654132.72], [409760.12, 5654111.61]]}}, {"type": "Feature", "properties": {"t": 3100, "f": 1200, "hf": 0.0, "b": 1900, "hb": 0.011, "y": 2025, "m": "man", "n": "W\u00fcrzburger Stra\u00dfe"}, "geometry": {"type": "LineString", "coordinates": [[409760.12, 5654111.61], [409814.91, 5654070.3], [409845.28, 5654046.97], [409861.19, 5654035.36]]}}, {"type": "Feature", "properties": {"t": 3100, "f": 1200, "hf": 0.0, "b": 1900, "hb": 0.011, "y": 2025, "m": "man", "n": "W\u00fcrzburger Stra\u00dfe"}, "geometry": {"type": "LineString", "coordinates": [[409861.19, 5654035.36], [409909.71, 5654000.0]]}}, {"type": "Feature", "properties": {"t": 300, "f": 200, "hf": 0.0, "b": 100, "hb": 0.0, "y": 2023, "m": "man", "n": "Bienertstra\u00dfe"}, "geometry": {"type": "LineString", "coordinates": [[409433.33, 5654008.08], [409439.97, 5654013.71], [409458.55, 5654000.0]]}}, {"type": "Feature", "properties": {"t": 2800, "f": 1500, "hf": 0.027, "b": 1300, "hb": 0.046, "y": 2018, "m": "man", "n": "Hofm\u00fchlenstra\u00dfe"}, "geometry": {"type": "LineString", "coordinates": [[409370.24, 5654701.42], [409339.08, 5654652.77], [409323.45, 5654631.13], [409311.01, 5654611.37], [409298.95, 5654594.44], [409292.75, 5654580.74], [409284.91, 5654564.54], [409278.51, 5654548.3]]}}, {"type": "Feature", "properties": {"t": 2800, "f": 1500, "hf": 0.027, "b": 1300, "hb": 0.046, "y": 2018, "m": "man", "n": "Hofm\u00fchlenstra\u00dfe"}, "geometry": {"type": "LineString", "coordinates": [[409278.51, 5654548.3], [409256.69, 5654505.49], [409236.29, 5654462.92], [409223.49, 5654432.48]]}}, {"type": "Feature", "properties": {"t": 11200, "f": 5700, "hf": 0.058, "b": 5500, "hb": 0.064, "y": 2013, "m": "man", "n": "Altplauen"}, "geometry": {"type": "LineString", "coordinates": [[408996.08, 5654000.0], [408992.71, 5654003.02]]}}, {"type": "Feature", "properties": {"t": 11100, "f": 5600, "hf": 0.059, "b": 5500, "hb": 0.064, "y": 2013, "m": "man", "n": "Altplauen"}, "geometry": {"type": "LineString", "coordinates": [[408992.71, 5654003.02], [408965.56, 5654033.39], [408955.07, 5654044.65]]}}, {"type": "Feature", "properties": {"t": 21300, "f": 15000, "hf": 0.072, "b": 6300, "hb": 0.095, "y": 2025, "m": "estimate", "n": "L\u00f6btauer Br\u00fccke", "br": 1}, "geometry": {"type": "LineString", "coordinates": [[409242.82, 5655913.94], [409241.86, 5655851.88], [409250.49, 5655796.33], [409266.6, 5655720.35], [409267.9, 5655707.54], [409269.44, 5655687.25], [409268.73, 5655669.34], [409266.48, 5655645.73], [409261.97, 5655622.84], [409258.29, 5655609.67], [409254.97, 5655599.7], [409248.45, 5655582.38], [409235.28, 5655554.15], [409229.11, 5655536.74], [409224.96, 5655518.09], [409222.94, 5655506.1], [409221.04, 5655476.92], [409221.75, 5655464.58], [409222.72, 5655454.89], [409224.72, 5655442.04], [409230.3, 5655419.98], [409237.89, 5655399.1], [409246.9, 5655378.22], [409262.44, 5655350.22], [409276.8, 5655326.85], [409290.56, 5655308.58], [409315.0, 5655279.52], [409332.2, 5655261.13], [409362.33, 5655233.85], [409376.68, 5655222.69], [409395.54, 5655209.41], [409443.49, 5655180.86], [409461.76, 5655173.03]]}}, {"type": "Feature", "properties": {"t": 12500, "b": 12500, "hb": 0.05, "y": 2024, "m": "detector", "n": "L\u00f6btauer Br\u00fccke", "br": 1}, "geometry": {"type": "LineString", "coordinates": [[409242.82, 5655913.94], [409227.15, 5655928.75], [409215.16, 5655948.58], [409203.98, 5656000.0]]}}, {"type": "Feature", "properties": {"t": 15000, "f": 15000, "hf": 0.072, "y": 2025, "m": "detector", "n": "L\u00f6btauer Br\u00fccke", "br": 1}, "geometry": {"type": "LineString", "coordinates": [[409242.82, 5655913.94], [409259.68, 5655933.22], [409261.13, 5655960.6], [409256.68, 5655995.19], [409255.58, 5656000.0]]}}, {"type": "Feature", "properties": {"t": 700, "f": 300, "hf": 0.967, "b": 400, "hb": 0.925, "y": 2019, "m": "man", "n": "Kesselsdorfer Stra\u00dfe"}, "geometry": {"type": "LineString", "coordinates": [[409164.92, 5655474.22], [409138.99, 5655480.61], [409106.37, 5655483.95], [409031.16, 5655488.08]]}}, {"type": "Feature", "properties": {"t": 1600, "f": 500, "hf": 0.06, "b": 1100, "hb": 0.036, "y": 2024, "m": "man", "n": "Kesselsdorfer Stra\u00dfe"}, "geometry": {"type": "LineString", "coordinates": [[409031.16, 5655488.08], [408940.63, 5655495.12], [408928.36, 5655494.31]]}}, {"type": "Feature", "properties": {"t": 4300, "f": 1300, "hf": 0.015, "b": 3000, "hb": 0.013, "y": 2024, "m": "man", "n": "Kesselsdorfer Stra\u00dfe"}, "geometry": {"type": "LineString", "coordinates": [[408928.36, 5655494.31], [408900.97, 5655491.0], [408871.53, 5655488.04], [408850.25, 5655485.35]]}}, {"type": "Feature", "properties": {"t": 4300, "f": 1300, "hf": 0.015, "b": 3000, "hb": 0.013, "y": 2024, "m": "man", "n": "Kesselsdorfer Stra\u00dfe"}, "geometry": {"type": "LineString", "coordinates": [[408850.25, 5655485.35], [408810.63, 5655479.71], [408768.6, 5655474.47]]}}, {"type": "Feature", "properties": {"t": 3700, "f": 900, "hf": 0.033, "b": 2800, "hb": 0.018, "y": 2024, "m": "man", "n": "Kesselsdorfer Stra\u00dfe"}, "geometry": {"type": "LineString", "coordinates": [[408768.6, 5655474.47], [408712.14, 5655466.2], [408652.9, 5655458.23]]}}, {"type": "Feature", "properties": {"t": 9400, "f": 4300, "hf": 0.016, "b": 5100, "hb": 0.016, "y": 2024, "m": "man", "n": "Kesselsdorfer Stra\u00dfe"}, "geometry": {"type": "LineString", "coordinates": [[408652.9, 5655458.23], [408618.7, 5655452.34], [408562.42, 5655443.93], [408463.42, 5655427.6]]}}, {"type": "Feature", "properties": {"t": 12700, "f": 6300, "hf": 0.021, "b": 6400, "hb": 0.009, "y": 2024, "m": "man", "n": "Kesselsdorfer Stra\u00dfe"}, "geometry": {"type": "LineString", "coordinates": [[408463.42, 5655427.6], [408396.29, 5655414.73], [408330.72, 5655403.37]]}}, {"type": "Feature", "properties": {"t": 12700, "f": 6300, "hf": 0.021, "b": 6400, "hb": 0.009, "y": 2024, "m": "man", "n": "Kesselsdorfer Stra\u00dfe"}, "geometry": {"type": "LineString", "coordinates": [[408330.72, 5655403.37], [408289.03, 5655395.5], [408247.42, 5655386.65]]}}, {"type": "Feature", "properties": {"t": 9300, "f": 4700, "hf": 0.009, "b": 4600, "hb": 0.009, "y": 2024, "m": "man", "n": "Kesselsdorfer Stra\u00dfe"}, "geometry": {"type": "LineString", "coordinates": [[408247.42, 5655386.65], [408199.24, 5655377.91], [408177.02, 5655375.13], [408154.19, 5655373.86], [408113.15, 5655372.54], [408073.39, 5655373.42], [408016.52, 5655371.84]]}}, {"type": "Feature", "properties": {"t": 9300, "f": 4700, "hf": 0.009, "b": 4600, "hb": 0.009, "y": 2024, "m": "man", "n": "Kesselsdorfer Stra\u00dfe"}, "geometry": {"type": "LineString", "coordinates": [[408016.52, 5655371.84], [408000.0, 5655371.74]]}}, {"type": "Feature", "properties": {"t": 5500, "f": 2800, "hf": 0.036, "b": 2700, "hb": 0.041, "y": 2026, "m": "man", "n": "Bonhoefferplatz"}, "geometry": {"type": "LineString", "coordinates": [[408968.89, 5654994.06], [408971.47, 5654962.42], [408973.93, 5654916.02], [408978.42, 5654874.12]]}}, {"type": "Feature", "properties": {"t": 2300, "f": 900, "hf": 0.044, "b": 1400, "hb": 0.029, "y": 2020, "m": "man", "n": "Clara-Viebig-Stra\u00dfe"}, "geometry": {"type": "LineString", "coordinates": [[409216.33, 5654892.45], [409138.57, 5654886.24], [409058.54, 5654881.54]]}}, {"type": "Feature", "properties": {"t": 15800, "f": 8100, "hf": 0.037, "b": 7700, "hb": 0.051, "y": 2020, "m": "man", "n": "Mohorner Stra\u00dfe"}, "geometry": {"type": "LineString", "coordinates": [[409102.84, 5654480.62], [409048.88, 5654504.49], [409029.59, 5654508.98], [409009.68, 5654512.05], [408999.05, 5654512.15]]}}, {"type": "Feature", "properties": {"t": 4400, "f": 1500, "hf": 0.007, "b": 2900, "hb": 0.007, "y": 2024, "m": "man", "n": "Reisewitzer Stra\u00dfe"}, "geometry": {"type": "LineString", "coordinates": [[408890.14, 5655629.69], [408898.65, 5655603.46], [408921.2, 5655529.03], [408928.36, 5655494.31]]}}, {"type": "Feature", "properties": {"t": 5500, "f": 2800, "hf": 0.036, "b": 2700, "hb": 0.041, "y": 2026, "m": "man", "n": "Reisewitzer Stra\u00dfe"}, "geometry": {"type": "LineString", "coordinates": [[408928.36, 5655494.31], [408935.52, 5655417.73], [408943.32, 5655343.56]]}}, {"type": "Feature", "properties": {"t": 5500, "f": 2800, "hf": 0.036, "b": 2700, "hb": 0.041, "y": 2026, "m": "man", "n": "Reisewitzer Stra\u00dfe"}, "geometry": {"type": "LineString", "coordinates": [[408943.32, 5655343.56], [408944.78, 5655334.41], [408956.67, 5655173.2]]}}, {"type": "Feature", "properties": {"t": 5500, "f": 2800, "hf": 0.036, "b": 2700, "hb": 0.041, "y": 2026, "m": "man", "n": "Reisewitzer Stra\u00dfe"}, "geometry": {"type": "LineString", "coordinates": [[408956.67, 5655173.2], [408969.81, 5654996.07], [408968.89, 5654994.06]]}}, {"type": "Feature", "properties": {"t": 5500, "f": 2800, "hf": 0.036, "b": 2700, "hb": 0.041, "y": 2026, "m": "man", "n": "Reisewitzer Stra\u00dfe"}, "geometry": {"type": "LineString", "coordinates": [[408978.42, 5654874.12], [408984.67, 5654780.15], [408991.66, 5654693.47]]}}, {"type": "Feature", "properties": {"t": 5500, "f": 2800, "hf": 0.036, "b": 2700, "hb": 0.041, "y": 2026, "m": "man", "n": "Reisewitzer Stra\u00dfe"}, "geometry": {"type": "LineString", "coordinates": [[408991.66, 5654693.47], [408996.01, 5654603.61], [408999.05, 5654512.15]]}}, {"type": "Feature", "properties": {"t": 4800, "f": 2500, "hf": 0.08, "b": 2300, "hb": 0.039, "y": 2020, "m": "man", "n": "Reisewitzer Stra\u00dfe"}, "geometry": {"type": "LineString", "coordinates": [[408999.05, 5654512.15], [408989.57, 5654322.98], [408988.9, 5654296.97], [408995.91, 5654283.69], [408999.37, 5654280.85]]}}, {"type": "Feature", "properties": {"t": 4300, "f": 2400, "hf": 0.067, "b": 1900, "hb": 0.068, "y": 2026, "m": "man", "n": "Wiesbadener Stra\u00dfe"}, "geometry": {"type": "LineString", "coordinates": [[408888.44, 5654207.69], [408857.12, 5654218.56], [408809.81, 5654228.81], [408768.68, 5654236.25], [408757.84, 5654239.69], [408730.55, 5654251.38], [408690.78, 5654270.21]]}}, {"type": "Feature", "properties": {"t": 4300, "f": 2400, "hf": 0.067, "b": 1900, "hb": 0.068, "y": 2026, "m": "man", "n": "Wiesbadener Stra\u00dfe"}, "geometry": {"type": "LineString", "coordinates": [[408690.78, 5654270.21], [408677.61, 5654275.42], [408658.54, 5654281.71], [408635.4, 5654287.45], [408595.41, 5654293.93], [408579.3, 5654295.97], [408550.42, 5654302.08], [408537.46, 5654306.71], [408525.43, 5654312.26], [408517.48, 5654317.58]]}}, {"type": "Feature", "properties": {"t": 4300, "f": 2400, "hf": 0.067, "b": 1900, "hb": 0.068, "y": 2026, "m": "man", "n": "Wiesbadener Stra\u00dfe"}, "geometry": {"type": "LineString", "coordinates": [[408517.48, 5654317.58], [408506.54, 5654325.04], [408480.26, 5654343.92], [408470.07, 5654349.85], [408461.03, 5654353.91], [408411.45, 5654370.59]]}}, {"type": "Feature", "properties": {"t": 4300, "f": 2400, "hf": 0.067, "b": 1900, "hb": 0.068, "y": 2026, "m": "man", "n": "Wiesbadener Stra\u00dfe"}, "geometry": {"type": "LineString", "coordinates": [[408411.45, 5654370.59], [408400.13, 5654374.24], [408362.79, 5654384.58], [408347.25, 5654387.99], [408330.17, 5654390.98], [408305.52, 5654394.19], [408261.67, 5654393.19], [408247.48, 5654391.95]]}}, {"type": "Feature", "properties": {"t": 4300, "f": 2400, "hf": 0.067, "b": 1900, "hb": 0.068, "y": 2026, "m": "man", "n": "Wiesbadener Stra\u00dfe"}, "geometry": {"type": "LineString", "coordinates": [[408247.48, 5654391.95], [408235.47, 5654391.51], [408221.31, 5654393.05], [408210.34, 5654395.66], [408192.02, 5654398.38], [408166.12, 5654400.49], [408113.66, 5654403.54], [408094.85, 5654406.31], [408076.98, 5654411.34], [408063.05, 5654417.13], [408046.92, 5654427.51]]}}, {"type": "Feature", "properties": {"t": 4300, "f": 2400, "hf": 0.067, "b": 1900, "hb": 0.068, "y": 2026, "m": "man", "n": "Wiesbadener Stra\u00dfe"}, "geometry": {"type": "LineString", "coordinates": [[408046.92, 5654427.51], [408000.0, 5654458.55]]}}, {"type": "Feature", "properties": {"t": 6900, "f": 3900, "hf": 0.026, "b": 3000, "hb": 0.033, "y": 2020, "m": "man", "n": "Altfrankener Stra\u00dfe"}, "geometry": {"type": "LineString", "coordinates": [[408984.6, 5654246.1], [408974.14, 5654236.72], [408962.85, 5654231.54], [408924.15, 5654218.21], [408888.44, 5654207.69]]}}, {"type": "Feature", "properties": {"t": 2500, "f": 1300, "hf": 0.031, "b": 1200, "hb": 0.025, "y": 2015, "m": "man", "n": "Altfrankener Stra\u00dfe"}, "geometry": {"type": "LineString", "coordinates": [[408888.44, 5654207.69], [408853.06, 5654194.51], [408828.07, 5654186.18], [408798.0, 5654174.9]]}}, {"type": "Feature", "properties": {"t": 2500, "f": 1300, "hf": 0.031, "b": 1200, "hb": 0.025, "y": 2015, "m": "man", "n": "Altfrankener Stra\u00dfe"}, "geometry": {"type": "LineString", "coordinates": [[408798.0, 5654174.9], [408772.6, 5654167.76], [408740.07, 5654156.38], [408731.12, 5654151.3], [408712.73, 5654135.27], [408708.82, 5654129.4]]}}, {"type": "Feature", "properties": {"t": 400, "f": 300, "hf": 0.0, "b": 100, "hb": 0.0, "y": 2015, "m": "man", "n": "Frankfurter Stra\u00dfe"}, "geometry": {"type": "LineString", "coordinates": [[408888.44, 5654207.69], [408887.88, 5654197.75], [408882.26, 5654175.58], [408875.43, 5654152.19], [408869.09, 5654122.01], [408856.2, 5654075.06], [408852.64, 5654064.93]]}}, {"type": "Feature", "properties": {"t": 600, "f": 200, "hf": 0.0, "b": 400, "hb": 0.15, "y": 2013, "m": "man", "n": "Fritz-Schulze-Stra\u00dfe"}, "geometry": {"type": "LineString", "coordinates": [[408955.07, 5654044.65], [408925.36, 5654048.37], [408897.58, 5654054.46], [408852.64, 5654064.93]]}}, {"type": "Feature", "properties": {"t": 500, "f": 200, "hf": 0.0, "b": 300, "hb": 0.0, "y": 2011, "m": "man", "n": "Am T\u00e4lchen"}, "geometry": {"type": "LineString", "coordinates": [[408517.48, 5654317.58], [408500.73, 5654288.23], [408424.44, 5654143.55], [408403.34, 5654101.26]]}}, {"type": "Feature", "properties": {"t": 200, "b": 200, "hb": 0.0, "y": 2024, "m": "man", "n": "Malterstra\u00dfe"}, "geometry": {"type": "LineString", "coordinates": [[408232.5, 5655473.9], [408247.42, 5655386.65]]}}, {"type": "Feature", "properties": {"t": 500, "f": 500, "hf": 0.0, "y": 2024, "m": "man", "n": "Malterstra\u00dfe"}, "geometry": {"type": "LineString", "coordinates": [[408247.42, 5655386.65], [408252.05, 5655351.33], [408263.55, 5655202.99]]}}, {"type": "Feature", "properties": {"t": 800, "f": 800, "hf": 0.013, "y": 2009, "m": "man", "n": "Malterstra\u00dfe"}, "geometry": {"type": "LineString", "coordinates": [[408263.55, 5655202.99], [408271.86, 5655108.62], [408281.15, 5655012.61]]}}, {"type": "Feature", "properties": {"t": 4000, "f": 1800, "hf": 0.011, "b": 2200, "hb": 0.009, "y": 2024, "m": "man", "n": "Saalhausener Stra\u00dfe"}, "geometry": {"type": "LineString", "coordinates": [[408247.42, 5655386.65], [408220.9, 5655363.47], [408196.16, 5655336.98], [408160.09, 5655296.41]]}}, {"type": "Feature", "properties": {"t": 4000, "f": 1800, "hf": 0.011, "b": 2200, "hb": 0.009, "y": 2024, "m": "man", "n": "Saalhausener Stra\u00dfe"}, "geometry": {"type": "LineString", "coordinates": [[408160.09, 5655296.41], [408131.53, 5655268.19], [408087.98, 5655222.15], [408066.26, 5655200.38], [408046.46, 5655181.5]]}}, {"type": "Feature", "properties": {"t": 4000, "f": 1800, "hf": 0.011, "b": 2200, "hb": 0.009, "y": 2024, "m": "man", "n": "Saalhausener Stra\u00dfe"}, "geometry": {"type": "LineString", "coordinates": [[408046.46, 5655181.5], [408035.99, 5655168.07], [408000.0, 5655130.09]]}}, {"type": "Feature", "properties": {"t": 11100, "f": 5400, "hf": 0.028, "b": 5700, "hb": 0.028, "y": 2025, "m": "man", "n": "L\u00f6btauer Stra\u00dfe"}, "geometry": {"type": "LineString", "coordinates": [[409611.68, 5656000.0], [409573.68, 5655955.51], [409498.43, 5655873.45]]}}, {"type": "Feature", "properties": {"t": 15800, "f": 8200, "hf": 0.028, "b": 7600, "hb": 0.026, "y": 2025, "m": "man", "n": "L\u00f6btauer Stra\u00dfe"}, "geometry": {"type": "LineString", "coordinates": [[409498.43, 5655873.45], [409423.8, 5655794.56]]}}, {"type": "Feature", "properties": {"t": 500, "f": 200, "hf": 0.05, "b": 300, "hb": 0.033, "y": 2025, "m": "man", "n": "L\u00f6btauer Stra\u00dfe"}, "geometry": {"type": "LineString", "coordinates": [[409423.8, 5655794.56], [409423.44, 5655773.74], [409472.54, 5655727.32]]}}, {"type": "Feature", "properties": {"t": 7800, "f": 4500, "hf": 0.029, "b": 3300, "hb": 0.027, "y": 2025, "m": "man", "n": "L\u00f6btauer Stra\u00dfe"}, "geometry": {"type": "LineString", "coordinates": [[409423.8, 5655794.56], [409366.99, 5655733.01], [409323.77, 5655688.06]]}}, {"type": "Feature", "properties": {"t": 8400, "f": 4200, "hf": 0.026, "b": 4200, "hb": 0.029, "y": 2019, "m": "man", "n": "L\u00f6btauer Stra\u00dfe"}, "geometry": {"type": "LineString", "coordinates": [[409323.77, 5655688.06], [409297.33, 5655657.11], [409272.57, 5655623.74]]}}, {"type": "Feature", "properties": {"t": 8400, "f": 4200, "hf": 0.026, "b": 4200, "hb": 0.029, "y": 2019, "m": "man", "n": "L\u00f6btauer Stra\u00dfe"}, "geometry": {"type": "LineString", "coordinates": [[409272.57, 5655623.74], [409245.0, 5655590.37], [409224.35, 5655563.51]]}}, {"type": "Feature", "properties": {"t": 16800, "f": 8200, "hf": 0.037, "b": 8600, "hb": 0.04, "y": 2019, "m": "man", "n": "L\u00f6btauer Stra\u00dfe"}, "geometry": {"type": "LineString", "coordinates": [[409224.35, 5655563.51], [409205.18, 5655536.74], [409180.13, 5655505.21]]}}, {"type": "Feature", "properties": {"t": 16800, "f": 8200, "hf": 0.037, "b": 8600, "hb": 0.04, "y": 2019, "m": "man", "n": "L\u00f6btauer Stra\u00dfe"}, "geometry": {"type": "LineString", "coordinates": [[409180.13, 5655505.21], [409164.92, 5655474.22]]}}, {"type": "Feature", "properties": {"t": 7200, "f": 4000, "hf": 0.043, "b": 3200, "hb": 0.053, "y": 2025, "m": "man", "n": "Hirschfelder Stra\u00dfe"}, "geometry": {"type": "LineString", "coordinates": [[409651.89, 5655660.66], [409648.89, 5655676.04], [409642.41, 5655694.74], [409635.01, 5655713.07], [409625.75, 5655730.1], [409601.31, 5655764.35], [409570.95, 5655797.69]]}}, {"type": "Feature", "properties": {"t": 7200, "f": 4000, "hf": 0.043, "b": 3200, "hb": 0.053, "y": 2025, "m": "man", "n": "Hirschfelder Stra\u00dfe"}, "geometry": {"type": "LineString", "coordinates": [[409570.95, 5655797.69], [409532.44, 5655838.87], [409498.43, 5655873.45]]}}, {"type": "Feature", "properties": {"t": 3200, "f": 3200, "hf": 0.05, "y": 2022, "m": "man", "n": "Emerich-Ambros-Ufer"}, "geometry": {"type": "LineString", "coordinates": [[409323.77, 5655688.06], [409310.75, 5655737.04], [409299.4, 5655783.6]]}}, {"type": "Feature", "properties": {"t": 4600, "f": 4600, "hf": 0.08, "y": 2025, "m": "detector", "n": "Emerich-Ambros-Ufer"}, "geometry": {"type": "LineString", "coordinates": [[409299.4, 5655783.6], [409297.25, 5655884.53], [409307.62, 5655948.45], [409297.44, 5656000.0]]}}, {"type": "Feature", "properties": {"t": 3300, "b": 3300, "hb": 0.073, "y": 2024, "m": "detector", "n": "Emerich-Ambros-Ufer"}, "geometry": {"type": "LineString", "coordinates": [[409199.36, 5655809.36], [409193.55, 5655860.96], [409187.89, 5655888.3], [409176.58, 5655923.19], [409168.09, 5655961.84], [409160.59, 5656000.0]]}}, {"type": "Feature", "properties": {"t": 1000, "f": 600, "hf": 0.017, "b": 400, "hb": 0.0, "y": 2022, "m": "man", "n": "L\u00fcbecker Stra\u00dfe"}, "geometry": {"type": "LineString", "coordinates": [[409092.27, 5655594.66], [409065.1, 5655622.99], [409060.34, 5655633.19], [409045.37, 5655674.14]]}}, {"type": "Feature", "properties": {"t": 1000, "f": 600, "hf": 0.017, "b": 400, "hb": 0.0, "y": 2022, "m": "man", "n": "L\u00fcbecker Stra\u00dfe"}, "geometry": {"type": "LineString", "coordinates": [[409045.37, 5655674.14], [409027.95, 5655725.95]]}}, {"type": "Feature", "properties": {"t": 2900, "f": 1800, "hf": 0.006, "b": 1100, "hb": 0.018, "y": 2022, "m": "man", "n": "L\u00fcbecker Stra\u00dfe"}, "geometry": {"type": "LineString", "coordinates": [[409027.95, 5655725.95], [409001.15, 5655789.33], [408980.51, 5655839.11]]}}, {"type": "Feature", "properties": {"t": 3800, "f": 2400, "hf": 0.008, "b": 1400, "hb": 0.014, "y": 2019, "m": "man", "n": "L\u00fcbecker Stra\u00dfe"}, "geometry": {"type": "LineString", "coordinates": [[408980.51, 5655839.11], [408959.73, 5655895.38], [408953.27, 5655912.04], [408946.35, 5655923.77]]}}, {"type": "Feature", "properties": {"t": 3800, "f": 2400, "hf": 0.008, "b": 1400, "hb": 0.014, "y": 2019, "m": "man", "n": "L\u00fcbecker Stra\u00dfe"}, "geometry": {"type": "LineString", "coordinates": [[408946.35, 5655923.77], [408926.4, 5655941.2], [408900.96, 5655956.04]]}}, {"type": "Feature", "properties": {"t": 3800, "f": 2400, "hf": 0.008, "b": 1400, "hb": 0.014, "y": 2019, "m": "man", "n": "L\u00fcbecker Stra\u00dfe"}, "geometry": {"type": "LineString", "coordinates": [[408900.96, 5655956.04], [408855.83, 5655982.96], [408826.06, 5656000.0]]}}, {"type": "Feature", "properties": {"t": 10000, "f": 4600, "hf": 0.013, "b": 5400, "hb": 0.026, "y": 2022, "m": "man", "n": "Wernerplatz"}, "geometry": {"type": "LineString", "coordinates": [[409253.9, 5655779.71], [409236.5, 5655777.19], [409210.56, 5655776.15], [409203.47, 5655773.72]]}}, {"type": "Feature", "properties": {"t": 7800, "f": 3600, "hf": 0.028, "b": 4200, "hb": 0.026, "y": 2025, "m": "man", "n": "Wernerstra\u00dfe"}, "geometry": {"type": "LineString", "coordinates": [[409423.8, 5655794.56], [409299.4, 5655783.6]]}}, {"type": "Feature", "properties": {"t": 7800, "f": 3600, "hf": 0.028, "b": 4200, "hb": 0.026, "y": 2025, "m": "man", "n": "Wernerstra\u00dfe"}, "geometry": {"type": "LineString", "coordinates": [[409299.4, 5655783.6], [409253.48, 5655779.58], [409253.9, 5655779.71]]}}, {"type": "Feature", "properties": {"t": 7800, "f": 3600, "hf": 0.028, "b": 4200, "hb": 0.026, "y": 2025, "m": "man", "n": "Wernerstra\u00dfe"}, "geometry": {"type": "LineString", "coordinates": [[409203.47, 5655773.72], [409182.4, 5655771.27], [409162.77, 5655769.42], [409131.27, 5655767.79], [409112.65, 5655765.95], [409097.11, 5655763.49], [409085.86, 5655760.83], [409073.99, 5655756.95], [409060.97, 5655751.35], [409044.49, 5655740.24], [409027.95, 5655725.95]]}}, {"type": "Feature", "properties": {"t": 7800, "f": 3600, "hf": 0.028, "b": 4200, "hb": 0.026, "y": 2025, "m": "man", "n": "Wernerstra\u00dfe"}, "geometry": {"type": "LineString", "coordinates": [[409027.95, 5655725.95], [409005.24, 5655708.77], [408977.11, 5655689.01]]}}, {"type": "Feature", "properties": {"t": 7800, "f": 3600, "hf": 0.028, "b": 4200, "hb": 0.026, "y": 2025, "m": "man", "n": "Wernerstra\u00dfe"}, "geometry": {"type": "LineString", "coordinates": [[408977.11, 5655689.01], [408918.12, 5655649.37]]}}, {"type": "Feature", "properties": {"t": 7800, "f": 3600, "hf": 0.028, "b": 4200, "hb": 0.026, "y": 2025, "m": "man", "n": "Wernerstra\u00dfe"}, "geometry": {"type": "LineString", "coordinates": [[408918.12, 5655649.37], [408903.76, 5655640.08], [408890.14, 5655629.69]]}}, {"type": "Feature", "properties": {"t": 5800, "f": 3400, "hf": 0.012, "b": 2400, "hb": 0.013, "y": 2024, "m": "man", "n": "Wernerstra\u00dfe"}, "geometry": {"type": "LineString", "coordinates": [[408890.14, 5655629.69], [408865.09, 5655612.88]]}}, {"type": "Feature", "properties": {"t": 5800, "f": 3400, "hf": 0.012, "b": 2400, "hb": 0.013, "y": 2024, "m": "man", "n": "Wernerstra\u00dfe"}, "geometry": {"type": "LineString", "coordinates": [[408865.09, 5655612.88], [408849.93, 5655602.29], [408820.25, 5655580.41], [408782.48, 5655554.51]]}}, {"type": "Feature", "properties": {"t": 5800, "f": 3400, "hf": 0.012, "b": 2400, "hb": 0.013, "y": 2024, "m": "man", "n": "Wernerstra\u00dfe"}, "geometry": {"type": "LineString", "coordinates": [[408782.48, 5655554.51], [408673.77, 5655481.65]]}}, {"type": "Feature", "properties": {"t": 5800, "f": 3400, "hf": 0.012, "b": 2400, "hb": 0.013, "y": 2024, "m": "man", "n": "Wernerstra\u00dfe"}, "geometry": {"type": "LineString", "coordinates": [[408673.77, 5655481.65], [408662.93, 5655472.54], [408656.64, 5655464.95], [408652.9, 5655458.23]]}}, {"type": "Feature", "properties": {"t": 2500, "b": 2500, "hb": 0.052, "y": 2022, "m": "man", "n": "Columbusstra\u00dfe"}, "geometry": {"type": "LineString", "coordinates": [[409224.35, 5655563.51], [409218.89, 5655611.88]]}}, {"type": "Feature", "properties": {"t": 2500, "b": 2500, "hb": 0.052, "y": 2022, "m": "man", "n": "Columbusstra\u00dfe"}, "geometry": {"type": "LineString", "coordinates": [[409218.89, 5655611.88], [409210.19, 5655693.44]]}}, {"type": "Feature", "properties": {"t": 2500, "b": 2500, "hb": 0.052, "y": 2022, "m": "man", "n": "Columbusstra\u00dfe"}, "geometry": {"type": "LineString", "coordinates": [[409210.19, 5655693.44], [409207.36, 5655734.24], [409203.47, 5655773.72]]}}, {"type": "Feature", "properties": {"t": 3300, "b": 3300, "hb": 0.073, "y": 2024, "m": "detector", "n": "Columbusstra\u00dfe"}, "geometry": {"type": "LineString", "coordinates": [[409203.47, 5655773.72], [409200.0, 5655792.74], [409199.36, 5655809.36]]}}, {"type": "Feature", "properties": {"t": 2600, "f": 1100, "hf": 0.0, "b": 1500, "hb": 0.16, "y": 2011, "m": "man", "n": "Gr\u00f6belstra\u00dfe"}, "geometry": {"type": "LineString", "coordinates": [[408977.11, 5655689.01], [408993.21, 5655637.94], [409011.87, 5655568.97], [409028.03, 5655514.55], [409031.16, 5655488.08]]}}, {"type": "Feature", "properties": {"t": 8100, "f": 4500, "hf": 0.013, "b": 3600, "hb": 0.014, "y": 2019, "m": "man", "n": "Rudolf-Renner-Stra\u00dfe"}, "geometry": {"type": "LineString", "coordinates": [[408331.71, 5656000.0], [408332.62, 5655992.7]]}}, {"type": "Feature", "properties": {"t": 8100, "f": 4500, "hf": 0.013, "b": 3600, "hb": 0.014, "y": 2019, "m": "man", "n": "Rudolf-Renner-Stra\u00dfe"}, "geometry": {"type": "LineString", "coordinates": [[408332.62, 5655992.7], [408339.64, 5655961.65], [408344.88, 5655941.26], [408355.24, 5655896.45]]}}, {"type": "Feature", "properties": {"t": 8100, "f": 4500, "hf": 0.013, "b": 3600, "hb": 0.014, "y": 2019, "m": "man", "n": "Rudolf-Renner-Stra\u00dfe"}, "geometry": {"type": "LineString", "coordinates": [[408355.24, 5655896.45], [408366.27, 5655846.86], [408378.11, 5655797.49]]}}, {"type": "Feature", "properties": {"t": 8100, "f": 4500, "hf": 0.013, "b": 3600, "hb": 0.014, "y": 2019, "m": "man", "n": "Rudolf-Renner-Stra\u00dfe"}, "geometry": {"type": "LineString", "coordinates": [[408402.21, 5655696.48], [408421.12, 5655612.83]]}}, {"type": "Feature", "properties": {"t": 8100, "f": 4500, "hf": 0.013, "b": 3600, "hb": 0.014, "y": 2019, "m": "man", "n": "Rudolf-Renner-Stra\u00dfe"}, "geometry": {"type": "LineString", "coordinates": [[408421.12, 5655612.83], [408442.12, 5655523.25]]}}, {"type": "Feature", "properties": {"t": 8100, "f": 4500, "hf": 0.013, "b": 3600, "hb": 0.014, "y": 2019, "m": "man", "n": "Rudolf-Renner-Stra\u00dfe"}, "geometry": {"type": "LineString", "coordinates": [[408442.12, 5655523.25], [408463.42, 5655427.6]]}}, {"type": "Feature", "properties": {"t": 8100, "f": 3600, "hf": 0.014, "b": 4500, "hb": 0.013, "y": 2019, "m": "man", "n": "Conertplatz"}, "geometry": {"type": "LineString", "coordinates": [[408378.11, 5655797.49], [408402.21, 5655696.48]]}}, {"type": "Feature", "properties": {"t": 17200, "f": 8100, "hf": 0.041, "b": 9100, "hb": 0.037, "y": 2025, "m": "loop", "n": "Bramschstra\u00dfe"}, "geometry": {"type": "LineString", "coordinates": [[408476.27, 5656000.0], [408460.05, 5655995.06], [408292.26, 5655948.9], [408224.79, 5655935.46], [408173.62, 5655927.91], [408169.59, 5655927.78], [408159.8, 5655926.07]]}}, {"type": "Feature", "properties": {"t": 1400, "f": 500, "hf": 0.0, "b": 900, "hb": 0.0, "y": 2004, "m": "man", "n": "Braunsdorfer Stra\u00dfe"}, "geometry": {"type": "LineString", "coordinates": [[408743.93, 5655987.93], [408675.1, 5655970.87], [408667.17, 5655970.92]]}}, {"type": "Feature", "properties": {"t": 1400, "f": 500, "hf": 0.0, "b": 900, "hb": 0.0, "y": 2004, "m": "man", "n": "Braunsdorfer Stra\u00dfe"}, "geometry": {"type": "LineString", "coordinates": [[408667.17, 5655970.92], [408549.14, 5655942.3]]}}, {"type": "Feature", "properties": {"t": 1400, "f": 500, "hf": 0.0, "b": 900, "hb": 0.0, "y": 2004, "m": "man", "n": "Braunsdorfer Stra\u00dfe"}, "geometry": {"type": "LineString", "coordinates": [[408549.14, 5655942.3], [408448.27, 5655917.85], [408355.24, 5655896.45]]}}, {"type": "Feature", "properties": {"t": 2400, "f": 600, "hf": 0.0, "b": 1800, "hb": 0.0, "y": 2004, "m": "man", "n": "Braunsdorfer Stra\u00dfe"}, "geometry": {"type": "LineString", "coordinates": [[408355.24, 5655896.45], [408344.29, 5655892.8], [408270.09, 5655875.73], [408259.27, 5655873.75], [408227.67, 5655871.79]]}}, {"type": "Feature", "properties": {"t": 2400, "f": 600, "hf": 0.0, "b": 1800, "hb": 0.0, "y": 2004, "m": "man", "n": "Braunsdorfer Stra\u00dfe"}, "geometry": {"type": "LineString", "coordinates": [[408227.67, 5655871.79], [408180.1, 5655867.73]]}}, {"type": "Feature", "properties": {"t": 2400, "f": 600, "hf": 0.0, "b": 1800, "hb": 0.0, "y": 2004, "m": "man", "n": "Braunsdorfer Stra\u00dfe"}, "geometry": {"type": "LineString", "coordinates": [[408180.1, 5655867.73], [408163.91, 5655866.34], [408128.56, 5655862.4], [408074.09, 5655861.16]]}}, {"type": "Feature", "properties": {"t": 500, "f": 300, "hf": 0.033, "b": 200, "hb": 0.05, "y": 2011, "m": "man", "n": "\u00d6W 19 - L\u00f6btau"}, "geometry": {"type": "LineString", "coordinates": [[408918.12, 5655649.37], [408910.99, 5655666.4], [408906.01, 5655685.95], [408901.4, 5655701.22], [408896.98, 5655708.77], [408892.81, 5655712.29], [408886.6, 5655716.18], [408880.89, 5655720.92], [408879.51, 5655722.73]]}}, {"type": "Feature", "properties": {"t": 17200, "f": 8100, "hf": 0.041, "b": 9100, "hb": 0.037, "y": 2025, "m": "loop", "n": "Coventrystra\u00dfe"}, "geometry": {"type": "LineString", "coordinates": [[408159.8, 5655926.07], [408058.89, 5655917.67]]}}, {"type": "Feature", "properties": {"t": 17200, "f": 8100, "hf": 0.041, "b": 9100, "hb": 0.037, "y": 2025, "m": "loop", "n": "Coventrystra\u00dfe"}, "geometry": {"type": "LineString", "coordinates": [[408058.89, 5655917.67], [408000.0, 5655917.56]]}}]}