{"type": "FeatureCollection", "attribution": "Verkehrsmengen \u00a9 Landeshauptstadt Dresden (dl-de/by-2-0)", "crs": {"type": "name", "properties": {"name": "urn:ogc:def:crs:EPSG::25833"}}, "features": [{"type": "Feature", "properties": {"t": 24400, "f": 14000, "hf": 0.031, "b": 10400, "hb": 0.035, "y": 2025, "m": "loop", "n": "Ammonstra\u00dfe"}, "geometry": {"type": "LineString", "coordinates": [[410348.66, 5656000.0], [410389.02, 5655861.05]]}}, {"type": "Feature", "properties": {"t": 24400, "f": 14000, "hf": 0.031, "b": 10400, "hb": 0.035, "y": 2025, "m": "loop", "n": "Ammonstra\u00dfe"}, "geometry": {"type": "LineString", "coordinates": [[410389.02, 5655861.05], [410414.75, 5655770.19], [410417.56, 5655762.4]]}}, {"type": "Feature", "properties": {"t": 24400, "f": 14000, "hf": 0.031, "b": 10400, "hb": 0.035, "y": 2025, "m": "loop", "n": "Ammonstra\u00dfe"}, "geometry": {"type": "LineString", "coordinates": [[410417.56, 5655762.4], [410420.8, 5655753.61], [410427.74, 5655738.67], [410437.28, 5655724.09], [410454.0, 5655706.94], [410471.68, 5655692.73], [410533.24, 5655642.03]]}}, {"type": "Feature", "properties": {"t": 24700, "f": 11300, "hf": 0.034, "b": 13400, "hb": 0.033, "y": 2017, "m": "man", "n": "Ammonstra\u00dfe"}, "geometry": {"type": "LineString", "coordinates": [[410533.24, 5655642.03], [410572.22, 5655611.7], [410609.74, 5655583.99]]}}, {"type": "Feature", "properties": {"t": 28300, "f": 13500, "hf": 0.023, "b": 14800, "hb": 0.038, "y": 2026, "m": "estimate", "n": "Ammonstra\u00dfe"}, "geometry": {"type": "LineString", "coordinates": [[410609.74, 5655583.99], [410630.92, 5655567.99], [410678.13, 5655536.86], [410742.23, 5655494.92], [410777.84, 5655472.76], [410837.43, 5655434.57]]}}, {"type": "Feature", "properties": {"t": 28900, "f": 15300, "hf": 0.022, "b": 13600, "hb": 0.037, "y": 2025, "m": "estimate", "n": "Ammonstra\u00dfe"}, "geometry": {"type": "LineString", "coordinates": [[410837.43, 5655434.57], [410872.81, 5655411.1], [410907.19, 5655385.47]]}}, {"type": "Feature", "properties": {"t": 2300, "f": 2300, "hf": 0.07, "y": 2023, "m": "man", "n": "Ammonstra\u00dfe"}, "geometry": {"type": "LineString", "coordinates": [[410907.19, 5655385.47], [410902.98, 5655374.03], [410901.79, 5655363.01], [410903.2, 5655353.87], [410910.81, 5655343.22], [410971.17, 5655299.57]]}}, {"type": "Feature", "properties": {"t": 2300, "f": 2300, "hf": 0.07, "y": 2023, "m": "man", "n": "Ammonstra\u00dfe"}, "geometry": {"type": "LineString", "coordinates": [[410971.17, 5655299.57], [410997.53, 5655280.38], [411004.48, 5655277.26], [411011.57, 5655278.25], [411020.55, 5655284.66], [411031.17, 5655296.47]]}}, {"type": "Feature", "properties": {"t": 2000, "b": 2000, "hb": 0.07, "y": 2023, "m": "man", "n": "Ammonstra\u00dfe"}, "geometry": {"type": "LineString", "coordinates": [[410907.19, 5655385.47], [410918.17, 5655399.05], [410928.89, 5655404.12], [410939.32, 5655403.82], [410948.22, 5655400.59], [411053.26, 5655328.08]]}}, {"type": "Feature", "properties": {"t": 23500, "f": 12300, "hf": 0.033, "b": 11200, "hb": 0.013, "y": 2018, "m": "loop", "n": "Wiener Platz"}, "geometry": {"type": "LineString", "coordinates": [[410907.19, 5655385.47], [410990.03, 5655328.08], [411031.17, 5655296.47]]}}, {"type": "Feature", "properties": {"t": 23500, "f": 12300, "hf": 0.033, "b": 11200, "hb": 0.013, "y": 2018, "m": "loop", "n": "Wiener Platz"}, "geometry": {"type": "LineString", "coordinates": [[411031.17, 5655296.47], [411094.9, 5655263.35], [411179.19, 5655220.61], [411262.55, 5655172.04]]}}, {"type": "Feature", "properties": {"t": 27100, "f": 12600, "hf": 0.044, "b": 14500, "hb": 0.039, "y": 2011, "m": "man", "n": "Wiener Platz"}, "geometry": {"type": "LineString", "coordinates": [[411313.3, 5655146.94], [411301.39, 5655127.76], [411289.28, 5655106.42], [411278.72, 5655091.2], [411276.3, 5655086.97]]}}, {"type": "Feature", "properties": {"t": 12300, "f": 12300, "hf": 0.033, "y": 2018, "m": "loop", "n": "Wiener Platz"}, "geometry": {"type": "LineString", "coordinates": [[411262.55, 5655172.04], [411264.12, 5655161.18], [411294.98, 5655134.62], [411311.29, 5655117.17], [411347.23, 5655071.09], [411355.4, 5655061.52], [411373.03, 5655045.77], [411384.77, 5655037.47], [411418.86, 5655015.59], [411442.47, 5655004.33], [411465.92, 5654991.8], [411502.38, 5654973.1], [411541.75, 5654950.41]]}}, {"type": "Feature", "properties": {"t": 11200, "b": 11200, "hb": 0.013, "y": 2018, "m": "man", "n": "Wiener Platz"}, "geometry": {"type": "LineString", "coordinates": [[411262.55, 5655172.04], [411284.44, 5655168.3], [411341.22, 5655141.85], [411380.11, 5655121.77], [411398.83, 5655114.55]]}}, {"type": "Feature", "properties": {"t": 11200, "b": 11200, "hb": 0.013, "y": 2019, "m": "estimate", "n": "Wiener Platz"}, "geometry": {"type": "LineString", "coordinates": [[411398.83, 5655114.55], [411418.37, 5655105.25], [411451.47, 5655093.65], [411458.64, 5655090.52], [411482.2, 5655077.49]]}}, {"type": "Feature", "properties": {"t": 150, "f": 70, "hf": 0.143, "b": 80, "hb": 0.125, "y": 2023, "m": "man", "n": "Wiener Platz"}, "geometry": {"type": "LineString", "coordinates": [[411147.65, 5655229.02], [411082.15, 5655265.46], [411035.29, 5655290.63], [411031.17, 5655296.47]]}}, {"type": "Feature", "properties": {"t": 400, "f": 200, "hf": 0.05, "b": 200, "hb": 0.1, "y": 2023, "m": "man", "n": "Wiener Platz"}, "geometry": {"type": "LineString", "coordinates": [[411031.17, 5655296.47], [411026.31, 5655286.68], [411026.55, 5655279.7], [411014.22, 5655255.28], [411006.89, 5655235.96]]}}, {"type": "Feature", "properties": {"t": 8200, "f": 4200, "hf": 0.021, "b": 4000, "hb": 0.03, "y": 2025, "m": "man", "n": "Gellertstra\u00dfe"}, "geometry": {"type": "LineString", "coordinates": [[412000.0, 5654736.39], [411990.77, 5654722.72], [411984.71, 5654711.91]]}}, {"type": "Feature", "properties": {"t": 200, "f": 100, "hf": 0.1, "b": 100, "hb": 0.0, "y": 2022, "m": "man", "n": "Lingnerallee"}, "geometry": {"type": "LineString", "coordinates": [[412000.0, 5655757.12], [411948.8, 5655789.34], [411915.13, 5655813.53]]}}, {"type": "Feature", "properties": {"t": 2200, "f": 900, "hf": 0.018, "b": 1300, "hb": 0.031, "y": 2024, "m": "man", "n": "Bl\u00fcherstra\u00dfe"}, "geometry": {"type": "LineString", "coordinates": [[412000.0, 5655112.31], [411951.36, 5655076.63], [411909.37, 5655052.63]]}}, {"type": "Feature", "properties": {"t": 1700, "f": 1000, "hf": 0.03, "b": 700, "hb": 0.029, "y": 2011, "m": "man", "n": "Zinzendorfstra\u00dfe"}, "geometry": {"type": "LineString", "coordinates": [[411786.24, 5655384.63], [411801.17, 5655385.49], [411862.55, 5655403.64], [411879.66, 5655410.59], [411890.94, 5655428.26], [411947.16, 5655521.02], [412000.0, 5655607.11]]}}, {"type": "Feature", "properties": {"t": 25100, "f": 13900, "hf": 0.045, "b": 11200, "hb": 0.045, "y": 2025, "m": "detector", "n": "St.Petersburger Stra\u00dfe"}, "geometry": {"type": "LineString", "coordinates": [[412000.0, 5655964.31], [411942.24, 5655859.29]]}}, {"type": "Feature", "properties": {"t": 25100, "f": 13900, "hf": 0.045, "b": 11200, "hb": 0.045, "y": 2025, "m": "detector", "n": "St.Petersburger Stra\u00dfe"}, "geometry": {"type": "LineString", "coordinates": [[411942.24, 5655859.29], [411915.13, 5655813.53]]}}, {"type": "Feature", "properties": {"t": 21300, "f": 10100, "hf": 0.016, "b": 11200, "hb": 0.045, "y": 2025, "m": "estimate", "n": "St.Petersburger Stra\u00dfe"}, "geometry": {"type": "LineString", "coordinates": [[411915.13, 5655813.53], [411905.57, 5655801.76], [411895.7, 5655791.99], [411878.59, 5655778.35], [411855.89, 5655762.99], [411814.55, 5655738.38], [411799.85, 5655730.18]]}}, {"type": "Feature", "properties": {"t": 17300, "f": 9800, "hf": 0.043, "b": 7500, "hb": 0.045, "y": 2025, "m": "detector", "n": "St.Petersburger Stra\u00dfe"}, "geometry": {"type": "LineString", "coordinates": [[411767.38, 5655711.59], [411741.18, 5655686.01], [411718.31, 5655659.5], [411686.78, 5655626.36], [411638.39, 5655573.07], [411616.11, 5655545.29], [411584.39, 5655507.62]]}}, {"type": "Feature", "properties": {"t": 17300, "f": 9800, "hf": 0.043, "b": 7500, "hb": 0.045, "y": 2025, "m": "detector", "n": "St.Petersburger Stra\u00dfe"}, "geometry": {"type": "LineString", "coordinates": [[411584.39, 5655507.62], [411533.23, 5655447.24], [411500.43, 5655409.44]]}}, {"type": "Feature", "properties": {"t": 17300, "f": 9800, "hf": 0.043, "b": 7500, "hb": 0.045, "y": 2025, "m": "detector", "n": "St.Petersburger Stra\u00dfe"}, "geometry": {"type": "LineString", "coordinates": [[411500.43, 5655409.44], [411483.23, 5655388.76], [411462.47, 5655361.95], [411435.48, 5655325.79], [411416.79, 5655299.32], [411408.87, 5655286.87]]}}, {"type": "Feature", "properties": {"t": 17300, "f": 9800, "hf": 0.043, "b": 7500, "hb": 0.045, "y": 2025, "m": "detector", "n": "St.Petersburger Stra\u00dfe"}, "geometry": {"type": "LineString", "coordinates": [[411408.87, 5655286.87], [411400.74, 5655273.55], [411380.63, 5655246.21], [411366.27, 5655227.53]]}}, {"type": "Feature", "properties": {"t": 27100, "f": 12600, "hf": 0.044, "b": 14500, "hb": 0.039, "y": 2011, "m": "man", "n": "St.Petersburger Stra\u00dfe"}, "geometry": {"type": "LineString", "coordinates": [[411366.27, 5655227.53], [411341.53, 5655191.54], [411313.3, 5655146.94]]}}, {"type": "Feature", "properties": {"t": 5200, "f": 2800, "hf": 0.039, "b": 2400, "hb": 0.096, "y": 2025, "m": "detector", "n": "B\u00fcrgerwiese"}, "geometry": {"type": "LineString", "coordinates": [[411799.85, 5655730.18], [411788.53, 5655717.82], [411791.97, 5655707.77], [411794.08, 5655693.49], [411794.87, 5655681.32], [411796.36, 5655665.74], [411796.2, 5655654.08], [411794.08, 5655637.68], [411784.1, 5655599.83]]}}, {"type": "Feature", "properties": {"t": 5200, "f": 2800, "hf": 0.039, "b": 2400, "hb": 0.096, "y": 2025, "m": "detector", "n": "B\u00fcrgerwiese"}, "geometry": {"type": "LineString", "coordinates": [[411784.1, 5655599.83], [411770.08, 5655567.68], [411763.53, 5655550.22], [411758.04, 5655533.17], [411755.37, 5655514.66], [411755.12, 5655493.57], [411756.5, 5655479.34], [411759.73, 5655461.32], [411765.23, 5655441.92], [411786.24, 5655384.63]]}}, {"type": "Feature", "properties": {"t": 5200, "f": 2800, "hf": 0.039, "b": 2400, "hb": 0.096, "y": 2025, "m": "detector", "n": "B\u00fcrgerwiese"}, "geometry": {"type": "LineString", "coordinates": [[411786.24, 5655384.63], [411800.46, 5655353.75], [411813.15, 5655321.99], [411828.26, 5655283.76], [411837.08, 5655257.08]]}}, {"type": "Feature", "properties": {"t": 8300, "f": 8300, "hf": 0.023, "y": 2025, "m": "man", "n": "Waisenhausstra\u00dfe"}, "geometry": {"type": "LineString", "coordinates": [[411316.82, 5655775.11], [411328.7, 5655777.73], [411387.21, 5655789.19], [411426.28, 5655797.34], [411459.67, 5655803.23]]}}, {"type": "Feature", "properties": {"t": 8300, "f": 8300, "hf": 0.023, "y": 2025, "m": "man", "n": "Waisenhausstra\u00dfe"}, "geometry": {"type": "LineString", "coordinates": [[411459.67, 5655803.23], [411485.65, 5655806.32], [411522.0, 5655811.59], [411533.47, 5655812.88], [411548.63, 5655813.62]]}}, {"type": "Feature", "properties": {"t": 8300, "f": 8300, "hf": 0.023, "y": 2025, "m": "man", "n": "Waisenhausstra\u00dfe"}, "geometry": {"type": "LineString", "coordinates": [[411548.63, 5655813.62], [411566.24, 5655812.88], [411620.41, 5655809.77]]}}, {"type": "Feature", "properties": {"t": 8300, "f": 8300, "hf": 0.023, "y": 2025, "m": "man", "n": "Waisenhausstra\u00dfe"}, "geometry": {"type": "LineString", "coordinates": [[411620.41, 5655809.77], [411654.78, 5655806.26], [411670.02, 5655803.94], [411689.12, 5655799.14], [411708.87, 5655791.04], [411720.94, 5655782.43], [411742.06, 5655763.15], [411756.94, 5655737.7], [411767.38, 5655711.59]]}}, {"type": "Feature", "properties": {"t": 1000, "f": 600, "hf": 0.017, "b": 400, "hb": 0.025, "y": 2011, "m": "man", "n": "Hans-Dankner-Stra\u00dfe"}, "geometry": {"type": "LineString", "coordinates": [[411786.24, 5655384.63], [411778.87, 5655394.54], [411730.17, 5655358.04], [411703.99, 5655339.15]]}}, {"type": "Feature", "properties": {"t": 1000, "f": 600, "hf": 0.017, "b": 400, "hb": 0.025, "y": 2011, "m": "man", "n": "Hans-Dankner-Stra\u00dfe"}, "geometry": {"type": "LineString", "coordinates": [[411703.99, 5655339.15], [411608.59, 5655267.67]]}}, {"type": "Feature", "properties": {"t": 1000, "f": 600, "hf": 0.017, "b": 400, "hb": 0.025, "y": 2011, "m": "man", "n": "Hans-Dankner-Stra\u00dfe"}, "geometry": {"type": "LineString", "coordinates": [[411608.59, 5655267.67], [411557.27, 5655227.28], [411502.22, 5655188.47]]}}, {"type": "Feature", "properties": {"t": 900, "f": 500, "hf": 0.16, "b": 400, "hb": 0.05, "y": 2011, "m": "man", "n": "Gret-Palucca-Stra\u00dfe"}, "geometry": {"type": "LineString", "coordinates": [[411909.37, 5655052.63], [411861.33, 5655023.09], [411819.01, 5654999.88], [411782.43, 5654978.38]]}}, {"type": "Feature", "properties": {"t": 900, "f": 500, "hf": 0.16, "b": 400, "hb": 0.05, "y": 2011, "m": "man", "n": "Gret-Palucca-Stra\u00dfe"}, "geometry": {"type": "LineString", "coordinates": [[411782.43, 5654978.38], [411765.23, 5654964.13], [411750.13, 5654950.95], [411746.57, 5654947.43]]}}, {"type": "Feature", "properties": {"t": 3300, "f": 1600, "hf": 0.031, "b": 1700, "hb": 0.059, "y": 2025, "m": "man", "n": "Reitbahnstra\u00dfe"}, "geometry": {"type": "LineString", "coordinates": [[411216.35, 5655773.01], [411219.21, 5655676.96], [411221.44, 5655586.98]]}}, {"type": "Feature", "properties": {"t": 3300, "f": 1600, "hf": 0.031, "b": 1700, "hb": 0.059, "y": 2025, "m": "man", "n": "Reitbahnstra\u00dfe"}, "geometry": {"type": "LineString", "coordinates": [[411221.44, 5655586.98], [411224.38, 5655552.9], [411220.75, 5655534.0]]}}, {"type": "Feature", "properties": {"t": 3300, "f": 1600, "hf": 0.031, "b": 1700, "hb": 0.059, "y": 2025, "m": "man", "n": "Reitbahnstra\u00dfe"}, "geometry": {"type": "LineString", "coordinates": [[411220.75, 5655534.0], [411216.35, 5655518.41], [411205.9, 5655501.69], [411164.09, 5655452.57], [411149.27, 5655437.64]]}}, {"type": "Feature", "properties": {"t": 3100, "f": 1400, "hf": 0.021, "b": 1700, "hb": 0.035, "y": 2023, "m": "man", "n": "Reitbahnstra\u00dfe"}, "geometry": {"type": "LineString", "coordinates": [[411149.27, 5655437.64], [411131.37, 5655409.13], [411089.21, 5655354.62]]}}, {"type": "Feature", "properties": {"t": 3100, "f": 1400, "hf": 0.021, "b": 1700, "hb": 0.035, "y": 2023, "m": "man", "n": "Reitbahnstra\u00dfe"}, "geometry": {"type": "LineString", "coordinates": [[411089.21, 5655354.62], [411070.99, 5655328.13], [411065.95, 5655325.44], [411060.31, 5655325.95], [411053.26, 5655328.08]]}}, {"type": "Feature", "properties": {"t": 10600, "b": 10600, "hb": 0.035, "y": 2008, "m": "estimate", "n": "Sidonienstra\u00dfe"}, "geometry": {"type": "LineString", "coordinates": [[411482.2, 5655077.49], [411560.61, 5654974.47]]}}, {"type": "Feature", "properties": {"t": 9100, "b": 9100, "hb": 0.035, "y": 2020, "m": "loop", "n": "Sidonienstra\u00dfe"}, "geometry": {"type": "LineString", "coordinates": [[411560.61, 5654974.47], [411581.68, 5654947.79], [411595.17, 5654932.92], [411599.06, 5654923.2]]}}, {"type": "Feature", "properties": {"t": 8800, "b": 8800, "hb": 0.05, "y": 2025, "m": "man", "n": "Dippoldiswalder Platz"}, "geometry": {"type": "LineString", "coordinates": [[411316.82, 5655775.11], [411282.42, 5655768.83], [411265.76, 5655763.83], [411244.53, 5655756.9], [411235.21, 5655754.39], [411228.55, 5655753.84], [411224.29, 5655755.5], [411221.33, 5655758.47], [411216.35, 5655773.01]]}}, {"type": "Feature", "properties": {"t": 7300, "b": 7300, "hb": 0.063, "y": 2025, "m": "detector", "n": "Dippoldiswalder Platz"}, "geometry": {"type": "LineString", "coordinates": [[411216.35, 5655773.01], [411225.51, 5655785.3], [411233.34, 5655791.25], [411247.27, 5655796.35], [411286.19, 5655806.79], [411302.71, 5655812.76], [411316.69, 5655823.91]]}}, {"type": "Feature", "properties": {"t": 1500, "f": 700, "hf": 0.014, "b": 800, "hb": 0.013, "y": 2017, "m": "man", "n": "Falkenstra\u00dfe"}, "geometry": {"type": "LineString", "coordinates": [[410650.06, 5655769.58], [410639.17, 5655759.09], [410592.74, 5655709.23], [410533.24, 5655642.03]]}}, {"type": "Feature", "properties": {"t": 2500, "f": 1600, "hf": 0.025, "b": 900, "hb": 0.022, "y": 2011, "m": "man", "n": "Sternplatz"}, "geometry": {"type": "LineString", "coordinates": [[410717.66, 5655828.87], [410681.5, 5655797.53], [410650.06, 5655769.58]]}}, {"type": "Feature", "properties": {"t": 3800, "f": 1700, "hf": 0.006, "b": 2100, "hb": 0.014, "y": 2012, "m": "man", "n": "Annenstra\u00dfe"}, "geometry": {"type": "LineString", "coordinates": [[410811.35, 5656000.0], [410797.63, 5655980.88]]}}, {"type": "Feature", "properties": {"t": 3900, "f": 1800, "hf": 0.006, "b": 2100, "hb": 0.014, "y": 2012, "m": "man", "n": "Annenstra\u00dfe"}, "geometry": {"type": "LineString", "coordinates": [[410797.63, 5655980.88], [410792.14, 5655971.74], [410788.44, 5655963.04], [410779.92, 5655929.91], [410776.29, 5655917.44]]}}, {"type": "Feature", "properties": {"t": 3900, "f": 1800, "hf": 0.006, "b": 2100, "hb": 0.014, "y": 2012, "m": "man", "n": "Annenstra\u00dfe"}, "geometry": {"type": "LineString", "coordinates": [[410776.29, 5655917.44], [410773.07, 5655906.21], [410768.44, 5655896.4], [410760.67, 5655882.88], [410754.56, 5655873.63], [410746.97, 5655863.63], [410730.49, 5655843.27], [410717.66, 5655828.87]]}}, {"type": "Feature", "properties": {"t": 5300, "f": 2000, "hf": 0.02, "b": 3300, "hb": 0.015, "y": 2019, "m": "man", "n": "Josephinenstra\u00dfe"}, "geometry": {"type": "LineString", "coordinates": [[410717.66, 5655828.87], [410762.84, 5655804.09]]}}, {"type": "Feature", "properties": {"t": 5300, "f": 2000, "hf": 0.02, "b": 3300, "hb": 0.015, "y": 2019, "m": "man", "n": "Josephinenstra\u00dfe"}, "geometry": {"type": "LineString", "coordinates": [[410762.84, 5655804.09], [410793.25, 5655787.17], [410822.99, 5655769.87]]}}, {"type": "Feature", "properties": {"t": 5300, "f": 2000, "hf": 0.02, "b": 3300, "hb": 0.015, "y": 2019, "m": "man", "n": "Josephinenstra\u00dfe"}, "geometry": {"type": "LineString", "coordinates": [[410822.99, 5655769.87], [410853.05, 5655754.4], [410872.49, 5655742.0], [410890.66, 5655727.33]]}}, {"type": "Feature", "properties": {"t": 5300, "f": 2000, "hf": 0.02, "b": 3300, "hb": 0.015, "y": 2019, "m": "man", "n": "Josephinenstra\u00dfe"}, "geometry": {"type": "LineString", "coordinates": [[410890.66, 5655727.33], [410901.74, 5655717.56], [410912.11, 5655706.45], [410921.0, 5655695.16], [410926.77, 5655686.35]]}}, {"type": "Feature", "properties": {"t": 2500, "f": 1200, "hf": 0.008, "b": 1300, "hb": 0.0, "y": 2019, "m": "man", "n": "Josephinenstra\u00dfe"}, "geometry": {"type": "LineString", "coordinates": [[410926.77, 5655686.35], [410946.85, 5655655.29], [410973.36, 5655617.18], [410994.76, 5655589.09]]}}, {"type": "Feature", "properties": {"t": 2500, "f": 1200, "hf": 0.008, "b": 1300, "hb": 0.0, "y": 2019, "m": "man", "n": "Josephinenstra\u00dfe"}, "geometry": {"type": "LineString", "coordinates": [[410994.76, 5655589.09], [411031.87, 5655543.11], [411055.76, 5655517.36], [411118.66, 5655459.42], [411149.27, 5655437.64]]}}, {"type": "Feature", "properties": {"t": 540, "f": 500, "hf": 0.02, "b": 40, "hb": 0.0, "y": 2019, "m": "man", "n": "Rosenstra\u00dfe"}, "geometry": {"type": "LineString", "coordinates": [[410636.43, 5656000.0], [410631.85, 5655995.52], [410612.67, 5655972.65], [410594.36, 5655952.68], [410573.23, 5655934.88], [410566.22, 5655930.45]]}}, {"type": "Feature", "properties": {"t": 1100, "f": 500, "hf": 0.04, "b": 600, "hb": 0.017, "y": 2025, "m": "man", "n": "Rosenstra\u00dfe"}, "geometry": {"type": "LineString", "coordinates": [[410566.22, 5655930.45], [410463.92, 5655889.55], [410393.3, 5655862.36], [410389.02, 5655861.05]]}}, {"type": "Feature", "properties": {"t": 5800, "f": 3100, "hf": 0.023, "b": 2700, "hb": 0.022, "y": 2025, "m": "man", "n": "Rosenstra\u00dfe"}, "geometry": {"type": "LineString", "coordinates": [[410389.02, 5655861.05], [410357.43, 5655849.88]]}}, {"type": "Feature", "properties": {"t": 5800, "f": 3100, "hf": 0.023, "b": 2700, "hb": 0.022, "y": 2025, "m": "man", "n": "Rosenstra\u00dfe"}, "geometry": {"type": "LineString", "coordinates": [[410357.43, 5655849.88], [410303.12, 5655831.89], [410266.81, 5655820.27], [410260.63, 5655817.92], [410208.38, 5655800.39]]}}, {"type": "Feature", "properties": {"t": 4900, "f": 2300, "hf": 0.057, "b": 2600, "hb": 0.054, "y": 2025, "m": "man", "n": "Rosenstra\u00dfe"}, "geometry": {"type": "LineString", "coordinates": [[410208.38, 5655800.39], [410143.09, 5655775.34], [410075.72, 5655748.24], [410031.15, 5655731.92]]}}, {"type": "Feature", "properties": {"t": 4900, "f": 2300, "hf": 0.057, "b": 2600, "hb": 0.054, "y": 2025, "m": "man", "n": "Rosenstra\u00dfe"}, "geometry": {"type": "LineString", "coordinates": [[410031.15, 5655731.92], [410000.0, 5655719.83]]}}, {"type": "Feature", "properties": {"t": 300, "f": 100, "hf": 0.0, "b": 200, "hb": 0.0, "y": 2019, "m": "man", "n": "Maternistra\u00dfe"}, "geometry": {"type": "LineString", "coordinates": [[410616.2, 5655822.33], [410587.19, 5655884.37], [410566.22, 5655930.45]]}}, {"type": "Feature", "properties": {"t": 4800, "f": 2400, "hf": 0.046, "b": 2400, "hb": 0.033, "y": 2025, "m": "man", "n": "Marienstra\u00dfe"}, "geometry": {"type": "LineString", "coordinates": [[411189.61, 5656000.0], [411193.99, 5655982.15]]}}, {"type": "Feature", "properties": {"t": 4800, "f": 2400, "hf": 0.046, "b": 2400, "hb": 0.033, "y": 2025, "m": "man", "n": "Marienstra\u00dfe"}, "geometry": {"type": "LineString", "coordinates": [[411193.99, 5655982.15], [411205.36, 5655940.3]]}}, {"type": "Feature", "properties": {"t": 4800, "f": 2400, "hf": 0.046, "b": 2400, "hb": 0.033, "y": 2025, "m": "man", "n": "Marienstra\u00dfe"}, "geometry": {"type": "LineString", "coordinates": [[411205.36, 5655940.3], [411215.41, 5655892.96], [411223.79, 5655857.14]]}}, {"type": "Feature", "properties": {"t": 4800, "f": 2400, "hf": 0.046, "b": 2400, "hb": 0.033, "y": 2025, "m": "man", "n": "Marienstra\u00dfe"}, "geometry": {"type": "LineString", "coordinates": [[411223.79, 5655857.14], [411226.45, 5655845.76], [411228.95, 5655827.23], [411226.58, 5655813.82], [411216.35, 5655773.01]]}}, {"type": "Feature", "properties": {"t": 4800, "f": 4800, "hf": 0.025, "y": 2020, "m": "man", "n": "Dr.-K\u00fclz-Ring"}, "geometry": {"type": "LineString", "coordinates": [[411915.13, 5655813.53], [411893.19, 5655829.92], [411882.46, 5655827.33], [411870.98, 5655826.4], [411835.5, 5655829.35]]}}, {"type": "Feature", "properties": {"t": 4800, "f": 4800, "hf": 0.025, "y": 2020, "m": "man", "n": "Dr.-K\u00fclz-Ring"}, "geometry": {"type": "LineString", "coordinates": [[411835.5, 5655829.35], [411811.55, 5655830.66], [411782.67, 5655832.88], [411760.12, 5655835.19], [411724.72, 5655837.45]]}}, {"type": "Feature", "properties": {"t": 3000, "f": 3000, "hf": 0.03, "y": 2025, "m": "man", "n": "Dr.-K\u00fclz-Ring"}, "geometry": {"type": "LineString", "coordinates": [[411799.85, 5655730.18], [411745.83, 5655819.36], [411741.94, 5655824.55], [411735.83, 5655829.73], [411724.72, 5655837.45]]}}, {"type": "Feature", "properties": {"t": 7300, "f": 7300, "hf": 0.063, "y": 2025, "m": "detector", "n": "Dr.-K\u00fclz-Ring"}, "geometry": {"type": "LineString", "coordinates": [[411724.72, 5655837.45], [411673.47, 5655842.75], [411622.59, 5655845.27]]}}, {"type": "Feature", "properties": {"t": 7300, "f": 7300, "hf": 0.063, "y": 2025, "m": "detector", "n": "Dr.-K\u00fclz-Ring"}, "geometry": {"type": "LineString", "coordinates": [[411622.59, 5655845.27], [411606.23, 5655845.65], [411587.72, 5655846.95], [411563.81, 5655847.44]]}}, {"type": "Feature", "properties": {"t": 7300, "f": 7300, "hf": 0.063, "y": 2025, "m": "detector", "n": "Dr.-K\u00fclz-Ring"}, "geometry": {"type": "LineString", "coordinates": [[411563.81, 5655847.44], [411454.76, 5655840.12]]}}, {"type": "Feature", "properties": {"t": 7300, "f": 7300, "hf": 0.063, "y": 2025, "m": "detector", "n": "Dr.-K\u00fclz-Ring"}, "geometry": {"type": "LineString", "coordinates": [[411454.76, 5655840.12], [411391.8, 5655838.16], [411365.85, 5655836.16], [411332.4, 5655828.18], [411316.69, 5655823.91]]}}, {"type": "Feature", "properties": {"t": 2900, "f": 1400, "hf": 0.036, "b": 1500, "hb": 0.02, "y": 2022, "m": "man", "n": "Kreuzstra\u00dfe"}, "geometry": {"type": "LineString", "coordinates": [[411942.24, 5655859.29], [411864.68, 5655903.81]]}}, {"type": "Feature", "properties": {"t": 5200, "f": 2800, "hf": 0.039, "b": 2400, "hb": 0.096, "y": 2025, "m": "detector", "n": "Parkstra\u00dfe"}, "geometry": {"type": "LineString", "coordinates": [[411837.08, 5655257.08], [411844.7, 5655226.47], [411854.63, 5655182.9], [411862.74, 5655152.84], [411868.72, 5655134.77], [411874.94, 5655118.97], [411879.11, 5655109.53], [411894.4, 5655079.4], [411909.37, 5655052.63]]}}, {"type": "Feature", "properties": {"t": 6900, "f": 3500, "hf": 0.046, "b": 3400, "hb": 0.056, "y": 2025, "m": "man", "n": "Parkstra\u00dfe"}, "geometry": {"type": "LineString", "coordinates": [[411909.37, 5655052.63], [411924.58, 5655028.46], [411935.85, 5655012.16], [411952.76, 5654990.32], [411970.31, 5654969.37], [411980.69, 5654957.98], [412000.0, 5654938.1]]}}, {"type": "Feature", "properties": {"t": 10100, "f": 4600, "hf": 0.057, "b": 5500, "hb": 0.089, "y": 2025, "m": "estimate", "n": "Budapester Stra\u00dfe"}, "geometry": {"type": "LineString", "coordinates": [[411216.35, 5655773.01], [411135.89, 5655766.72], [411103.5, 5655761.68], [411072.63, 5655753.08], [411043.22, 5655742.55], [411006.19, 5655726.81], [410926.77, 5655686.35]]}}, {"type": "Feature", "properties": {"t": 17100, "f": 7600, "hf": 0.033, "b": 9500, "hb": 0.025, "y": 2019, "m": "man", "n": "Budapester Stra\u00dfe"}, "geometry": {"type": "LineString", "coordinates": [[410926.77, 5655686.35], [410903.25, 5655672.02], [410866.23, 5655647.03], [410823.44, 5655616.59], [410789.15, 5655592.93]]}}, {"type": "Feature", "properties": {"t": 2800, "f": 2000, "hf": 0.04, "b": 800, "hb": 0.025, "y": 2017, "m": "man", "n": "Budapester Stra\u00dfe"}, "geometry": {"type": "LineString", "coordinates": [[410789.15, 5655592.93], [410789.75, 5655588.28], [410791.81, 5655583.11], [410795.69, 5655580.29], [410804.81, 5655569.59], [410817.54, 5655552.13], [410842.88, 5655516.19], [410846.6, 5655508.98], [410850.09, 5655499.75], [410851.45, 5655491.52], [410849.64, 5655476.2], [410841.74, 5655447.56], [410837.43, 5655434.57]]}}, {"type": "Feature", "properties": {"t": 22000, "f": 13500, "hf": 0.023, "b": 8500, "hb": 0.016, "y": 2025, "m": "estimate", "n": "Budapester Stra\u00dfe"}, "geometry": {"type": "LineString", "coordinates": [[410789.15, 5655592.93], [410682.22, 5655512.69], [410631.42, 5655475.18]]}}, {"type": "Feature", "properties": {"t": 14800, "f": 7400, "hf": 0.02, "b": 7400, "hb": 0.046, "y": 2026, "m": "man", "n": "Budapester Stra\u00dfe"}, "geometry": {"type": "LineString", "coordinates": [[410631.42, 5655475.18], [410580.41, 5655437.78], [410554.55, 5655420.06], [410499.37, 5655379.82]]}}, {"type": "Feature", "properties": {"t": 5500, "f": 5200, "hf": 0.025, "b": 300, "hb": 0.033, "y": 2017, "m": "man", "n": "Budapester Stra\u00dfe"}, "geometry": {"type": "LineString", "coordinates": [[410533.24, 5655642.03], [410517.0, 5655621.29], [410507.07, 5655601.8], [410503.49, 5655593.72], [410501.0, 5655582.4], [410501.29, 5655577.11], [410504.37, 5655567.63], [410508.27, 5655561.12], [410513.4, 5655554.83], [410521.59, 5655548.14], [410534.28, 5655539.48], [410597.38, 5655498.73], [410631.42, 5655475.18]]}}, {"type": "Feature", "properties": {"t": 2600, "f": 400, "hf": 0.025, "b": 2200, "hb": 0.014, "y": 2025, "m": "man", "n": "Budapester Stra\u00dfe"}, "geometry": {"type": "LineString", "coordinates": [[410837.43, 5655434.57], [410829.37, 5655418.41], [410821.59, 5655405.04], [410812.31, 5655392.63], [410805.53, 5655388.36], [410798.19, 5655386.66], [410789.24, 5655386.27], [410775.58, 5655387.63], [410764.25, 5655391.57], [410755.14, 5655395.71], [410689.94, 5655436.44], [410631.42, 5655475.18]]}}, {"type": "Feature", "properties": {"t": 18700, "f": 9600, "hf": 0.041, "b": 9100, "hb": 0.024, "y": 2026, "m": "man", "n": "Budapester Stra\u00dfe"}, "geometry": {"type": "LineString", "coordinates": [[410499.37, 5655379.82], [410456.28, 5655345.99], [410428.96, 5655326.36]]}}, {"type": "Feature", "properties": {"t": 18700, "f": 9600, "hf": 0.041, "b": 9100, "hb": 0.024, "y": 2026, "m": "man", "n": "Budapester Stra\u00dfe"}, "geometry": {"type": "LineString", "coordinates": [[410428.96, 5655326.36], [410383.28, 5655279.31], [410363.27, 5655257.15]]}}, {"type": "Feature", "properties": {"t": 18700, "f": 9600, "hf": 0.041, "b": 9100, "hb": 0.024, "y": 2026, "m": "man", "n": "Budapester Stra\u00dfe"}, "geometry": {"type": "LineString", "coordinates": [[410363.27, 5655257.15], [410326.62, 5655211.27], [410300.64, 5655176.67]]}}, {"type": "Feature", "properties": {"t": 18700, "f": 9600, "hf": 0.041, "b": 9100, "hb": 0.024, "y": 2026, "m": "man", "n": "Budapester Stra\u00dfe"}, "geometry": {"type": "LineString", "coordinates": [[410300.64, 5655176.67], [410286.99, 5655158.6], [410228.02, 5655082.89]]}}, {"type": "Feature", "properties": {"t": 18700, "f": 9600, "hf": 0.041, "b": 9100, "hb": 0.024, "y": 2026, "m": "man", "n": "Budapester Stra\u00dfe"}, "geometry": {"type": "LineString", "coordinates": [[410228.02, 5655082.89], [410204.17, 5655049.14], [410166.45, 5654998.03]]}}, {"type": "Feature", "properties": {"t": 18700, "f": 9600, "hf": 0.041, "b": 9100, "hb": 0.024, "y": 2026, "m": "man", "n": "Budapester Stra\u00dfe"}, "geometry": {"type": "LineString", "coordinates": [[410166.45, 5654998.03], [410152.62, 5654980.79], [410136.45, 5654959.54], [410116.23, 5654928.1]]}}, {"type": "Feature", "properties": {"t": 18700, "f": 9600, "hf": 0.041, "b": 9100, "hb": 0.024, "y": 2026, "m": "man", "n": "Budapester Stra\u00dfe"}, "geometry": {"type": "LineString", "coordinates": [[410116.23, 5654928.1], [410072.49, 5654865.67], [410031.21, 5654813.62]]}}, {"type": "Feature", "properties": {"t": 18700, "f": 9600, "hf": 0.041, "b": 9100, "hb": 0.024, "y": 2026, "m": "man", "n": "Budapester Stra\u00dfe"}, "geometry": {"type": "LineString", "coordinates": [[410031.21, 5654813.62], [410017.88, 5654794.07], [410000.0, 5654770.47]]}}, {"type": "Feature", "properties": {"t": 34300, "f": 16900, "hf": 0.025, "b": 17400, "hb": 0.037, "y": 2019, "m": "man", "n": "Georgplatz"}, "geometry": {"type": "LineString", "coordinates": [[411799.85, 5655730.18], [411767.38, 5655711.59]]}}, {"type": "Feature", "properties": {"t": 20200, "f": 10400, "hf": 0.029, "b": 9800, "hb": 0.033, "y": 2025, "m": "estimate", "n": "Wiener Stra\u00dfe"}, "geometry": {"type": "LineString", "coordinates": [[411546.07, 5654958.51], [411573.49, 5654938.0], [411581.03, 5654932.99], [411599.06, 5654923.2]]}}, {"type": "Feature", "properties": {"t": 20400, "f": 10400, "hf": 0.029, "b": 10000, "hb": 0.03, "y": 2025, "m": "loop", "n": "Wiener Stra\u00dfe"}, "geometry": {"type": "LineString", "coordinates": [[411599.06, 5654923.2], [411645.83, 5654897.82], [411669.5, 5654885.39], [411690.48, 5654873.25]]}}, {"type": "Feature", "properties": {"t": 20400, "f": 10400, "hf": 0.029, "b": 10000, "hb": 0.03, "y": 2025, "m": "loop", "n": "Wiener Stra\u00dfe"}, "geometry": {"type": "LineString", "coordinates": [[411690.48, 5654873.25], [411761.4, 5654830.7], [411833.19, 5654792.04]]}}, {"type": "Feature", "properties": {"t": 20400, "f": 10400, "hf": 0.029, "b": 10000, "hb": 0.03, "y": 2025, "m": "loop", "n": "Wiener Stra\u00dfe"}, "geometry": {"type": "LineString", "coordinates": [[411833.19, 5654792.04], [411907.65, 5654750.86], [411984.71, 5654711.91]]}}, {"type": "Feature", "properties": {"t": 13500, "f": 7200, "hf": 0.018, "b": 6300, "hb": 0.022, "y": 2025, "m": "estimate", "n": "Wiener Stra\u00dfe"}, "geometry": {"type": "LineString", "coordinates": [[411984.71, 5654711.91], [412000.0, 5654704.64]]}}, {"type": "Feature", "properties": {"t": 22900, "f": 13200, "hf": 0.042, "b": 9700, "hb": 0.085, "y": 2025, "m": "estimate", "n": "Fritz-L\u00f6ffler-Stra\u00dfe"}, "geometry": {"type": "LineString", "coordinates": [[411143.09, 5654768.96], [411112.63, 5654672.35], [411087.07, 5654589.91]]}}, {"type": "Feature", "properties": {"t": 22900, "f": 13200, "hf": 0.042, "b": 9700, "hb": 0.085, "y": 2025, "m": "estimate", "n": "Fritz-L\u00f6ffler-Stra\u00dfe"}, "geometry": {"type": "LineString", "coordinates": [[411087.07, 5654589.91], [411060.55, 5654504.36], [411034.14, 5654417.32]]}}, {"type": "Feature", "properties": {"t": 30100, "f": 15100, "hf": 0.038, "b": 15000, "hb": 0.04, "y": 2019, "m": "man", "n": "Fritz-L\u00f6ffler-Stra\u00dfe"}, "geometry": {"type": "LineString", "coordinates": [[411034.14, 5654417.32], [411006.56, 5654349.52], [410995.32, 5654315.61], [410982.01, 5654281.54]]}}, {"type": "Feature", "properties": {"t": 27300, "f": 13800, "hf": 0.038, "b": 13500, "hb": 0.04, "y": 2018, "m": "man", "n": "Fritz-L\u00f6ffler-Platz"}, "geometry": {"type": "LineString", "coordinates": [[410982.01, 5654281.54], [410977.15, 5654268.72], [410960.99, 5654241.27]]}}, {"type": "Feature", "properties": {"t": 17200, "f": 9000, "hf": 0.056, "b": 8200, "hb": 0.056, "y": 2025, "m": "man", "n": "Bergstra\u00dfe"}, "geometry": {"type": "LineString", "coordinates": [[410960.99, 5654241.27], [410957.6, 5654212.5], [410961.23, 5654177.89], [410985.98, 5654008.74]]}}, {"type": "Feature", "properties": {"t": 17200, "f": 9000, "hf": 0.056, "b": 8200, "hb": 0.056, "y": 2025, "m": "man", "n": "Fritz-Foerster-Platz"}, "geometry": {"type": "LineString", "coordinates": [[410985.98, 5654008.74], [410986.2, 5654000.0]]}}, {"type": "Feature", "properties": {"t": 3000, "f": 600, "hf": 0.233, "b": 2400, "hb": 0.083, "y": 2011, "m": "man", "n": "Uhlandstra\u00dfe"}, "geometry": {"type": "LineString", "coordinates": [[411690.48, 5654873.25], [411686.76, 5654870.03], [411682.57, 5654864.4], [411647.36, 5654793.76], [411640.93, 5654779.91], [411612.74, 5654693.57]]}}, {"type": "Feature", "properties": {"t": 2500, "f": 1000, "hf": 0.06, "b": 1500, "hb": 0.027, "y": 2011, "m": "man", "n": "Uhlandstra\u00dfe"}, "geometry": {"type": "LineString", "coordinates": [[411612.74, 5654693.57], [411558.58, 5654539.35]]}}, {"type": "Feature", "properties": {"t": 2500, "f": 1000, "hf": 0.06, "b": 1500, "hb": 0.027, "y": 2011, "m": "man", "n": "Uhlandstra\u00dfe"}, "geometry": {"type": "LineString", "coordinates": [[411558.58, 5654539.35], [411525.58, 5654441.74]]}}, {"type": "Feature", "properties": {"t": 2500, "f": 1000, "hf": 0.06, "b": 1500, "hb": 0.027, "y": 2011, "m": "man", "n": "Uhlandstra\u00dfe"}, "geometry": {"type": "LineString", "coordinates": [[411525.58, 5654441.74], [411466.96, 5654270.23]]}}, {"type": "Feature", "properties": {"t": 6000, "f": 2700, "hf": 0.037, "b": 3300, "hb": 0.073, "y": 2024, "m": "man", "n": "Franklinstra\u00dfe"}, "geometry": {"type": "LineString", "coordinates": [[411984.71, 5654711.91], [411980.03, 5654700.87], [411976.88, 5654691.43], [411971.51, 5654670.69], [411965.21, 5654648.29], [411955.4, 5654624.23], [411932.07, 5654579.79], [411907.46, 5654535.71]]}}, {"type": "Feature", "properties": {"t": 2600, "f": 1500, "hf": 0.007, "b": 1100, "hb": 0.0, "y": 2023, "m": "man", "n": "Franklinstra\u00dfe"}, "geometry": {"type": "LineString", "coordinates": [[411907.46, 5654535.71], [411867.34, 5654428.74], [411836.9, 5654335.85]]}}, {"type": "Feature", "properties": {"t": 2900, "f": 1500, "hf": 0.02, "b": 1400, "hb": 0.021, "y": 2017, "m": "man", "n": "Franklinstra\u00dfe"}, "geometry": {"type": "LineString", "coordinates": [[411836.9, 5654335.85], [411806.09, 5654248.18], [411780.88, 5654172.55], [411778.01, 5654164.75]]}}, {"type": "Feature", "properties": {"t": 22900, "f": 13200, "hf": 0.042, "b": 9700, "hb": 0.085, "y": 2025, "m": "estimate", "n": "Friedrich-List-Platz"}, "geometry": {"type": "LineString", "coordinates": [[411188.07, 5654917.62], [411164.19, 5654835.67], [411143.09, 5654768.96]]}}, {"type": "Feature", "properties": {"t": 8700, "f": 4200, "hf": 0.038, "b": 4500, "hb": 0.038, "y": 2018, "m": "man", "n": "Strehlener Stra\u00dfe"}, "geometry": {"type": "LineString", "coordinates": [[411188.07, 5654917.62], [411250.96, 5654888.91], [411314.32, 5654854.74]]}}, {"type": "Feature", "properties": {"t": 8700, "f": 4200, "hf": 0.038, "b": 4500, "hb": 0.038, "y": 2018, "m": "man", "n": "Strehlener Stra\u00dfe"}, "geometry": {"type": "LineString", "coordinates": [[411314.32, 5654854.74], [411382.22, 5654818.19], [411450.96, 5654783.28]]}}, {"type": "Feature", "properties": {"t": 9800, "f": 5400, "hf": 0.035, "b": 4400, "hb": 0.036, "y": 2011, "m": "man", "n": "Strehlener Stra\u00dfe"}, "geometry": {"type": "LineString", "coordinates": [[411450.96, 5654783.28], [411531.85, 5654738.79], [411612.74, 5654693.57]]}}, {"type": "Feature", "properties": {"t": 6900, "f": 3400, "hf": 0.041, "b": 3500, "hb": 0.043, "y": 2023, "m": "man", "n": "Strehlener Stra\u00dfe"}, "geometry": {"type": "LineString", "coordinates": [[411612.74, 5654693.57], [411686.41, 5654652.87], [411760.63, 5654614.4], [411834.38, 5654574.55], [411907.46, 5654535.71]]}}, {"type": "Feature", "properties": {"t": 4800, "f": 2400, "hf": 0.054, "b": 2400, "hb": 0.058, "y": 2023, "m": "man", "n": "Strehlener Stra\u00dfe"}, "geometry": {"type": "LineString", "coordinates": [[411907.46, 5654535.71], [412000.0, 5654485.58]]}}, {"type": "Feature", "properties": {"t": 2700, "f": 1800, "hf": 0.006, "b": 900, "hb": 0.011, "y": 2019, "m": "man", "n": "Reichenbachstra\u00dfe"}, "geometry": {"type": "LineString", "coordinates": [[410922.01, 5654433.42], [410947.09, 5654436.52], [410974.03, 5654439.15]]}}, {"type": "Feature", "properties": {"t": 2700, "f": 1800, "hf": 0.006, "b": 900, "hb": 0.011, "y": 2019, "m": "man", "n": "Reichenbachstra\u00dfe"}, "geometry": {"type": "LineString", "coordinates": [[410974.03, 5654439.15], [411015.52, 5654423.41], [411034.14, 5654417.32]]}}, {"type": "Feature", "properties": {"t": 2900, "f": 1500, "hf": 0.013, "b": 1400, "hb": 0.036, "y": 2026, "m": "man", "n": "Reichenbachstra\u00dfe"}, "geometry": {"type": "LineString", "coordinates": [[411034.14, 5654417.32], [411094.1, 5654395.83], [411158.35, 5654373.75]]}}, {"type": "Feature", "properties": {"t": 2900, "f": 1500, "hf": 0.013, "b": 1400, "hb": 0.036, "y": 2026, "m": "man", "n": "Reichenbachstra\u00dfe"}, "geometry": {"type": "LineString", "coordinates": [[411158.35, 5654373.75], [411227.03, 5654350.47], [411305.61, 5654324.44]]}}, {"type": "Feature", "properties": {"t": 2900, "f": 1500, "hf": 0.013, "b": 1400, "hb": 0.036, "y": 2026, "m": "man", "n": "Reichenbachstra\u00dfe"}, "geometry": {"type": "LineString", "coordinates": [[411305.61, 5654324.44], [411376.88, 5654299.71]]}}, {"type": "Feature", "properties": {"t": 2900, "f": 1500, "hf": 0.013, "b": 1400, "hb": 0.036, "y": 2026, "m": "man", "n": "Reichenbachstra\u00dfe"}, "geometry": {"type": "LineString", "coordinates": [[411376.88, 5654299.71], [411466.96, 5654270.23]]}}, {"type": "Feature", "properties": {"t": 2200, "f": 1200, "hf": 0.025, "b": 1000, "hb": 0.012, "y": 2026, "m": "man", "n": "Reichenbachstra\u00dfe"}, "geometry": {"type": "LineString", "coordinates": [[411466.96, 5654270.23], [411543.24, 5654243.27], [411625.38, 5654217.82]]}}, {"type": "Feature", "properties": {"t": 2200, "f": 1200, "hf": 0.025, "b": 1000, "hb": 0.012, "y": 2026, "m": "man", "n": "Reichenbachstra\u00dfe"}, "geometry": {"type": "LineString", "coordinates": [[411625.38, 5654217.82], [411696.9, 5654191.25], [411778.01, 5654164.75]]}}, {"type": "Feature", "properties": {"t": 2200, "f": 1200, "hf": 0.025, "b": 1000, "hb": 0.012, "y": 2026, "m": "man", "n": "Reichenbachstra\u00dfe"}, "geometry": {"type": "LineString", "coordinates": [[411778.01, 5654164.75], [411877.59, 5654130.34], [411979.61, 5654095.73]]}}, {"type": "Feature", "properties": {"t": 2200, "f": 1200, "hf": 0.025, "b": 1000, "hb": 0.012, "y": 2026, "m": "man", "n": "Reichenbachstra\u00dfe"}, "geometry": {"type": "LineString", "coordinates": [[411979.61, 5654095.73], [412000.0, 5654087.81]]}}, {"type": "Feature", "properties": {"t": 23000, "f": 11900, "hf": 0.038, "b": 11100, "hb": 0.042, "y": 2018, "m": "man", "n": "Am Hauptbahnhof"}, "geometry": {"type": "LineString", "coordinates": [[411276.3, 5655086.97], [411224.05, 5654984.97], [411188.07, 5654917.62]]}}, {"type": "Feature", "properties": {"t": 3800, "f": 2000, "hf": 0.055, "b": 1800, "hb": 0.039, "y": 2025, "m": "man", "n": "Freiberger Stra\u00dfe"}, "geometry": {"type": "LineString", "coordinates": [[410060.04, 5656000.0], [410024.13, 5655983.27]]}}, {"type": "Feature", "properties": {"t": 3800, "f": 2000, "hf": 0.055, "b": 1800, "hb": 0.039, "y": 2025, "m": "man", "n": "Freiberger Stra\u00dfe"}, "geometry": {"type": "LineString", "coordinates": [[410024.13, 5655983.27], [410000.0, 5655971.44]]}}, {"type": "Feature", "properties": {"t": 4500, "f": 2700, "hf": 0.015, "b": 1800, "hb": 0.028, "y": 2004, "m": "man", "n": "Zwickauer Stra\u00dfe"}, "geometry": {"type": "LineString", "coordinates": [[410398.59, 5655414.66], [410407.41, 5655403.56], [410390.25, 5655358.21]]}}, {"type": "Feature", "properties": {"t": 4500, "f": 2700, "hf": 0.015, "b": 1800, "hb": 0.028, "y": 2004, "m": "man", "n": "Zwickauer Stra\u00dfe"}, "geometry": {"type": "LineString", "coordinates": [[410398.59, 5655414.66], [410372.54, 5655395.9], [410342.48, 5655377.73]]}}, {"type": "Feature", "properties": {"t": 4500, "f": 2700, "hf": 0.015, "b": 1800, "hb": 0.028, "y": 2004, "m": "man", "n": "Zwickauer Stra\u00dfe"}, "geometry": {"type": "LineString", "coordinates": [[410199.27, 5655280.58], [410131.77, 5655233.76], [410081.63, 5655201.48]]}}, {"type": "Feature", "properties": {"t": 4500, "f": 2700, "hf": 0.015, "b": 1800, "hb": 0.028, "y": 2007, "m": "man", "n": "Zwickauer Stra\u00dfe"}, "geometry": {"type": "LineString", "coordinates": [[410081.63, 5655201.48], [410074.22, 5655198.82], [410059.54, 5655178.19], [410038.04, 5655146.91], [410012.66, 5655107.57]]}}, {"type": "Feature", "properties": {"t": 2000, "f": 1100, "hf": 0.018, "b": 900, "hb": 0.011, "y": 2023, "m": "man", "n": "Hohe Stra\u00dfe"}, "geometry": {"type": "LineString", "coordinates": [[410667.78, 5655272.31], [410640.52, 5655248.32], [410616.4, 5655224.02]]}}, {"type": "Feature", "properties": {"t": 2300, "f": 1300, "hf": 0.023, "b": 1000, "hb": 0.02, "y": 2023, "m": "man", "n": "Hohe Stra\u00dfe"}, "geometry": {"type": "LineString", "coordinates": [[410616.4, 5655224.02], [410608.96, 5655214.49], [410498.45, 5655109.65]]}}, {"type": "Feature", "properties": {"t": 180, "f": 100, "hf": 0.2, "b": 80, "hb": 0.0, "y": 2023, "m": "man", "n": "Hohe Stra\u00dfe"}, "geometry": {"type": "LineString", "coordinates": [[410498.45, 5655109.65], [410468.67, 5655070.93], [410435.31, 5655025.66], [410388.71, 5654960.01]]}}, {"type": "Feature", "properties": {"t": 180, "f": 100, "hf": 0.2, "b": 80, "hb": 0.0, "y": 2023, "m": "man", "n": "Hohe Stra\u00dfe"}, "geometry": {"type": "LineString", "coordinates": [[410388.71, 5654960.01], [410321.56, 5654869.23], [410293.25, 5654832.25], [410278.32, 5654811.85]]}}, {"type": "Feature", "properties": {"t": 1200, "f": 800, "hf": 0.013, "b": 400, "hb": 0.0, "y": 2023, "m": "man", "n": "Hohe Stra\u00dfe"}, "geometry": {"type": "LineString", "coordinates": [[410278.32, 5654811.85], [410193.39, 5654696.85]]}}, {"type": "Feature", "properties": {"t": 1200, "f": 800, "hf": 0.013, "b": 400, "hb": 0.0, "y": 2023, "m": "man", "n": "Hohe Stra\u00dfe"}, "geometry": {"type": "LineString", "coordinates": [[410193.39, 5654696.85], [410121.0, 5654595.74]]}}, {"type": "Feature", "properties": {"t": 1000, "f": 400, "hf": 0.0, "b": 600, "hb": 0.0, "y": 2022, "m": "man", "n": "Hohe Stra\u00dfe"}, "geometry": {"type": "LineString", "coordinates": [[410121.0, 5654595.74], [410001.59, 5654439.29]]}}, {"type": "Feature", "properties": {"t": 400, "f": 200, "hf": 0.0, "b": 200, "hb": 0.0, "y": 2024, "m": "man", "n": "Kaitzer Stra\u00dfe"}, "geometry": {"type": "LineString", "coordinates": [[410380.15, 5654738.41], [410327.02, 5654665.13]]}}, {"type": "Feature", "properties": {"t": 400, "f": 200, "hf": 0.0, "b": 200, "hb": 0.0, "y": 2024, "m": "man", "n": "Kaitzer Stra\u00dfe"}, "geometry": {"type": "LineString", "coordinates": [[410327.02, 5654665.13], [410295.66, 5654621.87]]}}, {"type": "Feature", "properties": {"t": 400, "f": 200, "hf": 0.0, "b": 200, "hb": 0.0, "y": 2024, "m": "man", "n": "Kaitzer Stra\u00dfe"}, "geometry": {"type": "LineString", "coordinates": [[410295.66, 5654621.87], [410222.64, 5654520.61]]}}, {"type": "Feature", "properties": {"t": 600, "f": 300, "hf": 0.0, "b": 300, "hb": 0.0, "y": 2024, "m": "man", "n": "Kaitzer Stra\u00dfe"}, "geometry": {"type": "LineString", "coordinates": [[410222.64, 5654520.61], [410102.32, 5654363.81]]}}, {"type": "Feature", "properties": {"t": 1700, "f": 900, "hf": 0.011, "b": 800, "hb": 0.025, "y": 2013, "m": "man", "n": "Bernhardstra\u00dfe"}, "geometry": {"type": "LineString", "coordinates": [[410426.45, 5654525.48], [410371.17, 5654451.83], [410360.11, 5654435.64], [410355.84, 5654422.35]]}}, {"type": "Feature", "properties": {"t": 900, "f": 400, "hf": 0.075, "b": 500, "hb": 0.04, "y": 2013, "m": "man", "n": "H\u00fcbnerstra\u00dfe"}, "geometry": {"type": "LineString", "coordinates": [[410630.46, 5654378.7], [410554.75, 5654276.17]]}}, {"type": "Feature", "properties": {"t": 800, "f": 500, "hf": 0.04, "b": 300, "hb": 0.067, "y": 2013, "m": "man", "n": "H\u00fcbnerstra\u00dfe"}, "geometry": {"type": "LineString", "coordinates": [[410554.75, 5654276.17], [410437.11, 5654117.18]]}}, {"type": "Feature", "properties": {"t": 2000, "f": 1100, "hf": 0.018, "b": 900, "hb": 0.011, "y": 2023, "m": "man", "n": "Bayrische Stra\u00dfe"}, "geometry": {"type": "LineString", "coordinates": [[410667.78, 5655272.31], [410719.21, 5655228.55], [410809.59, 5655157.04]]}}, {"type": "Feature", "properties": {"t": 6400, "f": 2700, "hf": 0.03, "b": 3700, "hb": 0.024, "y": 2018, "m": "man", "n": "Bayrische Stra\u00dfe"}, "geometry": {"type": "LineString", "coordinates": [[410809.59, 5655157.04], [410843.48, 5655129.1], [410882.35, 5655098.86], [410931.27, 5655063.79]]}}, {"type": "Feature", "properties": {"t": 6400, "f": 2700, "hf": 0.03, "b": 3700, "hb": 0.024, "y": 2018, "m": "man", "n": "Bayrische Stra\u00dfe"}, "geometry": {"type": "LineString", "coordinates": [[410931.27, 5655063.79], [410987.69, 5655032.7], [411044.64, 5655000.1]]}}, {"type": "Feature", "properties": {"t": 6400, "f": 2700, "hf": 0.03, "b": 3700, "hb": 0.024, "y": 2018, "m": "man", "n": "Bayrische Stra\u00dfe"}, "geometry": {"type": "LineString", "coordinates": [[411044.64, 5655000.1], [411084.72, 5654979.3], [411162.43, 5654933.93], [411188.07, 5654917.62]]}}, {"type": "Feature", "properties": {"t": 400, "f": 200, "hf": 0.0, "b": 200, "hb": 0.05, "y": 2023, "m": "man", "n": "Wielandstra\u00dfe"}, "geometry": {"type": "LineString", "coordinates": [[410525.89, 5655345.52], [410534.79, 5655347.03], [410576.19, 5655282.1], [410616.4, 5655224.02]]}}, {"type": "Feature", "properties": {"t": 300, "f": 200, "hf": 0.0, "b": 100, "hb": 0.0, "y": 2023, "m": "man", "n": "Wielandstra\u00dfe"}, "geometry": {"type": "LineString", "coordinates": [[410616.4, 5655224.02], [410658.12, 5655181.88], [410706.37, 5655131.75]]}}, {"type": "Feature", "properties": {"t": 3700, "f": 2100, "hf": 0.019, "b": 1600, "hb": 0.019, "y": 2023, "m": "man", "n": "Schweizer Stra\u00dfe"}, "geometry": {"type": "LineString", "coordinates": [[410363.27, 5655257.15], [410389.0, 5655226.95], [410430.9, 5655178.76], [410465.99, 5655144.79]]}}, {"type": "Feature", "properties": {"t": 3700, "f": 2100, "hf": 0.019, "b": 1600, "hb": 0.019, "y": 2023, "m": "man", "n": "Schweizer Stra\u00dfe"}, "geometry": {"type": "LineString", "coordinates": [[410465.99, 5655144.79], [410477.31, 5655131.69], [410498.45, 5655109.65]]}}, {"type": "Feature", "properties": {"t": 1900, "f": 1300, "hf": 0.008, "b": 600, "hb": 0.017, "y": 2023, "m": "man", "n": "Schweizer Stra\u00dfe"}, "geometry": {"type": "LineString", "coordinates": [[410498.45, 5655109.65], [410538.96, 5655062.59], [410582.71, 5655014.83]]}}, {"type": "Feature", "properties": {"t": 3400, "f": 1800, "hf": 0.022, "b": 1600, "hb": 0.031, "y": 2024, "m": "man", "n": "Hahnebergstra\u00dfe"}, "geometry": {"type": "LineString", "coordinates": [[410012.66, 5655107.57], [410079.67, 5655061.25]]}}, {"type": "Feature", "properties": {"t": 3400, "f": 1800, "hf": 0.022, "b": 1600, "hb": 0.031, "y": 2024, "m": "man", "n": "Hahnebergstra\u00dfe"}, "geometry": {"type": "LineString", "coordinates": [[410079.67, 5655061.25], [410154.6, 5655006.02], [410166.45, 5654998.03]]}}, {"type": "Feature", "properties": {"t": 27100, "f": 12200, "hf": 0.028, "b": 14900, "hb": 0.083, "y": 2025, "m": "estimate", "n": "N\u00fcrnberger Stra\u00dfe"}, "geometry": {"type": "LineString", "coordinates": [[410000.0, 5654687.79], [410025.95, 5654667.63], [410121.0, 5654595.74]]}}, {"type": "Feature", "properties": {"t": 27100, "f": 12200, "hf": 0.028, "b": 14900, "hb": 0.083, "y": 2025, "m": "estimate", "n": "N\u00fcrnberger Stra\u00dfe"}, "geometry": {"type": "LineString", "coordinates": [[410121.0, 5654595.74], [410172.03, 5654558.65], [410222.64, 5654520.61]]}}, {"type": "Feature", "properties": {"t": 28300, "f": 12200, "hf": 0.028, "b": 16100, "hb": 0.022, "y": 2024, "m": "man", "n": "N\u00fcrnberger Stra\u00dfe"}, "geometry": {"type": "LineString", "coordinates": [[410222.64, 5654520.61], [410289.44, 5654471.96], [410355.84, 5654422.35]]}}, {"type": "Feature", "properties": {"t": 12700, "f": 12700, "hf": 0.027, "y": 2024, "m": "man", "n": "N\u00fcrnberger Stra\u00dfe"}, "geometry": {"type": "LineString", "coordinates": [[410355.84, 5654422.35], [410369.72, 5654405.86], [410382.84, 5654385.75], [410395.43, 5654364.56], [410410.2, 5654345.14], [410435.73, 5654323.8]]}}, {"type": "Feature", "properties": {"t": 10400, "f": 10400, "hf": 0.096, "y": 2025, "m": "man", "n": "N\u00fcrnberger Stra\u00dfe"}, "geometry": {"type": "LineString", "coordinates": [[410435.73, 5654323.8], [410453.77, 5654312.32], [410470.83, 5654304.08], [410483.28, 5654299.36], [410493.47, 5654296.08], [410515.95, 5654291.19], [410530.43, 5654287.28], [410554.75, 5654276.17]]}}, {"type": "Feature", "properties": {"t": 14700, "b": 14700, "hb": 0.022, "y": 2024, "m": "man", "n": "N\u00fcrnberger Stra\u00dfe"}, "geometry": {"type": "LineString", "coordinates": [[410355.84, 5654422.35], [410369.03, 5654416.25], [410381.2, 5654411.33], [410403.33, 5654406.66], [410423.74, 5654401.76], [410445.48, 5654392.59], [410463.67, 5654383.43], [410474.35, 5654375.96]]}}, {"type": "Feature", "properties": {"t": 13500, "b": 13500, "hb": 0.053, "y": 2025, "m": "man", "n": "N\u00fcrnberger Stra\u00dfe"}, "geometry": {"type": "LineString", "coordinates": [[410474.35, 5654375.96], [410488.77, 5654363.66], [410502.24, 5654348.7], [410514.09, 5654332.67], [410522.41, 5654316.79], [410526.48, 5654309.67], [410533.03, 5654299.42], [410540.71, 5654290.72], [410554.75, 5654276.17]]}}, {"type": "Feature", "properties": {"t": 23900, "f": 10400, "hf": 0.096, "b": 13500, "hb": 0.053, "y": 2025, "m": "estimate", "n": "N\u00fcrnberger Stra\u00dfe"}, "geometry": {"type": "LineString", "coordinates": [[410554.75, 5654276.17], [410605.17, 5654238.08], [410656.83, 5654200.78]]}}, {"type": "Feature", "properties": {"t": 23900, "f": 10400, "hf": 0.096, "b": 13500, "hb": 0.053, "y": 2025, "m": "estimate", "n": "N\u00fcrnberger Stra\u00dfe"}, "geometry": {"type": "LineString", "coordinates": [[410656.83, 5654200.78], [410679.46, 5654183.74], [410704.09, 5654166.54]]}}, {"type": "Feature", "properties": {"t": 24300, "f": 10200, "hf": 0.045, "b": 14100, "hb": 0.049, "y": 2025, "m": "man", "n": "N\u00fcrnberger Stra\u00dfe"}, "geometry": {"type": "LineString", "coordinates": [[410771.24, 5654117.26], [410860.44, 5654048.94], [410903.63, 5654016.33], [410923.69, 5654000.0]]}}, {"type": "Feature", "properties": {"t": 400, "f": 400, "hf": 0.025, "y": 2025, "m": "man", "n": "N\u00fcrnberger Platz"}, "geometry": {"type": "LineString", "coordinates": [[410697.94, 5654116.26], [410702.11, 5654106.76], [410705.86, 5654101.97], [410712.46, 5654097.29], [410721.15, 5654093.92], [410726.53, 5654092.76], [410732.39, 5654092.07], [410740.09, 5654092.31]]}}, {"type": "Feature", "properties": {"t": 200, "f": 200, "hf": 0.05, "y": 2025, "m": "man", "n": "N\u00fcrnberger Platz"}, "geometry": {"type": "LineString", "coordinates": [[410740.09, 5654092.31], [410743.47, 5654093.02], [410748.39, 5654095.24], [410754.74, 5654098.68], [410761.88, 5654103.7], [410766.64, 5654108.2], [410771.24, 5654117.26]]}}, {"type": "Feature", "properties": {"t": 23900, "f": 10400, "hf": 0.096, "b": 13500, "hb": 0.053, "y": 2025, "m": "estimate", "n": "N\u00fcrnberger Platz"}, "geometry": {"type": "LineString", "coordinates": [[410704.09, 5654166.54], [410720.51, 5654154.21], [410742.22, 5654139.76]]}}, {"type": "Feature", "properties": {"t": 25300, "f": 11200, "hf": 0.05, "b": 14100, "hb": 0.05, "y": 2025, "m": "man", "n": "N\u00fcrnberger Platz"}, "geometry": {"type": "LineString", "coordinates": [[410742.22, 5654139.76], [410771.24, 5654117.26]]}}, {"type": "Feature", "properties": {"t": 8300, "f": 4700, "hf": 0.023, "b": 3600, "hb": 0.008, "y": 2025, "m": "man", "n": "N\u00fcrnberger Platz"}, "geometry": {"type": "LineString", "coordinates": [[410742.22, 5654139.76], [410720.23, 5654127.68], [410697.94, 5654116.26]]}}, {"type": "Feature", "properties": {"t": 5800, "f": 3400, "hf": 0.024, "b": 2400, "hb": 0.013, "y": 2025, "m": "man", "n": "N\u00fcrnberger Platz"}, "geometry": {"type": "LineString", "coordinates": [[410771.7, 5654153.29], [410742.22, 5654139.76]]}}, {"type": "Feature", "properties": {"t": 5800, "f": 3400, "hf": 0.024, "b": 2400, "hb": 0.013, "y": 2025, "m": "man", "n": "M\u00fcnchner Stra\u00dfe"}, "geometry": {"type": "LineString", "coordinates": [[410960.99, 5654241.27], [410945.54, 5654237.47], [410931.66, 5654232.65], [410909.99, 5654223.77], [410870.16, 5654202.15]]}}, {"type": "Feature", "properties": {"t": 5800, "f": 3400, "hf": 0.024, "b": 2400, "hb": 0.013, "y": 2025, "m": "man", "n": "M\u00fcnchner Stra\u00dfe"}, "geometry": {"type": "LineString", "coordinates": [[410870.16, 5654202.15], [410807.97, 5654169.94], [410771.7, 5654153.29]]}}, {"type": "Feature", "properties": {"t": 8300, "f": 4700, "hf": 0.023, "b": 3600, "hb": 0.008, "y": 2025, "m": "man", "n": "M\u00fcnchner Stra\u00dfe"}, "geometry": {"type": "LineString", "coordinates": [[410697.94, 5654116.26], [410540.95, 5654032.33]]}}, {"type": "Feature", "properties": {"t": 8300, "f": 4700, "hf": 0.023, "b": 3600, "hb": 0.008, "y": 2025, "m": "man", "n": "M\u00fcnchner Stra\u00dfe"}, "geometry": {"type": "LineString", "coordinates": [[410540.95, 5654032.33], [410478.81, 5654000.0]]}}, {"type": "Feature", "properties": {"t": 600, "f": 400, "hf": 0.025, "b": 200, "hb": 0.05, "y": 2025, "m": "man", "n": "Hettnerstra\u00dfe"}, "geometry": {"type": "LineString", "coordinates": [[410740.09, 5654092.31], [410752.94, 5654000.0]]}}]}