{"type": "FeatureCollection", "attribution": "Verkehrsmengen \u00a9 Landeshauptstadt Dresden (dl-de/by-2-0)", "crs": {"type": "name", "properties": {"name": "urn:ogc:def:crs:EPSG::25833"}}, "features": [{"type": "Feature", "properties": {"t": 23100, "f": 12300, "hf": 0.031, "b": 10800, "hb": 0.044, "y": 2015, "m": "man", "n": "Fl\u00fcgelwegbr\u00fccke", "br": 1}, "geometry": {"type": "LineString", "coordinates": [[408218.02, 5657479.57], [408222.21, 5657502.98], [408223.65, 5657517.81], [408213.53, 5657637.78]]}}, {"type": "Feature", "properties": {"t": 8800, "f": 8800, "hf": 0.045, "y": 2024, "m": "man", "n": "Fl\u00fcgelwegbr\u00fccke", "br": 1}, "geometry": {"type": "LineString", "coordinates": [[408248.44, 5657470.38], [408254.56, 5657498.86], [408254.35, 5657549.13], [408253.19, 5657596.26], [408250.36, 5657610.57], [408244.64, 5657623.66], [408230.9, 5657633.29], [408213.53, 5657637.78]]}}, {"type": "Feature", "properties": {"t": 9500, "b": 9500, "hb": 0.047, "y": 2024, "m": "man", "n": "Fl\u00fcgelwegbr\u00fccke", "br": 1}, "geometry": {"type": "LineString", "coordinates": [[408188.25, 5657489.01], [408191.22, 5657511.22], [408191.22, 5657527.09], [408183.79, 5657591.5], [408184.21, 5657613.24], [408188.88, 5657624.2], [408195.27, 5657630.03], [408202.32, 5657633.34], [408213.53, 5657637.78]]}}, {"type": "Feature", "properties": {"t": 35300, "f": 18600, "hf": 0.028, "b": 16700, "hb": 0.024, "y": 2025, "m": "man", "n": "Fl\u00fcgelwegbr\u00fccke", "br": 1}, "geometry": {"type": "LineString", "coordinates": [[408213.53, 5657637.78], [408211.65, 5657656.46], [408207.45, 5657690.17], [408202.38, 5657744.87], [408186.26, 5657874.34], [408182.09, 5657914.63], [408179.87, 5657940.73]]}}, {"type": "Feature", "properties": {"t": 35300, "f": 18600, "hf": 0.028, "b": 16700, "hb": 0.024, "y": 2025, "m": "man", "n": "Washingtonstra\u00dfe"}, "geometry": {"type": "LineString", "coordinates": [[408179.87, 5657940.73], [408177.62, 5657959.31], [408174.28, 5658000.0]]}}, {"type": "Feature", "properties": {"t": 12500, "b": 12500, "hb": 0.05, "y": 2024, "m": "detector", "n": "L\u00f6btauer Br\u00fccke", "br": 1}, "geometry": {"type": "LineString", "coordinates": [[409203.98, 5656000.0], [409181.23, 5656104.7]]}}, {"type": "Feature", "properties": {"t": 15000, "f": 15000, "hf": 0.072, "y": 2025, "m": "detector", "n": "L\u00f6btauer Br\u00fccke", "br": 1}, "geometry": {"type": "LineString", "coordinates": [[409255.58, 5656000.0], [409230.33, 5656110.33]]}}, {"type": "Feature", "properties": {"t": 15200, "f": 7600, "hf": 0.07, "b": 7600, "hb": 0.066, "y": 2010, "m": "man", "n": "Magdeburger Stra\u00dfe"}, "geometry": {"type": "LineString", "coordinates": [[410000.0, 5657602.31], [409989.32, 5657601.74], [409890.1, 5657608.62], [409841.63, 5657610.66]]}}, {"type": "Feature", "properties": {"t": 12600, "f": 5500, "hf": 0.055, "b": 7100, "hb": 0.045, "y": 2025, "m": "man", "n": "Bremer Stra\u00dfe"}, "geometry": {"type": "LineString", "coordinates": [[409803.18, 5657459.83], [409778.34, 5657460.49], [409761.7, 5657460.31], [409729.12, 5657461.88], [409677.86, 5657462.89], [409362.99, 5657473.18], [409141.73, 5657455.7], [409021.24, 5657445.44], [408928.92, 5657438.53], [408821.8, 5657429.86], [408744.09, 5657423.99], [408661.78, 5657418.31], [408527.27, 5657408.03], [408495.06, 5657405.87], [408474.56, 5657405.31]]}}, {"type": "Feature", "properties": {"t": 18100, "f": 7300, "hf": 0.034, "b": 10800, "hb": 0.031, "y": 2025, "m": "man", "n": "Hamburger Stra\u00dfe"}, "geometry": {"type": "LineString", "coordinates": [[409602.73, 5657074.89], [409575.69, 5657085.86], [409537.61, 5657094.68], [409043.4, 5657203.37], [408947.14, 5657225.11], [408859.05, 5657243.74], [408836.17, 5657250.12], [408762.63, 5657281.17], [408687.45, 5657312.39], [408619.47, 5657341.31], [408608.1, 5657346.48]]}}, {"type": "Feature", "properties": {"t": 18100, "f": 7300, "hf": 0.034, "b": 10800, "hb": 0.031, "y": 2025, "m": "man", "n": "Hamburger Stra\u00dfe"}, "geometry": {"type": "LineString", "coordinates": [[408608.1, 5657346.48], [408550.34, 5657370.57], [408506.05, 5657389.85], [408474.56, 5657405.31]]}}, {"type": "Feature", "properties": {"t": 30800, "f": 12900, "hf": 0.043, "b": 17900, "hb": 0.036, "y": 2025, "m": "man", "n": "Hamburger Stra\u00dfe"}, "geometry": {"type": "LineString", "coordinates": [[408474.56, 5657405.31], [408425.82, 5657423.0], [408376.03, 5657436.17], [408332.62, 5657448.54], [408277.7, 5657461.54], [408248.44, 5657470.38]]}}, {"type": "Feature", "properties": {"t": 30600, "f": 14900, "hf": 0.04, "b": 15700, "hb": 0.038, "y": 2024, "m": "man", "n": "Hamburger Stra\u00dfe"}, "geometry": {"type": "LineString", "coordinates": [[408248.44, 5657470.38], [408218.02, 5657479.57]]}}, {"type": "Feature", "properties": {"t": 23800, "f": 13000, "hf": 0.032, "b": 10800, "hb": 0.029, "y": 2024, "m": "man", "n": "Hamburger Stra\u00dfe"}, "geometry": {"type": "LineString", "coordinates": [[408218.02, 5657479.57], [408188.25, 5657489.01]]}}, {"type": "Feature", "properties": {"t": 19300, "f": 8800, "hf": 0.047, "b": 10500, "hb": 0.054, "y": 2025, "m": "loop", "n": "Hamburger Stra\u00dfe"}, "geometry": {"type": "LineString", "coordinates": [[408188.25, 5657489.01], [408161.45, 5657497.51], [408055.51, 5657528.8], [408001.94, 5657537.6]]}}, {"type": "Feature", "properties": {"t": 19300, "f": 8800, "hf": 0.047, "b": 10500, "hb": 0.054, "y": 2025, "m": "loop", "n": "Hamburger Stra\u00dfe"}, "geometry": {"type": "LineString", "coordinates": [[408001.94, 5657537.6], [408000.0, 5657538.13]]}}, {"type": "Feature", "properties": {"t": 4500, "f": 2300, "hf": 0.057, "b": 2200, "hb": 0.064, "y": 2013, "m": "man", "n": "Friedrichstra\u00dfe"}, "geometry": {"type": "LineString", "coordinates": [[409988.76, 5657362.97], [409917.72, 5657400.66], [409900.93, 5657409.12]]}}, {"type": "Feature", "properties": {"t": 4400, "f": 2200, "hf": 0.059, "b": 2200, "hb": 0.064, "y": 2013, "m": "man", "n": "Friedrichstra\u00dfe"}, "geometry": {"type": "LineString", "coordinates": [[409900.93, 5657409.12], [409835.26, 5657444.21], [409813.25, 5657454.46], [409803.18, 5657459.83]]}}, {"type": "Feature", "properties": {"t": 11000, "f": 5200, "hf": 0.015, "b": 5800, "hb": 0.017, "y": 2024, "m": "man", "n": "Sch\u00e4ferstra\u00dfe"}, "geometry": {"type": "LineString", "coordinates": [[410000.0, 5656855.82], [409980.78, 5656866.0]]}}, {"type": "Feature", "properties": {"t": 11000, "f": 5200, "hf": 0.015, "b": 5800, "hb": 0.017, "y": 2024, "m": "man", "n": "Sch\u00e4ferstra\u00dfe"}, "geometry": {"type": "LineString", "coordinates": [[409980.78, 5656866.0], [409951.59, 5656881.81], [409923.9, 5656897.29]]}}, {"type": "Feature", "properties": {"t": 10500, "f": 5100, "hf": 0.018, "b": 5400, "hb": 0.019, "y": 2024, "m": "man", "n": "Sch\u00e4ferstra\u00dfe"}, "geometry": {"type": "LineString", "coordinates": [[409923.9, 5656897.29], [409893.54, 5656913.83], [409865.24, 5656929.91]]}}, {"type": "Feature", "properties": {"t": 10500, "f": 5100, "hf": 0.018, "b": 5400, "hb": 0.019, "y": 2024, "m": "man", "n": "Sch\u00e4ferstra\u00dfe"}, "geometry": {"type": "LineString", "coordinates": [[409865.24, 5656929.91], [409821.86, 5656952.84], [409779.06, 5656975.94]]}}, {"type": "Feature", "properties": {"t": 10500, "f": 5100, "hf": 0.018, "b": 5400, "hb": 0.019, "y": 2024, "m": "man", "n": "Sch\u00e4ferstra\u00dfe"}, "geometry": {"type": "LineString", "coordinates": [[409779.06, 5656975.94], [409733.2, 5657001.17], [409686.45, 5657028.12], [409602.73, 5657074.89]]}}, {"type": "Feature", "properties": {"t": 2400, "f": 1200, "hf": 0.033, "b": 1200, "hb": 0.017, "y": 2019, "m": "man", "n": "Berliner Stra\u00dfe"}, "geometry": {"type": "LineString", "coordinates": [[410000.0, 5656747.11], [409992.75, 5656751.02], [409952.03, 5656775.06], [409906.26, 5656799.8], [409861.08, 5656825.75], [409820.17, 5656848.28]]}}, {"type": "Feature", "properties": {"t": 2400, "f": 1200, "hf": 0.033, "b": 1200, "hb": 0.017, "y": 2019, "m": "man", "n": "Berliner Stra\u00dfe"}, "geometry": {"type": "LineString", "coordinates": [[409820.17, 5656848.28], [409769.18, 5656874.46], [409734.72, 5656894.0]]}}, {"type": "Feature", "properties": {"t": 2400, "f": 1200, "hf": 0.033, "b": 1200, "hb": 0.017, "y": 2019, "m": "man", "n": "Berliner Stra\u00dfe"}, "geometry": {"type": "LineString", "coordinates": [[409734.72, 5656894.0], [409680.83, 5656924.0], [409587.26, 5656974.78], [409554.59, 5656990.43]]}}, {"type": "Feature", "properties": {"t": 6300, "f": 3000, "hf": 0.077, "b": 3300, "hb": 0.067, "y": 2024, "m": "man", "n": "Waltherstra\u00dfe"}, "geometry": {"type": "LineString", "coordinates": [[409803.18, 5657459.83], [409730.47, 5657325.48], [409690.18, 5657246.63], [409657.08, 5657180.81]]}}, {"type": "Feature", "properties": {"t": 6300, "f": 3000, "hf": 0.077, "b": 3300, "hb": 0.067, "y": 2025, "m": "man", "n": "Waltherstra\u00dfe"}, "geometry": {"type": "LineString", "coordinates": [[409657.08, 5657180.81], [409602.73, 5657074.89]]}}, {"type": "Feature", "properties": {"t": 8500, "f": 4600, "hf": 0.05, "b": 3900, "hb": 0.051, "y": 2024, "m": "man", "n": "Waltherstra\u00dfe"}, "geometry": {"type": "LineString", "coordinates": [[409602.73, 5657074.89], [409574.55, 5657025.88], [409554.59, 5656990.43]]}}, {"type": "Feature", "properties": {"t": 8500, "f": 4600, "hf": 0.05, "b": 3900, "hb": 0.051, "y": 2024, "m": "man", "n": "Waltherstra\u00dfe"}, "geometry": {"type": "LineString", "coordinates": [[409554.59, 5656990.43], [409518.23, 5656870.23], [409510.7, 5656850.29], [409508.82, 5656842.01], [409505.06, 5656828.84], [409502.42, 5656822.44], [409487.27, 5656773.67], [409472.74, 5656728.44], [409445.21, 5656639.53], [409434.88, 5656605.0], [409423.01, 5656567.27], [409419.8, 5656553.54], [409418.74, 5656547.58], [409413.97, 5656506.68], [409410.21, 5656479.58]]}}, {"type": "Feature", "properties": {"t": 10300, "f": 5500, "hf": 0.082, "b": 4800, "hb": 0.092, "y": 2019, "m": "man", "n": "Waltherstra\u00dfe"}, "geometry": {"type": "LineString", "coordinates": [[409410.21, 5656479.58], [409404.56, 5656428.02], [409399.06, 5656359.64]]}}, {"type": "Feature", "properties": {"t": 15700, "f": 7700, "hf": 0.026, "b": 8000, "hb": 0.021, "y": 2025, "m": "loop", "n": "L\u00f6btauer Stra\u00dfe"}, "geometry": {"type": "LineString", "coordinates": [[410000.0, 5656399.71], [409975.72, 5656376.53], [409950.17, 5656354.87], [409929.99, 5656340.06]]}}, {"type": "Feature", "properties": {"t": 11100, "f": 5400, "hf": 0.028, "b": 5700, "hb": 0.028, "y": 2025, "m": "man", "n": "L\u00f6btauer Stra\u00dfe"}, "geometry": {"type": "LineString", "coordinates": [[409929.99, 5656340.06], [409906.9, 5656319.99], [409865.95, 5656286.25], [409853.25, 5656273.34], [409816.4, 5656232.6], [409763.2, 5656172.36]]}}, {"type": "Feature", "properties": {"t": 11100, "f": 5400, "hf": 0.028, "b": 5700, "hb": 0.028, "y": 2025, "m": "man", "n": "L\u00f6btauer Stra\u00dfe"}, "geometry": {"type": "LineString", "coordinates": [[409763.2, 5656172.36], [409641.99, 5656035.49]]}}, {"type": "Feature", "properties": {"t": 11100, "f": 5400, "hf": 0.028, "b": 5700, "hb": 0.028, "y": 2025, "m": "man", "n": "L\u00f6btauer Stra\u00dfe"}, "geometry": {"type": "LineString", "coordinates": [[409641.99, 5656035.49], [409611.68, 5656000.0]]}}, {"type": "Feature", "properties": {"t": 2200, "f": 1200, "hf": 0.008, "b": 1000, "hb": 0.0, "y": 2025, "m": "estimate", "n": "Fr\u00f6belstra\u00dfe"}, "geometry": {"type": "LineString", "coordinates": [[410000.0, 5656267.92], [409996.1, 5656272.29], [409929.99, 5656340.06]]}}, {"type": "Feature", "properties": {"t": 9200, "f": 4500, "hf": 0.018, "b": 4700, "hb": 0.013, "y": 2025, "m": "man", "n": "Fr\u00f6belstra\u00dfe"}, "geometry": {"type": "LineString", "coordinates": [[409929.99, 5656340.06], [409903.01, 5656368.19], [409881.72, 5656391.7], [409875.61, 5656397.07], [409867.1, 5656402.63], [409849.34, 5656407.28]]}}, {"type": "Feature", "properties": {"t": 9200, "f": 4500, "hf": 0.018, "b": 4700, "hb": 0.013, "y": 2025, "m": "man", "n": "Fr\u00f6belstra\u00dfe"}, "geometry": {"type": "LineString", "coordinates": [[409849.34, 5656407.28], [409814.08, 5656412.92], [409763.43, 5656419.24], [409730.56, 5656421.49], [409702.05, 5656422.1], [409680.07, 5656421.96], [409660.32, 5656421.3]]}}, {"type": "Feature", "properties": {"t": 9200, "f": 4500, "hf": 0.018, "b": 4700, "hb": 0.013, "y": 2025, "m": "man", "n": "Fr\u00f6belstra\u00dfe"}, "geometry": {"type": "LineString", "coordinates": [[409660.32, 5656421.3], [409631.93, 5656419.1], [409600.2, 5656415.25], [409570.54, 5656410.26], [409536.18, 5656403.22], [409467.47, 5656384.51], [409399.06, 5656359.64]]}}, {"type": "Feature", "properties": {"t": 35900, "f": 20200, "hf": 0.02, "b": 15700, "hb": 0.022, "y": 2025, "m": "man", "n": "Fr\u00f6belstra\u00dfe"}, "geometry": {"type": "LineString", "coordinates": [[409399.06, 5656359.64], [409308.96, 5656326.41], [409243.75, 5656299.12], [409189.21, 5656278.21]]}}, {"type": "Feature", "properties": {"t": 27500, "f": 19300, "hf": 0.038, "b": 8200, "hb": 0.039, "y": 2019, "m": "man", "n": "Fr\u00f6belstra\u00dfe"}, "geometry": {"type": "LineString", "coordinates": [[409189.21, 5656278.21], [409168.88, 5656270.48], [409143.37, 5656259.54]]}}, {"type": "Feature", "properties": {"t": 35900, "f": 20200, "hf": 0.02, "b": 15700, "hb": 0.022, "y": 2025, "m": "man", "n": "Fr\u00f6belstra\u00dfe"}, "geometry": {"type": "LineString", "coordinates": [[409143.37, 5656259.54], [409033.07, 5656217.2], [408971.57, 5656188.49], [408913.05, 5656165.47]]}}, {"type": "Feature", "properties": {"t": 2300, "b": 2300, "hb": 0.017, "y": 2016, "m": "man", "n": "Fr\u00f6belstra\u00dfe"}, "geometry": {"type": "LineString", "coordinates": [[408913.05, 5656165.47], [408864.88, 5656111.73], [408829.5, 5656085.77], [408754.32, 5656041.62]]}}, {"type": "Feature", "properties": {"t": 3300, "f": 3300, "hf": 0.024, "y": 2016, "m": "man", "n": "Fr\u00f6belstra\u00dfe"}, "geometry": {"type": "LineString", "coordinates": [[408913.05, 5656165.47], [408893.08, 5656179.75], [408842.18, 5656168.81], [408783.89, 5656146.82], [408731.07, 5656125.44], [408677.04, 5656101.33], [408674.39, 5656090.45]]}}, {"type": "Feature", "properties": {"t": 1900, "f": 900, "hf": 0.0, "b": 1000, "hb": 0.0, "y": 2024, "m": "man", "n": "Behringstra\u00dfe"}, "geometry": {"type": "LineString", "coordinates": [[410000.0, 5656669.11], [409985.38, 5656643.4], [409950.45, 5656576.34], [409893.67, 5656477.35], [409857.94, 5656406.16], [409849.34, 5656407.28]]}}, {"type": "Feature", "properties": {"t": 2070, "f": 70, "hf": 0.0, "b": 2000, "hb": 0.06, "y": 2019, "m": "man", "n": "Cottaer Stra\u00dfe"}, "geometry": {"type": "LineString", "coordinates": [[409585.35, 5656282.06], [409503.25, 5656318.36], [409451.51, 5656342.23], [409420.8, 5656355.51], [409399.06, 5656359.64]]}}, {"type": "Feature", "properties": {"t": 4600, "f": 4600, "hf": 0.08, "y": 2025, "m": "detector", "n": "Emerich-Ambros-Ufer"}, "geometry": {"type": "LineString", "coordinates": [[409297.44, 5656000.0], [409289.71, 5656039.15], [409273.68, 5656076.86], [409230.33, 5656110.33]]}}, {"type": "Feature", "properties": {"t": 19600, "f": 19600, "hf": 0.073, "y": 2025, "m": "detector", "n": "Emerich-Ambros-Ufer"}, "geometry": {"type": "LineString", "coordinates": [[409230.33, 5656110.33], [409229.67, 5656118.75], [409226.35, 5656141.71], [409211.45, 5656210.23], [409203.95, 5656242.03], [409199.11, 5656256.93], [409194.75, 5656268.03], [409189.21, 5656278.21]]}}, {"type": "Feature", "properties": {"t": 9300, "f": 9300, "hf": 0.02, "y": 2025, "m": "man", "n": "Emerich-Ambros-Ufer"}, "geometry": {"type": "LineString", "coordinates": [[409189.21, 5656278.21], [409181.44, 5656297.1], [409172.57, 5656311.87], [409157.93, 5656330.98], [409141.83, 5656349.5], [409120.54, 5656367.27], [409103.5, 5656378.93], [409080.73, 5656393.74], [409056.11, 5656405.04], [409029.64, 5656413.55], [408828.95, 5656471.32], [408768.66, 5656489.01]]}}, {"type": "Feature", "properties": {"t": 9300, "f": 9300, "hf": 0.02, "y": 2025, "m": "man", "n": "Emerich-Ambros-Ufer"}, "geometry": {"type": "LineString", "coordinates": [[408768.66, 5656489.01], [408531.63, 5656557.04], [408437.95, 5656584.26], [408396.11, 5656596.48], [408369.93, 5656605.19]]}}, {"type": "Feature", "properties": {"t": 9300, "f": 9300, "hf": 0.02, "y": 2025, "m": "man", "n": "Emerich-Ambros-Ufer"}, "geometry": {"type": "LineString", "coordinates": [[408369.93, 5656605.19], [408345.01, 5656618.51], [408330.94, 5656627.95], [408319.65, 5656636.47], [408303.54, 5656651.28], [408288.36, 5656669.98], [408276.51, 5656687.76], [408265.96, 5656708.49], [408258.0, 5656727.37], [408251.15, 5656754.03], [408245.78, 5656782.36], [408232.08, 5656836.61], [408224.31, 5656862.15], [408216.9, 5656884.19], [408201.17, 5656925.84], [408182.47, 5656966.76], [408156.55, 5657021.37], [408131.19, 5657069.5], [408126.57, 5657076.91], [408124.16, 5657081.72], [408122.14, 5657088.0], [408124.96, 5657096.37]]}}, {"type": "Feature", "properties": {"t": 3300, "b": 3300, "hb": 0.073, "y": 2024, "m": "detector", "n": "Emerich-Ambros-Ufer"}, "geometry": {"type": "LineString", "coordinates": [[409160.59, 5656000.0], [409156.78, 5656019.35], [409159.61, 5656059.89], [409181.23, 5656104.7]]}}, {"type": "Feature", "properties": {"t": 12500, "b": 12500, "hb": 0.025, "y": 2025, "m": "man", "n": "Emerich-Ambros-Ufer"}, "geometry": {"type": "LineString", "coordinates": [[409181.23, 5656104.7], [409157.21, 5656208.04], [409143.37, 5656259.54]]}}, {"type": "Feature", "properties": {"t": 7700, "b": 7700, "hb": 0.055, "y": 2025, "m": "man", "n": "Emerich-Ambros-Ufer"}, "geometry": {"type": "LineString", "coordinates": [[409143.37, 5656259.54], [409122.57, 5656292.66], [409096.1, 5656321.91], [409081.29, 5656334.13], [409066.85, 5656344.5], [409051.3, 5656353.57], [409031.67, 5656363.01], [408999.83, 5656374.12], [408805.63, 5656430.59], [408757.13, 5656444.15]]}}, {"type": "Feature", "properties": {"t": 7700, "b": 7700, "hb": 0.055, "y": 2025, "m": "man", "n": "Emerich-Ambros-Ufer"}, "geometry": {"type": "LineString", "coordinates": [[408757.13, 5656444.15], [408719.72, 5656455.03], [408682.38, 5656466.49]]}}, {"type": "Feature", "properties": {"t": 7700, "b": 7700, "hb": 0.055, "y": 2025, "m": "man", "n": "Emerich-Ambros-Ufer"}, "geometry": {"type": "LineString", "coordinates": [[408682.38, 5656466.49], [408662.89, 5656471.51], [408530.33, 5656509.65], [408446.1, 5656534.46], [408378.58, 5656553.58], [408353.35, 5656562.26]]}}, {"type": "Feature", "properties": {"t": 7700, "b": 7700, "hb": 0.055, "y": 2025, "m": "man", "n": "Emerich-Ambros-Ufer"}, "geometry": {"type": "LineString", "coordinates": [[408353.35, 5656562.26], [408342.42, 5656565.93], [408323.35, 5656575.93], [408302.06, 5656589.45], [408284.1, 5656604.44], [408268.7, 5656619.67], [408254.85, 5656636.29], [408216.59, 5656690.86]]}}, {"type": "Feature", "properties": {"t": 23100, "f": 10800, "hf": 0.044, "b": 12300, "hb": 0.031, "y": 2015, "m": "man", "n": "Fl\u00fcgelweg"}, "geometry": {"type": "LineString", "coordinates": [[408218.02, 5657479.57], [408184.52, 5657342.54], [408170.38, 5657288.17], [408169.34, 5657285.5]]}}, {"type": "Feature", "properties": {"t": 1000, "f": 1000, "hf": 0.06, "y": 2024, "m": "man", "n": "Fl\u00fcgelweg"}, "geometry": {"type": "LineString", "coordinates": [[408188.25, 5657489.01], [408147.03, 5657334.11], [408145.82, 5657324.05], [408147.83, 5657308.36], [408155.08, 5657295.88], [408169.34, 5657285.5]]}}, {"type": "Feature", "properties": {"t": 3200, "b": 3200, "hb": 0.037, "y": 2024, "m": "man", "n": "Fl\u00fcgelweg"}, "geometry": {"type": "LineString", "coordinates": [[408248.44, 5657470.38], [408209.0, 5657301.88], [408202.97, 5657291.45], [408190.49, 5657286.62], [408169.34, 5657285.5]]}}, {"type": "Feature", "properties": {"t": 28500, "f": 11900, "hf": 0.038, "b": 16600, "hb": 0.04, "y": 2022, "m": "man", "n": "Fl\u00fcgelweg"}, "geometry": {"type": "LineString", "coordinates": [[408169.34, 5657285.5], [408163.31, 5657255.29], [408151.91, 5657207.97], [408130.08, 5657111.9], [408127.48, 5657103.38], [408124.96, 5657096.37]]}}, {"type": "Feature", "properties": {"t": 19800, "f": 12800, "hf": 0.037, "b": 7000, "hb": 0.033, "y": 2021, "m": "man", "n": "Fl\u00fcgelweg"}, "geometry": {"type": "LineString", "coordinates": [[408124.96, 5657096.37], [408114.9, 5657084.5], [408104.42, 5657075.23], [408093.33, 5657066.02]]}}, {"type": "Feature", "properties": {"t": 3800, "f": 2400, "hf": 0.008, "b": 1400, "hb": 0.014, "y": 2019, "m": "man", "n": "L\u00fcbecker Stra\u00dfe"}, "geometry": {"type": "LineString", "coordinates": [[408826.06, 5656000.0], [408811.0, 5656008.62], [408777.34, 5656028.78]]}}, {"type": "Feature", "properties": {"t": 3800, "f": 2400, "hf": 0.008, "b": 1400, "hb": 0.014, "y": 2019, "m": "man", "n": "L\u00fcbecker Stra\u00dfe"}, "geometry": {"type": "LineString", "coordinates": [[408777.34, 5656028.78], [408754.32, 5656041.62]]}}, {"type": "Feature", "properties": {"t": 4000, "f": 2600, "hf": 0.015, "b": 1400, "hb": 0.021, "y": 2016, "m": "man", "n": "L\u00fcbecker Stra\u00dfe"}, "geometry": {"type": "LineString", "coordinates": [[408754.32, 5656041.62], [408743.53, 5656047.34], [408724.15, 5656059.24], [408704.44, 5656070.46], [408694.58, 5656075.56], [408683.68, 5656082.75], [408674.39, 5656090.45]]}}, {"type": "Feature", "properties": {"t": 3200, "f": 2600, "hf": 0.015, "b": 600, "hb": 0.0, "y": 2016, "m": "man", "n": "L\u00fcbecker Stra\u00dfe"}, "geometry": {"type": "LineString", "coordinates": [[408674.39, 5656090.45], [408631.45, 5656137.7], [408582.84, 5656189.2], [408534.67, 5656243.43], [408493.53, 5656294.06]]}}, {"type": "Feature", "properties": {"t": 3200, "f": 2600, "hf": 0.015, "b": 600, "hb": 0.0, "y": 2016, "m": "man", "n": "L\u00fcbecker Stra\u00dfe"}, "geometry": {"type": "LineString", "coordinates": [[408493.53, 5656294.06], [408455.06, 5656335.66], [408429.13, 5656359.61], [408408.81, 5656374.86]]}}, {"type": "Feature", "properties": {"t": 3200, "f": 2600, "hf": 0.015, "b": 600, "hb": 0.0, "y": 2016, "m": "man", "n": "L\u00fcbecker Stra\u00dfe"}, "geometry": {"type": "LineString", "coordinates": [[408408.81, 5656374.86], [408394.8, 5656385.53], [408363.09, 5656401.21], [408333.97, 5656416.92], [408311.32, 5656434.07], [408290.51, 5656448.93], [408267.72, 5656469.21], [408269.61, 5656449.41]]}}, {"type": "Feature", "properties": {"t": 9500, "f": 5700, "hf": 0.012, "b": 3800, "hb": 0.037, "y": 2021, "m": "man", "n": "L\u00fcbecker Stra\u00dfe"}, "geometry": {"type": "LineString", "coordinates": [[408252.51, 5656521.52], [408249.11, 5656534.28], [408236.71, 5656588.34], [408229.03, 5656623.8]]}}, {"type": "Feature", "properties": {"t": 9300, "f": 5500, "hf": 0.013, "b": 3800, "hb": 0.037, "y": 2021, "m": "man", "n": "L\u00fcbecker Stra\u00dfe"}, "geometry": {"type": "LineString", "coordinates": [[408229.03, 5656623.8], [408223.38, 5656652.58], [408216.59, 5656690.86]]}}, {"type": "Feature", "properties": {"t": 18000, "f": 5500, "hf": 0.013, "b": 12500, "hb": 0.032, "y": 2021, "m": "man", "n": "L\u00fcbecker Stra\u00dfe"}, "geometry": {"type": "LineString", "coordinates": [[408216.59, 5656690.86], [408212.95, 5656712.34], [408201.81, 5656770.55], [408197.96, 5656786.22], [408193.2, 5656799.77], [408189.32, 5656807.17], [408184.13, 5656814.02], [408177.47, 5656821.43], [408168.4, 5656829.76], [408150.16, 5656843.01], [408134.96, 5656855.45]]}}, {"type": "Feature", "properties": {"t": 18000, "f": 5500, "hf": 0.013, "b": 12500, "hb": 0.032, "y": 2021, "m": "man", "n": "L\u00fcbecker Stra\u00dfe"}, "geometry": {"type": "LineString", "coordinates": [[408134.96, 5656855.45], [408106.38, 5656876.78], [408080.07, 5656896.92]]}}, {"type": "Feature", "properties": {"t": 18200, "f": 6300, "hf": 0.016, "b": 11900, "hb": 0.034, "y": 2021, "m": "man", "n": "L\u00fcbecker Stra\u00dfe"}, "geometry": {"type": "LineString", "coordinates": [[408080.07, 5656896.92], [408031.35, 5656933.37], [408004.39, 5656956.63]]}}, {"type": "Feature", "properties": {"t": 8400, "f": 4000, "hf": 0.028, "b": 4400, "hb": 0.027, "y": 2016, "m": "man", "n": "Rudolf-Renner-Stra\u00dfe"}, "geometry": {"type": "LineString", "coordinates": [[408269.61, 5656449.41], [408272.28, 5656436.04], [408276.2, 5656409.89], [408279.19, 5656393.08], [408285.37, 5656352.22]]}}, {"type": "Feature", "properties": {"t": 8400, "f": 4000, "hf": 0.028, "b": 4400, "hb": 0.027, "y": 2016, "m": "man", "n": "Rudolf-Renner-Stra\u00dfe"}, "geometry": {"type": "LineString", "coordinates": [[408285.37, 5656352.22], [408293.78, 5656301.29], [408299.15, 5656256.93]]}}, {"type": "Feature", "properties": {"t": 8400, "f": 4000, "hf": 0.028, "b": 4400, "hb": 0.027, "y": 2016, "m": "man", "n": "Rudolf-Renner-Stra\u00dfe"}, "geometry": {"type": "LineString", "coordinates": [[408299.15, 5656256.93], [408304.75, 5656217.66], [408309.4, 5656177.58]]}}, {"type": "Feature", "properties": {"t": 8400, "f": 4000, "hf": 0.028, "b": 4400, "hb": 0.027, "y": 2016, "m": "man", "n": "Rudolf-Renner-Stra\u00dfe"}, "geometry": {"type": "LineString", "coordinates": [[408309.4, 5656177.58], [408314.94, 5656136.58], [408320.08, 5656094.81]]}}, {"type": "Feature", "properties": {"t": 8100, "f": 4500, "hf": 0.013, "b": 3600, "hb": 0.014, "y": 2019, "m": "man", "n": "Rudolf-Renner-Stra\u00dfe"}, "geometry": {"type": "LineString", "coordinates": [[408320.08, 5656094.81], [408331.71, 5656000.0]]}}, {"type": "Feature", "properties": {"t": 500, "f": 300, "hf": 0.0, "b": 200, "hb": 0.0, "y": 2021, "m": "man", "n": "Klopstockstra\u00dfe"}, "geometry": {"type": "LineString", "coordinates": [[408134.96, 5656855.45], [408124.5, 5656834.86], [408118.4, 5656817.65], [408113.3, 5656801.33], [408107.21, 5656776.74], [408107.65, 5656769.42], [408111.03, 5656753.76], [408115.77, 5656728.01]]}}, {"type": "Feature", "properties": {"t": 500, "f": 300, "hf": 0.0, "b": 200, "hb": 0.0, "y": 2021, "m": "man", "n": "Klopstockstra\u00dfe"}, "geometry": {"type": "LineString", "coordinates": [[408115.77, 5656728.01], [408123.16, 5656697.82], [408135.73, 5656640.71], [408142.66, 5656602.37]]}}, {"type": "Feature", "properties": {"t": 400, "f": 200, "hf": 0.0, "b": 200, "hb": 0.0, "y": 2021, "m": "man", "n": "Werkst\u00e4ttenstra\u00dfe"}, "geometry": {"type": "LineString", "coordinates": [[408229.03, 5656623.8], [408180.13, 5656612.15], [408142.66, 5656602.37]]}}, {"type": "Feature", "properties": {"t": 4100, "f": 2000, "hf": 0.025, "b": 2100, "hb": 0.019, "y": 2016, "m": "man", "n": "Pennricher Stra\u00dfe"}, "geometry": {"type": "LineString", "coordinates": [[408674.39, 5656090.45], [408664.88, 5656087.35], [408653.21, 5656084.83], [408641.45, 5656083.79]]}}, {"type": "Feature", "properties": {"t": 4100, "f": 2000, "hf": 0.025, "b": 2100, "hb": 0.019, "y": 2016, "m": "man", "n": "Pennricher Stra\u00dfe"}, "geometry": {"type": "LineString", "coordinates": [[408641.45, 5656083.79], [408579.97, 5656082.68], [408517.8, 5656082.49]]}}, {"type": "Feature", "properties": {"t": 4200, "f": 2000, "hf": 0.025, "b": 2200, "hb": 0.027, "y": 2016, "m": "man", "n": "Pennricher Stra\u00dfe"}, "geometry": {"type": "LineString", "coordinates": [[408517.8, 5656082.49], [408467.84, 5656081.3], [408412.49, 5656080.43], [408387.0, 5656082.61], [408320.08, 5656094.81]]}}, {"type": "Feature", "properties": {"t": 4400, "f": 2300, "hf": 0.017, "b": 2100, "hb": 0.014, "y": 2016, "m": "man", "n": "Pennricher Stra\u00dfe"}, "geometry": {"type": "LineString", "coordinates": [[408320.08, 5656094.81], [408261.14, 5656099.22], [408202.2, 5656104.97]]}}, {"type": "Feature", "properties": {"t": 4400, "f": 2300, "hf": 0.017, "b": 2100, "hb": 0.014, "y": 2016, "m": "man", "n": "Pennricher Stra\u00dfe"}, "geometry": {"type": "LineString", "coordinates": [[408202.2, 5656104.97], [408162.26, 5656108.37], [408084.89, 5656115.87]]}}, {"type": "Feature", "properties": {"t": 4400, "f": 2300, "hf": 0.017, "b": 2100, "hb": 0.014, "y": 2016, "m": "man", "n": "Pennricher Stra\u00dfe"}, "geometry": {"type": "LineString", "coordinates": [[408084.89, 5656115.87], [408018.89, 5656119.08], [408000.0, 5656120.64]]}}, {"type": "Feature", "properties": {"t": 17200, "f": 8100, "hf": 0.041, "b": 9100, "hb": 0.037, "y": 2025, "m": "loop", "n": "Bramschstra\u00dfe"}, "geometry": {"type": "LineString", "coordinates": [[408913.05, 5656165.47], [408910.45, 5656165.28], [408777.72, 5656112.56], [408713.72, 5656082.55], [408637.51, 5656049.09], [408476.27, 5656000.0]]}}, {"type": "Feature", "properties": {"t": 20, "f": 10, "hf": 0.0, "b": 10, "hb": 0.0, "y": 2021, "m": "man", "n": "L\u00f6nsweg"}, "geometry": {"type": "LineString", "coordinates": [[408000.0, 5657156.16], [408021.45, 5657142.74], [408024.88, 5657141.62], [408039.28, 5657139.57], [408042.46, 5657138.33], [408044.93, 5657136.56], [408046.52, 5657134.62], [408047.22, 5657132.68]]}}, {"type": "Feature", "properties": {"t": 19400, "f": 12200, "hf": 0.041, "b": 7200, "hb": 0.032, "y": 2021, "m": "man", "n": "Tonbergstra\u00dfe"}, "geometry": {"type": "LineString", "coordinates": [[408093.33, 5657066.02], [408084.39, 5657059.07], [408070.31, 5657049.6], [408054.29, 5657042.56], [408039.42, 5657038.17]]}}, {"type": "Feature", "properties": {"t": 12200, "f": 12200, "hf": 0.041, "y": 2023, "m": "man", "n": "Tonbergstra\u00dfe"}, "geometry": {"type": "LineString", "coordinates": [[408039.42, 5657038.17], [408011.41, 5657031.18], [408000.0, 5657029.62]]}}, {"type": "Feature", "properties": {"t": 2340, "f": 40, "hf": 0.0, "b": 2300, "hb": 0.048, "y": 2021, "m": "man", "n": "Leutewitzer Stra\u00dfe"}, "geometry": {"type": "LineString", "coordinates": [[408080.07, 5656896.92], [408069.15, 5656874.09]]}}, {"type": "Feature", "properties": {"t": 16500, "f": 2200, "hf": 0.018, "b": 14300, "hb": 0.041, "y": 2021, "m": "man", "n": "Altcotta"}, "geometry": {"type": "LineString", "coordinates": [[408004.39, 5656956.63], [408000.0, 5656960.85]]}}, {"type": "Feature", "properties": {"t": 20, "f": 10, "hf": 0.0, "b": 10, "hb": 0.0, "y": 2021, "m": "man", "n": "Raimundstra\u00dfe"}, "geometry": {"type": "LineString", "coordinates": [[408047.22, 5657132.68], [408049.27, 5657111.25], [408050.45, 5657085.53], [408049.82, 5657078.53], [408046.78, 5657062.07], [408039.42, 5657038.17]]}}, {"type": "Feature", "properties": {"t": 7200, "b": 7200, "hb": 0.032, "y": 2021, "m": "man", "n": "Raimundstra\u00dfe"}, "geometry": {"type": "LineString", "coordinates": [[408039.42, 5657038.17], [408033.07, 5657031.92], [408027.51, 5657020.26], [408022.14, 5657002.86], [408015.11, 5656971.01], [408011.59, 5656963.05], [408008.44, 5656959.72], [408004.39, 5656956.63]]}}]}