{"type": "FeatureCollection", "attribution": "Verkehrsmengen \u00a9 Landeshauptstadt Dresden (dl-de/by-2-0)", "crs": {"type": "name", "properties": {"name": "urn:ogc:def:crs:EPSG::25833"}}, "features": [{"type": "Feature", "properties": {"t": 12700, "f": 6600, "hf": 0.008, "b": 6100, "hb": 0.016, "y": 2024, "m": "man", "n": "Fritz-Reuter-Stra\u00dfe"}, "geometry": {"type": "LineString", "coordinates": [[412073.04, 5658616.56], [412000.0, 5658649.54]]}}, {"type": "Feature", "properties": {"t": 4900, "f": 1500, "hf": 0.013, "b": 3400, "hb": 0.044, "y": 2021, "m": "man", "n": "Dr.-Friedrich-Wolf-Stra\u00dfe"}, "geometry": {"type": "LineString", "coordinates": [[412028.25, 5658000.0], [412044.89, 5658016.7]]}}, {"type": "Feature", "properties": {"t": 4900, "f": 1500, "hf": 0.013, "b": 3400, "hb": 0.044, "y": 2021, "m": "man", "n": "Dr.-Friedrich-Wolf-Stra\u00dfe"}, "geometry": {"type": "LineString", "coordinates": [[412044.89, 5658016.7], [412052.77, 5658032.25], [412084.29, 5658112.28], [412103.12, 5658168.35]]}}, {"type": "Feature", "properties": {"t": 4000, "f": 400, "hf": 0.0, "b": 3600, "hb": 0.011, "y": 2024, "m": "man", "n": "L\u00f6\u00dfnitzstra\u00dfe"}, "geometry": {"type": "LineString", "coordinates": [[412255.33, 5658135.15], [412103.12, 5658168.35]]}}, {"type": "Feature", "properties": {"t": 9600, "f": 4300, "hf": 0.023, "b": 5300, "hb": 0.017, "y": 2023, "m": "man", "n": "Bischofsplatz"}, "geometry": {"type": "LineString", "coordinates": [[412295.97, 5658558.78], [412263.97, 5658566.28], [412234.8, 5658573.98]]}}, {"type": "Feature", "properties": {"t": 10000, "f": 4700, "hf": 0.019, "b": 5300, "hb": 0.023, "y": 2020, "m": "man", "n": "Bischofsplatz"}, "geometry": {"type": "LineString", "coordinates": [[412234.8, 5658573.98], [412204.92, 5658581.46], [412180.69, 5658586.27]]}}, {"type": "Feature", "properties": {"t": 10000, "f": 4700, "hf": 0.019, "b": 5300, "hb": 0.023, "y": 2020, "m": "man", "n": "Bischofsplatz"}, "geometry": {"type": "LineString", "coordinates": [[412180.69, 5658586.27], [412168.76, 5658589.62], [412120.31, 5658601.64], [412095.69, 5658608.86], [412073.04, 5658616.56]]}}, {"type": "Feature", "properties": {"t": 3500, "f": 800, "hf": 0.0, "b": 2700, "hb": 0.019, "y": 2021, "m": "man", "n": "Dammweg"}, "geometry": {"type": "LineString", "coordinates": [[412103.12, 5658168.35], [412119.64, 5658203.65], [412166.86, 5658282.61], [412165.48, 5658290.5]]}}, {"type": "Feature", "properties": {"t": 3100, "b": 3100, "hb": 0.01, "y": 2023, "m": "man", "n": "Dammweg"}, "geometry": {"type": "LineString", "coordinates": [[412165.48, 5658290.5], [412198.68, 5658345.34]]}}, {"type": "Feature", "properties": {"t": 3100, "b": 3100, "hb": 0.01, "y": 2023, "m": "man", "n": "Dammweg"}, "geometry": {"type": "LineString", "coordinates": [[412198.68, 5658345.34], [412232.72, 5658398.76]]}}, {"type": "Feature", "properties": {"t": 1200, "b": 1200, "hb": 0.017, "y": 2023, "m": "man", "n": "Dammweg"}, "geometry": {"type": "LineString", "coordinates": [[412232.72, 5658398.76], [412329.04, 5658548.69]]}}, {"type": "Feature", "properties": {"t": 500, "f": 200, "hf": 0.0, "b": 300, "hb": 0.0, "y": 2023, "m": "man", "n": "Dammweg"}, "geometry": {"type": "LineString", "coordinates": [[412329.04, 5658548.69], [412379.79, 5658626.36], [412403.88, 5658665.22], [412439.65, 5658726.97], [412457.5, 5658760.24]]}}, {"type": "Feature", "properties": {"t": 500, "f": 200, "hf": 0.0, "b": 300, "hb": 0.0, "y": 2023, "m": "man", "n": "Dammweg"}, "geometry": {"type": "LineString", "coordinates": [[412457.5, 5658760.24], [412494.77, 5658828.21], [412511.72, 5658854.54]]}}, {"type": "Feature", "properties": {"t": 30, "f": 10, "hf": 0.0, "b": 20, "hb": 0.0, "y": 2023, "m": "man", "n": "Dammweg"}, "geometry": {"type": "LineString", "coordinates": [[412511.72, 5658854.54], [412531.88, 5658893.08], [412552.74, 5658928.33]]}}, {"type": "Feature", "properties": {"t": 30, "f": 10, "hf": 0.0, "b": 20, "hb": 0.0, "y": 2023, "m": "man", "n": "Dammweg"}, "geometry": {"type": "LineString", "coordinates": [[412552.74, 5658928.33], [412556.71, 5658936.59], [412571.17, 5658960.23], [412584.73, 5658983.35], [412590.36, 5658990.6]]}}, {"type": "Feature", "properties": {"t": 900, "f": 800, "hf": 0.0, "b": 100, "hb": 0.0, "y": 2023, "m": "man", "n": "Eschenstra\u00dfe"}, "geometry": {"type": "LineString", "coordinates": [[412364.63, 5658321.93], [412345.49, 5658332.76], [412273.21, 5658374.75]]}}, {"type": "Feature", "properties": {"t": 900, "f": 800, "hf": 0.0, "b": 100, "hb": 0.0, "y": 2023, "m": "man", "n": "Eschenstra\u00dfe"}, "geometry": {"type": "LineString", "coordinates": [[412273.21, 5658374.75], [412252.77, 5658387.14], [412232.72, 5658398.76]]}}, {"type": "Feature", "properties": {"t": 2100, "f": 500, "hf": 0.0, "b": 1600, "hb": 0.006, "y": 2023, "m": "man", "n": "Eschenstra\u00dfe"}, "geometry": {"type": "LineString", "coordinates": [[412232.72, 5658398.76], [412225.63, 5658432.4], [412222.77, 5658454.28], [412221.06, 5658483.02], [412217.41, 5658526.98], [412217.51, 5658549.77], [412234.8, 5658573.98]]}}, {"type": "Feature", "properties": {"t": 1300, "f": 500, "hf": 0.06, "b": 800, "hb": 0.037, "y": 2020, "m": "man", "n": "Hechtstra\u00dfe"}, "geometry": {"type": "LineString", "coordinates": [[412215.07, 5658916.79], [412228.38, 5659043.68]]}}, {"type": "Feature", "properties": {"t": 1300, "f": 500, "hf": 0.06, "b": 800, "hb": 0.037, "y": 2020, "m": "man", "n": "Hechtstra\u00dfe"}, "geometry": {"type": "LineString", "coordinates": [[412228.38, 5659043.68], [412241.63, 5659160.74], [412253.26, 5659289.54], [412252.59, 5659306.45]]}}, {"type": "Feature", "properties": {"t": 9500, "f": 4300, "hf": 0.04, "b": 5200, "hb": 0.042, "y": 2025, "m": "loop", "n": "Hechtstra\u00dfe"}, "geometry": {"type": "LineString", "coordinates": [[412252.59, 5659306.45], [412230.66, 5659372.68], [412223.82, 5659386.94], [412218.45, 5659398.97], [412214.93, 5659410.82], [412193.27, 5659475.62], [412163.09, 5659551.34], [412125.77, 5659630.94]]}}, {"type": "Feature", "properties": {"t": 9500, "f": 4300, "hf": 0.04, "b": 5200, "hb": 0.042, "y": 2025, "m": "loop", "n": "Hechtstra\u00dfe"}, "geometry": {"type": "LineString", "coordinates": [[412125.77, 5659630.94], [412103.85, 5659679.08], [412078.65, 5659729.52]]}}, {"type": "Feature", "properties": {"t": 9500, "f": 4300, "hf": 0.04, "b": 5200, "hb": 0.042, "y": 2025, "m": "loop", "n": "Hechtstra\u00dfe"}, "geometry": {"type": "LineString", "coordinates": [[412078.65, 5659729.52], [412033.56, 5659819.76], [412013.94, 5659856.19], [412000.0, 5659880.06]]}}, {"type": "Feature", "properties": {"t": 3400, "f": 1800, "hf": 0.028, "b": 1600, "hb": 0.025, "y": 2026, "m": "man", "n": "Rudolf-Leonhard-Stra\u00dfe"}, "geometry": {"type": "LineString", "coordinates": [[412234.8, 5658573.98], [412279.59, 5658660.31], [412329.49, 5658747.71]]}}, {"type": "Feature", "properties": {"t": 3400, "f": 1800, "hf": 0.028, "b": 1600, "hb": 0.025, "y": 2026, "m": "man", "n": "Rudolf-Leonhard-Stra\u00dfe"}, "geometry": {"type": "LineString", "coordinates": [[412329.49, 5658747.71], [412365.71, 5658810.58], [412402.15, 5658876.87]]}}, {"type": "Feature", "properties": {"t": 3000, "f": 1100, "hf": 0.009, "b": 1900, "hb": 0.021, "y": 2020, "m": "man", "n": "Rudolf-Leonhard-Stra\u00dfe"}, "geometry": {"type": "LineString", "coordinates": [[412435.36, 5658937.64], [412493.99, 5659039.89], [412545.78, 5659135.24]]}}, {"type": "Feature", "properties": {"t": 8900, "f": 4100, "hf": 0.039, "b": 4800, "hb": 0.035, "y": 2020, "m": "man", "n": "Rudolf-Leonhard-Stra\u00dfe"}, "geometry": {"type": "LineString", "coordinates": [[412545.78, 5659135.24], [412551.6, 5659141.86], [412555.42, 5659149.34], [412593.3, 5659218.38]]}}, {"type": "Feature", "properties": {"t": 4600, "f": 2000, "hf": 0.015, "b": 2600, "hb": 0.054, "y": 2007, "m": "man", "n": "K\u00f6nigsbr\u00fccker Platz"}, "geometry": {"type": "LineString", "coordinates": [[412435.36, 5658937.64], [412419.92, 5658909.21]]}}, {"type": "Feature", "properties": {"t": 3400, "f": 1600, "hf": 0.025, "b": 1800, "hb": 0.028, "y": 2026, "m": "man", "n": "K\u00f6nigsbr\u00fccker Platz"}, "geometry": {"type": "LineString", "coordinates": [[412419.92, 5658909.21], [412402.15, 5658876.87]]}}, {"type": "Feature", "properties": {"t": 124, "f": 57, "hf": 0.035, "b": 67, "hb": 0.03, "y": 2010, "m": "man", "n": "Kiefernstra\u00dfe"}, "geometry": {"type": "LineString", "coordinates": [[412321.09, 5659033.65], [412331.73, 5659139.26], [412341.18, 5659248.52]]}}, {"type": "Feature", "properties": {"t": 300, "f": 100, "hf": 0.0, "b": 200, "hb": 0.0, "y": 2020, "m": "man", "n": "Buchenstra\u00dfe"}, "geometry": {"type": "LineString", "coordinates": [[412654.96, 5659181.92], [412643.12, 5659163.18], [412613.78, 5659111.84], [412558.32, 5659129.18], [412545.78, 5659135.24]]}}, {"type": "Feature", "properties": {"t": 8500, "f": 4200, "hf": 0.033, "b": 4300, "hb": 0.037, "y": 2020, "m": "man", "n": "Buchenstra\u00dfe"}, "geometry": {"type": "LineString", "coordinates": [[412545.78, 5659135.24], [412539.54, 5659136.56], [412534.38, 5659138.2], [412428.8, 5659197.67]]}}, {"type": "Feature", "properties": {"t": 8500, "f": 4200, "hf": 0.033, "b": 4300, "hb": 0.037, "y": 2020, "m": "man", "n": "Buchenstra\u00dfe"}, "geometry": {"type": "LineString", "coordinates": [[412428.8, 5659197.67], [412341.18, 5659248.52]]}}, {"type": "Feature", "properties": {"t": 8500, "f": 4200, "hf": 0.038, "b": 4300, "hb": 0.042, "y": 2020, "m": "man", "n": "Buchenstra\u00dfe"}, "geometry": {"type": "LineString", "coordinates": [[412341.18, 5659248.52], [412267.69, 5659290.48], [412260.29, 5659295.67], [412255.29, 5659300.3], [412252.59, 5659306.45]]}}, {"type": "Feature", "properties": {"t": 600, "f": 400, "hf": 0.0, "b": 200, "hb": 0.0, "y": 2020, "m": "man", "n": "Buchenstra\u00dfe"}, "geometry": {"type": "LineString", "coordinates": [[412252.59, 5659306.45], [412184.43, 5659310.74], [412155.3, 5659313.08]]}}, {"type": "Feature", "properties": {"t": 6000, "b": 6000, "hb": 0.052, "y": 2021, "m": "man", "n": "Stauffenbergallee"}, "geometry": {"type": "LineString", "coordinates": [[413961.21, 5658449.36], [413985.6, 5658397.7], [414000.0, 5658389.45]]}}, {"type": "Feature", "properties": {"t": 5300, "f": 5300, "hf": 0.04, "y": 2021, "m": "man", "n": "Stauffenbergallee"}, "geometry": {"type": "LineString", "coordinates": [[413961.21, 5658449.36], [414000.0, 5658450.37]]}}, {"type": "Feature", "properties": {"t": 30700, "f": 15100, "hf": 0.034, "b": 15600, "hb": 0.035, "y": 2025, "m": "loop", "n": "Stauffenbergallee"}, "geometry": {"type": "LineString", "coordinates": [[413961.21, 5658449.36], [413928.67, 5658469.83], [413847.52, 5658515.07]]}}, {"type": "Feature", "properties": {"t": 30700, "f": 15100, "hf": 0.034, "b": 15600, "hb": 0.035, "y": 2025, "m": "loop", "n": "Stauffenbergallee"}, "geometry": {"type": "LineString", "coordinates": [[413847.52, 5658515.07], [413804.83, 5658538.87], [413739.74, 5658572.91], [413669.38, 5658612.15]]}}, {"type": "Feature", "properties": {"t": 30700, "f": 15100, "hf": 0.034, "b": 15600, "hb": 0.035, "y": 2025, "m": "loop", "n": "Stauffenbergallee"}, "geometry": {"type": "LineString", "coordinates": [[413669.38, 5658612.15], [413592.61, 5658654.93], [413517.07, 5658696.4]]}}, {"type": "Feature", "properties": {"t": 30700, "f": 15100, "hf": 0.034, "b": 15600, "hb": 0.035, "y": 2025, "m": "loop", "n": "Stauffenbergallee"}, "geometry": {"type": "LineString", "coordinates": [[413517.07, 5658696.4], [413336.69, 5658793.63], [413181.86, 5658882.94], [413059.42, 5658952.82], [412987.15, 5658994.8]]}}, {"type": "Feature", "properties": {"t": 29700, "f": 14000, "hf": 0.018, "b": 15700, "hb": 0.018, "y": 2025, "m": "man", "n": "Stauffenbergallee"}, "geometry": {"type": "LineString", "coordinates": [[412987.15, 5658994.8], [412903.72, 5659040.2], [412820.29, 5659085.09]]}}, {"type": "Feature", "properties": {"t": 20500, "f": 9800, "hf": 0.017, "b": 10700, "hb": 0.019, "y": 2025, "m": "man", "n": "Stauffenbergallee"}, "geometry": {"type": "LineString", "coordinates": [[412820.29, 5659085.09], [412699.79, 5659155.77]]}}, {"type": "Feature", "properties": {"t": 20500, "f": 9800, "hf": 0.017, "b": 10700, "hb": 0.019, "y": 2025, "m": "man", "n": "Stauffenbergallee"}, "geometry": {"type": "LineString", "coordinates": [[412699.79, 5659155.77], [412677.57, 5659169.1], [412654.96, 5659181.92]]}}, {"type": "Feature", "properties": {"t": 20500, "f": 9800, "hf": 0.017, "b": 10700, "hb": 0.019, "y": 2025, "m": "man", "n": "Stauffenbergallee"}, "geometry": {"type": "LineString", "coordinates": [[412654.96, 5659181.92], [412629.99, 5659196.93], [412593.3, 5659218.38]]}}, {"type": "Feature", "properties": {"t": 14100, "f": 6600, "hf": 0.045, "b": 7500, "hb": 0.043, "y": 2025, "m": "man", "n": "Stauffenbergallee"}, "geometry": {"type": "LineString", "coordinates": [[412593.3, 5659218.38], [412560.77, 5659240.08], [412551.96, 5659247.3], [412545.81, 5659255.7], [412514.69, 5659309.05], [412465.53, 5659399.96]]}}, {"type": "Feature", "properties": {"t": 14100, "f": 6600, "hf": 0.045, "b": 7500, "hb": 0.043, "y": 2025, "m": "man", "n": "Stauffenbergallee"}, "geometry": {"type": "LineString", "coordinates": [[412465.53, 5659399.96], [412429.0, 5659467.41], [412283.35, 5659728.18]]}}, {"type": "Feature", "properties": {"t": 14100, "f": 6600, "hf": 0.045, "b": 7500, "hb": 0.043, "y": 2025, "m": "man", "n": "Stauffenbergallee"}, "geometry": {"type": "LineString", "coordinates": [[412283.35, 5659728.18], [412189.1, 5659899.41], [412132.55, 5660000.0]]}}, {"type": "Feature", "properties": {"t": 700, "f": 300, "hf": 0.0, "b": 400, "hb": 0.025, "y": 2022, "m": "man", "n": "B\u00e4rwalder Stra\u00dfe"}, "geometry": {"type": "LineString", "coordinates": [[412125.77, 5659630.94], [412080.39, 5659645.21], [412029.69, 5659657.94]]}}, {"type": "Feature", "properties": {"t": 4200, "f": 2400, "hf": 0.062, "b": 1800, "hb": 0.083, "y": 2025, "m": "man", "n": "Fabricestra\u00dfe"}, "geometry": {"type": "LineString", "coordinates": [[413067.39, 5659455.86], [412923.72, 5659530.42]]}}, {"type": "Feature", "properties": {"t": 1900, "f": 600, "hf": 0.15, "b": 1300, "hb": 0.085, "y": 2023, "m": "man", "n": "Fabricestra\u00dfe"}, "geometry": {"type": "LineString", "coordinates": [[412923.72, 5659530.42], [412873.65, 5659556.61]]}}, {"type": "Feature", "properties": {"t": 600, "f": 300, "hf": 0.033, "b": 300, "hb": 0.033, "y": 2023, "m": "man", "n": "Fabricestra\u00dfe"}, "geometry": {"type": "LineString", "coordinates": [[412873.65, 5659556.61], [412850.93, 5659571.45], [412819.41, 5659603.7], [412793.76, 5659634.56], [412763.01, 5659673.66], [412728.93, 5659712.0], [412695.91, 5659751.83]]}}, {"type": "Feature", "properties": {"t": 600, "f": 300, "hf": 0.033, "b": 300, "hb": 0.033, "y": 2023, "m": "man", "n": "Fabricestra\u00dfe"}, "geometry": {"type": "LineString", "coordinates": [[412695.91, 5659751.83], [412644.9, 5659813.05]]}}, {"type": "Feature", "properties": {"t": 1500, "f": 400, "hf": 0.2, "b": 1100, "hb": 0.091, "y": 2023, "m": "man", "n": "Magazinstra\u00dfe"}, "geometry": {"type": "LineString", "coordinates": [[412873.65, 5659556.61], [412882.49, 5659575.03], [412908.23, 5659621.56], [412970.07, 5659723.99], [413015.81, 5659803.87], [413114.86, 5659978.64]]}}, {"type": "Feature", "properties": {"t": 1500, "f": 400, "hf": 0.2, "b": 1100, "hb": 0.091, "y": 2023, "m": "man", "n": "Magazinstra\u00dfe"}, "geometry": {"type": "LineString", "coordinates": [[413114.86, 5659978.64], [413126.64, 5660000.0]]}}, {"type": "Feature", "properties": {"t": 3200, "f": 1200, "hf": 0.05, "b": 2000, "hb": 0.035, "y": 2011, "m": "man", "n": "Zum Reiterberg"}, "geometry": {"type": "LineString", "coordinates": [[412283.35, 5659728.18], [412370.31, 5659775.16]]}}, {"type": "Feature", "properties": {"t": 2200, "f": 1100, "hf": 0.036, "b": 1100, "hb": 0.036, "y": 2016, "m": "man", "n": "Provianthofstra\u00dfe"}, "geometry": {"type": "LineString", "coordinates": [[413177.97, 5659692.29], [413159.76, 5659685.67], [413053.89, 5659747.07]]}}, {"type": "Feature", "properties": {"t": 12500, "f": 6200, "hf": 0.011, "b": 6300, "hb": 0.014, "y": 2024, "m": "man", "n": "K\u00f6nigsbr\u00fccker Stra\u00dfe"}, "geometry": {"type": "LineString", "coordinates": [[412210.83, 5658000.0], [412218.05, 5658033.86], [412233.16, 5658081.86], [412247.88, 5658119.03], [412255.33, 5658135.15]]}}, {"type": "Feature", "properties": {"t": 13100, "f": 6700, "hf": 0.019, "b": 6400, "hb": 0.022, "y": 2024, "m": "man", "n": "K\u00f6nigsbr\u00fccker Stra\u00dfe"}, "geometry": {"type": "LineString", "coordinates": [[412255.33, 5658135.15], [412294.95, 5658206.01]]}}, {"type": "Feature", "properties": {"t": 11800, "f": 6500, "hf": 0.012, "b": 5300, "hb": 0.015, "y": 2024, "m": "man", "n": "K\u00f6nigsbr\u00fccker Stra\u00dfe"}, "geometry": {"type": "LineString", "coordinates": [[412294.95, 5658206.01], [412313.37, 5658236.59]]}}, {"type": "Feature", "properties": {"t": 13100, "f": 6700, "hf": 0.019, "b": 6400, "hb": 0.022, "y": 2024, "m": "man", "n": "K\u00f6nigsbr\u00fccker Stra\u00dfe"}, "geometry": {"type": "LineString", "coordinates": [[412313.37, 5658236.59], [412329.59, 5658263.17]]}}, {"type": "Feature", "properties": {"t": 13100, "f": 6700, "hf": 0.019, "b": 6400, "hb": 0.022, "y": 2024, "m": "man", "n": "K\u00f6nigsbr\u00fccker Stra\u00dfe"}, "geometry": {"type": "LineString", "coordinates": [[412329.59, 5658263.17], [412364.63, 5658321.93]]}}, {"type": "Feature", "properties": {"t": 13100, "f": 6700, "hf": 0.019, "b": 6400, "hb": 0.022, "y": 2024, "m": "man", "n": "K\u00f6nigsbr\u00fccker Stra\u00dfe"}, "geometry": {"type": "LineString", "coordinates": [[412364.63, 5658321.93], [412421.54, 5658415.42], [412455.25, 5658474.11], [412474.01, 5658507.54]]}}, {"type": "Feature", "properties": {"t": 12200, "f": 6100, "hf": 0.021, "b": 6100, "hb": 0.02, "y": 2024, "m": "man", "n": "K\u00f6nigsbr\u00fccker Stra\u00dfe"}, "geometry": {"type": "LineString", "coordinates": [[412474.01, 5658507.54], [412504.65, 5658549.99], [412527.43, 5658589.63]]}}, {"type": "Feature", "properties": {"t": 12200, "f": 6100, "hf": 0.021, "b": 6100, "hb": 0.02, "y": 2024, "m": "man", "n": "K\u00f6nigsbr\u00fccker Stra\u00dfe"}, "geometry": {"type": "LineString", "coordinates": [[412527.43, 5658589.63], [412585.52, 5658687.12]]}}, {"type": "Feature", "properties": {"t": 12200, "f": 6100, "hf": 0.021, "b": 6100, "hb": 0.02, "y": 2024, "m": "man", "n": "K\u00f6nigsbr\u00fccker Stra\u00dfe"}, "geometry": {"type": "LineString", "coordinates": [[412585.52, 5658687.12], [412613.77, 5658737.23], [412638.6, 5658777.1]]}}, {"type": "Feature", "properties": {"t": 8800, "f": 4300, "hf": 0.037, "b": 4500, "hb": 0.044, "y": 2025, "m": "man", "n": "K\u00f6nigsbr\u00fccker Stra\u00dfe"}, "geometry": {"type": "LineString", "coordinates": [[412638.6, 5658777.1], [412660.24, 5658816.73], [412681.19, 5658852.04]]}}, {"type": "Feature", "properties": {"t": 8800, "f": 4300, "hf": 0.037, "b": 4500, "hb": 0.044, "y": 2025, "m": "man", "n": "K\u00f6nigsbr\u00fccker Stra\u00dfe"}, "geometry": {"type": "LineString", "coordinates": [[412681.19, 5658852.04], [412697.37, 5658877.1], [412718.78, 5658911.49]]}}, {"type": "Feature", "properties": {"t": 8800, "f": 4300, "hf": 0.037, "b": 4500, "hb": 0.044, "y": 2025, "m": "man", "n": "K\u00f6nigsbr\u00fccker Stra\u00dfe"}, "geometry": {"type": "LineString", "coordinates": [[412718.78, 5658911.49], [412770.95, 5658998.28], [412820.29, 5659085.09]]}}, {"type": "Feature", "properties": {"t": 18900, "f": 8900, "hf": 0.029, "b": 10000, "hb": 0.031, "y": 2025, "m": "man", "n": "K\u00f6nigsbr\u00fccker Stra\u00dfe"}, "geometry": {"type": "LineString", "coordinates": [[412820.29, 5659085.09], [412857.75, 5659131.39], [412895.99, 5659179.77], [412947.4, 5659240.54], [412980.59, 5659278.19], [412986.21, 5659285.75], [412994.8, 5659301.25], [413006.58, 5659329.28]]}}, {"type": "Feature", "properties": {"t": 20200, "f": 9800, "hf": 0.045, "b": 10400, "hb": 0.045, "y": 2025, "m": "man", "n": "K\u00f6nigsbr\u00fccker Stra\u00dfe"}, "geometry": {"type": "LineString", "coordinates": [[413006.58, 5659329.28], [413041.96, 5659399.23], [413067.39, 5659455.86]]}}, {"type": "Feature", "properties": {"t": 17700, "f": 8300, "hf": 0.043, "b": 9400, "hb": 0.041, "y": 2025, "m": "man", "n": "K\u00f6nigsbr\u00fccker Stra\u00dfe"}, "geometry": {"type": "LineString", "coordinates": [[413067.39, 5659455.86], [413111.71, 5659551.84], [413140.12, 5659611.85], [413157.41, 5659649.6], [413177.97, 5659692.29]]}}, {"type": "Feature", "properties": {"t": 17700, "f": 8300, "hf": 0.043, "b": 9400, "hb": 0.041, "y": 2025, "m": "man", "n": "K\u00f6nigsbr\u00fccker Stra\u00dfe"}, "geometry": {"type": "LineString", "coordinates": [[413177.97, 5659692.29], [413209.53, 5659760.45], [413239.04, 5659825.33]]}}, {"type": "Feature", "properties": {"t": 17700, "f": 8300, "hf": 0.043, "b": 9400, "hb": 0.041, "y": 2025, "m": "man", "n": "K\u00f6nigsbr\u00fccker Stra\u00dfe"}, "geometry": {"type": "LineString", "coordinates": [[413239.04, 5659825.33], [413319.31, 5660000.0]]}}, {"type": "Feature", "properties": {"t": 400, "f": 200, "hf": 0.01, "b": 200, "hb": 0.025, "y": 2009, "m": "man", "n": "Prie\u00dfnitzstra\u00dfe"}, "geometry": {"type": "LineString", "coordinates": [[413196.8, 5658141.34], [413259.98, 5658294.07], [413280.73, 5658345.02]]}}, {"type": "Feature", "properties": {"t": 1000, "f": 400, "hf": 0.025, "b": 600, "hb": 0.017, "y": 2017, "m": "man", "n": "Forststra\u00dfe"}, "geometry": {"type": "LineString", "coordinates": [[413411.72, 5658000.0], [413425.05, 5658034.89]]}}, {"type": "Feature", "properties": {"t": 1500, "f": 700, "hf": 0.014, "b": 800, "hb": 0.025, "y": 2017, "m": "man", "n": "Forststra\u00dfe"}, "geometry": {"type": "LineString", "coordinates": [[413425.05, 5658034.89], [413511.15, 5658248.13]]}}, {"type": "Feature", "properties": {"t": 2500, "f": 800, "hf": 0.013, "b": 1700, "hb": 0.01, "y": 2015, "m": "man", "n": "Forststra\u00dfe"}, "geometry": {"type": "LineString", "coordinates": [[413511.15, 5658248.13], [413530.86, 5658297.23], [413548.69, 5658343.5]]}}, {"type": "Feature", "properties": {"t": 2400, "f": 800, "hf": 0.037, "b": 1600, "hb": 0.05, "y": 2017, "m": "man", "n": "Marienallee"}, "geometry": {"type": "LineString", "coordinates": [[413548.69, 5658343.5], [413538.15, 5658396.53], [413528.97, 5658445.12]]}}, {"type": "Feature", "properties": {"t": 2400, "f": 800, "hf": 0.037, "b": 1600, "hb": 0.05, "y": 2017, "m": "man", "n": "Marienallee"}, "geometry": {"type": "LineString", "coordinates": [[413528.97, 5658445.12], [413521.01, 5658490.25], [413514.33, 5658530.46], [413496.39, 5658611.36], [413493.49, 5658647.3], [413498.75, 5658663.56], [413517.07, 5658696.4]]}}, {"type": "Feature", "properties": {"t": 6400, "f": 3500, "hf": 0.023, "b": 2900, "hb": 0.024, "y": 2016, "m": "man", "n": "Radeberger Stra\u00dfe"}, "geometry": {"type": "LineString", "coordinates": [[413717.64, 5658000.0], [413723.6, 5658004.15]]}}, {"type": "Feature", "properties": {"t": 6400, "f": 3500, "hf": 0.023, "b": 2900, "hb": 0.024, "y": 2016, "m": "man", "n": "Radeberger Stra\u00dfe"}, "geometry": {"type": "LineString", "coordinates": [[413723.6, 5658004.15], [413810.48, 5658064.56], [413897.39, 5658126.08]]}}, {"type": "Feature", "properties": {"t": 6400, "f": 3500, "hf": 0.023, "b": 2900, "hb": 0.024, "y": 2016, "m": "man", "n": "Radeberger Stra\u00dfe"}, "geometry": {"type": "LineString", "coordinates": [[413897.39, 5658126.08], [414000.0, 5658195.63]]}}, {"type": "Feature", "properties": {"t": 1930, "f": 1900, "hf": 0.011, "b": 30, "hb": 0.0, "y": 2024, "m": "man", "n": "Louisenstra\u00dfe"}, "geometry": {"type": "LineString", "coordinates": [[412255.33, 5658135.15], [412393.27, 5658072.36]]}}, {"type": "Feature", "properties": {"t": 1800, "f": 1500, "hf": 0.007, "b": 300, "hb": 0.0, "y": 2024, "m": "man", "n": "Louisenstra\u00dfe"}, "geometry": {"type": "LineString", "coordinates": [[412393.27, 5658072.36], [412462.37, 5658042.35], [412532.9, 5658009.45]]}}, {"type": "Feature", "properties": {"t": 1900, "f": 1600, "hf": 0.006, "b": 300, "hb": 0.033, "y": 2024, "m": "man", "n": "Louisenstra\u00dfe"}, "geometry": {"type": "LineString", "coordinates": [[412532.9, 5658009.45], [412554.54, 5658000.0]]}}, {"type": "Feature", "properties": {"t": 11700, "f": 5100, "hf": 0.014, "b": 6600, "hb": 0.011, "y": 2024, "m": "man", "n": "Bischofsweg"}, "geometry": {"type": "LineString", "coordinates": [[412295.97, 5658558.78], [412329.04, 5658548.69]]}}, {"type": "Feature", "properties": {"t": 11700, "f": 5100, "hf": 0.014, "b": 6600, "hb": 0.011, "y": 2024, "m": "man", "n": "Bischofsweg"}, "geometry": {"type": "LineString", "coordinates": [[412329.04, 5658548.69], [412371.4, 5658536.0]]}}, {"type": "Feature", "properties": {"t": 11700, "f": 5100, "hf": 0.014, "b": 6600, "hb": 0.011, "y": 2024, "m": "man", "n": "Bischofsweg"}, "geometry": {"type": "LineString", "coordinates": [[412371.4, 5658536.0], [412474.01, 5658507.54]]}}, {"type": "Feature", "properties": {"t": 7600, "f": 3200, "hf": 0.006, "b": 4400, "hb": 0.009, "y": 2024, "m": "man", "n": "Bischofsweg"}, "geometry": {"type": "LineString", "coordinates": [[412474.01, 5658507.54], [412527.23, 5658480.19], [412586.34, 5658450.5]]}}, {"type": "Feature", "properties": {"t": 7600, "f": 3200, "hf": 0.006, "b": 4400, "hb": 0.009, "y": 2024, "m": "man", "n": "Bischofsweg"}, "geometry": {"type": "LineString", "coordinates": [[412586.34, 5658450.5], [412763.19, 5658360.25]]}}, {"type": "Feature", "properties": {"t": 7600, "f": 3200, "hf": 0.006, "b": 4400, "hb": 0.009, "y": 2024, "m": "man", "n": "Bischofsweg"}, "geometry": {"type": "LineString", "coordinates": [[412763.19, 5658360.25], [412846.74, 5658319.44]]}}, {"type": "Feature", "properties": {"t": 6300, "f": 3200, "hf": 0.016, "b": 3100, "hb": 0.019, "y": 2024, "m": "man", "n": "Bischofsweg"}, "geometry": {"type": "LineString", "coordinates": [[412846.74, 5658319.44], [412950.08, 5658265.63], [413054.08, 5658213.71]]}}, {"type": "Feature", "properties": {"t": 6300, "f": 3200, "hf": 0.016, "b": 3100, "hb": 0.019, "y": 2024, "m": "man", "n": "Bischofsweg"}, "geometry": {"type": "LineString", "coordinates": [[413054.08, 5658213.71], [413088.94, 5658195.83], [413125.99, 5658177.7]]}}, {"type": "Feature", "properties": {"t": 6300, "f": 3200, "hf": 0.016, "b": 3100, "hb": 0.019, "y": 2024, "m": "man", "n": "Bischofsweg"}, "geometry": {"type": "LineString", "coordinates": [[413125.99, 5658177.7], [413159.66, 5658159.73], [413196.8, 5658141.34]]}}, {"type": "Feature", "properties": {"t": 6300, "f": 3200, "hf": 0.016, "b": 3100, "hb": 0.019, "y": 2024, "m": "man", "n": "Bischofsweg"}, "geometry": {"type": "LineString", "coordinates": [[413196.8, 5658141.34], [413256.57, 5658112.88]]}}, {"type": "Feature", "properties": {"t": 6300, "f": 3200, "hf": 0.016, "b": 3100, "hb": 0.019, "y": 2024, "m": "man", "n": "Bischofsweg"}, "geometry": {"type": "LineString", "coordinates": [[413256.57, 5658112.88], [413294.92, 5658094.55], [413338.27, 5658074.67]]}}, {"type": "Feature", "properties": {"t": 6300, "f": 3200, "hf": 0.016, "b": 3100, "hb": 0.019, "y": 2024, "m": "man", "n": "Bischofsweg"}, "geometry": {"type": "LineString", "coordinates": [[413338.27, 5658074.67], [413380.47, 5658055.79], [413425.05, 5658034.89]]}}, {"type": "Feature", "properties": {"t": 6300, "f": 3100, "hf": 0.019, "b": 3200, "hb": 0.016, "y": 2024, "m": "man", "n": "Stolpener Stra\u00dfe"}, "geometry": {"type": "LineString", "coordinates": [[413448.56, 5658000.0], [413438.82, 5658018.79], [413432.92, 5658027.91], [413425.05, 5658034.89]]}}, {"type": "Feature", "properties": {"t": 3300, "f": 1400, "hf": 0.021, "b": 1900, "hb": 0.011, "y": 2014, "m": "man", "n": "Tannenstra\u00dfe"}, "geometry": {"type": "LineString", "coordinates": [[412820.02, 5658691.65], [412779.22, 5658708.61], [412674.59, 5658757.51], [412638.6, 5658777.1]]}}, {"type": "Feature", "properties": {"t": 2400, "f": 1000, "hf": 0.02, "b": 1400, "hb": 0.021, "y": 2023, "m": "man", "n": "Tannenstra\u00dfe"}, "geometry": {"type": "LineString", "coordinates": [[412638.6, 5658777.1], [412571.86, 5658817.41], [412511.72, 5658854.54]]}}, {"type": "Feature", "properties": {"t": 2200, "f": 900, "hf": 0.022, "b": 1300, "hb": 0.023, "y": 2023, "m": "man", "n": "Tannenstra\u00dfe"}, "geometry": {"type": "LineString", "coordinates": [[412511.72, 5658854.54], [412484.84, 5658870.49], [412469.12, 5658879.37], [412419.92, 5658909.21]]}}, {"type": "Feature", "properties": {"t": 600, "f": 300, "hf": 0.033, "b": 300, "hb": 0.033, "y": 2014, "m": "man", "n": "J\u00e4gerstra\u00dfe"}, "geometry": {"type": "LineString", "coordinates": [[413959.08, 5658000.0], [413954.33, 5658010.06], [413935.7, 5658046.35]]}}, {"type": "Feature", "properties": {"t": 600, "f": 300, "hf": 0.033, "b": 300, "hb": 0.033, "y": 2014, "m": "man", "n": "J\u00e4gerstra\u00dfe"}, "geometry": {"type": "LineString", "coordinates": [[413935.7, 5658046.35], [413897.39, 5658126.08]]}}, {"type": "Feature", "properties": {"t": 800, "f": 400, "hf": 0.0, "b": 400, "hb": 0.05, "y": 2014, "m": "man", "n": "J\u00e4gerstra\u00dfe"}, "geometry": {"type": "LineString", "coordinates": [[413897.39, 5658126.08], [413850.78, 5658211.18]]}}, {"type": "Feature", "properties": {"t": 800, "f": 400, "hf": 0.0, "b": 400, "hb": 0.05, "y": 2014, "m": "man", "n": "J\u00e4gerstra\u00dfe"}, "geometry": {"type": "LineString", "coordinates": [[413850.78, 5658211.18], [413821.58, 5658269.72], [413760.4, 5658285.31]]}}, {"type": "Feature", "properties": {"t": 800, "f": 400, "hf": 0.0, "b": 400, "hb": 0.05, "y": 2014, "m": "man", "n": "J\u00e4gerstra\u00dfe"}, "geometry": {"type": "LineString", "coordinates": [[413760.4, 5658285.31], [413652.92, 5658316.5], [413548.69, 5658343.5]]}}, {"type": "Feature", "properties": {"t": 3200, "f": 1800, "hf": 0.011, "b": 1400, "hb": 0.007, "y": 2017, "m": "man", "n": "Hans-Oster-Stra\u00dfe"}, "geometry": {"type": "LineString", "coordinates": [[412820.02, 5658691.65], [412934.06, 5658900.59], [412987.15, 5658994.8]]}}, {"type": "Feature", "properties": {"t": 1500, "f": 900, "hf": 0.056, "b": 600, "hb": 0.067, "y": 2016, "m": "man", "n": "Meschwitzstra\u00dfe"}, "geometry": {"type": "LineString", "coordinates": [[413357.19, 5660000.0], [413366.9, 5659995.84], [413381.07, 5659986.82], [413400.4, 5659972.65], [413421.65, 5659959.76], [413490.94, 5659910.87], [413511.5, 5659897.94], [413526.27, 5659894.01]]}}, {"type": "Feature", "properties": {"t": 2100, "f": 2100, "hf": 0.019, "y": 2023, "m": "man", "n": "G\u00f6rlitzer Stra\u00dfe"}, "geometry": {"type": "LineString", "coordinates": [[412705.43, 5658000.0], [412734.47, 5658065.2]]}}, {"type": "Feature", "properties": {"t": 2100, "f": 2100, "hf": 0.019, "y": 2023, "m": "man", "n": "G\u00f6rlitzer Stra\u00dfe"}, "geometry": {"type": "LineString", "coordinates": [[412734.47, 5658065.2], [412774.03, 5658156.17]]}}, {"type": "Feature", "properties": {"t": 2100, "f": 2100, "hf": 0.019, "y": 2023, "m": "man", "n": "G\u00f6rlitzer Stra\u00dfe"}, "geometry": {"type": "LineString", "coordinates": [[412774.03, 5658156.17], [412806.7, 5658224.26]]}}, {"type": "Feature", "properties": {"t": 1800, "f": 1800, "hf": 0.022, "y": 2017, "m": "man", "n": "G\u00f6rlitzer Stra\u00dfe"}, "geometry": {"type": "LineString", "coordinates": [[412806.7, 5658224.26], [412826.57, 5658274.4], [412846.74, 5658319.44]]}}, {"type": "Feature", "properties": {"t": 1100, "f": 500, "hf": 0.0, "b": 600, "hb": 0.0, "y": 2024, "m": "man", "n": "Alaunstra\u00dfe"}, "geometry": {"type": "LineString", "coordinates": [[412526.61, 5658000.0], [412532.9, 5658009.45]]}}, {"type": "Feature", "properties": {"t": 1300, "f": 600, "hf": 0.05, "b": 700, "hb": 0.029, "y": 2017, "m": "man", "n": "Olbrichtplatz"}, "geometry": {"type": "LineString", "coordinates": [[412987.15, 5658994.8], [413060.52, 5659130.31]]}}, {"type": "Feature", "properties": {"t": 500, "f": 400, "hf": 0.05, "b": 100, "hb": 0.0, "y": 2016, "m": "man", "n": "Charlotte-B\u00fchler-Stra\u00dfe"}, "geometry": {"type": "LineString", "coordinates": [[413177.97, 5659692.29], [413197.76, 5659683.49], [413243.86, 5659660.78], [413316.38, 5659620.43], [413437.75, 5659554.57], [413472.16, 5659535.41], [413491.42, 5659529.21]]}}, {"type": "Feature", "properties": {"t": 1700, "f": 600, "hf": 0.183, "b": 1100, "hb": 0.064, "y": 2016, "m": "man", "n": "Else-Sander-Stra\u00dfe"}, "geometry": {"type": "LineString", "coordinates": [[413239.04, 5659825.33], [413329.19, 5659778.45], [413422.78, 5659727.69], [413563.2, 5659660.11]]}}, {"type": "Feature", "properties": {"t": 22700, "f": 11900, "hf": 0.041, "b": 10800, "hb": 0.031, "y": 2014, "m": "man", "n": "Waldschl\u00f6\u00dfchenbr\u00fccke", "br": 1}, "geometry": {"type": "LineString", "coordinates": [[414000.0, 5658427.33], [413961.21, 5658449.36]]}}]}