{"type": "FeatureCollection", "attribution": "\u00a9 OpenStreetMap contributors (ODbL)", "crs": {"type": "name", "properties": {"name": "urn:ogc:def:crs:EPSG::25833"}}, "features": [{"type": "Feature", "properties": {"k": "track", "bed": "ballast", "bridge": 1, "layer": 1}, "geometry": {"type": "LineString", "coordinates": [[409142.3, 5656275.87], [409171.27, 5656287.33]]}}, {"type": "Feature", "properties": {"k": "track", "bed": "ballast", "bridge": 1, "layer": 1}, "geometry": {"type": "LineString", "coordinates": [[409169.75, 5656291.08], [409140.76, 5656279.7]]}}, {"type": "Feature", "properties": {"k": "track", "bed": "street", "s": [236.7, 255.0, 285.0, 315.0, 387.7, 405.0]}, "geometry": {"type": "LineString", "coordinates": [[409383.66, 5656360.57], [409391.85, 5656359.97], [409400.84, 5656358.9], [409403.08, 5656358.56], [409407.07, 5656357.95], [409418.59, 5656354.98], [409428.28, 5656352.02], [409443.48, 5656345.95], [409461.14, 5656338.53], [409487.7, 5656327.39], [409492.06, 5656325.8], [409527.7, 5656309.45], [409566.79, 5656291.55], [409585.71, 5656282.88], [409622.88, 5656265.84], [409687.44, 5656236.27], [409699.29, 5656230.02], [409705.93, 5656225.43], [409712.01, 5656220.73], [409745.96, 5656191.34], [409751.07, 5656188.03], [409760.62, 5656185.18], [409766.58, 5656185.12], [409771.47, 5656187.06], [409773.26, 5656187.77], [409780.45, 5656193.42], [409770.91, 5656182.42], [409768.52, 5656179.69], [409763.61, 5656174.07], [409738.76, 5656146.35], [409686.91, 5656087.72], [409640.56, 5656035.38], [409609.43, 5656000.0]]}}, {"type": "Feature", "properties": {"k": "track", "bed": "street", "s": [63.6, 183.6, 633.6, 693.6, 723.6, 753.6, 783.6, 843.6, 873.6, 903.6, 993.6, 1041.6, 1071.6, 1101.6, 1113.6, 1131.6, 1161.6, 1191.6, 1221.6, 1233.6]}, "geometry": {"type": "LineString", "coordinates": [[408000.0, 5656962.02], [408008.33, 5656955.02], [408039.31, 5656931.14], [408045.46, 5656926.46], [408132.53, 5656858.49], [408170.98, 5656828.45], [408177.58, 5656822.65], [408182.81, 5656816.87], [408189.77, 5656807.08], [408194.2, 5656799.33], [408198.22, 5656789.32], [408200.61, 5656779.75], [408217.05, 5656689.8], [408228.16, 5656636.94], [408243.72, 5656568.96], [408244.28, 5656566.38], [408253.69, 5656523.18], [408256.61, 5656511.89], [408263.96, 5656483.43], [408267.04, 5656471.64], [408273.26, 5656439.2], [408286.9, 5656351.47], [408300.9, 5656256.8], [408310.93, 5656178.42], [408319.82, 5656105.24], [408320.9, 5656096.3], [408319.18, 5656096.59], [408317.02, 5656096.84], [408305.77, 5656097.87], [408302.31, 5656098.29], [408294.71, 5656098.92], [408228.05, 5656105.11], [408202.84, 5656106.86], [408181.98, 5656108.4], [408085.4, 5656117.45], [408084.0, 5656117.59], [408072.95, 5656118.29], [408009.96, 5656124.46], [408002.91, 5656125.61], [408000.0, 5656126.24]]}}, {"type": "Feature", "properties": {"k": "track", "bed": "street", "s": [287.3, 305.1, 376.8, 406.8, 436.8, 455.1]}, "geometry": {"type": "LineString", "coordinates": [[409613.65, 5656000.0], [409642.75, 5656033.24], [409693.39, 5656090.42], [409740.85, 5656143.99], [409749.98, 5656154.32], [409766.17, 5656172.76], [409772.63, 5656180.09], [409775.88, 5656183.79], [409779.13, 5656187.48], [409770.91, 5656182.42], [409768.17, 5656181.63], [409763.64, 5656180.81], [409758.38, 5656181.0], [409754.47, 5656181.95], [409748.95, 5656184.68], [409743.89, 5656188.52], [409731.8, 5656199.0], [409710.55, 5656217.42], [409704.14, 5656222.51], [409697.08, 5656227.41], [409686.24, 5656233.5], [409621.63, 5656263.08], [409584.27, 5656280.2], [409526.72, 5656306.56], [409518.81, 5656310.18], [409490.99, 5656322.91], [409460.34, 5656335.37], [409442.78, 5656342.57], [409427.85, 5656348.5], [409412.62, 5656352.62], [409397.48, 5656355.02], [409384.27, 5656355.96], [409381.86, 5656356.12], [409375.36, 5656356.01], [409369.26, 5656355.61], [409349.19, 5656353.54], [409338.95, 5656351.2], [409328.74, 5656348.27], [409308.97, 5656340.98], [409275.39, 5656327.65], [409270.95, 5656326.08], [409200.55, 5656298.37], [409191.82, 5656295.0], [409185.31, 5656292.47], [409171.27, 5656287.33]]}}, {"type": "Feature", "properties": {"k": "track", "bed": "street"}, "geometry": {"type": "LineString", "coordinates": [[409910.9, 5656319.42], [409912.55, 5656320.71], [409933.26, 5656337.01], [409953.85, 5656353.53], [409982.08, 5656379.31], [410000.0, 5656397.64]]}}, {"type": "Feature", "properties": {"k": "track", "bed": "street"}, "geometry": {"type": "LineString", "coordinates": [[409613.71, 5657093.84], [409634.79, 5657134.61], [409658.72, 5657180.91], [409669.02, 5657200.84], [409724.75, 5657308.66], [409727.03, 5657313.07], [409746.0, 5657349.47], [409754.14, 5657365.17], [409763.78, 5657383.78], [409765.0, 5657386.13]]}}, {"type": "Feature", "properties": {"k": "track", "bed": "street", "s": [61.8, 181.8, 629.7, 689.7, 719.7, 749.7, 779.7, 839.6, 869.6, 899.6, 993.7, 1023.7, 1053.7]}, "geometry": {"type": "LineString", "coordinates": [[408000.0, 5656959.07], [408006.96, 5656953.46], [408028.18, 5656936.47], [408049.45, 5656919.4], [408082.78, 5656893.99], [408131.58, 5656856.37], [408169.59, 5656826.34], [408176.25, 5656820.41], [408181.27, 5656814.2], [408187.46, 5656805.07], [408193.25, 5656794.44], [408195.74, 5656787.35], [408197.75, 5656779.16], [408225.26, 5656636.33], [408227.79, 5656623.11], [408250.87, 5656522.99], [408256.47, 5656499.57], [408263.74, 5656473.12], [408270.37, 5656438.81], [408283.79, 5656351.01], [408298.33, 5656256.46], [408307.31, 5656177.89], [408314.68, 5656116.82], [408316.03, 5656105.29], [408317.02, 5656096.84], [408317.25, 5656094.9], [408317.58, 5656092.82], [408318.24, 5656089.18], [408319.54, 5656079.7], [408320.44, 5656073.24], [408324.55, 5656041.76], [408330.0, 5656000.0]]}}, {"type": "Feature", "properties": {"k": "track", "bed": "street", "s": [731.2, 761.2, 791.2, 1024.2, 1061.2]}, "geometry": {"type": "LineString", "coordinates": [[410000.0, 5657359.36], [409985.44, 5657366.92], [409983.31, 5657368.05], [409943.38, 5657389.13], [409941.28, 5657390.24], [409933.93, 5657394.11], [409927.98, 5657397.21], [409919.81, 5657401.47], [409883.2, 5657420.62], [409873.7, 5657425.64], [409834.19, 5657446.37], [409827.05, 5657449.48], [409823.92, 5657450.84], [409820.38, 5657451.86], [409817.71, 5657452.29], [409814.44, 5657452.83], [409810.46, 5657452.5], [409804.86, 5657451.13], [409800.77, 5657449.24], [409796.51, 5657446.55], [409794.79, 5657444.9], [409792.45, 5657442.3], [409788.45, 5657436.96], [409783.88, 5657428.48], [409740.28, 5657344.2], [409724.4, 5657313.53], [409720.65, 5657306.28], [409708.4, 5657282.63], [409696.77, 5657260.16], [409673.43, 5657215.1], [409652.39, 5657174.49], [409638.08, 5657146.85], [409626.58, 5657124.62], [409611.59, 5657095.68], [409610.0, 5657092.04], [409609.33, 5657090.48], [409607.68, 5657085.35], [409607.63, 5657079.73], [409609.11, 5657074.49], [409611.42, 5657069.99], [409614.43, 5657066.51], [409619.0, 5657062.79], [409627.08, 5657058.39], [409631.99, 5657055.71], [409778.54, 5656975.88], [409858.05, 5656932.04], [409865.77, 5656927.79], [409874.49, 5656923.02], [409912.32, 5656902.37], [409959.63, 5656876.57], [409969.03, 5656871.25], [409980.52, 5656864.78], [409990.01, 5656859.63], [410000.0, 5656854.21]]}}, {"type": "Feature", "properties": {"k": "track", "bed": "street", "s": [9.2, 39.2, 69.2]}, "geometry": {"type": "LineString", "coordinates": [[408334.12, 5656000.0], [408330.33, 5656031.06], [408328.56, 5656042.14], [408324.96, 5656069.03], [408323.47, 5656079.71], [408323.24, 5656080.21], [408320.62, 5656085.96], [408318.24, 5656089.18], [408315.82, 5656091.75], [408314.1, 5656093.1], [408309.55, 5656095.61], [408305.75, 5656097.22], [408302.31, 5656098.29]]}}, {"type": "Feature", "properties": {"k": "track", "bed": "street"}, "geometry": {"type": "LineString", "coordinates": [[409353.66, 5656358.99], [409348.33, 5656358.21], [409338.46, 5656355.74], [409326.98, 5656352.34], [409292.71, 5656339.21], [409273.74, 5656331.35], [409204.42, 5656304.42], [409198.96, 5656302.32], [409189.36, 5656298.55], [409183.12, 5656296.12], [409169.75, 5656291.08]]}}, {"type": "Feature", "properties": {"k": "track", "bed": "street"}, "geometry": {"type": "LineString", "coordinates": [[409825.77, 5657446.8], [409831.25, 5657444.74], [409897.35, 5657409.9], [409919.99, 5657397.97]]}}, {"type": "Feature", "properties": {"k": "track", "bed": "street"}, "geometry": {"type": "LineString", "coordinates": [[409931.5, 5657391.91], [409984.03, 5657364.16], [409987.33, 5657362.45], [409998.4, 5657356.64], [410000.0, 5657355.8]]}}, {"type": "Feature", "properties": {"k": "track", "bed": "street", "s": [33.8, 70.8, 303.9, 333.9, 363.9]}, "geometry": {"type": "LineString", "coordinates": [[410000.0, 5656857.04], [409991.23, 5656861.82], [409981.61, 5656867.05], [409970.24, 5656873.45], [409960.66, 5656878.84], [409939.7, 5656890.36], [409924.29, 5656898.75], [409875.81, 5656925.36], [409867.29, 5656930.03], [409859.37, 5656934.37], [409779.66, 5656977.96], [409642.13, 5657053.16], [409628.37, 5657060.71], [409619.72, 5657065.44]]}}, {"type": "Feature", "properties": {"k": "track", "bed": "street"}, "geometry": {"type": "LineString", "coordinates": [[409730.84, 5657315.74], [409727.03, 5657313.07], [409723.77, 5657309.7], [409720.65, 5657306.28]]}}, {"type": "Feature", "properties": {"k": "track", "bed": "street"}, "geometry": {"type": "LineString", "coordinates": [[409933.93, 5657394.11], [409928.18, 5657397.64], [409927.32, 5657398.17], [409923.53, 5657401.61]]}}, {"type": "Feature", "properties": {"k": "track", "bed": "street"}, "geometry": {"type": "LineString", "coordinates": [[408302.29, 5656094.47], [408305.69, 5656094.07], [408314.1, 5656093.1], [408317.58, 5656092.82], [408319.66, 5656092.61], [408321.6, 5656092.31]]}}, {"type": "Feature", "properties": {"k": "track", "bed": "street", "s": [33.2, 93.0, 135.0, 165.0, 195.0]}, "geometry": {"type": "LineString", "coordinates": [[408323.47, 5656079.71], [408323.4, 5656080.23], [408321.6, 5656092.31], [408321.25, 5656094.35], [408320.9, 5656096.3], [408331.54, 5656094.17], [408375.99, 5656085.27], [408384.5, 5656083.95], [408389.1, 5656083.26], [408399.19, 5656082.15], [408408.3, 5656081.49], [408517.6, 5656084.11], [408565.23, 5656084.7], [408612.66, 5656085.58], [408622.53, 5656085.76], [408634.53, 5656086.89], [408645.21, 5656088.61], [408653.19, 5656090.39], [408661.58, 5656092.9], [408669.79, 5656095.87], [408691.48, 5656104.29], [408739.37, 5656122.99], [409101.63, 5656264.46], [409118.39, 5656270.89], [409121.64, 5656272.15], [409123.81, 5656273.0], [409132.72, 5656276.44], [409140.76, 5656279.7]]}}, {"type": "Feature", "properties": {"k": "track", "bed": "street"}, "geometry": {"type": "LineString", "coordinates": [[408686.9, 5656098.23], [408693.42, 5656100.81], [409097.98, 5656258.79], [409119.85, 5656267.11], [409123.19, 5656268.37], [409125.95, 5656269.46], [409134.49, 5656272.71], [409142.3, 5656275.87]]}}, {"type": "Feature", "properties": {"k": "track", "bed": "grass"}, "geometry": {"type": "LineString", "coordinates": [[410000.0, 5656401.93], [409980.43, 5656381.96], [409951.48, 5656356.27], [409931.11, 5656339.42], [409910.63, 5656323.35], [409908.88, 5656321.98], [409880.29, 5656300.16], [409860.59, 5656282.95], [409836.46, 5656255.76], [409792.93, 5656207.16], [409787.33, 5656200.98], [409780.45, 5656193.42]]}}, {"type": "Feature", "properties": {"k": "track", "bed": "grass"}, "geometry": {"type": "LineString", "coordinates": [[409779.13, 5656187.48], [409784.66, 5656193.5], [409789.62, 5656198.91], [409832.69, 5656247.21], [409838.6, 5656253.91], [409863.0, 5656280.46], [409881.37, 5656297.42], [409898.08, 5656309.87], [409910.9, 5656319.42]]}}, {"type": "Feature", "properties": {"k": "track", "bed": "ballast"}, "geometry": {"type": "LineString", "coordinates": [[409619.72, 5657065.44], [409616.16, 5657069.18], [409613.08, 5657073.4], [409611.17, 5657078.06], [409610.81, 5657085.38], [409612.64, 5657090.72], [409613.71, 5657093.84]]}}, {"type": "Feature", "properties": {"k": "track", "bed": "ballast"}, "geometry": {"type": "LineString", "coordinates": [[409746.0, 5657349.47], [409744.42, 5657343.5], [409743.39, 5657338.33], [409744.22, 5657332.2], [409746.3, 5657326.89], [409750.95, 5657321.84], [409758.89, 5657316.92], [409750.14, 5657319.61], [409743.76, 5657319.67], [409737.68, 5657318.35], [409730.84, 5657315.74]]}}, {"type": "Feature", "properties": {"k": "track", "bed": "ballast", "s": [58.1, 70.2, 100.2, 130.2, 160.2, 178.2, 190.2, 220.2, 250.2, 298.2]}, "geometry": {"type": "LineString", "coordinates": [[408000.0, 5656123.29], [408008.51, 5656121.8], [408065.66, 5656116.48], [408072.84, 5656115.82], [408083.42, 5656114.81], [408085.79, 5656114.55], [408093.64, 5656113.42], [408181.53, 5656105.13], [408203.45, 5656103.02], [408227.54, 5656100.66], [408284.18, 5656095.75], [408302.29, 5656094.47], [408305.67, 5656093.42], [408308.02, 5656092.69], [408313.23, 5656089.19], [408315.72, 5656086.12], [408318.4, 5656080.32], [408318.62, 5656079.57], [408320.44, 5656073.24]]}}, {"type": "Feature", "properties": {"k": "track", "bed": "ballast"}, "geometry": {"type": "LineString", "coordinates": [[409923.53, 5657401.61], [409919.34, 5657408.86], [409917.62, 5657413.24], [409916.63, 5657417.91], [409916.73, 5657427.12], [409918.86, 5657433.3], [409921.51, 5657438.41], [409925.56, 5657444.59], [409926.98, 5657446.75], [409958.56, 5657490.14], [409961.77, 5657494.96], [409972.26, 5657509.93], [409979.62, 5657521.71], [409987.26, 5657539.47], [409992.21, 5657555.26], [409996.25, 5657572.59], [409998.35, 5657588.01], [409999.81, 5657601.47], [410000.0, 5657603.6]]}}, {"type": "Feature", "properties": {"k": "track", "bed": "ballast"}, "geometry": {"type": "LineString", "coordinates": [[409873.7, 5657425.64], [409884.58, 5657422.93], [409888.32, 5657422.61], [409895.29, 5657422.94], [409902.46, 5657425.07], [409909.29, 5657429.69], [409917.27, 5657438.06], [409924.52, 5657448.51], [409925.59, 5657449.98], [409929.27, 5657454.99], [409959.04, 5657496.83], [409969.67, 5657511.57], [409976.66, 5657523.09], [409983.77, 5657538.32], [409989.26, 5657555.38], [409993.01, 5657573.35], [409995.2, 5657588.24], [409996.7, 5657601.7], [409998.57, 5657621.32], [409998.8, 5657623.51], [409999.34, 5657628.92], [410000.0, 5657635.59]]}}, {"type": "Feature", "properties": {"k": "track", "bed": "ballast", "s": [15.0, 75.0, 117.5, 147.5, 177.5]}, "geometry": {"type": "LineString", "coordinates": [[408321.6, 5656092.31], [408331.17, 5656090.48], [408375.87, 5656081.98], [408390.31, 5656079.88], [408398.84, 5656078.88], [408407.88, 5656078.17], [408518.5, 5656080.11], [408576.3, 5656081.36], [408590.02, 5656081.53], [408609.99, 5656081.77], [408623.61, 5656081.96], [408639.8, 5656083.87], [408647.51, 5656085.52], [408660.91, 5656088.87], [408664.35, 5656089.87], [408673.3, 5656092.88], [408686.9, 5656098.23]]}}, {"type": "Feature", "properties": {"k": "track", "bed": "ballast"}, "geometry": {"type": "LineString", "coordinates": [[409758.89, 5657316.92], [409764.04, 5657314.09], [409767.75, 5657312.36]]}}, {"type": "Feature", "properties": {"k": "track", "bed": "ballast"}, "geometry": {"type": "LineString", "coordinates": [[409764.04, 5657314.09], [409771.19, 5657308.43], [409772.29, 5657307.49], [409774.75, 5657303.04], [409776.64, 5657298.39], [409778.3, 5657289.8], [409777.56, 5657283.26], [409765.5, 5657260.21]]}}, {"type": "Feature", "properties": {"k": "track", "bed": "ballast"}, "geometry": {"type": "LineString", "coordinates": [[409778.9, 5657306.44], [409780.99, 5657303.82], [409783.55, 5657299.37], [409785.98, 5657293.13], [409787.21, 5657288.42], [409786.9, 5657281.59], [409785.79, 5657277.2], [409774.12, 5657254.99]]}}, {"type": "Feature", "properties": {"k": "track", "bed": "ballast"}, "geometry": {"type": "LineString", "coordinates": [[409772.29, 5657307.49], [409776.21, 5657302.58], [409778.63, 5657297.48], [409780.99, 5657293.64], [409782.64, 5657290.75], [409783.21, 5657285.26], [409782.74, 5657279.97], [409771.05, 5657256.56]]}}, {"type": "Feature", "properties": {"k": "track", "bed": "ballast"}, "geometry": {"type": "LineString", "coordinates": [[409780.99, 5657293.64], [409780.84, 5657289.47], [409780.85, 5657285.06], [409780.13, 5657281.15], [409767.98, 5657258.85]]}}, {"type": "Feature", "properties": {"k": "track", "bed": "ballast"}, "geometry": {"type": "LineString", "coordinates": [[409787.21, 5657288.42], [409788.72, 5657283.71], [409789.03, 5657279.76], [409788.61, 5657276.96], [409776.73, 5657253.64]]}}, {"type": "Feature", "properties": {"k": "track", "bed": "ballast"}, "geometry": {"type": "LineString", "coordinates": [[409783.55, 5657299.37], [409786.66, 5657294.53], [409789.67, 5657289.5], [409791.3, 5657285.79], [409791.97, 5657281.41], [409791.97, 5657275.59]]}}, {"type": "Feature", "properties": {"k": "track", "bed": "ballast"}, "geometry": {"type": "LineString", "coordinates": [[409791.3, 5657285.79], [409793.56, 5657280.63], [409794.77, 5657274.61], [409794.54, 5657272.46]]}}, {"type": "Feature", "properties": {"k": "track", "bed": "ballast"}, "geometry": {"type": "LineString", "coordinates": [[409917.27, 5657438.06], [409914.14, 5657431.21], [409912.3, 5657424.08], [409912.46, 5657416.42], [409913.7, 5657411.41], [409915.94, 5657405.76], [409919.81, 5657401.47], [409924.89, 5657396.74], [409931.5, 5657391.91], [409919.99, 5657397.97]]}}, {"type": "Feature", "properties": {"k": "track", "bed": "ballast"}, "geometry": {"type": "LineString", "coordinates": [[409765.0, 5657386.13], [409771.26, 5657398.21], [409786.04, 5657426.98], [409788.83, 5657431.55], [409791.54, 5657435.61], [409794.76, 5657440.15], [409798.81, 5657444.21], [409804.8, 5657447.65], [409810.28, 5657449.01], [409815.52, 5657449.29], [409819.31, 5657448.79], [409822.78, 5657447.92], [409825.77, 5657446.8]]}}, {"type": "Feature", "properties": {"k": "track", "bed": "ballast"}, "geometry": {"type": "LineString", "coordinates": [[409383.66, 5656360.57], [409382.11, 5656360.74], [409370.71, 5656360.91], [409358.0, 5656359.63], [409353.66, 5656358.99]]}}, {"type": "Feature", "properties": {"k": "track", "bed": "ballast", "layer": -1}, "geometry": {"type": "LineString", "coordinates": [[409767.75, 5657312.36], [409778.9, 5657306.44], [409781.94, 5657304.97], [409784.16, 5657305.02], [409785.63, 5657305.47], [409788.19, 5657304.61], [409815.03, 5657289.47]]}}, {"type": "Feature", "properties": {"k": "rosette", "x": [0.44, 0.59]}, "geometry": {"type": "LineString", "coordinates": [[409623.42, 5656275.34], [409615.03, 5656257.03]]}}, {"type": "Feature", "properties": {"k": "rosette", "x": [0.431, 0.58]}, "geometry": {"type": "LineString", "coordinates": [[409650.64, 5656262.73], [409642.2, 5656244.31]]}}, {"type": "Feature", "properties": {"k": "rosette", "x": [0.422, 0.571]}, "geometry": {"type": "LineString", "coordinates": [[409677.86, 5656250.12], [409669.38, 5656231.6]]}}, {"type": "Feature", "properties": {"k": "rosette", "x": [0.48, 0.632]}, "geometry": {"type": "LineString", "coordinates": [[409753.39, 5656200.11], [409740.46, 5656180.16]]}}, {"type": "Feature", "properties": {"k": "rosette", "x": [0.524, 0.67]}, "geometry": {"type": "LineString", "coordinates": [[408056.93, 5656931.56], [408043.92, 5656914.9]]}}, {"type": "Feature", "properties": {"k": "rosette", "x": [0.466, 0.563]}, "geometry": {"type": "LineString", "coordinates": [[408151.58, 5656857.79], [408136.81, 5656838.88]]}}, {"type": "Feature", "properties": {"k": "rosette", "x": [0.52, 0.664]}, "geometry": {"type": "LineString", "coordinates": [[408285.34, 5656430.79], [408265.1, 5656427.65]]}}, {"type": "Feature", "properties": {"k": "rosette", "x": [0.481, 0.658]}, "geometry": {"type": "LineString", "coordinates": [[408292.34, 5656371.16], [408275.07, 5656368.48]]}}, {"type": "Feature", "properties": {"k": "rosette", "x": [0.468, 0.628]}, "geometry": {"type": "LineString", "coordinates": [[408297.48, 5656341.53], [408278.43, 5656338.72]]}}, {"type": "Feature", "properties": {"k": "rosette", "x": [0.42, 0.57]}, "geometry": {"type": "LineString", "coordinates": [[408301.02, 5656311.73], [408281.82, 5656308.89]]}}, {"type": "Feature", "properties": {"k": "rosette", "x": [0.432, 0.567]}, "geometry": {"type": "LineString", "coordinates": [[408305.99, 5656282.14], [408285.98, 5656279.18]]}}, {"type": "Feature", "properties": {"k": "rosette", "x": [0.496, 0.644]}, "geometry": {"type": "LineString", "coordinates": [[408315.68, 5656222.72], [408295.02, 5656220.08]]}}, {"type": "Feature", "properties": {"k": "rosette", "x": [0.459, 0.638]}, "geometry": {"type": "LineString", "coordinates": [[408318.11, 5656192.79], [408298.78, 5656190.32]]}}, {"type": "Feature", "properties": {"k": "rosette", "x": [0.501, 0.671]}, "geometry": {"type": "LineString", "coordinates": [[408323.66, 5656163.19], [408302.24, 5656160.58]]}}, {"type": "Feature", "properties": {"k": "rosette", "x": [0.409, 0.593]}, "geometry": {"type": "LineString", "coordinates": [[408296.08, 5656086.29], [408297.8, 5656107.25]]}}, {"type": "Feature", "properties": {"k": "rosette", "x": [0.367, 0.528]}, "geometry": {"type": "LineString", "coordinates": [[408176.53, 5656098.07], [408178.44, 5656118.43]]}}, {"type": "Feature", "properties": {"k": "rosette", "x": [0.388, 0.512]}, "geometry": {"type": "LineString", "coordinates": [[408057.01, 5656109.27], [408059.02, 5656129.72]]}}, {"type": "Feature", "properties": {"k": "rosette", "x": [0.405, 0.577]}, "geometry": {"type": "LineString", "coordinates": [[409726.34, 5656192.9], [409739.58, 5656208.18]]}}, {"type": "Feature", "properties": {"k": "rosette", "x": [0.406, 0.557]}, "geometry": {"type": "LineString", "coordinates": [[409598.46, 5656264.69], [409606.85, 5656283.02]]}}, {"type": "Feature", "properties": {"k": "rosette", "x": [0.416, 0.599]}, "geometry": {"type": "LineString", "coordinates": [[408333.86, 5656069.78], [408312.57, 5656067.0]]}}, {"type": "Feature", "properties": {"k": "rosette", "x": [0.377, 0.583]}, "geometry": {"type": "LineString", "coordinates": [[408336.57, 5656039.88], [408316.72, 5656037.29]]}}, {"type": "Feature", "properties": {"k": "rosette", "x": [0.373, 0.576]}, "geometry": {"type": "LineString", "coordinates": [[408340.6, 5656010.15], [408320.24, 5656007.49]]}}, {"type": "Feature", "properties": {"k": "rosette", "x": [0.36, 0.48]}, "geometry": {"type": "LineString", "coordinates": [[409684.54, 5657038.58], [409674.49, 5657020.13]]}}, {"type": "Feature", "properties": {"k": "rosette", "x": [0.349, 0.47]}, "geometry": {"type": "LineString", "coordinates": [[409710.66, 5657023.83], [409700.86, 5657005.84]]}}, {"type": "Feature", "properties": {"k": "rosette", "x": [0.351, 0.479]}, "geometry": {"type": "LineString", "coordinates": [[409736.79, 5657009.07], [409727.62, 5656992.25]]}}, {"type": "Feature", "properties": {"k": "rosette", "x": [0.344, 0.445]}, "geometry": {"type": "LineString", "coordinates": [[409974.57, 5656880.82], [409962.35, 5656859.17]]}}, {"type": "Feature", "properties": {"k": "rosette", "x": [0.463, 0.589]}, "geometry": {"type": "LineString", "coordinates": [[409932.25, 5656880.75], [409941.99, 5656898.65]]}}, {"type": "Feature", "properties": {"k": "rosette", "x": [0.409, 0.566]}, "geometry": {"type": "LineString", "coordinates": [[408437.56, 5656091.25], [408438.1, 5656069.08]]}}, {"type": "Feature", "properties": {"k": "rosette", "x": [0.388, 0.554]}, "geometry": {"type": "LineString", "coordinates": [[408467.57, 5656091.53], [408468.1, 5656069.29]]}}, {"type": "Feature", "properties": {"k": "rosette", "x": [0.494, 0.633]}, "geometry": {"type": "LineString", "coordinates": [[408497.43, 5656097.44], [408498.1, 5656069.49]]}}, {"type": "Feature", "properties": {"k": "rosette", "x": [0.495, 0.617]}, "geometry": {"type": "LineString", "coordinates": [[408070.95, 5656128.62], [408069.08, 5656108.33]]}}, {"type": "Feature", "properties": {"k": "rosette", "x": [0.506, 0.678]}, "geometry": {"type": "LineString", "coordinates": [[408100.82, 5656125.59], [408099.05, 5656106.79]]}}, {"type": "Feature", "properties": {"k": "rosette", "x": [0.481, 0.637]}, "geometry": {"type": "LineString", "coordinates": [[408130.73, 5656123.3], [408128.77, 5656102.48]]}}, {"type": "Feature", "properties": {"k": "rosette", "x": [0.48, 0.638]}, "geometry": {"type": "LineString", "coordinates": [[408160.59, 5656120.37], [408158.65, 5656099.78]]}}, {"type": "Feature", "properties": {"k": "rosette", "x": [0.469, 0.632]}, "geometry": {"type": "LineString", "coordinates": [[408190.5, 5656117.7], [408188.47, 5656096.66]]}}, {"type": "Feature", "properties": {"k": "rosette", "x": [0.371, 0.613]}, "geometry": {"type": "LineString", "coordinates": [[408220.12, 5656112.15], [408218.42, 5656094.74]]}}, {"type": "Feature", "properties": {"k": "rosette", "x": [0.388, 0.615]}, "geometry": {"type": "LineString", "coordinates": [[408249.97, 5656110.52], [408248.32, 5656091.46]]}}, {"type": "Feature", "properties": {"k": "rosette", "x": [0.454, 0.634]}, "geometry": {"type": "LineString", "coordinates": [[408338.72, 5656102.06], [408334.96, 5656082.26]]}}, {"type": "Feature", "properties": {"k": "rosette", "x": [0.37, 0.518]}, "geometry": {"type": "LineString", "coordinates": [[408396.76, 5656090.63], [408394.2, 5656068.74]]}}, {"type": "Feature", "properties": {"k": "stop", "a": 132, "name": "Cottaer Stra\u00dfe"}, "geometry": {"type": "Point", "coordinates": [409792.01, 5656207.98]}}, {"type": "Feature", "properties": {"k": "stop", "a": 96, "name": "Alberthafen"}, "geometry": {"type": "Point", "coordinates": [409998.0, 5657629.06]}}, {"type": "Feature", "properties": {"k": "stop", "a": 125, "name": "Vorwerkstra\u00dfe"}, "geometry": {"type": "Point", "coordinates": [409928.16, 5657455.8]}}, {"type": "Feature", "properties": {"k": "stop", "a": 306, "name": "Vorwerkstra\u00dfe"}, "geometry": {"type": "Point", "coordinates": [409959.23, 5657489.67]}}, {"type": "Feature", "properties": {"k": "stop", "a": 218, "name": "Bremer Stra\u00dfe"}, "geometry": {"type": "Point", "coordinates": [408585.8, 5657357.32]}}, {"type": "Feature", "properties": {"k": "stop", "a": 218, "name": "Bremer Stra\u00dfe"}, "geometry": {"type": "Point", "coordinates": [408535.37, 5657385.51]}}, {"type": "Feature", "properties": {"k": "stop", "a": 216, "name": "Fl\u00fcgelweg"}, "geometry": {"type": "Point", "coordinates": [408307.68, 5657456.72]}}, {"type": "Feature", "properties": {"k": "stop", "a": 5, "name": "Chamissostra\u00dfe"}, "geometry": {"type": "Point", "coordinates": [408065.45, 5656114.44]}}, {"type": "Feature", "properties": {"k": "stop", "a": 189, "name": "Chamissostra\u00dfe"}, "geometry": {"type": "Point", "coordinates": [408010.06, 5656125.53]}}, {"type": "Feature", "properties": {"k": "stop", "a": 312, "name": "Cottaer Stra\u00dfe"}, "geometry": {"type": "Point", "coordinates": [409833.41, 5656246.57]}}, {"type": "Feature", "properties": {"k": "stop", "a": 341, "name": "Semmelweisstra\u00dfe"}, "geometry": {"type": "Point", "coordinates": [409271.44, 5656324.85]}}, {"type": "Feature", "properties": {"k": "stop", "a": 159, "name": "Semmelweisstra\u00dfe"}, "geometry": {"type": "Point", "coordinates": [409203.97, 5656305.57]}}, {"type": "Feature", "properties": {"k": "stop", "a": 75, "name": "Birkenhainer Stra\u00dfe"}, "geometry": {"type": "Point", "coordinates": [408253.28, 5656498.59]}}, {"type": "Feature", "properties": {"k": "stop", "a": 218, "name": "Altcotta"}, "geometry": {"type": "Point", "coordinates": [408049.19, 5656926.51]}}, {"type": "Feature", "properties": {"k": "stop", "a": 83, "name": "Pennricher Stra\u00dfe"}, "geometry": {"type": "Point", "coordinates": [408311.75, 5656116.48]}}, {"type": "Feature", "properties": {"k": "stop", "a": 262, "name": "Pennricher Stra\u00dfe"}, "geometry": {"type": "Point", "coordinates": [408326.46, 5656069.24]}}, {"type": "Feature", "properties": {"k": "stop", "a": 359, "name": "Burgkstra\u00dfe"}, "geometry": {"type": "Point", "coordinates": [408576.34, 5656079.71]}}, {"type": "Feature", "properties": {"k": "stop", "a": 179, "name": "Burgkstra\u00dfe"}, "geometry": {"type": "Point", "coordinates": [408565.2, 5656086.3]}}, {"type": "Feature", "properties": {"k": "stop", "a": 5, "name": "Pennricher Stra\u00dfe"}, "geometry": {"type": "Point", "coordinates": [408284.04, 5656094.08]}}, {"type": "Feature", "properties": {"k": "stop", "a": 185, "name": "Pennricher Stra\u00dfe"}, "geometry": {"type": "Point", "coordinates": [408228.22, 5656106.41]}}, {"type": "Feature", "properties": {"k": "stop", "a": 297, "name": "Betriebshof Waltherstra\u00dfe"}, "geometry": {"type": "Point", "coordinates": [409769.18, 5657383.3]}}, {"type": "Feature", "properties": {"k": "stop", "a": 117, "name": "Betriebshof Waltherstra\u00dfe"}, "geometry": {"type": "Point", "coordinates": [409704.1, 5657286.44]}}]}