{"type": "FeatureCollection", "attribution": "\u00a9 OpenStreetMap contributors (ODbL)", "crs": {"type": "name", "properties": {"name": "urn:ogc:def:crs:EPSG::25833"}}, "features": [{"type": "Feature", "properties": {"k": "track", "bed": "street"}, "geometry": {"type": "LineString", "coordinates": [[409909.62, 5659550.64], [409906.88, 5659554.53], [409900.7, 5659561.34], [409894.4, 5659566.24], [409888.9, 5659569.4], [409881.21, 5659573.61], [409853.09, 5659587.52], [409848.04, 5659590.58], [409844.8, 5659593.48], [409840.77, 5659598.66], [409838.42, 5659604.45], [409837.84, 5659610.91], [409839.07, 5659618.15], [409842.61, 5659624.33], [409848.75, 5659629.64], [409855.39, 5659632.71], [409860.12, 5659633.45], [409863.77, 5659633.44], [409864.87, 5659633.34], [409870.1, 5659631.89], [409874.84, 5659629.27], [409880.78, 5659615.48], [409886.72, 5659601.68], [409898.11, 5659575.23], [409906.19, 5659558.28], [409908.2, 5659554.08], [409909.62, 5659550.64]]}}, {"type": "Feature", "properties": {"k": "track", "bed": "street", "s": [75.0, 255.0, 285.0, 315.0, 345.0, 362.7, 375.0, 392.7, 422.7, 452.7, 585.0, 632.6, 662.9, 705.0]}, "geometry": {"type": "LineString", "coordinates": [[409909.62, 5659550.64], [409915.94, 5659538.47], [409941.5, 5659487.24], [409955.65, 5659459.56], [409956.82, 5659457.49], [409960.14, 5659451.22], [409956.23, 5659453.96], [409952.16, 5659455.68], [409947.2, 5659456.53], [409941.8, 5659456.27], [409938.5, 5659455.84], [409878.89, 5659447.66], [409854.41, 5659443.58], [409804.73, 5659436.02], [409721.76, 5659424.35], [409640.73, 5659413.52], [409577.44, 5659404.87], [409569.11, 5659403.74], [409514.31, 5659396.98], [409510.54, 5659396.51], [409470.66, 5659390.98], [409459.59, 5659389.54], [409446.18, 5659387.75], [409426.04, 5659385.06], [409415.01, 5659383.11], [409399.64, 5659379.63], [409389.44, 5659376.99], [409334.53, 5659360.36], [409330.81, 5659359.24], [409326.93, 5659358.04], [409302.9, 5659350.62], [409244.64, 5659332.39], [409176.49, 5659312.14], [409146.39, 5659302.57], [409112.02, 5659291.92], [409101.97, 5659288.81], [409083.73, 5659283.1], [409070.99, 5659279.47], [408976.37, 5659250.46], [408935.46, 5659237.91], [408921.73, 5659234.41], [408901.18, 5659230.88], [408884.49, 5659228.36], [408818.53, 5659220.01], [408809.89, 5659219.28], [408795.76, 5659218.73], [408787.66, 5659220.23], [408779.21, 5659223.7], [408774.43, 5659226.7], [408769.93, 5659231.23], [408766.0, 5659235.85], [408762.13, 5659242.99], [408760.53, 5659248.5], [408759.5, 5659254.14], [408755.09, 5659310.18], [408754.02, 5659324.02], [408745.2, 5659437.88], [408744.11, 5659451.93], [408743.14, 5659465.47], [408739.28, 5659513.22], [408733.57, 5659585.81], [408725.91, 5659686.74], [408723.39, 5659720.78], [408722.39, 5659726.03], [408721.0, 5659730.91], [408718.1, 5659736.87], [408715.54, 5659740.66], [408712.4, 5659743.99], [408705.34, 5659749.58], [408702.47, 5659750.96], [408697.71, 5659752.74], [408694.2, 5659753.69], [408686.03, 5659754.02], [408661.25, 5659751.65], [408573.9, 5659744.75], [408566.88, 5659744.17], [408544.12, 5659742.5], [408481.56, 5659737.88], [408464.99, 5659738.45], [408449.09, 5659739.99], [408433.99, 5659742.03], [408426.94, 5659744.09], [408417.5, 5659746.74], [408405.13, 5659750.81], [408392.95, 5659756.13], [408383.82, 5659760.46], [408350.19, 5659778.79], [408288.7, 5659812.9], [408267.46, 5659824.81], [408228.8, 5659846.88], [408185.62, 5659870.81]]}}, {"type": "Feature", "properties": {"k": "track", "bed": "street"}, "geometry": {"type": "LineString", "coordinates": [[410000.0, 5658220.17], [409972.85, 5658225.22], [409945.66, 5658230.73], [409937.51, 5658232.29], [409930.66, 5658234.2], [409923.84, 5658237.97], [409918.9, 5658243.7], [409915.9, 5658249.75], [409914.65, 5658255.14], [409914.18, 5658258.41], [409914.13, 5658260.34], [409914.37, 5658262.97], [409922.85, 5658354.76], [409924.9, 5658377.55], [409925.31, 5658382.08], [409930.64, 5658432.88], [409930.92, 5658435.42], [409931.13, 5658438.55], [409935.59, 5658481.72], [409938.17, 5658506.66], [409940.21, 5658529.08], [409943.5, 5658551.84], [409946.08, 5658567.24], [409951.3, 5658591.75], [409956.9, 5658613.62], [409965.76, 5658643.08]]}}, {"type": "Feature", "properties": {"k": "track", "bed": "street"}, "geometry": {"type": "LineString", "coordinates": [[408090.73, 5659920.01], [408082.46, 5659922.74], [408073.55, 5659923.56], [408065.76, 5659923.01], [408059.81, 5659922.49], [408051.02, 5659921.39], [408000.0, 5659915.56]]}}, {"type": "Feature", "properties": {"k": "track", "bed": "street"}, "geometry": {"type": "LineString", "coordinates": [[408000.0, 5659922.24], [408050.27, 5659927.68]]}}, {"type": "Feature", "properties": {"k": "track", "bed": "street", "s": [1713.3, 1755.0, 1785.0, 1832.7, 1965.0, 1995.0, 2025.0, 2042.7, 2055.0, 2072.7, 2102.7, 2132.7, 2162.7, 2305.6, 2355.0]}, "geometry": {"type": "LineString", "coordinates": [[408184.25, 5659866.81], [408227.4, 5659842.8], [408265.7, 5659822.02], [408343.36, 5659778.33], [408348.27, 5659775.51], [408382.21, 5659756.83], [408391.9, 5659752.21], [408405.28, 5659746.63], [408416.82, 5659742.96], [408427.67, 5659739.95], [408434.33, 5659738.1], [408449.66, 5659736.07], [408459.28, 5659734.9], [408465.46, 5659734.57], [408482.18, 5659734.48], [408558.0, 5659740.34], [408567.12, 5659741.06], [408652.71, 5659747.75], [408661.53, 5659748.41], [408685.88, 5659750.18], [408693.66, 5659749.57], [408701.09, 5659747.05], [408705.5, 5659744.4], [408709.35, 5659741.52], [408712.31, 5659738.52], [408716.29, 5659732.69], [408718.72, 5659726.78], [408719.84, 5659721.41], [408720.89, 5659709.44], [408722.9, 5659686.1], [408730.49, 5659587.45], [408739.42, 5659473.38], [408739.98, 5659465.29], [408741.14, 5659451.67], [408742.22, 5659437.7], [408751.06, 5659323.85], [408752.14, 5659309.96], [408756.44, 5659253.54], [408758.03, 5659245.5], [408760.54, 5659238.42], [408764.2, 5659232.51], [408765.41, 5659231.04], [408768.61, 5659227.17], [408772.97, 5659223.39], [408779.52, 5659219.48], [408786.86, 5659217.1], [408795.43, 5659215.97], [408810.13, 5659216.55], [408871.54, 5659223.48], [408885.03, 5659225.41], [408901.17, 5659227.79], [408919.07, 5659230.64], [408934.13, 5659234.19], [408977.83, 5659247.58], [409071.92, 5659276.4], [409084.51, 5659280.22], [409102.88, 5659285.92], [409147.94, 5659299.72], [409167.42, 5659305.77], [409177.51, 5659308.91], [409323.61, 5659353.77], [409333.94, 5659357.07], [409389.97, 5659373.56], [409400.34, 5659376.19], [409415.63, 5659379.18], [409426.95, 5659381.18], [409460.03, 5659385.35], [409514.71, 5659393.04], [409520.59, 5659393.87], [409535.01, 5659395.56], [409641.13, 5659410.55], [409746.21, 5659424.73], [409805.2, 5659432.7], [409862.03, 5659440.87], [409905.47, 5659447.11], [409923.28, 5659449.42], [409939.75, 5659451.58], [409945.23, 5659451.74], [409950.22, 5659451.1], [409955.89, 5659448.96], [409961.41, 5659444.46], [409965.17, 5659439.05], [409975.68, 5659412.7], [409987.72, 5659380.95], [409996.79, 5659355.57], [410000.0, 5659346.89]]}}, {"type": "Feature", "properties": {"k": "track", "bed": "street", "s": [48.7, 99.2, 107.5]}, "geometry": {"type": "LineString", "coordinates": [[410000.0, 5659356.45], [409978.61, 5659413.86], [409975.89, 5659420.75], [409966.94, 5659442.51], [409963.85, 5659446.97], [409960.14, 5659451.22], [409965.17, 5659439.05]]}}, {"type": "Feature", "properties": {"k": "track", "bed": "street", "s": [7.5, 47.7, 255.0, 285.0, 315.0, 345.0, 483.2, 555.0, 603.3, 645.0, 663.0, 675.0, 720.0, 735.0, 750.0, 765.0]}, "geometry": {"type": "LineString", "coordinates": [[409966.94, 5659442.51], [409963.92, 5659450.76], [409960.83, 5659459.22], [409959.06, 5659464.0], [409955.4, 5659474.13], [409951.57, 5659483.61], [409947.28, 5659492.76], [409946.15, 5659495.02], [409926.23, 5659534.87], [409922.71, 5659541.67], [409915.87, 5659554.83], [409908.25, 5659570.43], [409897.09, 5659590.28], [409890.5, 5659603.16], [409884.51, 5659616.06], [409881.71, 5659621.88], [409878.66, 5659626.07], [409874.84, 5659629.27], [409870.47, 5659639.84], [409858.7, 5659670.11], [409842.0, 5659711.49], [409830.9, 5659732.72], [409812.19, 5659761.74], [409806.35, 5659770.15], [409766.7, 5659829.24], [409758.59, 5659840.37], [409753.45, 5659846.81], [409749.77, 5659850.89], [409745.48, 5659855.53], [409736.52, 5659864.26], [409670.83, 5659922.38], [409656.4, 5659936.54], [409648.2, 5659944.72], [409646.06, 5659946.61], [409641.84, 5659950.42], [409634.04, 5659957.52], [409603.65, 5659984.2], [409599.2, 5659987.45], [409595.48, 5659990.01], [409591.29, 5659992.09], [409585.4, 5659994.07], [409578.48, 5659995.27], [409565.96, 5659995.91], [409556.11, 5659996.51], [409552.99, 5659996.65], [409515.65, 5659998.91], [409512.53, 5659999.1], [409501.63, 5660000.0]]}}, {"type": "Feature", "properties": {"k": "track", "bed": "street"}, "geometry": {"type": "LineString", "coordinates": [[409964.85, 5658651.37], [409962.34, 5658643.93], [409954.33, 5658615.84], [409948.33, 5658593.19], [409943.0, 5658567.59], [409940.44, 5658551.9], [409937.34, 5658530.25], [409934.82, 5658506.96], [409932.41, 5658481.65], [409929.23, 5658448.46], [409928.29, 5658438.75], [409923.47, 5658387.51], [409922.85, 5658382.31], [409919.94, 5658354.37], [409911.98, 5658269.89], [409911.27, 5658262.84]]}}, {"type": "Feature", "properties": {"k": "track", "bed": "street", "s": [55.4, 85.4, 115.7, 146.0, 285.0, 356.9, 405.0, 446.9, 465.0, 478.1]}, "geometry": {"type": "LineString", "coordinates": [[409881.71, 5659621.88], [409877.99, 5659630.23], [409873.46, 5659640.79], [409861.54, 5659671.13], [409844.93, 5659712.8], [409833.84, 5659733.98], [409815.02, 5659763.74], [409810.26, 5659770.98], [409769.31, 5659830.91], [409762.27, 5659840.8], [409755.38, 5659849.17], [409752.13, 5659852.75], [409747.31, 5659858.03], [409738.12, 5659866.81], [409709.83, 5659892.04], [409673.06, 5659924.82], [409658.52, 5659939.74], [409650.37, 5659948.05], [409648.59, 5659949.69], [409644.27, 5659953.83], [409636.36, 5659960.9], [409605.78, 5659987.82], [409601.09, 5659991.36], [409597.29, 5659994.15], [409594.02, 5659995.67], [409588.2, 5659997.91], [409583.57, 5659999.45], [409577.15, 5660000.0]]}}, {"type": "Feature", "properties": {"k": "track", "bed": "street"}, "geometry": {"type": "LineString", "coordinates": [[409972.36, 5658655.44], [409980.5, 5658664.18], [409987.59, 5658669.2], [409997.23, 5658673.48], [410000.0, 5658674.37]]}}, {"type": "Feature", "properties": {"k": "track", "bed": "street"}, "geometry": {"type": "LineString", "coordinates": [[410000.0, 5658735.34], [409997.67, 5658735.5], [409989.19, 5658733.95], [409981.15, 5658729.81], [409975.43, 5658724.39], [409972.5, 5658720.38], [409970.03, 5658714.36], [409968.52, 5658707.61], [409967.89, 5658700.06], [409965.3, 5658665.68], [409964.87, 5658661.46], [409963.64, 5658652.4], [409962.34, 5658643.93]]}}, {"type": "Feature", "properties": {"k": "track", "bed": "ballast"}, "geometry": {"type": "LineString", "coordinates": [[409972.36, 5658655.44], [409965.76, 5658643.08], [409970.64, 5658655.66], [409977.83, 5658666.19], [409985.04, 5658672.67], [409991.68, 5658676.72], [410000.0, 5658680.16]]}}, {"type": "Feature", "properties": {"k": "track", "bed": "ballast"}, "geometry": {"type": "LineString", "coordinates": [[410000.0, 5658729.22], [409995.3, 5658729.25], [409990.4, 5658727.92], [409984.46, 5658724.89], [409979.9, 5658720.82], [409977.32, 5658716.8], [409975.26, 5658711.83], [409974.41, 5658707.04], [409973.97, 5658699.56], [409972.13, 5658677.01], [409970.3, 5658667.7], [409968.13, 5658661.08], [409964.85, 5658651.37]]}}, {"type": "Feature", "properties": {"k": "track", "bed": "ballast"}, "geometry": {"type": "LineString", "coordinates": [[408050.27, 5659927.68], [408059.47, 5659928.59], [408067.68, 5659928.91], [408074.05, 5659928.04], [408079.43, 5659926.22], [408090.73, 5659920.01]]}}, {"type": "Feature", "properties": {"k": "track", "bed": "grass"}, "geometry": {"type": "LineString", "coordinates": [[408090.73, 5659920.01], [408122.26, 5659902.46], [408162.25, 5659879.47], [408184.25, 5659866.81]]}}, {"type": "Feature", "properties": {"k": "track", "bed": "grass"}, "geometry": {"type": "LineString", "coordinates": [[408185.62, 5659870.81], [408166.53, 5659881.72], [408122.93, 5659906.15], [408092.83, 5659923.33], [408064.97, 5659941.11], [408054.92, 5659947.58], [408051.71, 5659949.61], [408021.64, 5659968.62], [408016.57, 5659971.57], [408013.12, 5659973.12], [408008.89, 5659974.08], [408004.5, 5659974.3], [408000.1, 5659973.78], [408000.0, 5659973.77]]}}, {"type": "Feature", "properties": {"k": "track", "bed": "grass"}, "geometry": {"type": "LineString", "coordinates": [[409911.27, 5658262.84], [409911.21, 5658258.27], [409911.17, 5658255.27], [409912.22, 5658250.27], [409913.62, 5658246.43], [409914.55, 5658244.37], [409917.06, 5658240.0], [409921.14, 5658235.6], [409926.96, 5658231.98], [409933.43, 5658229.64], [409945.05, 5658227.02], [409972.17, 5658221.65], [410000.0, 5658216.52]]}}, {"type": "Feature", "properties": {"k": "rosette", "x": [0.23, 0.534]}, "geometry": {"type": "LineString", "coordinates": [[409955.0, 5659489.6], [409933.16, 5659478.44]]}}, {"type": "Feature", "properties": {"k": "rosette", "x": [0.388, 0.55]}, "geometry": {"type": "LineString", "coordinates": [[409821.05, 5659426.58], [409817.83, 5659447.75]]}}, {"type": "Feature", "properties": {"k": "rosette", "x": [0.479, 0.665]}, "geometry": {"type": "LineString", "coordinates": [[409791.22, 5659422.32], [409788.77, 5659439.71]]}}, {"type": "Feature", "properties": {"k": "rosette", "x": [0.388, 0.525]}, "geometry": {"type": "LineString", "coordinates": [[409761.54, 5659417.97], [409758.39, 5659440.32]]}}, {"type": "Feature", "properties": {"k": "rosette", "x": [0.451, 0.619]}, "geometry": {"type": "LineString", "coordinates": [[409731.68, 5659414.81], [409729.25, 5659432.14]]}}, {"type": "Feature", "properties": {"k": "rosette", "x": [0.439, 0.6]}, "geometry": {"type": "LineString", "coordinates": [[409701.89, 5659410.74], [409699.49, 5659428.66]]}}, {"type": "Feature", "properties": {"k": "rosette", "x": [0.308, 0.474]}, "geometry": {"type": "LineString", "coordinates": [[409493.85, 5659382.56], [409490.51, 5659406.63]]}}, {"type": "Feature", "properties": {"k": "rosette", "x": [0.438, 0.613]}, "geometry": {"type": "LineString", "coordinates": [[409377.81, 5659361.3], [409372.3, 5659379.49]]}}, {"type": "Feature", "properties": {"k": "rosette", "x": [0.384, 0.58]}, "geometry": {"type": "LineString", "coordinates": [[409413.75, 5659390.78], [409417.41, 5659370.85]]}}, {"type": "Feature", "properties": {"k": "rosette", "x": [0.373, 0.586]}, "geometry": {"type": "LineString", "coordinates": [[409444.14, 5659394.74], [409446.56, 5659375.6]]}}, {"type": "Feature", "properties": {"k": "rosette", "x": [0.366, 0.534]}, "geometry": {"type": "LineString", "coordinates": [[409622.5, 5659417.79], [409625.06, 5659399.68]]}}, {"type": "Feature", "properties": {"k": "rosette", "x": [0.377, 0.547]}, "geometry": {"type": "LineString", "coordinates": [[409652.3, 5659421.73], [409654.64, 5659404.38]]}}, {"type": "Feature", "properties": {"k": "rosette", "x": [0.396, 0.56]}, "geometry": {"type": "LineString", "coordinates": [[409681.97, 5659426.19], [409684.37, 5659408.42]]}}, {"type": "Feature", "properties": {"k": "rosette", "x": [0.403, 0.564]}, "geometry": {"type": "LineString", "coordinates": [[409711.68, 5659430.36], [409714.1, 5659412.43]]}}, {"type": "Feature", "properties": {"k": "rosette", "x": [0.397, 0.538]}, "geometry": {"type": "LineString", "coordinates": [[409991.1, 5659405.19], [409970.69, 5659397.46]]}}, {"type": "Feature", "properties": {"k": "rosette", "x": [0.371, 0.477, 0.536, 0.627]}, "geometry": {"type": "LineString", "coordinates": [[409953.49, 5659440.07], [409970.85, 5659455.19]]}}, {"type": "Feature", "properties": {"k": "rosette", "x": [0.371, 0.51]}, "geometry": {"type": "LineString", "coordinates": [[409850.4, 5659669.0], [409870.65, 5659677.18]]}}, {"type": "Feature", "properties": {"k": "rosette", "x": [0.4, 0.564]}, "geometry": {"type": "LineString", "coordinates": [[409839.58, 5659696.99], [409857.37, 5659704.17]]}}, {"type": "Feature", "properties": {"k": "rosette", "x": [0.351, 0.498]}, "geometry": {"type": "LineString", "coordinates": [[409827.16, 5659723.43], [409846.38, 5659733.48]]}}, {"type": "Feature", "properties": {"k": "rosette", "x": [0.371, 0.536]}, "geometry": {"type": "LineString", "coordinates": [[409811.76, 5659748.34], [409829.0, 5659759.46]]}}, {"type": "Feature", "properties": {"k": "rosette", "x": [0.451, 0.605]}, "geometry": {"type": "LineString", "coordinates": [[409676.86, 5659904.33], [409690.84, 5659920.14]]}}, {"type": "Feature", "properties": {"k": "rosette", "x": [0.475, 0.702]}, "geometry": {"type": "LineString", "coordinates": [[409611.37, 5659966.01], [409623.27, 5659979.57]]}}, {"type": "Feature", "properties": {"k": "rosette", "x": [0.445, 0.667]}, "geometry": {"type": "LineString", "coordinates": [[409589.56, 5659982.97], [409598.48, 5660000.97]]}}, {"type": "Feature", "properties": {"k": "rosette", "x": [0.431, 0.627]}, "geometry": {"type": "LineString", "coordinates": [[409533.74, 5659988.68], [409535.02, 5660009.79]]}}, {"type": "Feature", "properties": {"k": "rosette", "x": [0.509, 0.66]}, "geometry": {"type": "LineString", "coordinates": [[409730.05, 5659856.72], [409743.52, 5659870.82]]}}, {"type": "Feature", "properties": {"k": "rosette", "x": [0.511, 0.693]}, "geometry": {"type": "LineString", "coordinates": [[409640.36, 5659937.04], [409655.59, 5659952.14]]}}, {"type": "Feature", "properties": {"k": "rosette", "x": [0.509, 0.721]}, "geometry": {"type": "LineString", "coordinates": [[409597.05, 5659976.73], [409609.7, 5659991.62]]}}, {"type": "Feature", "properties": {"k": "rosette", "x": [0.434, 0.642]}, "geometry": {"type": "LineString", "coordinates": [[409548.88, 5659987.68], [409549.79, 5660008.85]]}}, {"type": "Feature", "properties": {"k": "stop", "a": 175, "name": "An der Flutrinne"}, "geometry": {"type": "Point", "coordinates": [408818.3, 5659222.12]}}, {"type": "Feature", "properties": {"k": "stop", "a": 29, "name": "Mickten"}, "geometry": {"type": "Point", "coordinates": [409876.64, 5659564.41]}}, {"type": "Feature", "properties": {"k": "stop", "a": 353, "name": "Kaditz, Riegelplatz"}, "geometry": {"type": "Point", "coordinates": [408051.17, 5659920.14]}}, {"type": "Feature", "properties": {"k": "stop", "a": 352, "name": "Trachauer Stra\u00dfe"}, "geometry": {"type": "Point", "coordinates": [409514.91, 5659391.7]}}, {"type": "Feature", "properties": {"k": "stop", "a": 265, "name": "S\u00f6rnewitzer Stra\u00dfe"}, "geometry": {"type": "Point", "coordinates": [408740.8, 5659513.34]}}, {"type": "Feature", "properties": {"k": "stop", "a": 221, "name": "Alttrachau"}, "geometry": {"type": "Point", "coordinates": [409607.13, 5659989.33]}}, {"type": "Feature", "properties": {"k": "stop", "a": 96, "name": "Messe, Gleisschleife"}, "geometry": {"type": "Point", "coordinates": [409963.89, 5658665.8]}}, {"type": "Feature", "properties": {"k": "stop", "a": 3, "name": "Alttrachau"}, "geometry": {"type": "Point", "coordinates": [409552.94, 5659995.64]}}, {"type": "Feature", "properties": {"k": "stop", "a": 63, "name": "Mickten"}, "geometry": {"type": "Point", "coordinates": [409940.23, 5659486.61]}}, {"type": "Feature", "properties": {"k": "stop", "a": 353, "name": "An der Flutrinne"}, "geometry": {"type": "Point", "coordinates": [408871.75, 5659221.78]}}, {"type": "Feature", "properties": {"k": "stop", "a": 86, "name": "S\u00f6rnewitzer Stra\u00dfe"}, "geometry": {"type": "Point", "coordinates": [408736.89, 5659473.18]}}, {"type": "Feature", "properties": {"k": "stop", "a": 97, "name": "Messe Dresden"}, "geometry": {"type": "Point", "coordinates": [409922.01, 5658387.65]}}, {"type": "Feature", "properties": {"k": "stop", "a": 276, "name": "Messe Dresden"}, "geometry": {"type": "Point", "coordinates": [409932.45, 5658432.7]}}, {"type": "Feature", "properties": {"k": "stop", "a": 172, "name": "Trachauer Stra\u00dfe"}, "geometry": {"type": "Point", "coordinates": [409470.39, 5659393.04]}}, {"type": "Feature", "properties": {"k": "stop", "a": 172, "name": "Mickten"}, "geometry": {"type": "Point", "coordinates": [409878.69, 5659449.09]}}, {"type": "Feature", "properties": {"k": "stop", "a": 173, "name": "An der Flutrinne"}, "geometry": {"type": "Point", "coordinates": [408842.3, 5659224.71]}}, {"type": "Feature", "properties": {"k": "stop", "a": 354, "name": "An der Flutrinne"}, "geometry": {"type": "Point", "coordinates": [408855.27, 5659219.76]}}, {"type": "Feature", "properties": {"k": "stop", "a": 343, "name": "Brockwitzer Stra\u00dfe"}, "geometry": {"type": "Point", "coordinates": [409168.31, 5659302.85]}}, {"type": "Feature", "properties": {"k": "stop", "a": 163, "name": "Brockwitzer Stra\u00dfe"}, "geometry": {"type": "Point", "coordinates": [409111.01, 5659295.3]}}]}