{"type": "FeatureCollection", "attribution": "\u00a9 OpenStreetMap contributors (ODbL)", "crs": {"type": "name", "properties": {"name": "urn:ogc:def:crs:EPSG::25833"}}, "features": [{"type": "Feature", "properties": {"k": "track", "bed": "street", "g": 1.45, "s": [1665.0, 1695.0, 1755.0, 1785.0, 2085.0, 2115.0, 2145.0, 2175.0, 2205.0, 2265.0, 2295.0, 2355.0, 2385.0]}, "geometry": {"type": "LineString", "coordinates": [[413254.27, 5659886.47], [413240.31, 5659856.0], [413161.5, 5659685.04], [413152.5, 5659666.11], [413128.93, 5659614.38], [413066.46, 5659479.08], [413056.94, 5659458.37], [413045.29, 5659433.4], [413025.28, 5659389.92], [413016.52, 5659369.6], [413014.16, 5659362.92], [413011.86, 5659355.16], [413006.25, 5659334.36], [413004.65, 5659329.13], [413003.73, 5659326.13], [413001.23, 5659318.76], [412994.62, 5659302.83], [412986.2, 5659288.37], [412984.56, 5659285.95], [412972.09, 5659270.51], [412967.65, 5659265.4], [412964.31, 5659261.57], [412954.37, 5659249.76], [412928.52, 5659219.04], [412914.35, 5659202.19], [412895.9, 5659180.25], [412885.97, 5659168.46], [412882.88, 5659164.86], [412867.81, 5659146.46], [412837.64, 5659107.5], [412836.2, 5659105.53], [412834.07, 5659102.6], [412827.53, 5659093.8], [412821.68, 5659085.78], [412821.1, 5659084.99], [412820.85, 5659084.63], [412818.54, 5659081.47], [412813.28, 5659073.88], [412809.18, 5659067.99], [412803.78, 5659059.38], [412793.4, 5659042.85], [412767.09, 5659001.01], [412736.41, 5658949.69], [412717.17, 5658917.52], [412714.76, 5658913.49], [412677.73, 5658851.41], [412644.4, 5658795.32], [412634.58, 5658778.79], [412606.78, 5658732.38], [412580.5, 5658687.88], [412553.03, 5658641.63], [412550.32, 5658637.06], [412537.45, 5658615.63], [412524.61, 5658594.26], [412512.68, 5658574.39], [412501.54, 5658555.86], [412485.01, 5658528.7], [412484.35, 5658527.1], [412482.22, 5658523.5], [412479.19, 5658520.5], [412475.79, 5658518.08], [412472.69, 5658516.21], [412469.23, 5658514.75], [412466.07, 5658514.36], [412462.41, 5658514.37], [412457.49, 5658514.39], [412448.42, 5658515.36], [412458.67, 5658512.35], [412461.13, 5658511.66], [412463.59, 5658510.71], [412472.62, 5658507.19], [412473.74, 5658506.76], [412475.21, 5658506.19], [412479.08, 5658504.71], [412482.93, 5658503.23], [412487.52, 5658501.14], [412492.0, 5658499.11], [412494.34, 5658497.94], [412508.27, 5658491.02], [412537.92, 5658475.49], [412583.39, 5658451.97], [412587.7, 5658449.74], [412593.36, 5658446.89], [412631.3, 5658427.84], [412701.27, 5658392.85], [412754.36, 5658366.75], [412763.64, 5658362.13], [412768.89, 5658359.6], [412781.88, 5658353.22], [412806.3, 5658341.09], [412833.21, 5658327.71], [412837.92, 5658324.76], [412839.18, 5658323.92], [412842.35, 5658319.91], [412843.93, 5658313.84], [412843.42, 5658308.7], [412842.56, 5658305.77], [412840.43, 5658301.59], [412835.65, 5658291.0], [412835.25, 5658290.1], [412809.32, 5658232.67], [412805.22, 5658223.61], [412772.45, 5658151.05], [412750.26, 5658102.1], [412745.75, 5658091.96], [412738.29, 5658075.44], [412727.01, 5658050.12], [412722.61, 5658040.25], [412704.66, 5658000.0]]}}, {"type": "Feature", "properties": {"k": "track", "bed": "street", "g": 1.45, "s": [11.8, 41.8, 63.1, 393.8, 453.8, 522.5, 552.4, 612.4, 642.5]}, "geometry": {"type": "LineString", "coordinates": [[412000.0, 5658648.33], [412009.98, 5658643.6], [412060.56, 5658620.48], [412072.48, 5658615.02], [412081.53, 5658611.64], [412088.07, 5658609.23], [412146.45, 5658594.33], [412157.93, 5658591.4], [412190.72, 5658582.88], [412200.59, 5658580.22], [412218.99, 5658575.45], [412222.77, 5658574.46], [412232.78, 5658571.53], [412289.1, 5658555.56], [412289.6, 5658555.42], [412317.96, 5658547.38], [412326.28, 5658545.02], [412369.06, 5658533.49], [412397.89, 5658525.95], [412424.52, 5658518.53], [412434.88, 5658515.75], [412436.68, 5658515.26], [412439.33, 5658514.44], [412440.43, 5658514.09], [412446.82, 5658512.3], [412447.53, 5658512.1], [412453.23, 5658510.51], [412459.58, 5658508.42], [412471.1, 5658504.62], [412472.22, 5658504.21], [412473.63, 5658503.68], [412477.58, 5658502.19], [412481.54, 5658500.7], [412486.28, 5658498.59], [412490.69, 5658496.63], [412493.09, 5658495.44], [412520.98, 5658480.98], [412582.1, 5658449.42], [412586.38, 5658447.2], [412592.16, 5658444.28], [412657.28, 5658411.65], [412703.82, 5658388.23], [412752.67, 5658363.83], [412761.9, 5658359.3], [412767.21, 5658356.6], [412804.85, 5658338.04], [412818.56, 5658331.28], [412827.8, 5658326.64], [412831.56, 5658324.79], [412833.47, 5658323.65], [412836.57, 5658321.48], [412837.78, 5658320.53], [412839.32, 5658318.47], [412840.53, 5658315.39], [412841.38, 5658310.51], [412841.19, 5658306.46], [412840.43, 5658301.59]]}}, {"type": "Feature", "properties": {"k": "track", "bed": "street", "g": 1.45, "s": [15.0, 75.0, 405.0, 426.4, 456.4]}, "geometry": {"type": "LineString", "coordinates": [[412448.42, 5658515.36], [412439.8, 5658517.64], [412392.91, 5658530.09], [412358.28, 5658539.26], [412346.5, 5658542.39], [412327.75, 5658547.35], [412319.6, 5658549.67], [412294.09, 5658556.91], [412289.93, 5658558.1], [412277.75, 5658561.56], [412234.03, 5658573.99], [412223.42, 5658576.81], [412193.44, 5658584.79], [412190.72, 5658585.5], [412183.95, 5658587.35], [412157.97, 5658594.19], [412147.1, 5658597.05], [412140.27, 5658598.85], [412095.32, 5658611.06], [412087.67, 5658613.49], [412082.04, 5658615.51], [412072.88, 5658618.8], [412062.02, 5658623.83], [412011.59, 5658647.24], [412000.0, 5658652.62]]}}, {"type": "Feature", "properties": {"k": "track", "bed": "street", "g": 1.45}, "geometry": {"type": "LineString", "coordinates": [[412447.53, 5658512.1], [412454.13, 5658511.05], [412460.52, 5658510.37], [412463.59, 5658510.71], [412465.5, 5658510.81], [412470.21, 5658511.43], [412473.66, 5658512.64], [412476.89, 5658514.45], [412477.89, 5658515.01], [412479.85, 5658516.65], [412481.99, 5658518.45], [412484.82, 5658521.97], [412487.17, 5658525.95], [412524.95, 5658590.06], [412552.46, 5658635.63], [412565.46, 5658657.81], [412582.47, 5658686.8], [412609.18, 5658730.97], [412636.74, 5658777.67], [412646.61, 5658794.04], [412665.69, 5658826.11], [412669.68, 5658832.87], [412690.54, 5658868.15], [412716.91, 5658912.28], [412719.35, 5658916.37], [412738.57, 5658948.48], [412769.32, 5658999.88], [412806.32, 5659058.11], [412811.68, 5659066.54], [412819.26, 5659078.24], [412822.87, 5659083.44], [412824.92, 5659086.32], [412836.18, 5659101.05], [412838.4, 5659103.94], [412869.44, 5659144.04], [412884.58, 5659162.65], [412956.52, 5659247.97], [412966.28, 5659259.54], [412974.25, 5659268.79], [412987.11, 5659285.01], [412988.42, 5659286.86], [412997.1, 5659301.9], [413004.15, 5659317.07], [413006.82, 5659325.47], [413008.38, 5659331.18], [413009.03, 5659333.57], [413010.65, 5659339.99], [413012.56, 5659347.54], [413017.13, 5659362.01], [413021.74, 5659372.48], [413029.08, 5659388.63], [413048.86, 5659431.81], [413060.67, 5659456.36], [413070.1, 5659477.48], [413152.52, 5659657.11], [413156.11, 5659664.58], [413164.86, 5659683.11], [413215.56, 5659793.06], [413310.64, 5660000.0]]}}, {"type": "Feature", "properties": {"k": "track", "bed": "street", "g": 1.45}, "geometry": {"type": "LineString", "coordinates": [[412482.22, 5658523.5], [412476.89, 5658514.45], [412472.62, 5658507.19], [412471.83, 5658505.89], [412471.1, 5658504.62], [412469.17, 5658501.31], [412465.68, 5658495.61], [412463.08, 5658491.38], [412460.6, 5658487.33], [412456.72, 5658480.26], [412454.74, 5658476.95], [412442.72, 5658456.87], [412411.24, 5658401.62], [412386.51, 5658359.53], [412363.39, 5658321.74], [412312.43, 5658237.51], [412293.98, 5658204.07], [412291.21, 5658199.04], [412272.7, 5658165.51], [412259.07, 5658141.21], [412254.51, 5658133.11], [412251.06, 5658124.77], [412240.44, 5658099.13], [412227.35, 5658066.25], [412222.17, 5658050.55], [412216.65, 5658030.46], [412211.19, 5658006.76], [412210.04, 5658000.75], [412209.9, 5658000.0]]}}, {"type": "Feature", "properties": {"k": "track", "bed": "street", "g": 1.45}, "geometry": {"type": "LineString", "coordinates": [[412212.33, 5658000.0], [412213.59, 5658006.43], [412219.41, 5658030.45], [412224.54, 5658049.92], [412225.85, 5658053.78], [412228.63, 5658061.97], [412236.35, 5658082.12], [412247.06, 5658107.2], [412253.72, 5658123.44], [412257.22, 5658131.95], [412261.7, 5658139.99], [412275.21, 5658164.25], [412289.16, 5658189.76], [412293.63, 5658197.92], [412314.74, 5658236.48], [412342.86, 5658282.26], [412364.47, 5658317.44], [412388.97, 5658358.21], [412417.07, 5658406.49], [412431.43, 5658431.17], [412433.41, 5658434.57], [412452.13, 5658466.74], [412457.26, 5658476.01], [412463.46, 5658486.43], [412465.53, 5658489.91], [412471.54, 5658500.12], [412473.63, 5658503.68], [412474.39, 5658504.92], [412475.21, 5658506.19], [412476.79, 5658508.79], [412484.82, 5658521.97]]}}, {"type": "Feature", "properties": {"k": "track", "bed": "street", "g": 1.45}, "geometry": {"type": "LineString", "coordinates": [[413306.31, 5660000.0], [413291.84, 5659968.43]]}}, {"type": "Feature", "properties": {"k": "track", "bed": "ballast", "g": 1.45}, "geometry": {"type": "LineString", "coordinates": [[413291.84, 5659968.43], [413254.27, 5659886.47]]}}, {"type": "Feature", "properties": {"k": "rosette", "x": [0.33, 0.493]}, "geometry": {"type": "LineString", "coordinates": [[412501.54, 5658500.91], [412493.64, 5658485.02]]}}, {"type": "Feature", "properties": {"k": "rosette", "x": [0.336, 0.505]}, "geometry": {"type": "LineString", "coordinates": [[412528.35, 5658487.17], [412520.19, 5658471.59]]}}, {"type": "Feature", "properties": {"k": "rosette", "x": [0.359, 0.527]}, "geometry": {"type": "LineString", "coordinates": [[412581.68, 5658459.74], [412573.84, 5658444.59]]}}, {"type": "Feature", "properties": {"k": "rosette", "x": [0.348, 0.518]}, "geometry": {"type": "LineString", "coordinates": [[412608.24, 5658445.95], [412600.7, 5658430.95]]}}, {"type": "Feature", "properties": {"k": "rosette", "x": [0.525]}, "geometry": {"type": "LineString", "coordinates": [[412841.22, 5658285.3], [412828.34, 5658291.12]]}}, {"type": "Feature", "properties": {"k": "rosette", "x": [0.506]}, "geometry": {"type": "LineString", "coordinates": [[412828.7, 5658258.04], [412815.68, 5658263.92]]}}, {"type": "Feature", "properties": {"k": "rosette", "x": [0.473]}, "geometry": {"type": "LineString", "coordinates": [[412816.06, 5658230.83], [412802.76, 5658236.83]]}}, {"type": "Feature", "properties": {"k": "rosette", "x": [0.499]}, "geometry": {"type": "LineString", "coordinates": [[412803.61, 5658203.53], [412791.19, 5658209.14]]}}, {"type": "Feature", "properties": {"k": "rosette", "x": [0.503]}, "geometry": {"type": "LineString", "coordinates": [[412791.36, 5658176.15], [412778.85, 5658181.8]]}}, {"type": "Feature", "properties": {"k": "rosette", "x": [0.498]}, "geometry": {"type": "LineString", "coordinates": [[412766.64, 5658121.47], [412753.98, 5658127.21]]}}, {"type": "Feature", "properties": {"k": "rosette", "x": [0.481]}, "geometry": {"type": "LineString", "coordinates": [[412754.22, 5658094.21], [412741.26, 5658099.98]]}}, {"type": "Feature", "properties": {"k": "rosette", "x": [0.444]}, "geometry": {"type": "LineString", "coordinates": [[412729.31, 5658039.62], [412716.18, 5658045.47]]}}, {"type": "Feature", "properties": {"k": "rosette", "x": [0.394]}, "geometry": {"type": "LineString", "coordinates": [[412716.23, 5658012.6], [412703.63, 5658018.22]]}}, {"type": "Feature", "properties": {"k": "rosette", "x": [0.386, 0.555]}, "geometry": {"type": "LineString", "coordinates": [[412016.1, 5658655.13], [412006.3, 5658633.79]]}}, {"type": "Feature", "properties": {"k": "rosette", "x": [0.383, 0.544]}, "geometry": {"type": "LineString", "coordinates": [[412043.29, 5658642.51], [412033.47, 5658621.0]]}}, {"type": "Feature", "properties": {"k": "rosette", "x": [0.424, 0.543]}, "geometry": {"type": "LineString", "coordinates": [[412430.3, 5658505.53], [412436.98, 5658530.71]]}}, {"type": "Feature", "properties": {"k": "rosette", "x": [0.37, 0.484]}, "geometry": {"type": "LineString", "coordinates": [[412372.89, 5658523.11], [412379.16, 5658546.79]]}}, {"type": "Feature", "properties": {"k": "rosette", "x": [0.461, 0.614]}, "geometry": {"type": "LineString", "coordinates": [[412052.7, 5658611.91], [412062.81, 5658633.7]]}}, {"type": "Feature", "properties": {"k": "stop", "a": 27, "name": "Alaunplatz"}, "geometry": {"type": "Point", "coordinates": [412817.69, 5658329.52]}}, {"type": "Feature", "properties": {"k": "stop", "a": 15, "name": "S-Bahnhof Bischofsplatz"}, "geometry": {"type": "Point", "coordinates": [412187.58, 5658582.73]}}, {"type": "Feature", "properties": {"k": "stop", "a": 309, "name": "Stauffenbergallee (Milit\u00e4rhistorisches Museum)"}, "geometry": {"type": "Point", "coordinates": [412870.39, 5659143.31]}}, {"type": "Feature", "properties": {"k": "stop", "a": 16, "name": "Bischofsweg"}, "geometry": {"type": "Point", "coordinates": [412451.22, 5658504.05]}}, {"type": "Feature", "properties": {"k": "stop", "a": 208, "name": "Bischofsweg"}, "geometry": {"type": "Point", "coordinates": [412509.29, 5658492.98]}}, {"type": "Feature", "properties": {"k": "stop", "a": 296, "name": "Heeresb\u00e4ckerei (Stadtarchiv)"}, "geometry": {"type": "Point", "coordinates": [413154.18, 5659656.34]}}, {"type": "Feature", "properties": {"k": "stop", "a": 114, "name": "Heeresb\u00e4ckerei (Stadtarchiv)"}, "geometry": {"type": "Point", "coordinates": [413127.48, 5659615.05]}}, {"type": "Feature", "properties": {"k": "stop", "a": 128, "name": "Stauffenbergallee (Milit\u00e4rhistorisches Museum)"}, "geometry": {"type": "Point", "coordinates": [412836.58, 5659108.31]}}, {"type": "Feature", "properties": {"k": "stop", "a": 121, "name": "Tannenstra\u00dfe (Goethe-Institut)"}, "geometry": {"type": "Point", "coordinates": [412607.59, 5658742.27]}}, {"type": "Feature", "properties": {"k": "stop", "a": 301, "name": "Bischofsweg"}, "geometry": {"type": "Point", "coordinates": [412466.06, 5658483.23]}}, {"type": "Feature", "properties": {"k": "stop", "a": 301, "name": "Tannenstra\u00dfe (Goethe-Institut)"}, "geometry": {"type": "Point", "coordinates": [412664.53, 5658815.33]}}]}