{"type": "FeatureCollection", "attribution": "\u00a9 OpenStreetMap contributors (ODbL)", "crs": {"type": "name", "properties": {"name": "urn:ogc:def:crs:EPSG::25833"}}, "features": [{"type": "Feature", "properties": {"k": "track", "bed": "street"}, "geometry": {"type": "LineString", "coordinates": [[414436.76, 5658000.0], [414435.28, 5658001.09], [414432.56, 5658003.08], [414422.26, 5658010.08], [414418.04, 5658012.38], [414409.88, 5658016.59], [414399.19, 5658021.15], [414392.71, 5658023.61], [414386.27, 5658025.73], [414378.1, 5658027.96], [414369.8, 5658029.47], [414358.0, 5658031.04], [414329.83, 5658033.75], [414301.33, 5658036.14], [414294.93, 5658036.59], [414288.41, 5658036.85], [414283.34, 5658036.67], [414279.83, 5658036.62], [414275.89, 5658036.05], [414274.11, 5658035.79], [414269.9, 5658035.15], [414266.2, 5658034.21], [414259.86, 5658032.6], [414224.95, 5658022.94], [414181.16, 5658011.05], [414140.83, 5658000.0]]}}, {"type": "Feature", "properties": {"k": "track", "bed": "street"}, "geometry": {"type": "LineString", "coordinates": [[414153.17, 5658000.0], [414177.96, 5658006.85], [414180.61, 5658007.59], [414260.28, 5658029.27], [414266.71, 5658030.84], [414270.63, 5658031.8], [414274.7, 5658032.44], [414276.36, 5658032.64], [414281.24, 5658032.99], [414288.1, 5658033.23], [414295.34, 5658032.9], [414301.62, 5658032.47], [414356.47, 5658027.89], [414369.31, 5658026.08], [414377.13, 5658024.51], [414385.27, 5658022.2], [414397.87, 5658018.03], [414408.35, 5658013.48], [414433.4, 5658000.0]]}}, {"type": "Feature", "properties": {"k": "track", "bed": "street"}, "geometry": {"type": "LineString", "coordinates": [[414440.69, 5658000.0], [414422.26, 5658010.08]]}}]}