{"type":"FeatureCollection","attribution":"Stadtbaumkataster \u00a9 Landeshauptstadt Dresden (dl-de/by-2-0)","archetypes":["round","oval","columnar","conifer","weeping","small"],"genera":["","Acer","Acer rubrum","Tilia","Quercus","Quercus rubra","Fraxinus","Aesculus","Prunus","Platanus","Robinia","Carpinus","Crataegus","Gleditsia","Sophora","Ulmus","Betula","Malus","Liquidambar","Populus","Ailanthus","Salix","Alnus","Koelreuteria","Sorbus","Liriodendron","Catalpa","Corylus","Pyrus","Ginkgo","Ostrya","Fagus","Castanea","Juglans","Celtis","Larix","Metasequoia","Taxodium"],"crs":{"type":"name","properties":{"name":"urn:ogc:def:crs:EPSG::25833"}},"features":[]}