{"type": "FeatureCollection", "crs": {"type": "name", "properties": {"name": "urn:ogc:def:crs:EPSG::25833"}}, "features": [{"type": "Feature", "properties": {"kind": "treerow"}, "geometry": {"type": "LineString", "coordinates": [[408890.8, 5659314.55], [408770.13, 5659305.44]]}}, {"type": "Feature", "properties": {"kind": "treerow"}, "geometry": {"type": "LineString", "coordinates": [[408705.29, 5659591.77], [408548.48, 5659667.35]]}}, {"type": "Feature", "properties": {"kind": "treerow"}, "geometry": {"type": "LineString", "coordinates": [[410004.95, 5658867.66], [409940.59, 5658968.39]]}}, {"type": "Feature", "properties": {"kind": "treerow"}, "geometry": {"type": "LineString", "coordinates": [[408755.18, 5659584.37], [408883.88, 5659521.3]]}}, {"type": "Feature", "properties": {"kind": "treerow"}, "geometry": {"type": "LineString", "coordinates": [[408537.07, 5659672.85], [408521.69, 5659680.27]]}}, {"type": "Feature", "properties": {"kind": "treerow"}, "geometry": {"type": "LineString", "coordinates": [[408746.57, 5659557.86], [408754.81, 5659459.9], [408877.12, 5659468.91]]}}, {"type": "Feature", "properties": {"kind": "treerow"}, "geometry": {"type": "LineString", "coordinates": [[409063.53, 5659417.97], [408899.3, 5659498.72]]}}, {"type": "Feature", "properties": {"kind": "treerow"}, "geometry": {"type": "LineString", "coordinates": [[408899.2, 5659513.8], [409063.67, 5659433.2]]}}, {"type": "Feature", "properties": {"kind": "treerow"}, "geometry": {"type": "LineString", "coordinates": [[408553.41, 5659681.53], [408666.93, 5659627.31], [408710.12, 5659606.3]]}}, {"type": "Feature", "properties": {"kind": "treerow"}, "geometry": {"type": "LineString", "coordinates": [[408885.19, 5659504.86], [408760.99, 5659564.93]]}}, {"type": "Feature", "properties": {"kind": "treerow"}, "geometry": {"type": "LineString", "coordinates": [[409079.98, 5659425.2], [409207.62, 5659362.65]]}}, {"type": "Feature", "properties": {"kind": "treerow"}, "geometry": {"type": "LineString", "coordinates": [[408187.26, 5658442.01], [408180.07, 5658386.65]]}}, {"type": "Feature", "properties": {"kind": "treerow"}, "geometry": {"type": "LineString", "coordinates": [[408854.88, 5659456.83], [408890.54, 5659457.02], [408901.27, 5659333.76], [408895.71, 5659326.29], [408776.67, 5659316.7], [408767.08, 5659317.66], [408757.88, 5659421.18]]}}, {"type": "Feature", "properties": {"kind": "treerow"}, "geometry": {"type": "LineString", "coordinates": [[408940.06, 5659252.1], [408989.23, 5659266.47], [409055.75, 5659286.41]]}}, {"type": "Feature", "properties": {"kind": "treerow"}, "geometry": {"type": "LineString", "coordinates": [[408878.72, 5659212.03], [408866.35, 5659210.98], [408838.84, 5659207.72], [408816.8, 5659205.71], [408802.9, 5659204.75]]}}, {"type": "Feature", "properties": {"kind": "treerow"}, "geometry": {"type": "LineString", "coordinates": [[408202.6, 5658381.62], [408212.9, 5658489.45], [408219.61, 5658553.67]]}}, {"type": "Feature", "properties": {"kind": "treerow"}, "geometry": {"type": "LineString", "coordinates": [[408236.87, 5658739.86], [408240.94, 5658760.94], [408244.53, 5658784.43], [408247.41, 5658809.59], [408247.89, 5658815.82]]}}, {"type": "Feature", "properties": {"kind": "treerow"}, "geometry": {"type": "LineString", "coordinates": [[408219.37, 5658801.2], [408219.13, 5658792.33], [408220.09, 5658784.19], [408214.34, 5658730.03], [408213.62, 5658719.49]]}}, {"type": "Feature", "properties": {"kind": "treerow"}, "geometry": {"type": "LineString", "coordinates": [[408232.07, 5659066.46], [408228.72, 5659055.92], [408226.8, 5659043.22], [408225.12, 5659022.61], [408224.17, 5658997.93]]}}, {"type": "Feature", "properties": {"kind": "treerow"}, "geometry": {"type": "LineString", "coordinates": [[408462.73, 5659261.39], [408490.81, 5659250.56], [408503.66, 5659246.06], [408522.54, 5659240.59], [408541.52, 5659234.56], [408572.48, 5659227.37], [408599.8, 5659221.81], [408621.27, 5659218.07], [408661.23, 5659212.61], [408687.4, 5659209.73], [408699.76, 5659209.06], [408738.87, 5659208.39], [408750.95, 5659207.91]]}}, {"type": "Feature", "properties": {"kind": "treerow"}, "geometry": {"type": "LineString", "coordinates": [[408992.41, 5659240.81], [408973.12, 5659233.83], [408960.12, 5659228.24], [408947.13, 5659222.09], [408936.65, 5659214.96], [408925.6, 5659206.58], [408915.82, 5659197.07], [408902.55, 5659180.86]]}}, {"type": "Feature", "properties": {"kind": "treerow"}, "geometry": {"type": "LineString", "coordinates": [[408226.56, 5658572.36], [408234.47, 5658657.43], [408238.54, 5658708.71]]}}, {"type": "Feature", "properties": {"kind": "treerow"}, "geometry": {"type": "LineString", "coordinates": [[408250.28, 5658894.65], [408247.68, 5658914.07], [408247.68, 5658946.42], [408249.11, 5659056.88]]}}, {"type": "Feature", "properties": {"kind": "treerow"}, "geometry": {"type": "LineString", "coordinates": [[408745.2, 5659227.65], [408707.05, 5659228.71], [408675.52, 5659231.2], [408633.05, 5659236.66]]}}, {"type": "Feature", "properties": {"kind": "treerow"}, "geometry": {"type": "LineString", "coordinates": [[408313.4, 5659337.4], [408369.85, 5659305.1], [408448.45, 5659268.39]]}}, {"type": "Feature", "properties": {"kind": "treerow"}, "geometry": {"type": "LineString", "coordinates": [[409242.14, 5659343.39], [409287.0, 5659357.37]]}}, {"type": "Feature", "properties": {"kind": "treerow"}, "geometry": {"type": "LineString", "coordinates": [[408204.99, 5658625.08], [408188.22, 5658453.99]]}}, {"type": "Feature", "properties": {"kind": "treerow"}, "geometry": {"type": "LineString", "coordinates": [[409225.65, 5659312.65], [409214.47, 5659308.17], [409147.81, 5659288.47], [409123.21, 5659280.5], [409097.64, 5659272.68]]}}, {"type": "Feature", "properties": {"kind": "treerow"}, "geometry": {"type": "LineString", "coordinates": [[408211.94, 5658713.5], [408210.27, 5658704.87], [408207.15, 5658684.5], [408203.8, 5658660.78]]}}, {"type": "Feature", "properties": {"kind": "treerow"}, "geometry": {"type": "LineString", "coordinates": [[408224.4, 5658977.08], [408222.25, 5658867.82]]}}, {"type": "Feature", "properties": {"kind": "treerow"}, "geometry": {"type": "LineString", "coordinates": [[410119.74, 5658539.46], [410027.3, 5658548.66], [409968.41, 5658554.54], [409976.26, 5658559.73], [410012.06, 5658556.86], [410084.38, 5658549.96], [410121.33, 5658545.36], [410142.03, 5658546.36], [410149.22, 5658549.96], [410160.38, 5658536.02], [410187.22, 5658498.15]]}}, {"type": "Feature", "properties": {"kind": "treerow"}, "geometry": {"type": "LineString", "coordinates": [[408576.6, 5659246.92], [408536.63, 5659257.56], [408473.08, 5659277.59]]}}, {"type": "Feature", "properties": {"kind": "treerow"}, "geometry": {"type": "LineString", "coordinates": [[409795.63, 5658447.66], [409674.8, 5658458.6]]}}, {"type": "Feature", "properties": {"kind": "treerow"}, "geometry": {"type": "LineString", "coordinates": [[408799.64, 5659205.61], [408788.23, 5659204.46], [408767.34, 5659205.7], [408757.95, 5659206.57]]}}, {"type": "Feature", "properties": {"kind": "treerow"}, "geometry": {"type": "LineString", "coordinates": [[409917.78, 5658436.6], [409807.87, 5658446.55]]}}, {"type": "Feature", "properties": {"kind": "treerow"}, "geometry": {"type": "LineString", "coordinates": [[410031.05, 5658218.88], [409932.91, 5658237.09]]}}, {"type": "Feature", "properties": {"kind": "treerow"}, "geometry": {"type": "LineString", "coordinates": [[409069.97, 5659263.87], [409013.51, 5659247.24]]}}, {"type": "Feature", "properties": {"kind": "treerow"}, "geometry": {"type": "LineString", "coordinates": [[408905.49, 5659452.04], [408912.01, 5659345.65], [408914.5, 5659331.27], [408929.26, 5659328.39], [409069.58, 5659341.05], [409072.08, 5659350.44], [409069.2, 5659397.21]]}}, {"type": "Feature", "properties": {"kind": "treerow"}, "geometry": {"type": "LineString", "coordinates": [[408766.94, 5660343.47], [408817.93, 5660045.67], [408853.84, 5659857.22], [408859.02, 5659796.18]]}}, {"type": "Feature", "properties": {"kind": "hedge"}, "geometry": {"type": "LineString", "coordinates": [[408348.59, 5659462.33], [408368.54, 5659489.11], [408382.2, 5659512.47], [408408.42, 5659560.9], [408427.22, 5659609.9], [408431.21, 5659637.25], [408435.19, 5659670.29], [408413.54, 5659711.89]]}}, {"type": "Feature", "properties": {"kind": "hedge"}, "geometry": {"type": "LineString", "coordinates": [[408524.16, 5659668.11], [408494.03, 5659684.86], [408489.5, 5659681.73], [408484.91, 5659625.1], [408473.25, 5659587.0], [408436.76, 5659496.29], [408416.15, 5659464.13], [408380.82, 5659418.88], [408363.25, 5659401.97], [408340.48, 5659386.85], [408332.3, 5659376.45], [408332.68, 5659367.49], [408336.76, 5659355.88], [408347.9, 5659347.95], [408355.21, 5659347.58], [408365.2, 5659352.52], [408381.34, 5659364.8], [408450.08, 5659499.17], [408529.74, 5659664.89]]}}, {"type": "Feature", "properties": {"kind": "treerow"}, "geometry": {"type": "LineString", "coordinates": [[409079.19, 5659394.96], [409085.62, 5659310.27], [409095.96, 5659298.95], [409102.39, 5659301.05], [409204.96, 5659332.63]]}}, {"type": "Feature", "properties": {"kind": "treerow"}, "geometry": {"type": "LineString", "coordinates": [[408391.05, 5659449.74], [408404.19, 5659467.64], [408419.89, 5659493.92], [408438.51, 5659531.16], [408451.28, 5659562.19], [408464.81, 5659597.97], [408472.1, 5659622.79], [408477.21, 5659645.44], [408477.95, 5659675.1]]}}, {"type": "Feature", "properties": {"kind": "treerow"}, "geometry": {"type": "LineString", "coordinates": [[409238.02, 5658362.12], [409253.16, 5658439.95], [409266.09, 5658484.08], [409283.89, 5658538.18], [409303.12, 5658581.4], [409305.68, 5658586.98], [409320.84, 5658615.83], [409328.15, 5658630.33]]}}, {"type": "Feature", "properties": {"kind": "treerow"}, "geometry": {"type": "LineString", "coordinates": [[409118.64, 5658187.1], [409333.74, 5658066.47], [409397.48, 5658034.59], [409498.15, 5657976.56]]}}, {"type": "Feature", "properties": {"kind": "treerow"}, "geometry": {"type": "LineString", "coordinates": [[409388.0, 5658290.6], [409464.49, 5658286.71], [409686.81, 5658269.85], [409907.6, 5658241.12]]}}, {"type": "Feature", "properties": {"kind": "treerow"}, "geometry": {"type": "LineString", "coordinates": [[408368.05, 5659462.52], [408388.86, 5659490.26], [408406.02, 5659518.74], [408420.26, 5659548.32], [408433.4, 5659581.9], [408443.62, 5659617.32], [408448.74, 5659673.54], [408448.64, 5659693.04]]}}, {"type": "Feature", "properties": {"kind": "treerow"}, "geometry": {"type": "LineString", "coordinates": [[408591.64, 5659578.0], [408603.02, 5659448.13], [408721.91, 5659455.77], [408729.32, 5659469.68], [408721.46, 5659562.65], [408720.88, 5659576.07]]}}, {"type": "Feature", "properties": {"kind": "treerow"}, "geometry": {"type": "LineString", "coordinates": [[409143.97, 5658188.66], [409355.3, 5658071.17], [409420.92, 5658037.42], [409502.2, 5657987.21]]}}, {"type": "Feature", "properties": {"kind": "treerow"}, "geometry": {"type": "LineString", "coordinates": [[408621.78, 5659437.66], [408730.47, 5659446.1], [408739.81, 5659314.74], [408611.61, 5659305.77], [408603.76, 5659417.92]]}}, {"type": "Feature", "properties": {"kind": "treerow"}, "geometry": {"type": "LineString", "coordinates": [[409198.62, 5659351.54], [409082.59, 5659408.6]]}}, {"type": "Feature", "properties": {"kind": "hedge"}, "geometry": {"type": "LineString", "coordinates": [[407986.3, 5659429.17], [407986.35, 5659429.14], [408110.39, 5659339.22], [408207.76, 5659272.8], [408286.34, 5659216.71], [408330.53, 5659186.29], [408364.66, 5659166.71], [408428.42, 5659134.43], [408504.89, 5659102.41], [408578.18, 5659083.36], [408641.68, 5659078.34], [408746.45, 5659084.16]]}}, {"type": "Feature", "properties": {"kind": "treerow"}, "geometry": {"type": "LineString", "coordinates": [[409063.49, 5659327.6], [408926.47, 5659317.25]]}}, {"type": "Feature", "properties": {"kind": "treerow"}, "geometry": {"type": "LineString", "coordinates": [[408780.18, 5659228.52], [408801.55, 5659229.37], [408866.45, 5659237.43], [408894.15, 5659241.46]]}}, {"type": "Feature", "properties": {"kind": "hedge"}, "geometry": {"type": "LineString", "coordinates": [[409083.23, 5658945.91], [409066.69, 5658968.73], [409040.89, 5658977.33], [408966.81, 5658976.67], [408852.71, 5658968.07]]}}, {"type": "Feature", "properties": {"kind": "hedge"}, "geometry": {"type": "LineString", "coordinates": [[408880.1, 5659099.41], [409232.53, 5659133.14]]}}, {"type": "Feature", "properties": {"kind": "treerow"}, "geometry": {"type": "LineString", "coordinates": [[408525.11, 5659695.04], [408544.18, 5659685.93]]}}, {"type": "Feature", "properties": {"kind": "treerow"}, "geometry": {"type": "LineString", "coordinates": [[407909.92, 5659330.71], [408225.77, 5659110.11]]}}, {"type": "Feature", "properties": {"kind": "treerow"}, "geometry": {"type": "LineString", "coordinates": [[409681.27, 5659054.68], [409628.88, 5659044.63], [409551.36, 5659018.96], [409483.36, 5658984.04], [409432.82, 5658953.61], [409365.62, 5658909.95], [409284.66, 5658854.39], [409223.8, 5658801.47]]}}]}