{"type": "FeatureCollection", "crs": {"type": "name", "properties": {"name": "urn:ogc:def:crs:EPSG::25833"}}, "features": [{"type": "Feature", "properties": {"kind": "treerow"}, "geometry": {"type": "LineString", "coordinates": [[410182.38, 5655017.85], [410294.58, 5655170.51], [410354.17, 5655247.68]]}}, {"type": "Feature", "properties": {"kind": "treerow"}, "geometry": {"type": "LineString", "coordinates": [[411157.57, 5656087.7], [411179.4, 5655998.74]]}}, {"type": "Feature", "properties": {"kind": "treerow"}, "geometry": {"type": "LineString", "coordinates": [[411183.03, 5655985.84], [411210.82, 5655867.44]]}}, {"type": "Feature", "properties": {"kind": "treerow"}, "geometry": {"type": "LineString", "coordinates": [[411634.49, 5655851.95], [411806.21, 5655838.99]]}}, {"type": "Feature", "properties": {"kind": "treerow"}, "geometry": {"type": "LineString", "coordinates": [[411162.06, 5654832.08], [411138.2, 5654755.4], [411040.02, 5654441.55]]}}, {"type": "Feature", "properties": {"kind": "treerow"}, "geometry": {"type": "LineString", "coordinates": [[411189.32, 5655857.51], [411160.21, 5655979.55]]}}, {"type": "Feature", "properties": {"kind": "treerow"}, "geometry": {"type": "LineString", "coordinates": [[411646.21, 5655632.47], [411691.77, 5655687.85]]}}, {"type": "Feature", "properties": {"kind": "treerow"}, "geometry": {"type": "LineString", "coordinates": [[411156.91, 5655992.78], [411136.73, 5656077.78]]}}, {"type": "Feature", "properties": {"kind": "treerow"}, "geometry": {"type": "LineString", "coordinates": [[410128.04, 5654944.83], [410028.66, 5654811.93], [409975.97, 5654738.32]]}}, {"type": "Feature", "properties": {"kind": "treerow"}, "geometry": {"type": "LineString", "coordinates": [[411681.01, 5654671.87], [411897.96, 5654556.51]]}}, {"type": "Feature", "properties": {"kind": "treerow"}, "geometry": {"type": "LineString", "coordinates": [[411566.31, 5655533.78], [411639.59, 5655623.74]]}}, {"type": "Feature", "properties": {"kind": "treerow"}, "geometry": {"type": "LineString", "coordinates": [[411264.14, 5655992.94], [411268.38, 5655974.31]]}}, {"type": "Feature", "properties": {"kind": "treerow"}, "geometry": {"type": "LineString", "coordinates": [[410547.21, 5654040.18], [410681.15, 5654112.13]]}}, {"type": "Feature", "properties": {"kind": "treerow"}, "geometry": {"type": "LineString", "coordinates": [[410551.5, 5654032.41], [410686.0, 5654103.81]]}}, {"type": "Feature", "properties": {"kind": "treerow"}, "geometry": {"type": "LineString", "coordinates": [[410403.6, 5653964.76], [410529.75, 5654031.33]]}}, {"type": "Feature", "properties": {"kind": "treerow"}, "geometry": {"type": "LineString", "coordinates": [[410408.96, 5653956.17], [410533.78, 5654022.2]]}}, {"type": "Feature", "properties": {"kind": "treerow"}, "geometry": {"type": "LineString", "coordinates": [[411684.71, 5654817.31], [411941.96, 5654676.22]]}}, {"type": "Feature", "properties": {"kind": "treerow"}, "geometry": {"type": "LineString", "coordinates": [[411629.31, 5655833.01], [411730.13, 5655825.73]]}}, {"type": "Feature", "properties": {"kind": "treerow"}, "geometry": {"type": "LineString", "coordinates": [[411631.1, 5655860.1], [411812.43, 5655845.15]]}}, {"type": "Feature", "properties": {"kind": "treerow"}, "geometry": {"type": "LineString", "coordinates": [[411753.65, 5655824.2], [411802.08, 5655820.74]]}}, {"type": "Feature", "properties": {"kind": "treerow"}, "geometry": {"type": "LineString", "coordinates": [[411701.85, 5654849.83], [411819.23, 5654787.29], [411867.84, 5654760.91], [411902.82, 5654737.2], [411941.94, 5654714.67]]}}, {"type": "Feature", "properties": {"kind": "treerow"}, "geometry": {"type": "LineString", "coordinates": [[411051.24, 5654514.0], [411085.62, 5654620.41], [411120.3, 5654734.83], [411141.35, 5654798.55], [411160.32, 5654859.91], [411167.73, 5654885.4]]}}]}