{"type": "FeatureCollection", "crs": {"type": "name", "properties": {"name": "urn:ogc:def:crs:EPSG::25833"}}, "features": [{"type": "Feature", "properties": {"kind": "treerow"}, "geometry": {"type": "LineString", "coordinates": [[417078.86, 5658323.98], [417201.62, 5658126.34]]}}, {"type": "Feature", "properties": {"kind": "treerow"}, "geometry": {"type": "LineString", "coordinates": [[417861.27, 5659174.81], [417936.67, 5659057.54], [417981.28, 5658985.08], [418152.59, 5658716.47]]}}, {"type": "Feature", "properties": {"kind": "treerow"}, "geometry": {"type": "LineString", "coordinates": [[416491.07, 5658134.62], [416542.29, 5658051.65]]}}, {"type": "Feature", "properties": {"kind": "treerow"}, "geometry": {"type": "LineString", "coordinates": [[416971.75, 5658174.31], [417081.5, 5658003.31], [417089.18, 5657992.99]]}}, {"type": "Feature", "properties": {"kind": "treerow"}, "geometry": {"type": "LineString", "coordinates": [[416851.28, 5658362.58], [416800.31, 5658444.18], [416734.78, 5658548.44], [416678.61, 5658634.79]]}}, {"type": "Feature", "properties": {"kind": "treerow"}, "geometry": {"type": "LineString", "coordinates": [[417192.63, 5659423.44], [417299.01, 5659254.09], [417418.67, 5659069.71], [417440.1, 5659038.54], [417457.33, 5659010.02], [417530.05, 5658895.72]]}}, {"type": "Feature", "properties": {"kind": "treerow"}, "geometry": {"type": "LineString", "coordinates": [[416994.14, 5659751.3], [417171.44, 5659458.76], [417179.78, 5659447.27], [417186.77, 5659436.6]]}}, {"type": "Feature", "properties": {"kind": "treerow"}, "geometry": {"type": "LineString", "coordinates": [[417544.58, 5658870.89], [417671.66, 5658668.54]]}}, {"type": "Feature", "properties": {"kind": "treerow"}, "geometry": {"type": "LineString", "coordinates": [[416459.32, 5658184.55], [416491.07, 5658134.62]]}}, {"type": "Feature", "properties": {"kind": "treerow"}, "geometry": {"type": "LineString", "coordinates": [[417293.09, 5657893.66], [417487.62, 5658012.22]]}}, {"type": "Feature", "properties": {"kind": "treerow"}, "geometry": {"type": "LineString", "coordinates": [[416542.29, 5658051.65], [416606.85, 5657952.59]]}}, {"type": "Feature", "properties": {"kind": "treerow"}, "geometry": {"type": "LineString", "coordinates": [[417682.31, 5658653.1], [417873.14, 5658350.18]]}}, {"type": "Feature", "properties": {"kind": "treerow"}, "geometry": {"type": "LineString", "coordinates": [[417173.05, 5658654.98], [417239.72, 5658553.64], [417292.38, 5658475.32], [417312.48, 5658441.46], [417391.06, 5658318.43], [417427.13, 5658266.15]]}}, {"type": "Feature", "properties": {"kind": "treerow"}, "geometry": {"type": "LineString", "coordinates": [[417001.03, 5658929.61], [417097.11, 5658778.27], [417160.08, 5658676.41]]}}, {"type": "Feature", "properties": {"kind": "treerow"}, "geometry": {"type": "LineString", "coordinates": [[416408.05, 5659059.02], [416500.22, 5658916.74]]}}, {"type": "Feature", "properties": {"kind": "treerow"}, "geometry": {"type": "LineString", "coordinates": [[417427.13, 5658266.15], [417559.61, 5658053.58], [417604.32, 5657987.7]]}}, {"type": "Feature", "properties": {"kind": "treerow"}, "geometry": {"type": "LineString", "coordinates": [[417772.17, 5659691.5], [417869.83, 5659536.08], [417981.43, 5659358.47]]}}, {"type": "Feature", "properties": {"kind": "treerow"}, "geometry": {"type": "LineString", "coordinates": [[417406.96, 5659982.11], [417497.75, 5659823.59]]}}, {"type": "Feature", "properties": {"kind": "treerow"}, "geometry": {"type": "LineString", "coordinates": [[416500.22, 5658916.74], [416678.61, 5658634.79]]}}, {"type": "Feature", "properties": {"kind": "treerow"}, "geometry": {"type": "LineString", "coordinates": [[416522.39, 5658410.85], [416622.3, 5658477.52]]}}]}