{"type": "FeatureCollection", "attribution": "\u00a9 OpenStreetMap contributors (ODbL)", "crs": {"type": "name", "properties": {"name": "urn:ogc:def:crs:EPSG::25833"}}, "features": [{"type": "Feature", "properties": {"kind": "wall", "h": 1.5}, "geometry": {"type": "LineString", "coordinates": [[417338.19, 5654333.18], [417300.13, 5654349.67], [417243.23, 5654373.88], [417184.32, 5654399.72], [417159.15, 5654409.88], [417159.98, 5654412.38], [417161.76, 5654417.76], [417162.24, 5654424.21], [417159.91, 5654430.12]]}}, {"type": "Feature", "properties": {"kind": "wall", "h": 1.5}, "geometry": {"type": "LineString", "coordinates": [[416737.0, 5654625.24], [416777.04, 5654682.03]]}}, {"type": "Feature", "properties": {"kind": "wall", "h": 1.5}, "geometry": {"type": "LineString", "coordinates": [[416779.16, 5654684.91], [416810.08, 5654728.48]]}}, {"type": "Feature", "properties": {"kind": "wall", "h": 1.5}, "geometry": {"type": "LineString", "coordinates": [[416814.16, 5654734.04], [416834.23, 5654763.22]]}}, {"type": "Feature", "properties": {"kind": "wall", "h": 1.5}, "geometry": {"type": "LineString", "coordinates": [[416836.84, 5654766.02], [416857.05, 5654794.91]]}}, {"type": "Feature", "properties": {"kind": "wall", "h": 1.5}, "geometry": {"type": "LineString", "coordinates": [[416860.04, 5654799.2], [416880.09, 5654826.95]]}}, {"type": "Feature", "properties": {"kind": "wall", "h": 1.5}, "geometry": {"type": "LineString", "coordinates": [[416883.37, 5654831.95], [416906.2, 5654863.78]]}}, {"type": "Feature", "properties": {"kind": "wall", "h": 1.5}, "geometry": {"type": "LineString", "coordinates": [[416909.25, 5654867.57], [416930.92, 5654898.92]]}}, {"type": "Feature", "properties": {"kind": "wall", "h": 1.5}, "geometry": {"type": "LineString", "coordinates": [[416934.13, 5654903.77], [416955.05, 5654932.66]]}}, {"type": "Feature", "properties": {"kind": "wall", "h": 1.5}, "geometry": {"type": "LineString", "coordinates": [[416882.07, 5654616.95], [416911.56, 5654659.48]]}}, {"type": "Feature", "properties": {"kind": "wall", "h": 1.5}, "geometry": {"type": "LineString", "coordinates": [[416916.02, 5654665.98], [416934.87, 5654692.16]]}}, {"type": "Feature", "properties": {"kind": "wall", "h": 1.5}, "geometry": {"type": "LineString", "coordinates": [[416938.55, 5654697.36], [416957.63, 5654724.62]]}}, {"type": "Feature", "properties": {"kind": "wall", "h": 1.5}, "geometry": {"type": "LineString", "coordinates": [[416962.75, 5654731.53], [416980.19, 5654756.17]]}}, {"type": "Feature", "properties": {"kind": "wall", "h": 1.5}, "geometry": {"type": "LineString", "coordinates": [[416982.62, 5654759.61], [417008.22, 5654795.77]]}}, {"type": "Feature", "properties": {"kind": "wall", "h": 1.5}, "geometry": {"type": "LineString", "coordinates": [[417010.88, 5654799.52], [417031.01, 5654827.92]]}}, {"type": "Feature", "properties": {"kind": "wall", "h": 1.5}, "geometry": {"type": "LineString", "coordinates": [[417036.1, 5654835.14], [417055.42, 5654862.45]]}}, {"type": "Feature", "properties": {"kind": "wall", "h": 1.5}, "geometry": {"type": "LineString", "coordinates": [[417438.94, 5655661.46], [417443.07, 5655663.85], [417447.94, 5655653.89], [417445.87, 5655650.93], [417446.88, 5655648.29], [417448.16, 5655646.13], [417451.07, 5655645.7], [417466.17, 5655610.23], [417474.92, 5655584.87], [417485.81, 5655551.72], [417453.14, 5655532.03], [417437.67, 5655522.87], [417427.82, 5655514.44], [417407.16, 5655496.4]]}}, {"type": "Feature", "properties": {"kind": "wall", "h": 1.5}, "geometry": {"type": "LineString", "coordinates": [[417358.44, 5655619.46], [417399.99, 5655641.82]]}}, {"type": "Feature", "properties": {"kind": "wall", "h": 1.5}, "geometry": {"type": "LineString", "coordinates": [[417058.07, 5654342.24], [417053.38, 5654334.95]]}}, {"type": "Feature", "properties": {"kind": "wall", "h": 1.5}, "geometry": {"type": "LineString", "coordinates": [[417438.94, 5655661.46], [417430.34, 5655681.43], [417430.28, 5655685.19], [417423.71, 5655701.99]]}}, {"type": "Feature", "properties": {"kind": "wall", "h": 1.5}, "geometry": {"type": "LineString", "coordinates": [[417403.59, 5655641.78], [417438.94, 5655661.46]]}}, {"type": "Feature", "properties": {"kind": "wall", "h": 1.5}, "geometry": {"type": "LineString", "coordinates": [[416205.73, 5654685.54], [416218.15, 5654708.64]]}}, {"type": "Feature", "properties": {"kind": "wall", "h": 1.5}, "geometry": {"type": "LineString", "coordinates": [[416221.59, 5654676.94], [416224.51, 5654675.39], [416242.68, 5654706.7]]}}, {"type": "Feature", "properties": {"kind": "wall", "h": 1.5}, "geometry": {"type": "LineString", "coordinates": [[416224.51, 5654675.39], [416227.83, 5654673.67]]}}, {"type": "Feature", "properties": {"kind": "wall", "h": 1.5}, "geometry": {"type": "LineString", "coordinates": [[416173.75, 5654737.73], [416195.01, 5654720.74], [416182.71, 5654698.43]]}}, {"type": "Feature", "properties": {"kind": "wall", "h": 1.5}, "geometry": {"type": "LineString", "coordinates": [[416170.44, 5654685.96], [416167.88, 5654681.45], [416156.43, 5654661.07]]}}, {"type": "Feature", "properties": {"kind": "wall", "h": 1.5}, "geometry": {"type": "LineString", "coordinates": [[416369.73, 5654763.48], [416374.52, 5654761.38], [416397.72, 5654743.82]]}}, {"type": "Feature", "properties": {"kind": "wall", "h": 1.5}, "geometry": {"type": "LineString", "coordinates": [[416335.73, 5654750.71], [416331.72, 5654753.42], [416314.56, 5654750.47]]}}, {"type": "Feature", "properties": {"kind": "wall", "h": 1.5}, "geometry": {"type": "LineString", "coordinates": [[416145.8, 5654000.0], [416195.74, 5654082.89]]}}, {"type": "Feature", "properties": {"kind": "wall", "h": 1.5}, "geometry": {"type": "LineString", "coordinates": [[418000.0, 5655931.46], [417976.68, 5655982.25]]}}, {"type": "Feature", "properties": {"kind": "wall", "h": 1.5}, "geometry": {"type": "LineString", "coordinates": [[417420.31, 5654427.71], [417378.14, 5654514.72], [417371.4, 5654528.64], [417335.72, 5654587.27], [417251.34, 5654725.97], [417239.09, 5654726.39]]}}, {"type": "Feature", "properties": {"kind": "wall", "h": 1.5}, "geometry": {"type": "LineString", "coordinates": [[417078.25, 5654457.21], [417016.61, 5654485.71], [416934.85, 5654523.67], [416852.0, 5654561.46], [416804.49, 5654584.01], [416802.61, 5654584.9], [416724.4, 5654620.77], [416625.9, 5654665.22]]}}, {"type": "Feature", "properties": {"kind": "retaining_wall", "h": 3.0}, "geometry": {"type": "LineString", "coordinates": [[417880.63, 5654852.82], [417912.03, 5654820.27], [417931.76, 5654803.33], [417954.02, 5654783.38], [417971.0, 5654768.76], [417970.69, 5654767.07], [417973.75, 5654764.21], [417976.38, 5654763.98], [417982.78, 5654758.72], [417986.23, 5654756.6], [417998.94, 5654751.81], [418000.0, 5654750.97]]}}, {"type": "Feature", "properties": {"kind": "wall", "h": 1.5}, "geometry": {"type": "LineString", "coordinates": [[417051.23, 5654203.66], [417007.66, 5654231.3]]}}, {"type": "Feature", "properties": {"kind": "wall", "h": 1.5}, "geometry": {"type": "LineString", "coordinates": [[417142.25, 5654440.58], [417136.79, 5654440.3], [417132.41, 5654436.55], [417128.5, 5654432.29], [417125.89, 5654426.75], [417124.98, 5654424.81], [417106.47, 5654433.08], [417105.03, 5654434.45], [417104.27, 5654436.02], [417104.71, 5654437.77], [417105.9, 5654440.24], [417104.4, 5654441.03], [417102.77, 5654441.83]]}}, {"type": "Feature", "properties": {"kind": "wall", "h": 1.5}, "geometry": {"type": "LineString", "coordinates": [[416524.22, 5654703.64], [416522.7, 5654701.6], [416525.87, 5654699.87]]}}, {"type": "Feature", "properties": {"kind": "wall", "h": 1.5}, "geometry": {"type": "LineString", "coordinates": [[416976.94, 5654288.47], [416932.47, 5654315.67], [416909.18, 5654330.09], [416877.26, 5654349.69]]}}, {"type": "Feature", "properties": {"kind": "wall", "h": 1.5}, "geometry": {"type": "LineString", "coordinates": [[417012.91, 5654340.54], [417050.36, 5654394.46], [417039.59, 5654402.05]]}}, {"type": "Feature", "properties": {"kind": "wall", "h": 1.5}, "geometry": {"type": "LineString", "coordinates": [[416659.07, 5654620.21], [416658.01, 5654620.66], [416653.97, 5654622.34], [416649.67, 5654623.92], [416648.47, 5654624.37]]}}, {"type": "Feature", "properties": {"kind": "wall", "h": 1.5}, "geometry": {"type": "LineString", "coordinates": [[416642.85, 5654627.01], [416603.08, 5654645.29]]}}, {"type": "Feature", "properties": {"kind": "wall", "h": 1.5}, "geometry": {"type": "LineString", "coordinates": [[416595.03, 5654648.72], [416599.12, 5654646.87]]}}, {"type": "Feature", "properties": {"kind": "wall", "h": 1.5}, "geometry": {"type": "LineString", "coordinates": [[416476.22, 5654545.46], [416486.57, 5654561.81], [416484.68, 5654570.57]]}}, {"type": "Feature", "properties": {"kind": "retaining_wall", "h": 3.0}, "geometry": {"type": "LineString", "coordinates": [[416666.89, 5655524.36], [416668.84, 5655522.25], [416670.56, 5655523.85], [416672.26, 5655525.56], [416670.35, 5655528.04], [416665.12, 5655532.76], [416664.17, 5655534.26], [416663.69, 5655536.51], [416664.24, 5655538.37], [416665.23, 5655539.62]]}}, {"type": "Feature", "properties": {"kind": "wall", "h": 1.5}, "geometry": {"type": "LineString", "coordinates": [[417092.75, 5654480.63], [417118.78, 5654523.77], [417125.75, 5654536.1], [417220.62, 5654703.64], [417239.09, 5654726.39]]}}, {"type": "Feature", "properties": {"kind": "wall", "h": 1.5}, "geometry": {"type": "LineString", "coordinates": [[416767.39, 5655184.27], [416765.28, 5655181.23], [416761.03, 5655176.8], [416765.27, 5655172.75], [416780.48, 5655158.48], [416782.04, 5655158.76], [416803.95, 5655185.03], [416812.63, 5655195.44]]}}, {"type": "Feature", "properties": {"kind": "wall", "h": 1.5}, "geometry": {"type": "LineString", "coordinates": [[416762.48, 5655187.87], [416760.03, 5655184.5], [416731.06, 5655208.0], [416727.65, 5655210.92], [416734.18, 5655220.16]]}}, {"type": "Feature", "properties": {"kind": "wall", "h": 1.5}, "geometry": {"type": "LineString", "coordinates": [[416642.14, 5654597.35], [416652.69, 5654611.17], [416658.01, 5654620.66]]}}, {"type": "Feature", "properties": {"kind": "wall", "h": 1.5}, "geometry": {"type": "LineString", "coordinates": [[416635.63, 5654602.44], [416649.67, 5654623.92]]}}, {"type": "Feature", "properties": {"kind": "wall", "h": 1.5}, "geometry": {"type": "LineString", "coordinates": [[416633.96, 5654585.91], [416627.18, 5654578.09]]}}, {"type": "Feature", "properties": {"kind": "wall", "h": 1.5}, "geometry": {"type": "LineString", "coordinates": [[416643.67, 5654547.35], [416650.34, 5654542.83], [416657.07, 5654553.75]]}}, {"type": "Feature", "properties": {"kind": "wall", "h": 1.5}, "geometry": {"type": "LineString", "coordinates": [[417490.77, 5654197.79], [417492.01, 5654198.97], [417493.19, 5654200.08], [417492.33, 5654200.98], [417491.42, 5654201.93]]}}, {"type": "Feature", "properties": {"kind": "wall", "h": 1.5}, "geometry": {"type": "LineString", "coordinates": [[416526.63, 5655094.93], [416521.98, 5655101.28]]}}, {"type": "Feature", "properties": {"kind": "wall", "h": 1.5}, "geometry": {"type": "LineString", "coordinates": [[416556.06, 5655112.98], [416566.94, 5655120.99]]}}, {"type": "Feature", "properties": {"kind": "wall", "h": 1.5}, "geometry": {"type": "LineString", "coordinates": [[416540.32, 5655031.05], [416541.27, 5655031.72]]}}, {"type": "Feature", "properties": {"kind": "wall", "h": 1.5}, "geometry": {"type": "LineString", "coordinates": [[417382.09, 5655983.29], [417380.09, 5655996.12], [417379.53, 5656000.0]]}}, {"type": "Feature", "properties": {"kind": "wall", "h": 1.5}, "geometry": {"type": "LineString", "coordinates": [[417429.73, 5655913.74], [417417.67, 5655917.74], [417413.92, 5655914.27], [417395.29, 5655938.59], [417391.29, 5655944.6], [417389.79, 5655947.54], [417386.28, 5655957.06], [417385.09, 5655962.05], [417383.82, 5655970.84], [417382.72, 5655978.55]]}}, {"type": "Feature", "properties": {"kind": "retaining_wall", "h": 3.0}, "geometry": {"type": "LineString", "coordinates": [[417461.24, 5655929.09], [417463.88, 5655926.8], [417471.39, 5655926.11], [417476.77, 5655924.06], [417481.04, 5655920.81], [417486.13, 5655912.99], [417492.86, 5655901.39], [417500.68, 5655887.38], [417505.46, 5655880.79]]}}, {"type": "Feature", "properties": {"kind": "retaining_wall", "h": 3.0}, "geometry": {"type": "LineString", "coordinates": [[417386.61, 5656000.0], [417387.55, 5655995.21], [417389.08, 5655985.25], [417390.55, 5655971.62], [417391.82, 5655962.51], [417393.6, 5655956.29], [417396.3, 5655949.3], [417400.07, 5655943.81], [417404.22, 5655938.11], [417408.38, 5655933.92], [417415.91, 5655928.18], [417425.2, 5655924.69], [417434.02, 5655923.11]]}}, {"type": "Feature", "properties": {"kind": "wall", "h": 1.5}, "geometry": {"type": "LineString", "coordinates": [[416027.88, 5654515.7], [416068.35, 5654489.76]]}}, {"type": "Feature", "properties": {"kind": "wall", "h": 1.5}, "geometry": {"type": "LineString", "coordinates": [[416723.15, 5654560.42], [416704.2, 5654572.06]]}}, {"type": "Feature", "properties": {"kind": "wall", "h": 1.5}, "geometry": {"type": "LineString", "coordinates": [[416725.52, 5654563.96], [416728.8, 5654568.23]]}}, {"type": "Feature", "properties": {"kind": "wall", "h": 1.5}, "geometry": {"type": "LineString", "coordinates": [[417328.04, 5654579.68], [417323.48, 5654582.8], [417305.94, 5654556.68], [417309.91, 5654554.07]]}}, {"type": "Feature", "properties": {"kind": "wall", "h": 1.5}, "geometry": {"type": "LineString", "coordinates": [[417331.97, 5654577.0], [417336.92, 5654573.88], [417319.92, 5654547.94], [417315.94, 5654550.46]]}}, {"type": "Feature", "properties": {"kind": "retaining_wall", "h": 3.0}, "geometry": {"type": "LineString", "coordinates": [[417298.76, 5654610.67], [417290.17, 5654616.29], [417281.11, 5654601.62]]}}, {"type": "Feature", "properties": {"kind": "retaining_wall", "h": 3.0}, "geometry": {"type": "LineString", "coordinates": [[417259.25, 5654610.74], [417254.27, 5654613.88], [417263.34, 5654628.21], [417277.08, 5654619.56], [417268.01, 5654605.23], [417263.12, 5654608.31]]}}, {"type": "Feature", "properties": {"kind": "retaining_wall", "h": 3.0}, "geometry": {"type": "LineString", "coordinates": [[417762.41, 5655015.46], [417759.61, 5655014.35], [417760.36, 5655012.47], [417761.49, 5655012.92], [417762.76, 5655009.76]]}}, {"type": "Feature", "properties": {"kind": "retaining_wall", "h": 3.0}, "geometry": {"type": "LineString", "coordinates": [[417765.01, 5655009.13], [417762.04, 5655007.89], [417763.6, 5655004.14], [417766.35, 5655006.64], [417787.03, 5655011.52]]}}, {"type": "Feature", "properties": {"kind": "retaining_wall", "h": 3.0}, "geometry": {"type": "LineString", "coordinates": [[417918.45, 5655368.15], [417919.69, 5655368.05], [417920.86, 5655367.47], [417921.84, 5655365.17], [417921.56, 5655364.0], [417921.19, 5655363.24]]}}, {"type": "Feature", "properties": {"kind": "retaining_wall", "h": 3.0}, "geometry": {"type": "LineString", "coordinates": [[417921.82, 5655369.88], [417924.05, 5655371.13], [417925.6, 5655370.77], [417926.67, 5655369.68], [417927.03, 5655368.13], [417926.52, 5655366.32], [417924.3, 5655364.87]]}}, {"type": "Feature", "properties": {"kind": "retaining_wall", "h": 3.0}, "geometry": {"type": "LineString", "coordinates": [[417984.47, 5655247.08], [417985.44, 5655248.55], [417984.52, 5655251.04], [417982.76, 5655251.98], [417980.58, 5655251.17]]}}, {"type": "Feature", "properties": {"kind": "retaining_wall", "h": 3.0}, "geometry": {"type": "LineString", "coordinates": [[417921.16, 5654740.1], [417945.97, 5654723.0], [417957.99, 5654715.23]]}}, {"type": "Feature", "properties": {"kind": "retaining_wall", "h": 3.0}, "geometry": {"type": "LineString", "coordinates": [[417971.84, 5654707.41], [417996.57, 5654695.02], [418000.0, 5654693.41]]}}, {"type": "Feature", "properties": {"kind": "retaining_wall", "h": 3.0}, "geometry": {"type": "LineString", "coordinates": [[416058.23, 5654205.36], [416063.41, 5654212.87], [416067.57, 5654219.0], [416069.86, 5654222.37]]}}, {"type": "Feature", "properties": {"kind": "retaining_wall", "h": 3.0}, "geometry": {"type": "LineString", "coordinates": [[416075.87, 5654218.32], [416073.58, 5654214.94], [416069.46, 5654208.81], [416064.45, 5654201.39]]}}, {"type": "Feature", "properties": {"kind": "retaining_wall", "h": 3.0}, "geometry": {"type": "LineString", "coordinates": [[417914.74, 5656000.0], [417929.63, 5655966.25]]}}, {"type": "Feature", "properties": {"kind": "retaining_wall", "h": 3.0}, "geometry": {"type": "LineString", "coordinates": [[417873.45, 5655966.14], [417880.48, 5655960.92], [417880.42, 5655950.51], [417899.71, 5655949.15]]}}, {"type": "Feature", "properties": {"kind": "retaining_wall", "h": 3.0}, "geometry": {"type": "LineString", "coordinates": [[417609.2, 5655351.96], [417614.95, 5655340.53]]}}, {"type": "Feature", "properties": {"kind": "retaining_wall", "h": 3.0}, "geometry": {"type": "LineString", "coordinates": [[417613.31, 5655364.14], [417623.36, 5655345.22]]}}, {"type": "Feature", "properties": {"kind": "retaining_wall", "h": 3.0}, "geometry": {"type": "LineString", "coordinates": [[417625.26, 5655370.14], [417615.84, 5655365.44], [417626.08, 5655346.65]]}}, {"type": "Feature", "properties": {"kind": "retaining_wall", "h": 3.0}, "geometry": {"type": "LineString", "coordinates": [[417610.69, 5655361.68], [417620.21, 5655343.74]]}}, {"type": "Feature", "properties": {"kind": "retaining_wall", "h": 3.0}, "geometry": {"type": "LineString", "coordinates": [[416284.96, 5654373.08], [416274.54, 5654379.98]]}}, {"type": "Feature", "properties": {"kind": "retaining_wall", "h": 3.0}, "geometry": {"type": "LineString", "coordinates": [[416283.55, 5654370.79], [416272.83, 5654377.7]]}}, {"type": "Feature", "properties": {"kind": "retaining_wall", "h": 3.0}, "geometry": {"type": "LineString", "coordinates": [[416304.86, 5654359.86], [416287.41, 5654371.58], [416285.93, 5654369.29], [416285.28, 5654369.67]]}}, {"type": "Feature", "properties": {"kind": "retaining_wall", "h": 3.0}, "geometry": {"type": "LineString", "coordinates": [[416264.55, 5654246.79], [416256.68, 5654251.96], [416260.96, 5654258.41], [416268.73, 5654270.04], [416239.82, 5654289.1], [416238.41, 5654287.06], [416230.95, 5654291.75]]}}, {"type": "Feature", "properties": {"kind": "retaining_wall", "h": 3.0}, "geometry": {"type": "LineString", "coordinates": [[416237.29, 5654291.29], [416221.44, 5654301.7], [416223.99, 5654305.34]]}}, {"type": "Feature", "properties": {"kind": "retaining_wall", "h": 3.0}, "geometry": {"type": "LineString", "coordinates": [[416258.61, 5654333.32], [416247.81, 5654340.74], [416250.55, 5654344.83]]}}, {"type": "Feature", "properties": {"kind": "retaining_wall", "h": 3.0}, "geometry": {"type": "LineString", "coordinates": [[416257.47, 5654331.34], [416246.6, 5654338.57]]}}, {"type": "Feature", "properties": {"kind": "retaining_wall", "h": 3.0}, "geometry": {"type": "LineString", "coordinates": [[416260.86, 5654332.17], [416259.53, 5654330.07], [416258.97, 5654330.43]]}}, {"type": "Feature", "properties": {"kind": "retaining_wall", "h": 3.0}, "geometry": {"type": "LineString", "coordinates": [[417650.75, 5655710.56], [417656.94, 5655698.04], [417671.55, 5655668.51], [417672.12, 5655667.35]]}}]}