{"type": "FeatureCollection", "attribution": "\u00a9 OpenStreetMap contributors (ODbL)", "crs": {"type": "name", "properties": {"name": "urn:ogc:def:crs:EPSG::25832"}}, "features": [{"type": "Feature", "properties": {"k": "vineyard"}, "geometry": {"type": "Polygon", "coordinates": [[[564358.39, 5933447.95], [564356.54, 5933448.03], [564354.6, 5933448.05], [564339.1, 5933459.21], [564340.27, 5933460.72], [564324.69, 5933475.95], [564334.59, 5933483.97], [564339.62, 5933485.58], [564339.44, 5933483.07], [564339.09, 5933482.99], [564338.43, 5933482.65], [564337.91, 5933482.12], [564337.58, 5933481.45], [564337.46, 5933480.68], [564337.6, 5933479.91], [564337.95, 5933479.26], [564338.48, 5933478.75], [564339.15, 5933478.41], [564339.94, 5933478.3], [564340.45, 5933476.65], [564341.62, 5933473.98], [564342.75, 5933472.22], [564342.41, 5933471.88], [564342.08, 5933471.21], [564341.97, 5933470.44], [564342.1, 5933469.68], [564342.45, 5933469.02], [564342.99, 5933468.5], [564343.66, 5933468.17], [564344.43, 5933468.06], [564345.19, 5933468.19], [564345.88, 5933468.58], [564347.3, 5933467.55], [564349.78, 5933466.06], [564351.84, 5933465.22], [564351.79, 5933464.9], [564351.93, 5933464.13], [564352.28, 5933463.48], [564352.81, 5933462.96], [564353.48, 5933462.63], [564354.25, 5933462.52], [564355.01, 5933462.65], [564355.68, 5933463.0], [564356.19, 5933463.53], [564356.53, 5933464.21], [564358.42, 5933464.09], [564361.46, 5933464.37], [564363.34, 5933464.87], [564363.54, 5933464.5], [564364.07, 5933463.99], [564364.74, 5933463.66], [564365.51, 5933463.54], [564366.28, 5933463.68], [564366.93, 5933464.02], [564367.45, 5933464.55], [564367.79, 5933465.23], [564367.9, 5933466.0], [564367.76, 5933466.76], [564369.45, 5933467.85], [564373.8, 5933470.95], [564374.27, 5933470.5], [564374.94, 5933470.16], [564375.71, 5933470.05], [564376.47, 5933470.19], [564377.13, 5933470.54], [564377.65, 5933471.07], [564377.99, 5933471.74], [564378.1, 5933472.5], [564377.97, 5933473.27], [564377.71, 5933473.74], [564382.51, 5933477.16], [564390.29, 5933471.27], [564386.85, 5933467.93], [564384.13, 5933468.1], [564382.71, 5933465.22], [564383.55, 5933464.22], [564376.28, 5933456.47], [564374.38, 5933457.13], [564372.0, 5933454.29], [564372.31, 5933453.04], [564368.0, 5933449.2], [564364.82, 5933447.66], [564358.39, 5933447.95]]]}}, {"type": "Feature", "properties": {"k": "row"}, "geometry": {"type": "LineString", "coordinates": [[564384.26, 5933475.83], [564381.43, 5933476.39]]}}, {"type": "Feature", "properties": {"k": "row"}, "geometry": {"type": "LineString", "coordinates": [[564339.55, 5933484.62], [564337.72, 5933484.97]]}}, {"type": "Feature", "properties": {"k": "row"}, "geometry": {"type": "LineString", "coordinates": [[564387.54, 5933473.35], [564379.41, 5933474.95]]}}, {"type": "Feature", "properties": {"k": "row"}, "geometry": {"type": "LineString", "coordinates": [[564338.92, 5933482.91], [564334.38, 5933483.8]]}}, {"type": "Feature", "properties": {"k": "row"}, "geometry": {"type": "LineString", "coordinates": [[564390.03, 5933471.03], [564377.89, 5933473.42]]}}, {"type": "Feature", "properties": {"k": "row"}, "geometry": {"type": "LineString", "coordinates": [[564337.56, 5933481.34], [564332.56, 5933482.32]]}}, {"type": "Feature", "properties": {"k": "row"}, "geometry": {"type": "LineString", "coordinates": [[564388.46, 5933469.5], [564377.91, 5933471.58]]}}, {"type": "Feature", "properties": {"k": "row"}, "geometry": {"type": "LineString", "coordinates": [[564337.85, 5933479.45], [564330.73, 5933480.84]]}}, {"type": "Feature", "properties": {"k": "row"}, "geometry": {"type": "LineString", "coordinates": [[564386.89, 5933467.98], [564376.04, 5933470.11]]}}, {"type": "Feature", "properties": {"k": "row"}, "geometry": {"type": "LineString", "coordinates": [[564374.41, 5933470.43], [564373.36, 5933470.64]]}}, {"type": "Feature", "properties": {"k": "row"}, "geometry": {"type": "LineString", "coordinates": [[564340.3, 5933477.13], [564328.91, 5933479.37]]}}, {"type": "Feature", "properties": {"k": "row"}, "geometry": {"type": "LineString", "coordinates": [[564383.49, 5933466.81], [564371.34, 5933469.2]]}}, {"type": "Feature", "properties": {"k": "row"}, "geometry": {"type": "LineString", "coordinates": [[564341.11, 5933475.14], [564327.09, 5933477.89]]}}, {"type": "Feature", "properties": {"k": "row"}, "geometry": {"type": "LineString", "coordinates": [[564382.8, 5933465.11], [564369.31, 5933467.76]]}}, {"type": "Feature", "properties": {"k": "row"}, "geometry": {"type": "LineString", "coordinates": [[564342.19, 5933473.09], [564325.26, 5933476.42]]}}, {"type": "Feature", "properties": {"k": "row"}, "geometry": {"type": "LineString", "coordinates": [[564382.69, 5933463.3], [564367.86, 5933466.21]]}}, {"type": "Feature", "properties": {"k": "row"}, "geometry": {"type": "LineString", "coordinates": [[564342.11, 5933471.27], [564326.3, 5933474.38]]}}, {"type": "Feature", "properties": {"k": "row"}, "geometry": {"type": "LineString", "coordinates": [[564381.24, 5933461.75], [564367.37, 5933464.47]]}}, {"type": "Feature", "properties": {"k": "row"}, "geometry": {"type": "LineString", "coordinates": [[564342.24, 5933469.41], [564328.65, 5933472.08]]}}, {"type": "Feature", "properties": {"k": "row"}, "geometry": {"type": "LineString", "coordinates": [[564379.78, 5933460.2], [564359.5, 5933464.19]]}}, {"type": "Feature", "properties": {"k": "row"}, "geometry": {"type": "LineString", "coordinates": [[564349.68, 5933466.12], [564331.0, 5933469.79]]}}, {"type": "Feature", "properties": {"k": "row"}, "geometry": {"type": "LineString", "coordinates": [[564378.33, 5933458.65], [564355.76, 5933463.09]]}}, {"type": "Feature", "properties": {"k": "row"}, "geometry": {"type": "LineString", "coordinates": [[564352.1, 5933463.81], [564333.35, 5933467.49]]}}, {"type": "Feature", "properties": {"k": "row"}, "geometry": {"type": "LineString", "coordinates": [[564376.87, 5933457.11], [564335.7, 5933465.19]]}}, {"type": "Feature", "properties": {"k": "row"}, "geometry": {"type": "LineString", "coordinates": [[564373.4, 5933455.95], [564338.05, 5933462.9]]}}, {"type": "Feature", "properties": {"k": "row"}, "geometry": {"type": "LineString", "coordinates": [[564372.07, 5933454.38], [564340.21, 5933460.64]]}}, {"type": "Feature", "properties": {"k": "row"}, "geometry": {"type": "LineString", "coordinates": [[564371.81, 5933452.6], [564339.45, 5933458.95]]}}, {"type": "Feature", "properties": {"k": "row"}, "geometry": {"type": "LineString", "coordinates": [[564370.13, 5933451.09], [564342.95, 5933456.43]]}}, {"type": "Feature", "properties": {"k": "row"}, "geometry": {"type": "LineString", "coordinates": [[564368.44, 5933449.59], [564346.46, 5933453.91]]}}, {"type": "Feature", "properties": {"k": "row"}, "geometry": {"type": "LineString", "coordinates": [[564366.0, 5933448.23], [564349.96, 5933451.39]]}}, {"type": "Feature", "properties": {"k": "row"}, "geometry": {"type": "LineString", "coordinates": [[564358.03, 5933447.97], [564353.46, 5933448.86]]}}]}