{"type": "FeatureCollection", "attribution": "\u00a9 OpenStreetMap contributors (ODbL)", "crs": {"type": "name", "properties": {"name": "urn:ogc:def:crs:EPSG::25832"}}, "features": [{"type": "Feature", "properties": {"h": 5.0}, "geometry": {"type": "Point", "coordinates": [565795.5, 5932666.4]}}, {"type": "Feature", "properties": {"h": 5.0}, "geometry": {"type": "Point", "coordinates": [565816.3, 5932653.0]}}, {"type": "Feature", "properties": {"h": 5.0}, "geometry": {"type": "Point", "coordinates": [565871.8, 5932644.6]}}, {"type": "Feature", "properties": {"h": 5.0}, "geometry": {"type": "Point", "coordinates": [564374.3, 5933730.2]}}, {"type": "Feature", "properties": {"h": 5.0}, "geometry": {"type": "Point", "coordinates": [564367.0, 5933742.9]}}, {"type": "Feature", "properties": {"h": 5.0}, "geometry": {"type": "Point", "coordinates": [564370.9, 5933768.6]}}, {"type": "Feature", "properties": {"h": 5.0}, "geometry": {"type": "Point", "coordinates": [564321.4, 5933959.8]}}, {"type": "Feature", "properties": {"h": 5.0}, "geometry": {"type": "Point", "coordinates": [565194.3, 5933935.0]}}, {"type": "Feature", "properties": {"h": 5.0}, "geometry": {"type": "Point", "coordinates": [565163.8, 5933939.0]}}, {"type": "Feature", "properties": {"h": 5.0}, "geometry": {"type": "Point", "coordinates": [564954.0, 5933779.3]}}, {"type": "Feature", "properties": {"h": 5.0}, "geometry": {"type": "Point", "coordinates": [565768.9, 5933596.7]}}, {"type": "Feature", "properties": {"h": 5.0}, "geometry": {"type": "Point", "coordinates": [565832.7, 5933600.8]}}, {"type": "Feature", "properties": {"h": 5.0}, "geometry": {"type": "Point", "coordinates": [565859.0, 5933602.9]}}, {"type": "Feature", "properties": {"h": 5.0}, "geometry": {"type": "Point", "coordinates": [565903.7, 5933637.2]}}, {"type": "Feature", "properties": {"h": 5.0}, "geometry": {"type": "Point", "coordinates": [565934.5, 5933641.0]}}, {"type": "Feature", "properties": {"h": 5.0}, "geometry": {"type": "Point", "coordinates": [565965.7, 5933645.1]}}, {"type": "Feature", "properties": {"h": 5.0}, "geometry": {"type": "Point", "coordinates": [565995.5, 5933649.8]}}, {"type": "Feature", "properties": {"h": 5.0}, "geometry": {"type": "Point", "coordinates": [565727.0, 5933661.4]}}, {"type": "Feature", "properties": {"h": 5.0}, "geometry": {"type": "Point", "coordinates": [565312.2, 5933688.6]}}, {"type": "Feature", "properties": {"h": 5.0}, "geometry": {"type": "Point", "coordinates": [565473.7, 5933641.0]}}, {"type": "Feature", "properties": {"h": 5.0}, "geometry": {"type": "Point", "coordinates": [565102.6, 5933757.4]}}, {"type": "Feature", "properties": {"h": 5.0}, "geometry": {"type": "Point", "coordinates": [565070.4, 5933767.7]}}, {"type": "Feature", "properties": {"h": 5.0}, "geometry": {"type": "Point", "coordinates": [565038.4, 5933778.8]}}, {"type": "Feature", "properties": {"h": 5.0}, "geometry": {"type": "Point", "coordinates": [565007.4, 5933787.8]}}, {"type": "Feature", "properties": {"h": 5.0}, "geometry": {"type": "Point", "coordinates": [564854.6, 5933837.9]}}, {"type": "Feature", "properties": {"h": 5.0}, "geometry": {"type": "Point", "coordinates": [564373.4, 5933882.2]}}, {"type": "Feature", "properties": {"h": 5.0}, "geometry": {"type": "Point", "coordinates": [565106.5, 5933729.8]}}, {"type": "Feature", "properties": {"h": 5.0}, "geometry": {"type": "Point", "coordinates": [565076.4, 5933740.2]}}, {"type": "Feature", "properties": {"h": 5.0}, "geometry": {"type": "Point", "coordinates": [565046.3, 5933749.8]}}, {"type": "Feature", "properties": {"h": 5.0}, "geometry": {"type": "Point", "coordinates": [565017.2, 5933759.3]}}, {"type": "Feature", "properties": {"h": 5.0}, "geometry": {"type": "Point", "coordinates": [564924.7, 5933789.2]}}, {"type": "Feature", "properties": {"h": 5.0}, "geometry": {"type": "Point", "coordinates": [564894.2, 5933797.4]}}, {"type": "Feature", "properties": {"h": 5.0}, "geometry": {"type": "Point", "coordinates": [564863.9, 5933804.3]}}, {"type": "Feature", "properties": {"h": 5.0}, "geometry": {"type": "Point", "coordinates": [564833.3, 5933809.0]}}, {"type": "Feature", "properties": {"h": 5.0}, "geometry": {"type": "Point", "coordinates": [564802.2, 5933827.9]}}, {"type": "Feature", "properties": {"h": 5.0}, "geometry": {"type": "Point", "coordinates": [564787.3, 5933854.1]}}, {"type": "Feature", "properties": {"h": 5.0}, "geometry": {"type": "Point", "coordinates": [565803.4, 5933959.8]}}, {"type": "Feature", "properties": {"h": 5.0}, "geometry": {"type": "Point", "coordinates": [565797.1, 5933966.8]}}, {"type": "Feature", "properties": {"h": 5.0}, "geometry": {"type": "Point", "coordinates": [565790.9, 5933973.7]}}, {"type": "Feature", "properties": {"h": 5.0}, "geometry": {"type": "Point", "coordinates": [565784.5, 5933980.6]}}, {"type": "Feature", "properties": {"h": 5.0}, "geometry": {"type": "Point", "coordinates": [565771.9, 5933994.4]}}, {"type": "Feature", "properties": {"h": 5.0}, "geometry": {"type": "Point", "coordinates": [565793.2, 5933988.4]}}, {"type": "Feature", "properties": {"h": 5.0}, "geometry": {"type": "Point", "coordinates": [565805.7, 5933974.7]}}, {"type": "Feature", "properties": {"h": 5.0}, "geometry": {"type": "Point", "coordinates": [565826.9, 5933992.8]}}, {"type": "Feature", "properties": {"h": 5.0}, "geometry": {"type": "Point", "coordinates": [564643.1, 5933568.9]}}, {"type": "Feature", "properties": {"h": 5.0}, "geometry": {"type": "Point", "coordinates": [564674.9, 5933570.9]}}, {"type": "Feature", "properties": {"h": 5.0}, "geometry": {"type": "Point", "coordinates": [564706.9, 5933572.6]}}, {"type": "Feature", "properties": {"h": 5.0}, "geometry": {"type": "Point", "coordinates": [564737.7, 5933573.3]}}, {"type": "Feature", "properties": {"h": 5.0}, "geometry": {"type": "Point", "coordinates": [564769.2, 5933570.2]}}, {"type": "Feature", "properties": {"h": 5.0}, "geometry": {"type": "Point", "coordinates": [565726.9, 5933630.8]}}, {"type": "Feature", "properties": {"h": 5.0}, "geometry": {"type": "Point", "coordinates": [565349.3, 5933603.7]}}, {"type": "Feature", "properties": {"h": 5.0}, "geometry": {"type": "Point", "coordinates": [565318.5, 5933609.8]}}, {"type": "Feature", "properties": {"h": 5.0}, "geometry": {"type": "Point", "coordinates": [565773.0, 5933083.2]}}, {"type": "Feature", "properties": {"h": 5.0}, "geometry": {"type": "Point", "coordinates": [565775.7, 5933051.2]}}, {"type": "Feature", "properties": {"h": 5.0}, "geometry": {"type": "Point", "coordinates": [565822.2, 5933061.8]}}, {"type": "Feature", "properties": {"h": 5.0}, "geometry": {"type": "Point", "coordinates": [565839.2, 5933049.8]}}, {"type": "Feature", "properties": {"h": 5.0}, "geometry": {"type": "Point", "coordinates": [565816.7, 5933092.6]}}, {"type": "Feature", "properties": {"h": 5.0}, "geometry": {"type": "Point", "coordinates": [564972.7, 5933321.9]}}, {"type": "Feature", "properties": {"h": 5.0}, "geometry": {"type": "Point", "coordinates": [564265.4, 5933481.0]}}, {"type": "Feature", "properties": {"h": 5.0}, "geometry": {"type": "Point", "coordinates": [565181.5, 5933591.0]}}, {"type": "Feature", "properties": {"h": 5.0}, "geometry": {"type": "Point", "coordinates": [565202.6, 5933638.4]}}, {"type": "Feature", "properties": {"h": 5.0}, "geometry": {"type": "Point", "coordinates": [565221.9, 5933681.2]}}, {"type": "Feature", "properties": {"h": 5.0}, "geometry": {"type": "Point", "coordinates": [564134.3, 5933775.1]}}, {"type": "Feature", "properties": {"h": 5.0}, "geometry": {"type": "Point", "coordinates": [564234.8, 5933914.2]}}, {"type": "Feature", "properties": {"h": 5.0}, "geometry": {"type": "Point", "coordinates": [564255.6, 5933892.5]}}, {"type": "Feature", "properties": {"h": 5.0}, "geometry": {"type": "Point", "coordinates": [564227.2, 5933874.2]}}, {"type": "Feature", "properties": {"h": 5.0}, "geometry": {"type": "Point", "coordinates": [564987.8, 5933371.4]}}, {"type": "Feature", "properties": {"h": 5.0}, "geometry": {"type": "Point", "coordinates": [564971.3, 5933294.6]}}, {"type": "Feature", "properties": {"h": 5.0}, "geometry": {"type": "Point", "coordinates": [565666.3, 5933588.0]}}, {"type": "Feature", "properties": {"h": 5.0}, "geometry": {"type": "Point", "coordinates": [565447.7, 5933649.1]}}, {"type": "Feature", "properties": {"h": 5.0}, "geometry": {"type": "Point", "coordinates": [564559.9, 5933993.8]}}, {"type": "Feature", "properties": {"h": 5.0}, "geometry": {"type": "Point", "coordinates": [564547.9, 5933968.6]}}, {"type": "Feature", "properties": {"h": 5.0}, "geometry": {"type": "Point", "coordinates": [564555.5, 5933847.6]}}, {"type": "Feature", "properties": {"h": 5.0}, "geometry": {"type": "Point", "coordinates": [564504.9, 5933861.5]}}, {"type": "Feature", "properties": {"h": 5.0}, "geometry": {"type": "Point", "coordinates": [564458.7, 5933876.5]}}, {"type": "Feature", "properties": {"h": 5.0}, "geometry": {"type": "Point", "coordinates": [564412.6, 5933868.7]}}, {"type": "Feature", "properties": {"h": 5.0}, "geometry": {"type": "Point", "coordinates": [564355.2, 5933630.3]}}, {"type": "Feature", "properties": {"h": 5.0}, "geometry": {"type": "Point", "coordinates": [564346.3, 5933664.3]}}, {"type": "Feature", "properties": {"h": 5.0}, "geometry": {"type": "Point", "coordinates": [564331.0, 5933699.1]}}, {"type": "Feature", "properties": {"h": 5.0}, "geometry": {"type": "Point", "coordinates": [564312.7, 5933733.0]}}, {"type": "Feature", "properties": {"h": 5.0}, "geometry": {"type": "Point", "coordinates": [564294.6, 5933772.9]}}, {"type": "Feature", "properties": {"h": 5.0}, "geometry": {"type": "Point", "coordinates": [564170.4, 5933827.2]}}, {"type": "Feature", "properties": {"h": 5.0}, "geometry": {"type": "Point", "coordinates": [564192.9, 5933858.5]}}, {"type": "Feature", "properties": {"h": 5.0}, "geometry": {"type": "Point", "coordinates": [564096.2, 5933774.5]}}, {"type": "Feature", "properties": {"h": 5.0}, "geometry": {"type": "Point", "coordinates": [564018.4, 5933571.3]}}, {"type": "Feature", "properties": {"h": 5.0}, "geometry": {"type": "Point", "coordinates": [564168.0, 5932430.6]}}, {"type": "Feature", "properties": {"h": 5.0}, "geometry": {"type": "Point", "coordinates": [565267.1, 5933503.3]}}, {"type": "Feature", "properties": {"h": 5.0}, "geometry": {"type": "Point", "coordinates": [565280.8, 5933532.5]}}, {"type": "Feature", "properties": {"h": 5.0}, "geometry": {"type": "Point", "coordinates": [565295.8, 5933560.0]}}, {"type": "Feature", "properties": {"h": 5.0}, "geometry": {"type": "Point", "coordinates": [565308.8, 5933584.1]}}, {"type": "Feature", "properties": {"h": 5.0}, "geometry": {"type": "Point", "coordinates": [565330.7, 5933575.6]}}, {"type": "Feature", "properties": {"h": 5.0}, "geometry": {"type": "Point", "coordinates": [565315.8, 5933550.0]}}, {"type": "Feature", "properties": {"h": 5.0}, "geometry": {"type": "Point", "coordinates": [565303.2, 5933522.4]}}, {"type": "Feature", "properties": {"h": 5.0}, "geometry": {"type": "Point", "coordinates": [565276.7, 5933468.9]}}, {"type": "Feature", "properties": {"h": 5.0}, "geometry": {"type": "Point", "coordinates": [565290.7, 5933495.2]}}, {"type": "Feature", "properties": {"h": 5.0}, "geometry": {"type": "Point", "coordinates": [565243.1, 5933452.5]}}, {"type": "Feature", "properties": {"h": 5.0}, "geometry": {"type": "Point", "coordinates": [565213.6, 5933506.9]}}, {"type": "Feature", "properties": {"h": 5.0}, "geometry": {"type": "Point", "coordinates": [565204.9, 5933470.5]}}, {"type": "Feature", "properties": {"h": 5.0}, "geometry": {"type": "Point", "coordinates": [565202.0, 5933435.1]}}, {"type": "Feature", "properties": {"h": 5.0}, "geometry": {"type": "Point", "coordinates": [565203.2, 5933381.3]}}, {"type": "Feature", "properties": {"h": 5.0}, "geometry": {"type": "Point", "coordinates": [565374.3, 5933354.7]}}, {"type": "Feature", "properties": {"h": 5.0}, "geometry": {"type": "Point", "coordinates": [565278.2, 5933371.7]}}, {"type": "Feature", "properties": {"h": 5.0}, "geometry": {"type": "Point", "coordinates": [565602.3, 5933329.4]}}, {"type": "Feature", "properties": {"h": 5.0}, "geometry": {"type": "Point", "coordinates": [565226.6, 5933428.1]}}, {"type": "Feature", "properties": {"h": 5.0}, "geometry": {"type": "Point", "coordinates": [565265.6, 5933439.1]}}, {"type": "Feature", "properties": {"h": 5.0}, "geometry": {"type": "Point", "coordinates": [565254.3, 5933414.8]}}, {"type": "Feature", "properties": {"h": 5.0}, "geometry": {"type": "Point", "coordinates": [565231.0, 5933358.5]}}, {"type": "Feature", "properties": {"h": 5.0}, "geometry": {"type": "Point", "coordinates": [565237.0, 5933335.2]}}, {"type": "Feature", "properties": {"h": 5.0}, "geometry": {"type": "Point", "coordinates": [565219.5, 5933338.6]}}, {"type": "Feature", "properties": {"h": 5.0}, "geometry": {"type": "Point", "coordinates": [565637.1, 5933611.2]}}, {"type": "Feature", "properties": {"h": 5.0}, "geometry": {"type": "Point", "coordinates": [565669.2, 5933612.7]}}, {"type": "Feature", "properties": {"h": 5.0}, "geometry": {"type": "Point", "coordinates": [565708.1, 5933615.8]}}, {"type": "Feature", "properties": {"h": 5.0}, "geometry": {"type": "Point", "coordinates": [565833.2, 5933634.0]}}, {"type": "Feature", "properties": {"h": 5.0}, "geometry": {"type": "Point", "coordinates": [565858.1, 5933643.0]}}, {"type": "Feature", "properties": {"h": 5.0}, "geometry": {"type": "Point", "coordinates": [565891.4, 5933684.8]}}, {"type": "Feature", "properties": {"h": 5.0}, "geometry": {"type": "Point", "coordinates": [565905.1, 5933710.4]}}, {"type": "Feature", "properties": {"h": 5.0}, "geometry": {"type": "Point", "coordinates": [565915.2, 5933765.5]}}, {"type": "Feature", "properties": {"h": 5.0}, "geometry": {"type": "Point", "coordinates": [565944.3, 5933770.6]}}, {"type": "Feature", "properties": {"h": 5.0}, "geometry": {"type": "Point", "coordinates": [565452.5, 5933823.3]}}, {"type": "Feature", "properties": {"h": 5.0}, "geometry": {"type": "Point", "coordinates": [565394.3, 5933788.7]}}, {"type": "Feature", "properties": {"h": 5.0}, "geometry": {"type": "Point", "coordinates": [565582.0, 5933393.1]}}, {"type": "Feature", "properties": {"h": 5.0}, "geometry": {"type": "Point", "coordinates": [564683.9, 5933387.9]}}, {"type": "Feature", "properties": {"h": 5.0}, "geometry": {"type": "Point", "coordinates": [564352.7, 5933589.3]}}, {"type": "Feature", "properties": {"h": 5.0}, "geometry": {"type": "Point", "coordinates": [564285.9, 5933508.6]}}, {"type": "Feature", "properties": {"h": 5.0}, "geometry": {"type": "Point", "coordinates": [564313.1, 5933530.6]}}, {"type": "Feature", "properties": {"h": 5.0}, "geometry": {"type": "Point", "coordinates": [564340.2, 5933559.9]}}, {"type": "Feature", "properties": {"h": 5.0}, "geometry": {"type": "Point", "coordinates": [564264.1, 5933843.6]}}, {"type": "Feature", "properties": {"h": 5.0}, "geometry": {"type": "Point", "coordinates": [564281.5, 5933800.6]}}, {"type": "Feature", "properties": {"h": 5.0}, "geometry": {"type": "Point", "coordinates": [564849.6, 5933274.6]}}, {"type": "Feature", "properties": {"h": 5.0}, "geometry": {"type": "Point", "coordinates": [564879.0, 5933276.4]}}, {"type": "Feature", "properties": {"h": 5.0}, "geometry": {"type": "Point", "coordinates": [564911.1, 5933279.7]}}, {"type": "Feature", "properties": {"h": 5.0}, "geometry": {"type": "Point", "coordinates": [564946.2, 5933281.6]}}, {"type": "Feature", "properties": {"h": 5.0}, "geometry": {"type": "Point", "coordinates": [564759.6, 5933267.1]}}, {"type": "Feature", "properties": {"h": 5.0}, "geometry": {"type": "Point", "coordinates": [564786.2, 5933268.0]}}, {"type": "Feature", "properties": {"h": 5.0}, "geometry": {"type": "Point", "coordinates": [564798.7, 5933458.9]}}, {"type": "Feature", "properties": {"h": 5.0}, "geometry": {"type": "Point", "coordinates": [564693.0, 5933466.3]}}, {"type": "Feature", "properties": {"h": 5.0}, "geometry": {"type": "Point", "coordinates": [564789.8, 5933507.4]}}, {"type": "Feature", "properties": {"h": 5.0}, "geometry": {"type": "Point", "coordinates": [564204.9, 5933449.4]}}, {"type": "Feature", "properties": {"h": 5.0}, "geometry": {"type": "Point", "coordinates": [564420.9, 5933416.7]}}, {"type": "Feature", "properties": {"h": 5.0}, "geometry": {"type": "Point", "coordinates": [564276.2, 5933432.0]}}, {"type": "Feature", "properties": {"h": 5.0}, "geometry": {"type": "Point", "coordinates": [565059.9, 5933287.4]}}, {"type": "Feature", "properties": {"h": 5.0}, "geometry": {"type": "Point", "coordinates": [564981.6, 5933282.6]}}, {"type": "Feature", "properties": {"h": 5.0}, "geometry": {"type": "Point", "coordinates": [564093.0, 5933458.9]}}, {"type": "Feature", "properties": {"h": 5.0}, "geometry": {"type": "Point", "coordinates": [564121.5, 5933454.5]}}, {"type": "Feature", "properties": {"h": 5.0}, "geometry": {"type": "Point", "coordinates": [564142.9, 5933454.9]}}, {"type": "Feature", "properties": {"h": 5.0}, "geometry": {"type": "Point", "coordinates": [564035.6, 5933472.2]}}, {"type": "Feature", "properties": {"h": 5.0}, "geometry": {"type": "Point", "coordinates": [564071.8, 5933466.4]}}, {"type": "Feature", "properties": {"h": 5.0}, "geometry": {"type": "Point", "coordinates": [564064.9, 5933463.9]}}, {"type": "Feature", "properties": {"h": 5.0}, "geometry": {"type": "Point", "coordinates": [564036.2, 5933468.7]}}, {"type": "Feature", "properties": {"h": 5.0}, "geometry": {"type": "Point", "coordinates": [564524.3, 5933915.3]}}, {"type": "Feature", "properties": {"h": 5.0}, "geometry": {"type": "Point", "coordinates": [564539.8, 5933758.8]}}, {"type": "Feature", "properties": {"h": 5.0}, "geometry": {"type": "Point", "coordinates": [564556.9, 5933772.6]}}, {"type": "Feature", "properties": {"h": 5.0}, "geometry": {"type": "Point", "coordinates": [564605.2, 5933839.9]}}, {"type": "Feature", "properties": {"h": 5.0}, "geometry": {"type": "Point", "coordinates": [564641.5, 5933852.3]}}, {"type": "Feature", "properties": {"h": 5.0}, "geometry": {"type": "Point", "coordinates": [564671.5, 5933849.3]}}, {"type": "Feature", "properties": {"h": 5.0}, "geometry": {"type": "Point", "coordinates": [564701.0, 5933847.2]}}, {"type": "Feature", "properties": {"h": 5.0}, "geometry": {"type": "Point", "coordinates": [564741.0, 5933846.0]}}, {"type": "Feature", "properties": {"h": 5.0}, "geometry": {"type": "Point", "coordinates": [564326.0, 5933410.8]}}, {"type": "Feature", "properties": {"h": 5.0}, "geometry": {"type": "Point", "coordinates": [564372.3, 5933391.7]}}, {"type": "Feature", "properties": {"h": 5.0}, "geometry": {"type": "Point", "coordinates": [564006.0, 5933457.8]}}, {"type": "Feature", "properties": {"h": 5.0}, "geometry": {"type": "Point", "coordinates": [565819.2, 5933495.7]}}, {"type": "Feature", "properties": {"h": 5.0}, "geometry": {"type": "Point", "coordinates": [565933.2, 5933609.1]}}, {"type": "Feature", "properties": {"h": 5.0}, "geometry": {"type": "Point", "coordinates": [565922.1, 5933554.7]}}, {"type": "Feature", "properties": {"h": 5.0}, "geometry": {"type": "Point", "coordinates": [565922.3, 5933504.9]}}, {"type": "Feature", "properties": {"h": 5.0}, "geometry": {"type": "Point", "coordinates": [565564.5, 5933355.6]}}, {"type": "Feature", "properties": {"h": 5.0}, "geometry": {"type": "Point", "coordinates": [565697.0, 5933334.2]}}, {"type": "Feature", "properties": {"h": 5.0}, "geometry": {"type": "Point", "coordinates": [565727.2, 5933331.5]}}, {"type": "Feature", "properties": {"h": 5.0}, "geometry": {"type": "Point", "coordinates": [565757.3, 5933334.0]}}, {"type": "Feature", "properties": {"h": 5.0}, "geometry": {"type": "Point", "coordinates": [565780.8, 5933344.6]}}, {"type": "Feature", "properties": {"h": 5.0}, "geometry": {"type": "Point", "coordinates": [564080.0, 5933670.0]}}, {"type": "Feature", "properties": {"h": 5.0}, "geometry": {"type": "Point", "coordinates": [564054.0, 5933633.7]}}, {"type": "Feature", "properties": {"h": 5.0}, "geometry": {"type": "Point", "coordinates": [564029.2, 5933599.1]}}, {"type": "Feature", "properties": {"h": 5.0}, "geometry": {"type": "Point", "coordinates": [564049.3, 5933572.3]}}, {"type": "Feature", "properties": {"h": 5.0}, "geometry": {"type": "Point", "coordinates": [564087.0, 5933576.1]}}, {"type": "Feature", "properties": {"h": 5.0}, "geometry": {"type": "Point", "coordinates": [564121.2, 5933581.5]}}, {"type": "Feature", "properties": {"h": 5.0}, "geometry": {"type": "Point", "coordinates": [564779.1, 5933936.4]}}, {"type": "Feature", "properties": {"h": 5.0}, "geometry": {"type": "Point", "coordinates": [564791.3, 5933882.9]}}, {"type": "Feature", "properties": {"h": 5.0}, "geometry": {"type": "Point", "coordinates": [565994.6, 5933819.3]}}, {"type": "Feature", "properties": {"h": 5.0}, "geometry": {"type": "Point", "coordinates": [564538.1, 5933787.4]}}, {"type": "Feature", "properties": {"h": 5.0}, "geometry": {"type": "Point", "coordinates": [564536.8, 5933818.5]}}, {"type": "Feature", "properties": {"h": 5.0}, "geometry": {"type": "Point", "coordinates": [564549.2, 5933725.9]}}, {"type": "Feature", "properties": {"h": 5.0}, "geometry": {"type": "Point", "coordinates": [565134.2, 5933273.0]}}, {"type": "Feature", "properties": {"h": 5.0}, "geometry": {"type": "Point", "coordinates": [565101.6, 5933251.6]}}, {"type": "Feature", "properties": {"h": 5.0}, "geometry": {"type": "Point", "coordinates": [565047.8, 5933235.1]}}, {"type": "Feature", "properties": {"h": 5.0}, "geometry": {"type": "Point", "coordinates": [565021.0, 5933234.3]}}, {"type": "Feature", "properties": {"h": 5.0}, "geometry": {"type": "Point", "coordinates": [564979.4, 5933239.7]}}, {"type": "Feature", "properties": {"h": 5.0}, "geometry": {"type": "Point", "coordinates": [564557.8, 5932813.2]}}, {"type": "Feature", "properties": {"h": 5.0}, "geometry": {"type": "Point", "coordinates": [564568.6, 5932807.6]}}, {"type": "Feature", "properties": {"h": 5.0}, "geometry": {"type": "Point", "coordinates": [565186.6, 5933855.3]}}, {"type": "Feature", "properties": {"h": 5.0}, "geometry": {"type": "Point", "coordinates": [565153.9, 5933754.1]}}, {"type": "Feature", "properties": {"h": 5.0}, "geometry": {"type": "Point", "coordinates": [565167.2, 5933789.0]}}, {"type": "Feature", "properties": {"h": 5.0}, "geometry": {"type": "Point", "coordinates": [565179.5, 5933821.3]}}, {"type": "Feature", "properties": {"h": 5.0}, "geometry": {"type": "Point", "coordinates": [565191.0, 5933891.0]}}, {"type": "Feature", "properties": {"h": 5.0}, "geometry": {"type": "Point", "coordinates": [565129.3, 5933943.4]}}, {"type": "Feature", "properties": {"h": 5.0}, "geometry": {"type": "Point", "coordinates": [565016.8, 5933940.4]}}, {"type": "Feature", "properties": {"h": 5.0}, "geometry": {"type": "Point", "coordinates": [565698.9, 5933591.1]}}, {"type": "Feature", "properties": {"h": 5.0}, "geometry": {"type": "Point", "coordinates": [565582.4, 5933614.7]}}, {"type": "Feature", "properties": {"h": 5.0}, "geometry": {"type": "Point", "coordinates": [565554.8, 5933619.3]}}, {"type": "Feature", "properties": {"h": 5.0}, "geometry": {"type": "Point", "coordinates": [565610.1, 5933612.3]}}, {"type": "Feature", "properties": {"h": 5.0}, "geometry": {"type": "Point", "coordinates": [565850.7, 5933748.8]}}, {"type": "Feature", "properties": {"h": 5.0}, "geometry": {"type": "Point", "coordinates": [565937.5, 5933795.0]}}, {"type": "Feature", "properties": {"h": 5.0}, "geometry": {"type": "Point", "coordinates": [565878.3, 5933661.9]}}, {"type": "Feature", "properties": {"h": 5.0}, "geometry": {"type": "Point", "coordinates": [565008.0, 5933854.4]}}, {"type": "Feature", "properties": {"h": 5.0}, "geometry": {"type": "Point", "coordinates": [564949.4, 5933757.4]}}, {"type": "Feature", "properties": {"h": 5.0}, "geometry": {"type": "Point", "coordinates": [564925.5, 5933711.8]}}, {"type": "Feature", "properties": {"h": 5.0}, "geometry": {"type": "Point", "coordinates": [564829.4, 5933669.3]}}, {"type": "Feature", "properties": {"h": 5.0}, "geometry": {"type": "Point", "coordinates": [564861.0, 5933671.4]}}, {"type": "Feature", "properties": {"h": 5.0}, "geometry": {"type": "Point", "coordinates": [564807.8, 5933656.5]}}, {"type": "Feature", "properties": {"h": 5.0}, "geometry": {"type": "Point", "coordinates": [564859.5, 5933648.5]}}, {"type": "Feature", "properties": {"h": 5.0}, "geometry": {"type": "Point", "coordinates": [564833.2, 5933644.7]}}, {"type": "Feature", "properties": {"h": 5.0}, "geometry": {"type": "Point", "coordinates": [564804.9, 5933766.5]}}, {"type": "Feature", "properties": {"h": 5.0}, "geometry": {"type": "Point", "coordinates": [564882.1, 5933830.1]}}, {"type": "Feature", "properties": {"h": 5.0}, "geometry": {"type": "Point", "coordinates": [564916.4, 5933818.8]}}, {"type": "Feature", "properties": {"h": 5.0}, "geometry": {"type": "Point", "coordinates": [565005.9, 5933716.5]}}, {"type": "Feature", "properties": {"h": 5.0}, "geometry": {"type": "Point", "coordinates": [565111.8, 5933677.8]}}, {"type": "Feature", "properties": {"h": 5.0}, "geometry": {"type": "Point", "coordinates": [565077.6, 5933676.6]}}, {"type": "Feature", "properties": {"h": 5.0}, "geometry": {"type": "Point", "coordinates": [565043.4, 5933666.3]}}, {"type": "Feature", "properties": {"h": 5.0}, "geometry": {"type": "Point", "coordinates": [564932.3, 5933587.4]}}, {"type": "Feature", "properties": {"h": 5.0}, "geometry": {"type": "Point", "coordinates": [564942.6, 5933604.4]}}, {"type": "Feature", "properties": {"h": 5.0}, "geometry": {"type": "Point", "coordinates": [564965.5, 5933618.7]}}, {"type": "Feature", "properties": {"h": 5.0}, "geometry": {"type": "Point", "coordinates": [564986.8, 5933633.3]}}, {"type": "Feature", "properties": {"h": 5.0}, "geometry": {"type": "Point", "coordinates": [565016.3, 5933652.2]}}, {"type": "Feature", "properties": {"h": 5.0}, "geometry": {"type": "Point", "coordinates": [564952.0, 5933642.4]}}, {"type": "Feature", "properties": {"h": 5.0}, "geometry": {"type": "Point", "coordinates": [564978.5, 5933657.0]}}, {"type": "Feature", "properties": {"h": 5.0}, "geometry": {"type": "Point", "coordinates": [564498.2, 5933391.5]}}, {"type": "Feature", "properties": {"h": 5.0}, "geometry": {"type": "Point", "coordinates": [564470.4, 5933404.5]}}, {"type": "Feature", "properties": {"h": 5.0}, "geometry": {"type": "Point", "coordinates": [564527.7, 5933376.2]}}, {"type": "Feature", "properties": {"h": 5.0}, "geometry": {"type": "Point", "coordinates": [564556.0, 5933361.6]}}, {"type": "Feature", "properties": {"h": 5.0}, "geometry": {"type": "Point", "coordinates": [564584.0, 5933346.5]}}, {"type": "Feature", "properties": {"h": 5.0}, "geometry": {"type": "Point", "coordinates": [564609.1, 5933333.6]}}, {"type": "Feature", "properties": {"h": 5.0}, "geometry": {"type": "Point", "coordinates": [564634.1, 5933319.5]}}, {"type": "Feature", "properties": {"h": 5.0}, "geometry": {"type": "Point", "coordinates": [564655.5, 5933308.3]}}, {"type": "Feature", "properties": {"h": 5.0}, "geometry": {"type": "Point", "coordinates": [564679.7, 5933296.0]}}, {"type": "Feature", "properties": {"h": 5.0}, "geometry": {"type": "Point", "coordinates": [564705.9, 5933281.5]}}, {"type": "Feature", "properties": {"h": 5.0}, "geometry": {"type": "Point", "coordinates": [564732.7, 5933269.9]}}, {"type": "Feature", "properties": {"h": 5.0}, "geometry": {"type": "Point", "coordinates": [564815.4, 5933269.1]}}, {"type": "Feature", "properties": {"h": 5.0}, "geometry": {"type": "Point", "coordinates": [565005.4, 5933280.8]}}, {"type": "Feature", "properties": {"h": 5.0}, "geometry": {"type": "Point", "coordinates": [565032.2, 5933281.7]}}, {"type": "Feature", "properties": {"h": 5.0}, "geometry": {"type": "Point", "coordinates": [565117.3, 5933305.1]}}, {"type": "Feature", "properties": {"h": 5.0}, "geometry": {"type": "Point", "coordinates": [565089.0, 5933292.5]}}, {"type": "Feature", "properties": {"h": 5.0}, "geometry": {"type": "Point", "coordinates": [565138.2, 5933318.7]}}, {"type": "Feature", "properties": {"h": 5.0}, "geometry": {"type": "Point", "coordinates": [565190.4, 5933425.7]}}, {"type": "Feature", "properties": {"h": 5.0}, "geometry": {"type": "Point", "coordinates": [565131.2, 5933420.6]}}, {"type": "Feature", "properties": {"h": 5.0}, "geometry": {"type": "Point", "coordinates": [565109.2, 5933425.6]}}, {"type": "Feature", "properties": {"h": 5.0}, "geometry": {"type": "Point", "coordinates": [565093.0, 5933454.4]}}, {"type": "Feature", "properties": {"h": 5.0}, "geometry": {"type": "Point", "coordinates": [565046.2, 5933455.1]}}, {"type": "Feature", "properties": {"h": 5.0}, "geometry": {"type": "Point", "coordinates": [565025.4, 5933469.2]}}, {"type": "Feature", "properties": {"h": 5.0}, "geometry": {"type": "Point", "coordinates": [565190.1, 5933399.9]}}, {"type": "Feature", "properties": {"h": 5.0}, "geometry": {"type": "Point", "coordinates": [565332.3, 5933635.3]}}, {"type": "Feature", "properties": {"h": 5.0}, "geometry": {"type": "Point", "coordinates": [565364.3, 5933693.8]}}, {"type": "Feature", "properties": {"h": 5.0}, "geometry": {"type": "Point", "coordinates": [565372.7, 5933719.6]}}, {"type": "Feature", "properties": {"h": 5.0}, "geometry": {"type": "Point", "coordinates": [565380.1, 5933736.8]}}, {"type": "Feature", "properties": {"h": 5.0}, "geometry": {"type": "Point", "coordinates": [565395.1, 5933761.9]}}, {"type": "Feature", "properties": {"h": 5.0}, "geometry": {"type": "Point", "coordinates": [565441.5, 5933315.6]}}, {"type": "Feature", "properties": {"h": 5.0}, "geometry": {"type": "Point", "coordinates": [565420.2, 5933318.1]}}, {"type": "Feature", "properties": {"h": 5.0}, "geometry": {"type": "Point", "coordinates": [565826.0, 5933033.1]}}, {"type": "Feature", "properties": {"h": 5.0}, "geometry": {"type": "Point", "coordinates": [565813.4, 5933117.5]}}, {"type": "Feature", "properties": {"h": 5.0}, "geometry": {"type": "Point", "coordinates": [565831.5, 5933133.6]}}, {"type": "Feature", "properties": {"h": 5.0}, "geometry": {"type": "Point", "coordinates": [565835.5, 5933078.7]}}, {"type": "Feature", "properties": {"h": 5.0}, "geometry": {"type": "Point", "coordinates": [565834.9, 5933108.6]}}, {"type": "Feature", "properties": {"h": 5.0}, "geometry": {"type": "Point", "coordinates": [565858.4, 5933114.0]}}, {"type": "Feature", "properties": {"h": 5.0}, "geometry": {"type": "Point", "coordinates": [565886.2, 5933120.3]}}, {"type": "Feature", "properties": {"h": 5.0}, "geometry": {"type": "Point", "coordinates": [565914.6, 5933119.7]}}, {"type": "Feature", "properties": {"h": 5.0}, "geometry": {"type": "Point", "coordinates": [565946.9, 5933054.7]}}, {"type": "Feature", "properties": {"h": 5.0}, "geometry": {"type": "Point", "coordinates": [565810.9, 5933137.4]}}, {"type": "Feature", "properties": {"h": 5.0}, "geometry": {"type": "Point", "coordinates": [565139.2, 5933366.4]}}, {"type": "Feature", "properties": {"h": 5.0}, "geometry": {"type": "Point", "coordinates": [565137.4, 5933378.1]}}, {"type": "Feature", "properties": {"h": 5.0}, "geometry": {"type": "Point", "coordinates": [565134.7, 5933401.8]}}, {"type": "Feature", "properties": {"h": 5.0}, "geometry": {"type": "Point", "coordinates": [565689.8, 5933981.7]}}, {"type": "Feature", "properties": {"h": 5.0}, "geometry": {"type": "Point", "coordinates": [565334.3, 5933920.3]}}, {"type": "Feature", "properties": {"h": 5.0}, "geometry": {"type": "Point", "coordinates": [565319.1, 5933964.0]}}, {"type": "Feature", "properties": {"h": 5.0}, "geometry": {"type": "Point", "coordinates": [564395.8, 5933686.9]}}, {"type": "Feature", "properties": {"h": 5.0}, "geometry": {"type": "Point", "coordinates": [564377.0, 5933681.2]}}, {"type": "Feature", "properties": {"h": 5.0}, "geometry": {"type": "Point", "coordinates": [564360.7, 5933678.6]}}, {"type": "Feature", "properties": {"h": 5.0}, "geometry": {"type": "Point", "coordinates": [565154.6, 5933160.6]}}, {"type": "Feature", "properties": {"h": 5.0}, "geometry": {"type": "Point", "coordinates": [565175.7, 5933164.8]}}, {"type": "Feature", "properties": {"h": 5.0}, "geometry": {"type": "Point", "coordinates": [564388.5, 5933651.2]}}, {"type": "Feature", "properties": {"h": 5.0}, "geometry": {"type": "Point", "coordinates": [564398.7, 5933650.6]}}, {"type": "Feature", "properties": {"h": 5.0}, "geometry": {"type": "Point", "coordinates": [564101.5, 5933024.9]}}, {"type": "Feature", "properties": {"h": 5.0}, "geometry": {"type": "Point", "coordinates": [564107.8, 5933030.8]}}, {"type": "Feature", "properties": {"h": 5.0}, "geometry": {"type": "Point", "coordinates": [564092.3, 5933028.4]}}, {"type": "Feature", "properties": {"h": 5.0}, "geometry": {"type": "Point", "coordinates": [565797.0, 5932912.7]}}, {"type": "Feature", "properties": {"h": 5.0}, "geometry": {"type": "Point", "coordinates": [564061.8, 5932896.5]}}, {"type": "Feature", "properties": {"h": 5.0}, "geometry": {"type": "Point", "coordinates": [564147.2, 5932456.0]}}, {"type": "Feature", "properties": {"h": 5.0}, "geometry": {"type": "Point", "coordinates": [564038.5, 5932892.3]}}, {"type": "Feature", "properties": {"h": 5.0}, "geometry": {"type": "Point", "coordinates": [564056.8, 5932916.0]}}, {"type": "Feature", "properties": {"h": 5.0}, "geometry": {"type": "Point", "coordinates": [564125.4, 5932474.0]}}, {"type": "Feature", "properties": {"h": 5.0}, "geometry": {"type": "Point", "coordinates": [564004.7, 5932767.9]}}, {"type": "Feature", "properties": {"h": 5.0}, "geometry": {"type": "Point", "coordinates": [564067.5, 5932501.3]}}, {"type": "Feature", "properties": {"h": 5.0}, "geometry": {"type": "Point", "coordinates": [564016.9, 5932797.1]}}, {"type": "Feature", "properties": {"h": 5.0}, "geometry": {"type": "Point", "coordinates": [564181.9, 5932405.9]}}, {"type": "Feature", "properties": {"h": 5.0}, "geometry": {"type": "Point", "coordinates": [564180.5, 5932377.6]}}, {"type": "Feature", "properties": {"h": 5.0}, "geometry": {"type": "Point", "coordinates": [564037.8, 5932865.5]}}, {"type": "Feature", "properties": {"h": 5.0}, "geometry": {"type": "Point", "coordinates": [564200.2, 5932304.5]}}, {"type": "Feature", "properties": {"h": 5.0}, "geometry": {"type": "Point", "coordinates": [564195.7, 5932334.8]}}, {"type": "Feature", "properties": {"h": 5.0}, "geometry": {"type": "Point", "coordinates": [564202.8, 5932280.6]}}, {"type": "Feature", "properties": {"h": 5.0}, "geometry": {"type": "Point", "coordinates": [564012.1, 5932755.2]}}, {"type": "Feature", "properties": {"h": 5.0}, "geometry": {"type": "Point", "coordinates": [564296.6, 5932286.1]}}, {"type": "Feature", "properties": {"h": 5.0}, "geometry": {"type": "Point", "coordinates": [564173.3, 5932401.7]}}, {"type": "Feature", "properties": {"h": 5.0}, "geometry": {"type": "Point", "coordinates": [564041.5, 5932514.3]}}, {"type": "Feature", "properties": {"h": 5.0}, "geometry": {"type": "Point", "coordinates": [564032.0, 5932828.7]}}, {"type": "Feature", "properties": {"h": 5.0}, "geometry": {"type": "Point", "coordinates": [564189.3, 5932374.0]}}, {"type": "Feature", "properties": {"h": 5.0}, "geometry": {"type": "Point", "coordinates": [564168.4, 5932466.1]}}, {"type": "Feature", "properties": {"h": 5.0}, "geometry": {"type": "Point", "coordinates": [564006.4, 5932772.2]}}, {"type": "Feature", "properties": {"h": 5.0}, "geometry": {"type": "Point", "coordinates": [564102.2, 5932485.0]}}, {"type": "Feature", "properties": {"h": 5.0}, "geometry": {"type": "Point", "coordinates": [564011.8, 5932529.4]}}, {"type": "Feature", "properties": {"h": 5.0}, "geometry": {"type": "Point", "coordinates": [565813.0, 5933911.2]}}, {"type": "Feature", "properties": {"h": 5.0}, "geometry": {"type": "Point", "coordinates": [565825.1, 5933911.2]}}, {"type": "Feature", "properties": {"h": 5.0}, "geometry": {"type": "Point", "coordinates": [565837.2, 5933911.1]}}, {"type": "Feature", "properties": {"h": 5.0}, "geometry": {"type": "Point", "coordinates": [564385.1, 5933924.4]}}, {"type": "Feature", "properties": {"h": 5.0}, "geometry": {"type": "Point", "coordinates": [564352.0, 5933935.9]}}, {"type": "Feature", "properties": {"h": 5.0}, "geometry": {"type": "Point", "coordinates": [564985.5, 5933940.9]}}, {"type": "Feature", "properties": {"h": 5.0}, "geometry": {"type": "Point", "coordinates": [564933.1, 5933898.8]}}, {"type": "Feature", "properties": {"h": 5.0}, "geometry": {"type": "Point", "coordinates": [565039.4, 5933942.0]}}, {"type": "Feature", "properties": {"h": 5.0}, "geometry": {"type": "Point", "coordinates": [564919.4, 5933863.3]}}, {"type": "Feature", "properties": {"h": 5.0}, "geometry": {"type": "Point", "coordinates": [565982.1, 5933995.1]}}, {"type": "Feature", "properties": {"h": 5.0}, "geometry": {"type": "Point", "coordinates": [565997.8, 5933982.3]}}, {"type": "Feature", "properties": {"h": 5.0}, "geometry": {"type": "Point", "coordinates": [564336.6, 5933739.0]}}, {"type": "Feature", "properties": {"h": 5.0}, "geometry": {"type": "Point", "coordinates": [564347.7, 5933806.6]}}, {"type": "Feature", "properties": {"h": 5.0}, "geometry": {"type": "Point", "coordinates": [564423.1, 5933832.3]}}, {"type": "Feature", "properties": {"h": 5.0}, "geometry": {"type": "Point", "coordinates": [564385.8, 5933825.2]}}, {"type": "Feature", "properties": {"h": 5.0}, "geometry": {"type": "Point", "coordinates": [564357.1, 5933713.1]}}, {"type": "Feature", "properties": {"h": 5.0}, "geometry": {"type": "Point", "coordinates": [564387.8, 5933684.0]}}, {"type": "Feature", "properties": {"h": 5.0}, "geometry": {"type": "Point", "coordinates": [564329.9, 5933784.2]}}, {"type": "Feature", "properties": {"h": 5.0}, "geometry": {"type": "Point", "coordinates": [565118.9, 5933337.3]}}, {"type": "Feature", "properties": {"h": 5.0}, "geometry": {"type": "Point", "coordinates": [565116.4, 5933369.1]}}, {"type": "Feature", "properties": {"h": 5.0}, "geometry": {"type": "Point", "coordinates": [565112.9, 5933397.5]}}, {"type": "Feature", "properties": {"h": 5.0}, "geometry": {"type": "Point", "coordinates": [564683.5, 5933643.9]}}, {"type": "Feature", "properties": {"h": 5.0}, "geometry": {"type": "Point", "coordinates": [564657.4, 5933643.4]}}, {"type": "Feature", "properties": {"h": 5.0}, "geometry": {"type": "Point", "coordinates": [564712.4, 5933645.0]}}, {"type": "Feature", "properties": {"h": 5.0}, "geometry": {"type": "Point", "coordinates": [564621.0, 5933642.0]}}, {"type": "Feature", "properties": {"h": 5.0}, "geometry": {"type": "Point", "coordinates": [564594.2, 5933641.3]}}, {"type": "Feature", "properties": {"h": 5.0}, "geometry": {"type": "Point", "coordinates": [564561.8, 5933638.9]}}, {"type": "Feature", "properties": {"h": 5.0}, "geometry": {"type": "Point", "coordinates": [564544.5, 5933678.0]}}, {"type": "Feature", "properties": {"h": 5.0}, "geometry": {"type": "Point", "coordinates": [565200.1, 5933918.9]}}, {"type": "Feature", "properties": {"h": 5.0}, "geometry": {"type": "Point", "coordinates": [565608.7, 5933120.9]}}, {"type": "Feature", "properties": {"h": 5.0}, "geometry": {"type": "Point", "coordinates": [565958.0, 5933383.8]}}, {"type": "Feature", "properties": {"h": 5.0}, "geometry": {"type": "Point", "coordinates": [565984.4, 5933399.4]}}, {"type": "Feature", "properties": {"h": 5.0}, "geometry": {"type": "Point", "coordinates": [564949.1, 5933553.7]}}, {"type": "Feature", "properties": {"h": 5.0}, "geometry": {"type": "Point", "coordinates": [564617.4, 5933382.7]}}, {"type": "Feature", "properties": {"h": 5.0}, "geometry": {"type": "Point", "coordinates": [565810.5, 5933682.7]}}, {"type": "Feature", "properties": {"h": 5.0}, "geometry": {"type": "Point", "coordinates": [565793.1, 5933691.7]}}, {"type": "Feature", "properties": {"h": 5.0}, "geometry": {"type": "Point", "coordinates": [565775.7, 5933700.7]}}, {"type": "Feature", "properties": {"h": 5.0}, "geometry": {"type": "Point", "coordinates": [565758.3, 5933709.7]}}, {"type": "Feature", "properties": {"h": 5.0}, "geometry": {"type": "Point", "coordinates": [564195.3, 5933510.2]}}, {"type": "Feature", "properties": {"h": 5.0}, "geometry": {"type": "Point", "coordinates": [564461.3, 5933522.5]}}, {"type": "Feature", "properties": {"h": 5.0}, "geometry": {"type": "Point", "coordinates": [564384.5, 5933447.6]}}, {"type": "Feature", "properties": {"h": 5.0}, "geometry": {"type": "Point", "coordinates": [564791.7, 5933565.8]}}, {"type": "Feature", "properties": {"h": 5.0}, "geometry": {"type": "Point", "coordinates": [565151.3, 5933479.1]}}, {"type": "Feature", "properties": {"h": 5.0}, "geometry": {"type": "Point", "coordinates": [564371.5, 5933446.4]}}, {"type": "Feature", "properties": {"h": 5.0}, "geometry": {"type": "Point", "coordinates": [564474.6, 5933545.6]}}, {"type": "Feature", "properties": {"h": 5.0}, "geometry": {"type": "Point", "coordinates": [564728.6, 5933553.6]}}, {"type": "Feature", "properties": {"h": 5.0}, "geometry": {"type": "Point", "coordinates": [564378.9, 5933460.0]}}, {"type": "Feature", "properties": {"h": 5.0}, "geometry": {"type": "Point", "coordinates": [564436.2, 5933502.7]}}]}