{"type": "FeatureCollection", "attribution": "\u00a9 OpenStreetMap contributors (ODbL)", "crs": {"type": "name", "properties": {"name": "urn:ogc:def:crs:EPSG::25832"}}, "features": [{"type": "Feature", "properties": {"kind": "hedge", "h": 1.5, "w": 1.0, "src": "osm"}, "geometry": {"type": "LineString", "coordinates": [[567593.4, 5935357.7], [567595.1, 5935350.5], [567598.9, 5935344.1], [567604.5, 5935339.2], [567611.3, 5935336.2], [567618.6, 5935335.4]]}}, {"type": "Feature", "properties": {"kind": "hedge", "h": 1.5, "w": 1.0, "src": "osm"}, "geometry": {"type": "LineString", "coordinates": [[567733.2, 5935340.5], [567730.9, 5935337.7], [567720.9, 5935339.6], [567710.1, 5935341.4], [567712.6, 5935361.5], [567725.6, 5935358.6]]}}, {"type": "Feature", "properties": {"kind": "hedge", "h": 1.5, "w": 1.0, "src": "osm"}, "geometry": {"type": "LineString", "coordinates": [[567639.4, 5934915.8], [567670.3, 5934886.5]]}}, {"type": "Feature", "properties": {"kind": "hedge", "h": 1.5, "w": 1.0, "src": "osm"}, "geometry": {"type": "LineString", "coordinates": [[567329.2, 5935574.0], [567327.9, 5935577.8], [567327.3, 5935586.0], [567326.5, 5935591.8], [567323.7, 5935601.8]]}}, {"type": "Feature", "properties": {"kind": "hedge", "h": 1.5, "w": 1.0, "src": "osm"}, "geometry": {"type": "LineString", "coordinates": [[567157.0, 5934714.9], [567158.8, 5934713.1], [567170.8, 5934700.8]]}}, {"type": "Feature", "properties": {"kind": "hedge", "h": 1.5, "w": 1.0, "src": "osm"}, "geometry": {"type": "LineString", "coordinates": [[567701.7, 5934499.8], [567712.3, 5934507.0]]}}, {"type": "Feature", "properties": {"kind": "hedge", "h": 1.5, "w": 1.0, "src": "osm"}, "geometry": {"type": "LineString", "coordinates": [[567700.1, 5934507.5], [567695.9, 5934513.9]]}}, {"type": "Feature", "properties": {"kind": "hedge", "h": 1.5, "w": 1.0, "src": "osm"}, "geometry": {"type": "LineString", "coordinates": [[567522.1, 5934585.3], [567503.5, 5934570.9]]}}, {"type": "Feature", "properties": {"kind": "hedge", "h": 1.5, "w": 1.0, "src": "osm"}, "geometry": {"type": "LineString", "coordinates": [[567594.9, 5934642.1], [567607.0, 5934651.4]]}}, {"type": "Feature", "properties": {"kind": "hedge", "h": 1.5, "w": 1.0, "src": "osm"}, "geometry": {"type": "LineString", "coordinates": [[567578.9, 5934629.9], [567592.3, 5934640.1]]}}, {"type": "Feature", "properties": {"kind": "hedge", "h": 1.5, "w": 1.0, "src": "osm"}, "geometry": {"type": "LineString", "coordinates": [[567548.6, 5934605.8], [567578.9, 5934629.9]]}}, {"type": "Feature", "properties": {"kind": "hedge", "h": 1.5, "w": 1.0, "src": "osm"}, "geometry": {"type": "LineString", "coordinates": [[567548.6, 5934605.8], [567522.1, 5934585.3]]}}, {"type": "Feature", "properties": {"kind": "hedge", "h": 1.5, "w": 1.0, "src": "osm"}, "geometry": {"type": "LineString", "coordinates": [[566629.1, 5934583.7], [566621.7, 5934601.3]]}}, {"type": "Feature", "properties": {"kind": "hedge", "h": 1.5, "w": 1.0, "src": "osm"}, "geometry": {"type": "LineString", "coordinates": [[566618.7, 5934606.3], [566611.9, 5934619.5], [566611.4, 5934619.9], [566603.1, 5934627.5]]}}, {"type": "Feature", "properties": {"kind": "hedge", "h": 1.5, "w": 1.0, "src": "osm"}, "geometry": {"type": "LineString", "coordinates": [[566638.8, 5934562.5], [566641.8, 5934556.5], [566644.7, 5934550.8]]}}, {"type": "Feature", "properties": {"kind": "hedge", "h": 1.5, "w": 1.0, "src": "osm"}, "geometry": {"type": "LineString", "coordinates": [[567170.7, 5934710.3], [567170.0, 5934709.9], [567169.5, 5934709.3], [567169.3, 5934708.5], [567169.2, 5934707.7], [567169.5, 5934707.0], [567169.9, 5934706.3], [567170.6, 5934705.9], [567171.4, 5934705.6], [567172.2, 5934705.7], [567172.9, 5934706.0], [567173.5, 5934706.5], [567173.9, 5934707.2], [567174.1, 5934708.0], [567173.9, 5934708.8], [567173.6, 5934709.5]]}}, {"type": "Feature", "properties": {"kind": "hedge", "h": 1.5, "w": 1.0, "src": "osm"}, "geometry": {"type": "LineString", "coordinates": [[567201.9, 5934740.7], [567202.4, 5934740.8], [567202.9, 5934740.7], [567203.3, 5934740.5], [567203.7, 5934740.1], [567204.0, 5934739.6], [567204.1, 5934739.0], [567204.0, 5934738.4], [567203.7, 5934737.9], [567203.2, 5934737.6], [567202.7, 5934737.3], [567202.1, 5934737.3], [567201.6, 5934737.5], [567201.1, 5934737.8], [567200.7, 5934738.3]]}}, {"type": "Feature", "properties": {"kind": "hedge", "h": 1.5, "w": 1.0, "src": "osm"}, "geometry": {"type": "LineString", "coordinates": [[567886.3, 5934811.1], [567899.6, 5934798.8], [567907.7, 5934791.1], [567911.4, 5934795.1]]}}, {"type": "Feature", "properties": {"kind": "hedge", "h": 1.5, "w": 1.0, "src": "osm"}, "geometry": {"type": "LineString", "coordinates": [[567914.0, 5934801.4], [567915.8, 5934803.5], [567917.9, 5934805.8], [567932.7, 5934822.8], [567935.0, 5934825.4]]}}, {"type": "Feature", "properties": {"kind": "hedge", "h": 1.5, "w": 1.0, "src": "osm"}, "geometry": {"type": "LineString", "coordinates": [[567843.0, 5934866.3], [567845.5, 5934859.6]]}}, {"type": "Feature", "properties": {"kind": "hedge", "h": 1.5, "w": 1.0, "src": "osm"}, "geometry": {"type": "LineString", "coordinates": [[567847.9, 5934879.2], [567854.2, 5934882.2]]}}, {"type": "Feature", "properties": {"kind": "hedge", "h": 1.5, "w": 1.0, "src": "osm"}, "geometry": {"type": "LineString", "coordinates": [[567729.9, 5935235.6], [567745.0, 5935238.2]]}}, {"type": "Feature", "properties": {"kind": "hedge", "h": 1.5, "w": 1.0, "src": "osm"}, "geometry": {"type": "LineString", "coordinates": [[567741.4, 5935227.2], [567746.9, 5935228.0]]}}, {"type": "Feature", "properties": {"kind": "hedge", "h": 1.5, "w": 1.0, "src": "osm"}, "geometry": {"type": "LineString", "coordinates": [[567660.6, 5935328.4], [567655.1, 5935326.7], [567660.9, 5935299.3], [567666.3, 5935300.3], [567675.2, 5935301.9], [567675.8, 5935301.8], [567679.4, 5935301.1], [567681.4, 5935300.6], [567684.8, 5935300.2], [567689.6, 5935299.5], [567694.8, 5935298.7], [567695.3, 5935298.6], [567708.5, 5935296.5]]}}, {"type": "Feature", "properties": {"kind": "hedge", "h": 1.5, "w": 1.0, "src": "osm"}, "geometry": {"type": "LineString", "coordinates": [[567667.7, 5935308.1], [567666.3, 5935300.3]]}}, {"type": "Feature", "properties": {"kind": "hedge", "h": 1.5, "w": 1.0, "src": "osm"}, "geometry": {"type": "LineString", "coordinates": [[567676.8, 5935309.0], [567675.8, 5935301.8]]}}, {"type": "Feature", "properties": {"kind": "hedge", "h": 1.5, "w": 1.0, "src": "osm"}, "geometry": {"type": "LineString", "coordinates": [[567680.8, 5935308.8], [567679.4, 5935301.1]]}}, {"type": "Feature", "properties": {"kind": "hedge", "h": 1.5, "w": 1.0, "src": "osm"}, "geometry": {"type": "LineString", "coordinates": [[567685.7, 5935307.7], [567684.8, 5935300.2]]}}, {"type": "Feature", "properties": {"kind": "hedge", "h": 1.5, "w": 1.0, "src": "osm"}, "geometry": {"type": "LineString", "coordinates": [[567690.5, 5935306.9], [567689.6, 5935299.5]]}}, {"type": "Feature", "properties": {"kind": "hedge", "h": 1.5, "w": 1.0, "src": "osm"}, "geometry": {"type": "LineString", "coordinates": [[567695.9, 5935306.3], [567694.8, 5935298.7]]}}, {"type": "Feature", "properties": {"kind": "hedge", "h": 1.5, "w": 1.0, "src": "osm"}, "geometry": {"type": "LineString", "coordinates": [[567684.9, 5935269.7], [567676.1, 5935273.4], [567678.0, 5935278.5], [567680.9, 5935286.0], [567685.4, 5935297.5], [567703.9, 5935290.1]]}}, {"type": "Feature", "properties": {"kind": "hedge", "h": 1.5, "w": 1.0, "src": "osm"}, "geometry": {"type": "LineString", "coordinates": [[567678.0, 5935278.5], [567686.4, 5935274.9]]}}, {"type": "Feature", "properties": {"kind": "hedge", "h": 1.5, "w": 1.0, "src": "osm"}, "geometry": {"type": "LineString", "coordinates": [[567680.9, 5935286.0], [567688.8, 5935282.0]]}}]}