{"type": "FeatureCollection", "attribution": "\u00a9 OpenStreetMap contributors (ODbL)", "crs": {"type": "name", "properties": {"name": "urn:ogc:def:crs:EPSG::25832"}}, "features": [{"type": "Feature", "properties": {"kind": "fountain", "source": "osm", "name": "Kreisende Kugeln", "style": "basin", "figure": false}, "geometry": {"type": "Point", "coordinates": [564749.51, 5935362.76]}}, {"type": "Feature", "properties": {"kind": "fountain", "source": "osm", "style": "basin", "figure": false}, "geometry": {"type": "Point", "coordinates": [564786.68, 5934458.2]}}, {"type": "Feature", "properties": {"kind": "fountain", "source": "osm", "style": "basin", "figure": false}, "geometry": {"type": "Polygon", "coordinates": [[[564812.28, 5934596.68], [564811.27, 5934595.94], [564810.07, 5934595.58], [564808.83, 5934595.66], [564807.68, 5934596.16], [564806.85, 5934596.91], [564806.29, 5934597.9], [564806.07, 5934599.0], [564806.19, 5934600.11], [564806.66, 5934601.14], [564807.43, 5934601.96], [564808.41, 5934602.52], [564809.51, 5934602.74], [564810.63, 5934602.61], [564811.66, 5934602.14], [564812.56, 5934601.29], [564813.12, 5934600.17], [564813.26, 5934598.93], [564812.96, 5934597.72], [564812.28, 5934596.68]], [[564812.02, 5934596.92], [564811.11, 5934596.26], [564810.03, 5934595.93], [564808.91, 5934596.01], [564807.87, 5934596.46], [564807.12, 5934597.14], [564806.62, 5934598.02], [564806.42, 5934599.01], [564806.54, 5934600.02], [564806.96, 5934600.94], [564807.65, 5934601.69], [564808.53, 5934602.19], [564809.52, 5934602.38], [564810.54, 5934602.27], [564811.46, 5934601.85], [564812.28, 5934601.08], [564812.78, 5934600.07], [564812.9, 5934598.95], [564812.64, 5934597.86], [564812.02, 5934596.92]]]}}, {"type": "Feature", "properties": {"kind": "fountain", "source": "osm", "style": "basin", "figure": false}, "geometry": {"type": "Polygon", "coordinates": [[[564823.11, 5934574.58], [564828.98, 5934574.14], [564861.18, 5934609.89], [564858.76, 5934611.09], [564823.11, 5934574.58]], [[564823.88, 5934574.88], [564858.83, 5934610.66], [564860.61, 5934609.78], [564828.83, 5934574.5], [564823.88, 5934574.88]]]}}, {"type": "Feature", "properties": {"kind": "fountain", "source": "osm", "name": "Wasserkaskaden", "style": "basin", "figure": false}, "geometry": {"type": "Point", "coordinates": [564836.09, 5935280.05]}}, {"type": "Feature", "properties": {"kind": "fountain", "source": "osm", "name": "Wassertreppen", "style": "basin", "figure": false}, "geometry": {"type": "Point", "coordinates": [564885.51, 5934622.84]}}, {"type": "Feature", "properties": {"kind": "fountain", "source": "osm", "style": "basin", "figure": false}, "geometry": {"type": "Point", "coordinates": [564885.6, 5934626.79]}}, {"type": "Feature", "properties": {"kind": "fountain", "source": "osm", "name": "Wasserorgel", "style": "basin", "figure": false}, "geometry": {"type": "Point", "coordinates": [564961.44, 5935237.17]}}, {"type": "Feature", "properties": {"kind": "fountain", "source": "osm", "name": "Hummelbrunnen", "style": "basin", "figure": false}, "geometry": {"type": "Point", "coordinates": [565060.75, 5934161.34]}}, {"type": "Feature", "properties": {"kind": "fountain", "source": "osm", "style": "basin", "figure": false}, "geometry": {"type": "Point", "coordinates": [565128.09, 5934364.17]}}, {"type": "Feature", "properties": {"kind": "fountain", "source": "osm", "style": "basin", "figure": false}, "geometry": {"type": "Point", "coordinates": [565152.06, 5935790.1]}}, {"type": "Feature", "properties": {"kind": "fountain", "source": "osm", "style": "basin", "figure": false}, "geometry": {"type": "Polygon", "coordinates": [[[565330.07, 5935158.92], [565345.09, 5935155.0], [565343.77, 5935141.56], [565341.73, 5935141.25], [565326.2, 5935153.7], [565330.07, 5935158.92]], [[565330.21, 5935158.52], [565344.72, 5935154.73], [565343.45, 5935141.87], [565341.83, 5935141.62], [565326.69, 5935153.76], [565330.21, 5935158.52]]]}}, {"type": "Feature", "properties": {"kind": "fountain", "source": "osm", "style": "basin", "figure": false}, "geometry": {"type": "Polygon", "coordinates": [[[565346.28, 5935172.53], [565345.46, 5935164.92], [565329.38, 5935169.75], [565332.31, 5935176.04], [565346.28, 5935172.53]], [[565345.9, 5935172.26], [565345.16, 5935165.37], [565329.87, 5935169.96], [565332.51, 5935175.63], [565345.9, 5935172.26]]]}}, {"type": "Feature", "properties": {"kind": "fountain", "source": "osm", "style": "basin", "figure": false}, "geometry": {"type": "Point", "coordinates": [565564.31, 5935442.82]}}, {"type": "Feature", "properties": {"kind": "fountain", "source": "osm", "name": "Weltkugel", "style": "basin", "figure": false}, "geometry": {"type": "Point", "coordinates": [565571.39, 5934265.54]}}, {"type": "Feature", "properties": {"kind": "fountain", "source": "osm", "name": "Gustav-Mahler-Platz-Brunnen", "style": "basin", "figure": false}, "geometry": {"type": "Point", "coordinates": [565604.35, 5934613.36]}}, {"type": "Feature", "properties": {"kind": "fountain", "source": "osm", "name": "Nebelfeld", "style": "splash", "figure": false}, "geometry": {"type": "Point", "coordinates": [565660.24, 5934411.79]}}, {"type": "Feature", "properties": {"kind": "fountain", "source": "osm", "name": "Alsterfont\u00e4ne", "style": "basin", "figure": false}, "geometry": {"type": "Point", "coordinates": [565966.12, 5934481.37]}}]}