{"type": "FeatureCollection", "attribution": "\u00a9 OpenStreetMap contributors (ODbL)", "crs": {"type": "name", "properties": {"name": "urn:ogc:def:crs:EPSG::25832"}}, "features": [{"type": "Feature", "properties": {}, "geometry": {"type": "Polygon", "coordinates": [[[565593.5, 5935079.88], [565583.68, 5935093.18], [565577.25, 5935101.51], [565534.96, 5935156.21], [565523.35, 5935171.11], [565517.86, 5935178.33], [565512.17, 5935185.45], [565505.1, 5935193.94], [565496.46, 5935203.23], [565488.97, 5935210.67], [565483.46, 5935215.89], [565477.91, 5935221.06], [565462.99, 5935234.1], [565458.95, 5935229.84], [565474.33, 5935214.64], [565478.02, 5935210.71], [565483.01, 5935205.36], [565487.94, 5935199.82], [565500.39, 5935185.08], [565516.02, 5935165.56], [565527.76, 5935150.43], [565570.18, 5935096.07], [565576.79, 5935087.43], [565586.58, 5935074.6], [565593.5, 5935079.88]], [[565532.88, 5935154.65], [565536.02, 5935150.76], [565533.2, 5935148.51], [565530.07, 5935152.4], [565530.77, 5935152.97], [565531.52, 5935153.57], [565532.17, 5935154.09], [565532.88, 5935154.65]], [[565573.13, 5935098.21], [565573.92, 5935098.82], [565574.71, 5935099.43], [565577.79, 5935095.49], [565576.21, 5935094.27], [565573.13, 5935098.21]], [[565485.64, 5935207.44], [565482.25, 5935211.12], [565483.72, 5935212.48], [565487.11, 5935208.8], [565486.37, 5935208.08], [565485.64, 5935207.44]]]}}, {"type": "Feature", "properties": {}, "geometry": {"type": "Polygon", "coordinates": [[[565314.09, 5935350.98], [565309.28, 5935345.75], [565316.36, 5935339.16], [565347.87, 5935309.83], [565395.35, 5935265.76], [565421.06, 5935241.89], [565451.61, 5935213.41], [565464.09, 5935200.89], [565470.38, 5935194.37], [565481.26, 5935182.14], [565489.82, 5935172.15], [565502.79, 5935155.53], [565521.23, 5935131.79], [565556.68, 5935086.12], [565563.6, 5935077.16], [565580.36, 5935055.81], [565587.63, 5935061.35], [565570.82, 5935082.8], [565563.91, 5935091.55], [565531.38, 5935133.12], [565528.05, 5935137.27], [565509.7, 5935160.77], [565504.78, 5935166.95], [565494.31, 5935179.87], [565477.09, 5935200.11], [565461.71, 5935216.08], [565447.83, 5935229.51], [565427.78, 5935248.03], [565387.23, 5935284.96], [565321.34, 5935344.44], [565314.09, 5935350.98]], [[565524.2, 5935134.34], [565523.41, 5935133.73], [565522.63, 5935133.1], [565519.54, 5935137.04], [565521.11, 5935138.27], [565524.2, 5935134.34]], [[565560.03, 5935088.46], [565560.82, 5935089.07], [565561.61, 5935089.69], [565564.7, 5935085.75], [565563.12, 5935084.52], [565560.03, 5935088.46]], [[565472.78, 5935196.55], [565469.39, 5935200.23], [565470.87, 5935201.58], [565474.26, 5935197.9], [565473.53, 5935197.2], [565472.78, 5935196.55]]]}}, {"type": "Feature", "properties": {}, "geometry": {"type": "Polygon", "coordinates": [[[564171.91, 5935437.57], [564171.97, 5935435.05], [564172.02, 5935433.15], [564172.08, 5935430.67], [564152.55, 5935429.89], [564024.73, 5935420.85], [563987.3, 5935417.8], [563966.69, 5935415.98], [563956.01, 5935415.15], [563955.28, 5935421.7], [563957.68, 5935422.07], [563957.63, 5935422.71], [563965.99, 5935423.8], [563976.43, 5935425.17], [563986.37, 5935426.13], [563989.43, 5935426.45], [564065.66, 5935432.45], [564129.25, 5935436.89], [564152.22, 5935437.61], [564171.91, 5935437.57]], [[563987.03, 5935420.22], [563982.06, 5935419.68], [563981.64, 5935423.46], [563986.6, 5935424.0], [563986.71, 5935423.05], [563986.92, 5935421.17], [563987.03, 5935420.22]]]}}]}