{"type": "FeatureCollection", "attribution": "\u00a9 OpenStreetMap contributors (ODbL)", "crs": {"type": "name", "properties": {"name": "urn:ogc:def:crs:EPSG::25832"}}, "features": [{"type": "Feature", "properties": {}, "geometry": {"type": "Polygon", "coordinates": [[[567899.1, 5932188.75], [567903.99, 5932198.65], [567912.37, 5932215.58], [567921.54, 5932233.47], [567926.07, 5932243.88], [567927.11, 5932246.27], [567934.58, 5932263.6], [567935.31, 5932265.43], [567938.56, 5932273.63], [567943.99, 5932287.28], [567951.95, 5932310.46], [567957.08, 5932327.31], [567963.36, 5932352.5], [567965.81, 5932362.14], [567959.83, 5932363.75], [567958.01, 5932356.45], [567950.44, 5932329.28], [567944.48, 5932310.85], [567941.58, 5932302.48], [567935.63, 5932285.92], [567929.28, 5932269.53], [567928.6, 5932267.95], [567915.29, 5932236.66], [567906.8, 5932218.55], [567898.25, 5932201.74], [567880.1, 5932166.06], [567881.24, 5932165.5], [567886.34, 5932162.97], [567899.1, 5932188.75]], [[567907.54, 5932212.98], [567909.96, 5932211.79], [567905.42, 5932202.63], [567904.27, 5932203.2], [567903.0, 5932203.83], [567907.54, 5932212.98]]]}}, {"type": "Feature", "properties": {}, "geometry": {"type": "Polygon", "coordinates": [[[567942.81, 5932354.36], [567936.8, 5932332.99], [567931.17, 5932314.66], [567922.91, 5932289.91], [567922.59, 5932289.07], [567918.57, 5932278.72], [567916.22, 5932272.65], [567915.67, 5932271.42], [567903.05, 5932243.17], [567894.1, 5932225.32], [567885.35, 5932207.62], [567867.84, 5932172.15], [567873.19, 5932169.49], [567891.34, 5932204.72], [567900.26, 5932222.04], [567908.9, 5932239.87], [567920.82, 5932269.25], [567927.95, 5932286.84], [567928.4, 5932287.96], [567934.89, 5932305.11], [567937.42, 5932312.66], [567943.12, 5932330.0], [567951.07, 5932357.95], [567952.89, 5932365.39], [567946.17, 5932366.98], [567942.81, 5932354.36]], [[567891.94, 5932220.1], [567894.62, 5932218.77], [567890.05, 5932209.6], [567888.6, 5932210.32], [567887.37, 5932210.93], [567891.94, 5932220.1]]]}}, {"type": "Feature", "properties": {}, "geometry": {"type": "Polygon", "coordinates": [[[567883.46, 5933456.99], [567882.84, 5933456.69], [567879.91, 5933455.28], [567877.61, 5933454.17], [567876.56, 5933453.67], [567865.66, 5933475.7], [567835.07, 5933537.46], [567829.85, 5933548.0], [567806.9, 5933595.46], [567784.48, 5933642.96], [567785.14, 5933643.28], [567787.06, 5933644.23], [567789.3, 5933645.32], [567791.01, 5933646.15], [567791.52, 5933646.4], [567872.73, 5933479.03], [567883.46, 5933456.99]]]}}, {"type": "Feature", "properties": {}, "geometry": {"type": "Polygon", "coordinates": [[[567793.0, 5932226.46], [567795.01, 5932225.41], [567843.19, 5932316.47], [567853.46, 5932336.09], [567855.86, 5932341.33], [567852.28, 5932343.11], [567846.51, 5932332.1], [567844.89, 5932328.99], [567841.74, 5932322.93], [567839.38, 5932318.39], [567838.99, 5932317.66], [567807.17, 5932257.52], [567805.32, 5932254.03], [567803.42, 5932250.45], [567791.22, 5932227.38], [567793.0, 5932226.46]]]}}, {"type": "Feature", "properties": {}, "geometry": {"type": "Polygon", "coordinates": [[[567802.49, 5932221.55], [567804.28, 5932220.62], [567805.99, 5932219.73], [567819.86, 5932246.33], [567821.68, 5932249.8], [567853.17, 5932310.18], [567853.58, 5932310.96], [567860.62, 5932324.46], [567866.6, 5932335.91], [567862.73, 5932337.91], [567860.77, 5932333.62], [567849.88, 5932312.91], [567802.49, 5932221.55]]]}}]}