{"type": "FeatureCollection", "attribution": "\u00a9 OpenStreetMap contributors (ODbL)", "crs": {"type": "name", "properties": {"name": "urn:ogc:def:crs:EPSG::25832"}}, "features": [{"type": "Feature", "properties": {}, "geometry": {"type": "Polygon", "coordinates": [[[564967.14, 5933260.28], [564967.17, 5933261.58], [564999.52, 5933257.03], [565014.78, 5933256.22], [565021.2, 5933256.01], [565023.43, 5933255.94], [565030.82, 5933256.04], [565045.72, 5933256.96], [565057.01, 5933258.76], [565057.3, 5933256.88], [565057.48, 5933255.67], [565046.02, 5933254.47], [565030.91, 5933253.54], [565021.22, 5933253.52], [565014.67, 5933253.72], [564999.28, 5933254.54], [564967.02, 5933258.93], [564967.14, 5933260.28]]]}}, {"type": "Feature", "properties": {}, "geometry": {"type": "Polygon", "coordinates": [[[565055.23, 5933268.78], [565044.84, 5933267.05], [565022.89, 5933265.83], [565021.21, 5933265.81], [565000.58, 5933266.54], [564983.87, 5933268.39], [564968.44, 5933270.0], [564968.21, 5933268.55], [564967.97, 5933267.45], [564983.43, 5933265.63], [565000.33, 5933263.22], [565021.2, 5933262.66], [565022.91, 5933262.62], [565045.06, 5933263.94], [565055.79, 5933265.41], [565055.52, 5933267.15], [565055.23, 5933268.78]]]}}, {"type": "Feature", "properties": {}, "geometry": {"type": "Polygon", "coordinates": [[[564374.56, 5933425.26], [564383.48, 5933421.67], [564397.16, 5933416.15], [564395.74, 5933412.41], [564385.15, 5933416.71], [564384.4, 5933414.93], [564383.65, 5933413.01], [564378.73, 5933414.92], [564377.65, 5933415.67], [564377.24, 5933416.49], [564377.1, 5933417.5], [564377.77, 5933419.6], [564372.49, 5933421.84], [564365.03, 5933424.99], [564355.55, 5933429.59], [564349.52, 5933432.81], [564343.62, 5933436.4], [564337.17, 5933440.71], [564331.17, 5933445.16], [564325.26, 5933444.4], [564323.23, 5933445.84], [564324.58, 5933447.32], [564326.14, 5933449.06], [564319.7, 5933454.33], [564313.74, 5933460.21], [564308.08, 5933465.86], [564310.72, 5933468.65], [564314.11, 5933464.88], [564321.37, 5933457.39], [564330.32, 5933450.04], [564337.53, 5933444.63], [564347.08, 5933438.64], [564357.91, 5933432.9], [564367.11, 5933428.41], [564374.56, 5933425.26]]]}}, {"type": "Feature", "properties": {}, "geometry": {"type": "Polygon", "coordinates": [[[564316.33, 5933472.11], [564319.15, 5933468.97], [564325.58, 5933462.5], [564332.65, 5933456.26], [564340.99, 5933449.66], [564349.63, 5933443.98], [564368.93, 5933434.43], [564382.78, 5933428.71], [564384.22, 5933428.12], [564399.76, 5933421.98], [564401.06, 5933425.59], [564389.77, 5933430.42], [564390.6, 5933432.29], [564391.35, 5933434.0], [564387.78, 5933435.42], [564386.4, 5933435.98], [564384.97, 5933435.81], [564384.26, 5933435.15], [564382.87, 5933432.79], [564375.28, 5933435.94], [564362.26, 5933442.19], [564351.92, 5933447.1], [564339.9, 5933455.64], [564337.96, 5933461.52], [564335.52, 5933463.63], [564334.84, 5933462.81], [564333.54, 5933461.25], [564332.43, 5933459.93], [564327.25, 5933464.37], [564321.23, 5933470.82], [564318.55, 5933474.05], [564316.33, 5933472.11]]]}}, {"type": "Feature", "properties": {}, "geometry": {"type": "Polygon", "coordinates": [[[565380.0, 5933682.8], [565375.84, 5933672.83], [565372.07, 5933664.05], [565367.05, 5933653.44], [565353.86, 5933630.63], [565355.29, 5933629.78], [565356.84, 5933628.9], [565360.52, 5933635.38], [565369.86, 5933652.13], [565375.2, 5933663.36], [565378.96, 5933671.94], [565383.5, 5933682.78], [565397.82, 5933721.41], [565400.76, 5933729.55], [565399.16, 5933730.15], [565397.38, 5933730.84], [565380.0, 5933682.8]]]}}, {"type": "Feature", "properties": {}, "geometry": {"type": "Polygon", "coordinates": [[[565362.83, 5933666.98], [565358.1, 5933656.94], [565349.9, 5933642.4], [565346.29, 5933635.99], [565347.98, 5933634.94], [565349.15, 5933634.22], [565361.26, 5933655.79], [565366.57, 5933666.04], [565374.08, 5933685.53], [565391.03, 5933732.55], [565389.23, 5933733.17], [565387.44, 5933733.81], [565384.66, 5933726.28], [565362.83, 5933666.98]]]}}]}