{"type": "FeatureCollection", "attribution": "\u00a9 OpenStreetMap contributors (ODbL)", "crs": {"type": "name", "properties": {"name": "urn:ogc:def:crs:EPSG::25832"}}, "features": [{"type": "Feature", "properties": {}, "geometry": {"type": "Polygon", "coordinates": [[[564163.4212887906, 5934730.856300657], [564158.9304404489, 5934730.56945371], [564158.9168387534, 5934730.782400553], [564155.5222845399, 5934730.637098172], [564155.2795239373, 5934736.308471297], [564155.2774748285, 5934736.398216739], [564155.254350785, 5934744.431461357], [564155.2601874312, 5934744.600026548], [564155.8232999502, 5934752.396454218], [564155.840822282, 5934752.557802379], [564156.8222156104, 5934759.313998524], [564156.8439341544, 5934759.438733679], [564169.2879688825, 5934820.660825655], [564169.2930762334, 5934820.685257713], [564188.2835222066, 5934909.0791450795], [564191.8635667644, 5934908.310012227], [564191.8645880092, 5934908.314774687], [564196.2645630068, 5934907.3712599715], [564164.225216287, 5934757.959362086], [564163.3856204482, 5934751.501220097], [564163.0555629152, 5934744.226268157], [564163.0221581882, 5934737.10505116], [564163.4212887906, 5934730.856300657]]]}}, {"type": "Feature", "properties": {}, "geometry": {"type": "Polygon", "coordinates": [[[564255.0336412505, 5935421.373762522], [564254.8989517632, 5935421.371233468], [564210.0062370363, 5935421.872527769], [564209.9754833073, 5935421.873081437], [564189.183570835, 5935422.389589658], [564155.6036109775, 5935421.977064265], [564104.1297881665, 5935418.432434388], [564008.5038339603, 5935411.494357577], [564000.0, 5935410.654881712], [564000.0, 5935419.307348682], [564045.3046642825, 5935422.637846075], [564089.6365072113, 5935425.8882425055], [564102.8179750175, 5935426.857332825], [564130.5974664335, 5935428.915062624], [564152.3422114216, 5935430.53484705], [564152.4892113864, 5935430.540973535], [564171.6238359043, 5935430.712268059], [564216.1458227632, 5935431.129090506], [564216.2370204305, 5935431.128095787], [564231.3158495305, 5935430.657852101], [564261.5442094383, 5935431.61343418], [564221.8897016236, 5935433.766490699], [564221.8397662144, 5935433.769759276], [564215.1912678959, 5935434.279254125], [564176.8568350752, 5935436.901808607], [564171.6951918193, 5935437.041081842], [564160.4042891084, 5935437.341504167], [564151.3321653992, 5935437.151728853], [564151.3291679969, 5935437.15166815], [564143.9307429747, 5935437.00676621], [564103.1821426875, 5935434.808664678], [564047.9767475233, 5935430.455390063], [564045.5809246886, 5935430.267053699], [564007.4996634356, 5935427.268841406], [564000.0, 5935426.67622309], [564000.0, 5935431.190250347], [564007.1455018335, 5935431.754883055], [564045.2278581891, 5935434.753181659], [564047.623269551, 5935434.941485626], [564102.8562067384, 5935439.296932093], [564102.9118880386, 5935439.300628731], [564143.726895878, 5935441.502312486], [564143.8040324624, 5935441.5051475195], [564151.2395508289, 5935441.650775951], [564160.3636309898, 5935441.841638117], [564160.4705329649, 5935441.841334208], [564171.8153050586, 5935441.539478555], [564177.0246977072, 5935441.398917088], [564177.1175786983, 5935441.3944888], [564215.5075845121, 5935438.7681324305], [564215.525935673, 5935438.766801575], [564222.1586573499, 5935438.258515738], [564264.956888243, 5935435.934769585], [564315.0796174856, 5935437.694485377], [564358.817190151, 5935440.424975861], [564405.053858222, 5935444.1581385285], [564458.1297172619, 5935449.165832581], [564459.5128673128, 5935449.296042087], [564459.5902008396, 5935449.301979509], [564480.7307886822, 5935450.558994001], [564488.5547128678, 5935451.022044744], [564577.716993137, 5935456.314448458], [564577.7966290175, 5935456.317761175], [564687.2923097912, 5935458.930958831], [564687.2960073948, 5935458.931044036], [564785.5297633308, 5935461.113903314], [564785.5797484017, 5935458.86445861], [564785.5435415423, 5935461.114167268], [564923.2572049218, 5935463.330533917], [564923.2791979349, 5935463.330780358], [565100.6076600585, 5935464.451033602], [565100.8042156628, 5935464.443677768], [565131.6879556682, 5935461.932575798], [565131.99806349, 5935461.885424868], [565175.455296953, 5935452.137759223], [565175.7090705899, 5935452.064962741], [565195.625628239, 5935445.063250398], [565195.7146738485, 5935445.029815136], [565222.2657930588, 5935434.4146772865], [565222.5611590152, 5935434.2707537245], [565254.0879129503, 5935415.946910501], [565254.3355982292, 5935415.780025128], [565280.7116912351, 5935395.3377503175], [565280.7643817463, 5935395.29563432], [565297.2684423393, 5935381.693377456], [565297.3072345537, 5935381.66066431], [565322.1456154889, 5935360.23076182], [565413.2354713196, 5935281.954099976], [565428.6330353671, 5935268.921057906], [565428.6570683306, 5935268.900423436], [565459.1539965632, 5935242.34085795], [565459.1571398715, 5935242.338115336], [565480.2070908456, 5935223.93711811], [565480.2563428422, 5935223.8927674955], [565490.0074452886, 5935214.848461624], [565490.072932096, 5935214.785209077], [565498.9882951912, 5935205.818332592], [565499.0414776156, 5935205.762985962], [565507.824581925, 5935196.3047058415], [565507.8961282851, 5935196.223853013], [565514.9887224972, 5935187.810289566], [565515.0382817365, 5935187.7493739035], [565520.722134367, 5935180.508533308], [565523.1754495166, 5935177.395403583], [565521.4082440096, 5935176.00274975], [565523.1908287985, 5935177.375663248], [565526.2923796967, 5935173.348623333], [565531.6264558497, 5935166.45960531], [565531.6291524733, 5935166.456115531], [565533.8958800698, 5935163.516727768], [565533.9172669878, 5935163.488538586], [565537.9078333689, 5935158.141950378], [565586.2951143119, 5935095.741558141], [565586.2969492652, 5935095.739188522], [565590.9449970991, 5935089.728535025], [565591.0009188977, 5935089.653011345], [565593.6604574476, 5935085.8998170085], [565598.2990387079, 5935079.414663882], [565594.6389283087, 5935076.7967273155], [565589.9974565032, 5935083.285921684], [565589.9916933383, 5935083.294016824], [565587.3564543076, 5935087.01291919], [565582.7380728186, 5935092.9852094585], [565534.3390235835, 5935155.400778123], [565534.3139536746, 5935155.433730047], [565530.3215865705, 5935160.7827308765], [565528.0670099203, 5935163.706361853], [565522.7325123361, 5935170.595924158], [565522.7289755271, 5935170.600504139], [565519.6332939657, 5935174.619923334], [565517.1863970921, 5935177.724908601], [565517.1837477703, 5935177.728277046], [565511.5228200952, 5935184.939912812], [565504.4903401053, 5935193.282165986], [565495.7700982784, 5935202.672751252], [565486.9139018782, 5935211.580119174], [565477.2204822066, 5935220.570923335], [565456.1970542117, 5935238.948735269], [565425.713642794, 5935265.496529054], [565410.3217556237, 5935278.524766015], [565410.3089718682, 5935278.535668825], [565323.8158840259, 5935352.862169039], [565449.5976131412, 5935240.0609979415], [565449.6565688229, 5935240.00619236], [565459.5266593551, 5935230.496146981], [565459.5387483158, 5935230.484411407], [565465.7306640596, 5935224.428304176], [565465.7523231177, 5935224.406831021], [565474.8825019157, 5935215.231480821], [565474.9010780058, 5935215.212591703], [565478.5503590718, 5935211.4578533145], [565478.5992184273, 5935211.405962322], [565488.481182584, 5935200.572040422], [565488.5387433282, 5935200.506422295], [565501.0061811277, 5935185.724996607], [565501.0418661968, 5935185.68160029], [565513.2194629322, 5935170.489791331], [565513.9027085444, 5935169.6477913475], [565513.930267424, 5935169.613137698], [565516.6754327918, 5935166.090661889], [565516.6848198316, 5935166.078531804], [565528.4725771595, 5935150.738456747], [565582.4185605438, 5935081.662841961], [565582.4853373495, 5935081.572799929], [565584.9311719384, 5935078.097094314], [565592.3164019784, 5935068.502320898], [565588.7618195981, 5935065.766309589], [565590.3729167043, 5935063.7033715565], [565586.8263289696, 5935060.933585385], [565582.8820613355, 5935065.984044281], [565511.5364743647, 5935156.932131708], [565511.5286412325, 5935156.942175437], [565507.6393722239, 5935161.95825272], [565506.5953142897, 5935163.293205893], [565504.1203516327, 5935166.348039395], [565493.7104233481, 5935179.211393053], [565491.8165631015, 5935181.432800431], [565476.4020604149, 5935199.540433915], [565472.7296572349, 5935203.380721196], [565461.1907409787, 5935215.450599726], [565447.2865022476, 5935228.906697822], [565441.7546312965, 5935234.031534301], [565432.3816718181, 5935242.716849181], [565422.9982502982, 5935251.223924098], [565422.9949175852, 5935251.226951639], [565420.7674457238, 5935253.2545290515], [565386.6002063117, 5935284.378261825], [565352.7532401173, 5935314.938608028], [565320.8283616024, 5935343.760014582], [565313.0515084936, 5935350.7852115985], [565302.4281757596, 5935360.107354704], [565290.2876290433, 5935370.766635735], [565272.8588636551, 5935385.200291077], [565247.6215169387, 5935404.686873759], [565215.5934990377, 5935422.692055244], [565186.992281934, 5935434.833061364], [565175.8751372371, 5935438.373445615], [565170.8646926085, 5935439.964749769], [565130.5024410287, 5935449.068653918], [565118.9066964514, 5935450.83133118], [565110.1994626261, 5935451.613092301], [565098.2757946621, 5935452.341575831], [564975.2752052908, 5935451.366118762], [565098.295305356, 5935451.879089841], [565098.5322183184, 5935451.867575319], [565110.1940176354, 5935450.6822008295], [565110.2388951032, 5935450.677183736], [565116.5491869374, 5935449.907532487], [565116.6246082507, 5935449.897035411], [565129.9549173085, 5935447.811215081], [565130.0769634324, 5935447.788653452], [565149.8490822131, 5935443.566474241], [565149.983296612, 5935443.533473094], [565169.5339328708, 5935438.084359359], [565169.6929594468, 5935438.033607506], [565175.5781388114, 5935435.911808054], [565185.5044906178, 5935432.332579051], [565185.6291739428, 5935432.283376677], [565212.7377333752, 5935420.641088753], [565212.8390270609, 5935420.594581678], [565229.9061501056, 5935412.240641003], [565230.1805976641, 5935412.081395753], [565256.5278262936, 5935394.197771304], [565256.7281021622, 5935394.044770672], [565286.5199770278, 5935368.520294172], [565285.0560739201, 5935366.811643332], [565286.604765099, 5935368.443836835], [565308.5884235527, 5935347.584852984], [565307.0397323738, 5935345.952659481], [565308.5915938339, 5935347.581839032], [565334.8584899988, 5935322.561525084], [565337.7298291186, 5935319.877872551], [565395.8717045655, 5935266.42416666], [565395.8786024048, 5935266.417798411], [565421.5743275732, 5935242.595405185], [565421.5794323029, 5935242.590657886], [565452.1366150341, 5935214.08467568], [565452.19057689, 5935214.032627896], [565462.5020496132, 5935203.749830463], [565464.6252593284, 5935201.631368413], [565464.6651881193, 5935201.590504213], [565470.9104590506, 5935195.034433642], [565470.9635026755, 5935194.976772564], [565481.7715703495, 5935182.809337587], [565481.7959751864, 5935182.781402856], [565490.3743963098, 5935172.797285165], [565490.405960644, 5935172.759727845], [565494.9274854728, 5935167.259063477], [565494.9787440443, 5935167.194318346], [565497.698020652, 5935163.626964761], [565502.0845454182, 5935157.867822384], [565500.2946152964, 5935156.50449918], [565502.1316609925, 5935157.803638553], [565505.5563877176, 5935152.960909881], [565521.8503622076, 5935132.372425108], [565521.8641561208, 5935132.354816447], [565577.5262775542, 5935060.5669581685], [565580.6011580551, 5935056.86736322], [565580.7233179043, 5935056.706162009], [565582.8125282064, 5935053.675313365], [565579.1074822188, 5935051.121368527], [565577.0757254587, 5935054.068868459], [565574.0411708858, 5935057.719944579], [565573.993418395, 5935057.779421437], [565518.3147780462, 5935129.588584285], [565501.9900715012, 5935150.215900986], [565501.9173475273, 5935150.313067046], [565498.4805594807, 5935155.172851008], [565494.1189428691, 5935160.899291318], [565491.4249617931, 5935164.433460303], [565486.945237839, 5935169.883271786], [565478.394890911, 5935179.834714925], [565467.6251605626, 5935191.958990762], [565461.4266184531, 5935198.466007023], [565459.3242850094, 5935200.563639601], [565449.0395773156, 5935210.819746436], [565418.5123579053, 5935239.297776657], [565392.8226309626, 5935263.114608956], [565334.6774104548, 5935316.571390184], [565334.6638606944, 5935316.583950426], [565331.777986478, 5935319.281187963], [565331.7624837894, 5935319.295815495], [565305.4894546078, 5935344.321971396], [565283.5488065667, 5935365.140145229], [565253.8961426037, 5935390.545351444], [565227.7849386398, 5935408.2687701825], [565210.9107384017, 5935416.5282798465], [565183.9150104991, 5935428.122110117], [565174.0518708071, 5935431.678546193], [565168.2452970721, 5935433.772005747], [565148.8417162577, 5935439.180132487], [565129.1979235107, 5935443.37490869], [565115.966570599, 5935445.445245152], [565109.7164918085, 5935446.207552359], [565098.1953089936, 5935447.378633753], [564923.5783969031, 5935446.650513505], [564793.2590531958, 5935443.579173834], [564791.8238931936, 5935443.526418564], [564791.8125813457, 5935443.526031237], [564736.769234941, 5935441.779901741], [564736.6978945108, 5935444.028770466], [564736.759464415, 5935441.779613036], [564687.8644292565, 5935440.441128414], [564651.8551384372, 5935439.457797022], [564651.7937189788, 5935441.706958566], [564651.8467521205, 5935439.457583656], [564580.8724343317, 5935437.784233854], [564558.8549565936, 5935437.238388408], [564459.4987293651, 5935431.909298433], [564391.6873050864, 5935426.978898764], [564316.2354987576, 5935421.154040722], [564316.0623147005, 5935423.397365769], [564316.223717391, 5935421.153162313], [564191.0155177978, 5935412.1482121395], [564191.0118741426, 5935412.147953061], [564107.4064130243, 5935406.271482994], [564060.3123246867, 5935402.4501501005], [564060.287332212, 5935402.448262204], [564009.159274835, 5935398.872398225], [564000.0, 5935398.211581585], [564000.0, 5935402.723278147], [564008.8379188724, 5935403.360909833], [564008.8428492683, 5935403.361260104], [564059.9608704902, 5935406.936422162], [564107.054569653, 5935410.757723477], [564107.0787832013, 5935410.759556759], [564190.6945341115, 5935416.636750076], [564259.7714904009, 5935421.604751784], [564255.0336412505, 5935421.373762522]], [[564315.2697791709, 5935434.156313338], [564315.1892062986, 5935435.446946608], [564315.2345782232, 5935434.154598885], [564315.2697791709, 5935434.156313338]], [[564405.8977436258, 5935439.717774063], [564405.891175221, 5935439.717154336], [564405.9938034022, 5935438.388481193], [564405.8977436258, 5935439.717774063]], [[564403.0040451769, 5935435.900886168], [564315.6028156191, 5935429.667771281], [564315.4427608944, 5935431.912071279], [564315.5522168451, 5935429.664735213], [564266.0622645715, 5935427.254339253], [564266.0239003436, 5935427.2527987175], [564231.3874207466, 5935426.157866697], [564231.2461953178, 5935426.157836617], [564216.1423417805, 5935426.628860707], [564204.2259789307, 5935426.517297683], [564210.071861898, 5935426.372075515], [564254.8818152462, 5935425.871705368], [564286.4640691758, 5935427.411467678], [564315.6214520186, 5935429.520945015], [564459.2444607144, 5935439.960285918], [564459.2759598264, 5935439.962353432], [564516.2451184208, 5935443.300472151], [564516.2622546339, 5935443.301410687], [564579.2744098435, 5935446.5115489215], [564580.770588451, 5935446.587675212], [564580.8119320718, 5935446.5893978], [564590.3002419599, 5935446.897358804], [564590.315392472, 5935446.897799464], [564687.5916060853, 5935449.399232164], [564761.566412033, 5935451.705021425], [564761.58565162, 5935451.705538765], [564792.928426492, 5935452.414187777], [564807.999442623, 5935452.743587395], [564826.761792736, 5935453.312832607], [564826.7758214541, 5935453.313214448], [564854.6356452969, 5935453.984575313], [564785.9786235903, 5935452.658616044], [564687.5242423066, 5935450.495019727], [564578.5914234814, 5935447.912182788], [564507.2368642873, 5935443.79961283], [564507.2122052673, 5935443.798327308], [564482.5829884408, 5935442.649835877], [564459.0934039227, 5935441.196675695], [564414.7609616478, 5935436.7670122115], [564414.6994280296, 5935436.761715694], [564406.1615280719, 5935436.144734456], [564403.0172668067, 5935435.901868243], [564403.0040451769, 5935435.900886168]], [[564871.844295502, 5935458.002510699], [564871.872002291, 5935456.567877175], [564871.8485409067, 5935458.002579025], [564871.844295502, 5935458.002510699]], [[565319.2947900034, 5935356.916690343], [565320.677495025, 5935358.52573189], [565319.2916701761, 5935356.919488207], [565319.2947900034, 5935356.916690343]], [[565497.5482525026, 5935182.845149577], [565485.1270720188, 5935197.571732475], [565475.2985434494, 5935208.347071186], [565471.6833355002, 5935212.066751809], [565462.5732570916, 5935221.221902174], [565456.3982661744, 5935227.261455794], [565446.5632296746, 5935236.737725856], [565374.8730204839, 5935301.029571816], [565389.6195678829, 5935287.714948841], [565389.6269073802, 5935287.708292633], [565423.7969026587, 5935256.582049277], [565426.022408896, 5935254.556261092], [565435.4132340044, 5935246.042474031], [565435.4312869237, 5935246.025927247], [565444.8129424948, 5935237.33255424], [565450.3627074143, 5935232.191140428], [565450.3983214567, 5935232.157418153], [565464.3516056418, 5935218.653855364], [565464.4132448279, 5935218.5918385], [565475.9820442768, 5935206.490701671], [565479.6993077204, 5935202.603503337], [565479.7864584936, 5935202.506927421], [565495.2415181841, 5935184.351650098], [565497.1535268982, 5935182.108955436], [565497.1903375452, 5935182.064641553], [565507.6172213445, 5935169.180335743], [565510.103969787, 5935166.110955107], [565510.1280588246, 5935166.080694024], [565511.1869358935, 5935164.726792812], [565509.4146063935, 5935163.340665782], [565511.1927297057, 5935164.719352652], [565515.0809855175, 5935159.704582112], [565586.4241455939, 5935068.759588379], [565586.4271492813, 5935068.755750866], [565587.5032827248, 5935067.377809958], [565581.335824453, 5935075.39047366], [565581.2787395892, 5935075.4680152275], [565578.8374588713, 5935078.937249467], [565524.9205587838, 5935147.975624287], [565524.9097593719, 5935147.989564761], [565513.121302466, 5935163.330550217], [565510.3944602483, 5935166.829514564], [565509.7209271479, 5935167.659545301], [565511.4680763325, 5935169.077279313], [565509.7124836852, 5935167.670014427], [565497.5482525026, 5935182.845149577]], [[564736.5838606803, 5935446.276491716], [564740.0191903089, 5935446.53121062], [564697.6828605841, 5935445.211590336], [564736.5838606803, 5935446.276491716]], [[564651.7814758419, 5935443.957463003], [564663.9809100536, 5935444.290601654], [564651.320280409, 5935443.965036834], [564651.7814758419, 5935443.957463003]], [[564315.7841875602, 5935427.276837699], [564315.9024848718, 5935425.641721766], [564315.9030340472, 5935425.641764163], [564315.7841875602, 5935427.276837699]], [[565315.877030965, 5935353.937229825], [565315.8557595412, 5935353.956306058], [565314.5477357276, 5935352.465707594], [565315.877030965, 5935353.937229825]], [[565235.3770586384, 5935421.617080754], [565252.0297711658, 5935411.676587465], [565252.1729314837, 5935411.583588387], [565254.7315901219, 5935409.779824046], [565251.6972504809, 5935412.131529615], [565235.3770586384, 5935421.617080754]], [[565315.8860143162, 5935354.284806042], [565317.2114553407, 5935355.762771761], [565315.8828826273, 5935354.287554149], [565315.8860143162, 5935354.284806042]], [[565188.6541188632, 5935439.016276856], [565217.4666031228, 5935426.785589384], [565217.6900224575, 5935426.675788445], [565225.1251591142, 5935422.495979839], [565217.8883220444, 5935426.815860472], [565194.4093048923, 5935437.1484195255], [565192.3603639234, 5935438.049181657], [565172.7865010864, 5935444.263849011], [565130.3165975275, 5935453.823901463], [565127.6269321339, 5935454.071404013], [565127.4065760538, 5935454.090952919], [565131.2577065933, 5935453.505539865], [565131.4146285829, 5935453.475954322], [565171.9489006749, 5935444.333250102], [565172.1349091175, 5935444.282834102], [565177.2381187364, 5935442.66206803], [565188.4576955361, 5935439.089063808], [565188.6541188632, 5935439.016276856]], [[565276.4527668139, 5935388.961365926], [565263.787077818, 5935397.89023116], [565275.6394686141, 5935388.738611704], [565275.6994832464, 5935388.690614434], [565293.1828439416, 5935374.211745915], [565293.2322321528, 5935374.1696294155], [565300.3431339145, 5935367.926327298], [565291.4578273732, 5935375.92838457], [565276.4527668139, 5935388.961365926]], [[564482.4026631074, 5935446.150067935], [564482.3836389479, 5935446.14894201], [564482.461114006, 5935444.896597673], [564482.4026631074, 5935446.150067935]]]}}, {"type": "Feature", "properties": {}, "geometry": {"type": "Polygon", "coordinates": [[[564243.1815350645, 5935995.880778604], [564243.2803893255, 5935994.4491255125], [564241.0357339641, 5935994.294134231], [564243.283435428, 5935994.395810766], [564245.8614194177, 5935937.405882837], [564243.6137183825, 5935937.304206322], [564245.8615007777, 5935937.404068032], [564246.7690347376, 5935916.976430124], [564243.0810665904, 5935916.812585612], [564243.0832593055, 5935916.752147579], [564238.5862179841, 5935916.588993193], [564237.8438027531, 5935937.052261359], [564240.0923234124, 5935937.133838552], [564240.0923234093, 5935937.133838552], [564237.8423584183, 5935937.146389211], [564237.8477889388, 5935938.1199222645], [564237.3043028164, 5935949.217328836], [564234.3621953357, 5935973.0515685715], [564231.7246674759, 5935985.959442618], [564227.5213246826, 5936000.0], [564232.2186507075, 5936000.0], [564235.0233803396, 5935990.631273899], [564234.7578916424, 5935995.45067885], [564234.508125901, 5936000.0], [564242.9058092578, 5936000.0], [564243.1815350645, 5935995.880778604]]]}}, {"type": "Feature", "properties": {}, "geometry": {"type": "Polygon", "coordinates": [[[564224.2760084415, 5935992.834342164], [564224.2963267219, 5935992.685595035], [564226.4266523698, 5935971.951928826], [564226.4365838751, 5935971.813227477], [564227.851947454, 5935936.949867941], [564225.6037993375, 5935936.858598855], [564227.8519651493, 5935936.9494310245], [564228.6912725264, 5935916.175930114], [564224.1949409029, 5935915.994265776], [564223.3556423404, 5935936.767548516], [564221.9431093354, 5935971.561185107], [564219.8275700164, 5935992.150941483], [564218.4873028405, 5936000.0], [564223.0524354524, 5936000.0], [564224.2760084415, 5935992.834342164]]]}}, {"type": "Feature", "properties": {}, "geometry": {"type": "Polygon", "coordinates": [[[565910.2334730242, 5934765.648893009], [565895.7102917305, 5934771.860334242], [565895.6838147187, 5934771.871859776], [565875.6910526633, 5934780.727813716], [565875.601538653, 5934780.769841448], [565863.7463103507, 5934786.657337052], [565863.5753578116, 5934786.751695052], [565845.814300034, 5934797.586139051], [565848.1577477744, 5934801.427786183], [565856.7911500776, 5934796.161314166], [565847.293427532, 5934802.018918119], [565849.655623919, 5934805.849065404], [565868.311496842, 5934794.343284469], [565879.3220671506, 5934788.507116129], [565898.3319614006, 5934779.651501417], [565913.675503231, 5934772.924401088], [565964.2889007606, 5934751.024204668], [565964.2927062487, 5934751.0225538835], [566000.0, 5934735.493945844], [566000.0, 5934726.194238093], [565960.7798010358, 5934743.255727915], [565960.7659728269, 5934743.261798705], [565910.2334730242, 5934765.648893009]]]}}, {"type": "Feature", "properties": {}, "geometry": {"type": "Polygon", "coordinates": [[[565965.1737120748, 5934751.582132806], [565914.3954442948, 5934773.391241593], [565914.3764018598, 5934773.399524552], [565898.7306974416, 5934780.291027774], [565898.6853492362, 5934780.3116045855], [565879.9528706474, 5934789.0627494855], [565879.8607392373, 5934789.108382697], [565868.5281937747, 5934795.047673075], [565868.3910569417, 5934795.12579492], [565858.3936184397, 5934801.295162283], [565849.003457969, 5934807.095219573], [565850.812853632, 5934810.024589767], [565850.1477538137, 5934810.42669789], [565852.4759489606, 5934814.277607829], [565862.0639564364, 5934808.480860352], [565868.971477031, 5934804.3053411], [565872.1450408868, 5934802.392217844], [565883.7740427228, 5934796.523916497], [565902.0149486064, 5934788.035133351], [565918.0617052978, 5934780.919502197], [565968.5883453785, 5934759.344902228], [565968.6049492741, 5934759.337733421], [566000.0, 5934745.632821332], [566000.0, 5934736.447368885], [565965.1737120748, 5934751.582132806]]]}}, {"type": "Feature", "properties": {}, "geometry": {"type": "Polygon", "coordinates": [[[565832.3216141566, 5934812.7605821565], [565833.345654775, 5934811.981418409], [565830.6208011977, 5934808.400193342], [565816.1166766646, 5934819.43597436], [565818.2030997103, 5934822.178121893], [565817.3850763468, 5934822.770103776], [565820.0232598467, 5934826.415647333], [565834.5800059903, 5934815.881314963], [565832.3216141566, 5934812.7605821565]]]}}, {"type": "Feature", "properties": {}, "geometry": {"type": "Polygon", "coordinates": [[[565820.333599257, 5934831.0279367175], [565823.0729997626, 5934834.598046642], [565830.4216668771, 5934828.959300823], [565837.3124093177, 5934824.498924671], [565835.2818754412, 5934821.361995075], [565836.1351524006, 5934820.781275464], [565833.6032928467, 5934817.061102457], [565826.2657935983, 5934822.05482655], [565826.1551005534, 5934822.135191276], [565819.0758971426, 5934827.610987041], [565821.2029464666, 5934830.360873171], [565820.333599257, 5934831.0279367175]]]}}, {"type": "Feature", "properties": {}, "geometry": {"type": "Polygon", "coordinates": [[[565801.5425793319, 5934841.323499531], [565799.3077279541, 5934838.530064345], [565800.2342119629, 5934837.7941267975], [565797.4352752899, 5934834.270498909], [565721.4318665592, 5934894.642574132], [565721.4066864436, 5934894.662872419], [565696.5444582994, 5934915.001440534], [565696.4734022677, 5934915.062073062], [565679.1999387903, 5934930.432562725], [565679.0726489373, 5934930.555116819], [565660.0010174405, 5934950.418155501], [565661.6240117747, 5934951.976484533], [565659.9092550183, 5934950.519738416], [565646.9235668525, 5934965.805378272], [565646.8867132532, 5934965.84990587], [565637.0039602899, 5934978.107734378], [565636.9999815102, 5934978.112683637], [565612.6279057264, 5935008.517207229], [565612.5941804838, 5935008.560345249], [565610.1851404727, 5935011.720253767], [565610.1733500086, 5935011.735859394], [565605.481901554, 5935018.001806762], [565609.0841112431, 5935020.698857995], [565613.7696983662, 5935014.440739082], [565616.1562090904, 5935011.3103819555], [565640.5091738744, 5934980.929699618], [565646.3488867397, 5934973.686556022], [565641.8087112447, 5934979.804488244], [565641.7379064377, 5934979.905578595], [565620.1089090491, 5935012.662630782], [565620.1025568479, 5935012.672305193], [565612.7445449979, 5935023.941631604], [565612.6741779882, 5935024.056808583], [565609.8968887652, 5935028.925135891], [565613.728057456, 5935031.110745618], [565613.1016272398, 5935032.059398808], [565613.0883877318, 5935032.079685101], [565612.3842155599, 5935033.171452187], [565616.1658560735, 5935035.6105493605], [565616.8634630948, 5935034.528961057], [565634.3060850331, 5935008.114208847], [565621.49959045, 5935031.1790126], [565621.4614458424, 5935031.250732765], [565616.5302515321, 5935040.940416246], [565620.5407759249, 5935042.981419454], [565625.4535453768, 5935033.327940397], [565639.7707939862, 5935007.542232426], [565647.5698235962, 5934994.6973525], [565655.7801756073, 5934982.615409137], [565673.6963436395, 5934960.219342401], [565689.8222067073, 5934943.154445967], [565706.0076160881, 5934928.586271519], [565723.5963454942, 5934913.6193285985], [565731.8913905235, 5934906.563425475], [565804.4796645925, 5934849.31904381], [565802.3706907926, 5934846.644776681], [565803.2482775854, 5934845.947087233], [565800.447882735, 5934842.424618117], [565755.6337522039, 5934878.05225776], [565801.5425793319, 5934841.323499531]], [[565653.0211815727, 5934972.246704796], [565661.9684429611, 5934960.190179931], [565662.8109418228, 5934959.271281179], [565653.0211815727, 5934972.246704796]], [[565651.4695651211, 5934978.038978367], [565649.626070189, 5934976.821651592], [565649.7086404087, 5934976.710387389], [565651.4695651211, 5934978.038978367]], [[565670.2403161668, 5934957.3358592065], [565664.4012728285, 5934964.634942584], [565669.911057139, 5934957.332232033], [565679.6138698609, 5934947.405356515], [565670.3619490085, 5934957.196030695], [565670.2403161668, 5934957.3358592065]], [[565729.9748278443, 5934904.200535869], [565730.4653551584, 5934904.8225450525], [565729.9519502331, 5934904.218977104], [565729.9748278443, 5934904.200535869]], [[565616.5494108164, 5935026.345286013], [565623.8673474087, 5935015.137337752], [565645.4591406871, 5934982.436631078], [565649.1818492736, 5934977.420243751], [565614.4831435129, 5935029.967258638], [565616.5494108164, 5935026.345286013]]]}}]}