{"type": "FeatureCollection", "attribution": "\u00a9 OpenStreetMap contributors (ODbL)", "crs": {"type": "name", "properties": {"name": "urn:ogc:def:crs:EPSG::25832"}}, "features": [{"type": "Feature", "properties": {}, "geometry": {"type": "Polygon", "coordinates": [[[564491.4702164353, 5932000.5791766625], [564495.9482191721, 5932001.023576809], [564496.0497996557, 5932000.0], [564491.5276943353, 5932000.0], [564491.4702164353, 5932000.5791766625]]]}}, {"type": "Feature", "properties": {}, "geometry": {"type": "Polygon", "coordinates": [[[564471.532489234, 5932113.045710692], [564471.4878524188, 5932113.156444369], [564465.9279398802, 5932128.079429104], [564465.8674722323, 5932128.266274647], [564461.7947633909, 5932143.020415191], [564461.7940470241, 5932143.023016442], [564461.3615662111, 5932144.59711485], [564461.3176326788, 5932144.789771756], [564459.1106204379, 5932156.898959639], [564459.0855602677, 5932157.07614367], [564456.7710199535, 5932179.9766608225], [564456.2424024026, 5932185.198363418], [564455.832212993, 5932189.232799968], [564453.9781347427, 5932203.4402359845], [564453.9646350889, 5932203.575339766], [564453.511023525, 5932210.099814775], [564453.1514413751, 5932215.222117017], [564449.9611162818, 5932246.665327061], [564449.3489751659, 5932252.664802524], [564445.1068942393, 5932294.399961426], [564444.5173477454, 5932300.209396979], [564439.935868382, 5932344.4960408695], [564438.9049681617, 5932354.462731664], [564438.9046345257, 5932354.465980276], [564429.583465462, 5932445.878827842], [564434.0602520924, 5932446.335316028], [564443.3812555092, 5932354.924092964], [564444.4119827352, 5932344.959074668], [564448.9936854115, 5932300.670272132], [564448.9941324705, 5932300.665909118], [564449.5838456969, 5932294.854830284], [564453.8257765998, 5932253.121145717], [564454.4379380558, 5932247.121470905], [564457.6319799402, 5932215.641632446], [564457.6379493488, 5932215.572067343], [564458.0000293545, 5932210.414182766], [564458.4490879137, 5932203.95520274], [564460.2985182194, 5932189.783383006], [564460.305896155, 5932189.719814367], [564460.7193717354, 5932185.653056535], [564461.2481551956, 5932180.429717174], [564463.5537467507, 5932157.617741104], [564465.7269704238, 5932145.693940556], [564466.1328930224, 5932144.216505958], [564470.17909008, 5932129.558409251], [564475.6838388784, 5932114.783485775], [564481.7992267177, 5932100.702067106], [564481.8980581128, 5932100.426765878], [564486.8117918472, 5932083.314119501], [564486.8747181484, 5932083.024020628], [564487.6192094826, 5932078.016402139], [564488.0631816778, 5932075.037359526], [564490.495763982, 5932059.445051884], [564490.515866554, 5932059.272883973], [564491.5448787209, 5932046.057193942], [564492.4305245586, 5932034.607562828], [564487.9439267517, 5932034.260517991], [564487.058413539, 5932045.708438299], [564486.036178683, 5932058.837086753], [564483.6157831396, 5932074.35127999], [564483.6134690912, 5932074.366452093], [564483.1683073045, 5932077.353476835], [564482.4455149916, 5932082.215141809], [564477.6132829002, 5932099.043949283], [564471.532489234, 5932113.045710692]]]}}, {"type": "Feature", "properties": {}, "geometry": {"type": "Polygon", "coordinates": [[[564111.8688066192, 5932078.537221327], [564092.8690980981, 5932089.7919552345], [564092.8659463251, 5932089.793825699], [564039.4034915454, 5932121.580788676], [564000.0, 5932145.053387012], [564000.0, 5932150.291310506], [564041.7040577483, 5932125.448267963], [564095.1641290832, 5932093.662722101], [564114.1680600493, 5932082.405486972], [564114.1796375726, 5932082.398581935], [564142.1565669306, 5932065.598828063], [564142.1947885767, 5932065.575355004], [564154.5438337646, 5932057.820869542], [564154.7081813631, 5932057.707190229], [564166.2222183401, 5932048.962233434], [564166.4480733364, 5932048.765680647], [564178.2010557553, 5932037.075405675], [564178.3827352577, 5932036.871291504], [564185.0338585379, 5932028.41634074], [564188.5557900422, 5932023.934752537], [564188.648287517, 5932023.808215839], [564202.4343204633, 5932003.500183541], [564204.8106401025, 5932000.0], [564199.3715515514, 5932000.0], [564198.7112433475, 5932000.972596392], [564184.9691658231, 5932021.215878505], [564181.4967029636, 5932025.634519261], [564174.9305494202, 5932033.981455948], [564163.3809897372, 5932045.469393537], [564152.0660807611, 5932054.063111824], [564139.8207297918, 5932061.7524833195], [564111.8688066192, 5932078.537221327]]]}}, {"type": "Feature", "properties": {}, "geometry": {"type": "Polygon", "coordinates": [[[564786.5978056161, 5932288.989453278], [564785.7394451781, 5932286.90961738], [564767.8134547711, 5932294.307778456], [564769.5301756471, 5932298.467450251], [564787.4480481194, 5932291.072639494], [564796.5850987369, 5932287.384934906], [564795.7430002454, 5932285.298461774], [564796.5882913561, 5932287.383643527], [564852.2076945934, 5932264.836646318], [564851.3624034827, 5932262.751464566], [564852.2230682911, 5932264.830347941], [564869.4675689287, 5932257.691065855], [564882.3862297804, 5932252.372967602], [564890.3459408445, 5932249.781067708], [564900.8459661625, 5932247.9861005], [564909.5777495902, 5932247.4678456], [564909.5288793381, 5932247.473001959], [564900.6096687223, 5932248.696731079], [564900.3554242735, 5932248.746672311], [564887.1640546626, 5932252.137062981], [564886.8644225613, 5932252.236962395], [564870.0920685469, 5932259.171798081], [564852.8399920729, 5932266.289258296], [564853.6980874814, 5932268.369203552], [564852.8245204507, 5932266.295708762], [564770.670808266, 5932300.907213344], [564772.4179423276, 5932305.0542029245], [564854.5639308194, 5932270.4459523475], [564871.8090700007, 5932263.33135416], [564870.9509745921, 5932261.251408904], [564871.8106893614, 5932263.3306853445], [564888.4375505985, 5932256.456006301], [564901.3499075442, 5932253.137326299], [564910.0709223914, 5932251.940789936], [564917.2545552895, 5932251.408992087], [564927.631408133, 5932251.551682713], [564962.9037318385, 5932256.929501178], [564967.9520314749, 5932257.839613577], [564968.1579607908, 5932257.866993766], [564980.7508594821, 5932258.952694834], [564980.9447807776, 5932258.961010629], [564992.0280574783, 5932258.957790405], [564992.2877719116, 5932258.94267493], [564998.6084584926, 5932258.206303262], [564998.7298683464, 5932258.1887924], [565008.8427691275, 5932256.447595836], [565009.03599733, 5932256.405507959], [565015.0182193755, 5932254.824191577], [565006.8787608974, 5932259.767492942], [565006.8655072436, 5932259.775605004], [564992.4600977582, 5932268.661138181], [564974.8014150895, 5932274.540865679], [564966.1514628351, 5932277.422957847], [564949.4428100995, 5932279.155961925], [564949.2768186773, 5932279.179457486], [564934.9034211817, 5932281.763450208], [564934.5496835686, 5932281.8572842665], [564902.7360257045, 5932293.13636323], [564904.2397286871, 5932297.377692896], [564935.8803460456, 5932286.159962977], [564939.0384924422, 5932285.592203871], [564933.7836878567, 5932287.174692963], [564933.6225984368, 5932287.229935885], [564904.8006928411, 5932298.349865656], [564906.420486011, 5932302.548230825], [564935.1628929566, 5932291.458972843], [564947.3420747977, 5932287.791201357], [564962.9972539874, 5932283.077514881], [564967.276939087, 5932281.790146903], [564967.340047617, 5932281.7701462405], [564974.5076216077, 5932279.381970145], [564973.0776416116, 5932280.236580546], [564950.584317003, 5932289.530924632], [564914.7917923294, 5932304.315711251], [564916.4009182239, 5932308.211247911], [564912.585319571, 5932309.766824591], [564914.2841610152, 5932313.933830441], [564928.1729822689, 5932308.271514137], [564917.8721297604, 5932314.919936711], [564907.8022210621, 5932319.073444652], [564851.7034266598, 5932342.2365671145], [564825.2785216494, 5932353.144836465], [564820.44600155, 5932355.13670739], [564822.1608549454, 5932359.297149414], [564826.9939276918, 5932357.305050699], [564826.1365009941, 5932355.224829687], [564826.9950333554, 5932357.304594622], [564853.4205773538, 5932346.396061496], [564852.5620449925, 5932344.316296561], [564853.4207482266, 5932346.395990951], [564894.9378339498, 5932329.253637751], [564886.1600144762, 5932334.736506052], [564854.0099331888, 5932347.827278828], [564827.5335808784, 5932358.601431285], [564803.2435617334, 5932368.482308076], [564804.9391814434, 5932372.650625938], [564829.2293310758, 5932362.769696066], [564828.3815212208, 5932360.685537135], [564829.2295946425, 5932362.769588831], [564843.1383112059, 5932357.1096462915], [564820.3251025605, 5932367.151306058], [564821.874874084, 5932370.672164356], [564821.7623116351, 5932370.716119152], [564823.3991572161, 5932374.907865392], [564824.66537198, 5932374.413417989], [564824.6732669317, 5932374.410317907], [564841.4216554926, 5932367.79732626], [564841.8262883229, 5932367.587970512], [564865.2928130965, 5932352.250884961], [564888.3294642619, 5932338.686226134], [564888.3797997731, 5932338.655693294], [564910.5506687871, 5932324.807156616], [564920.1125188706, 5932318.82954921], [564920.1399498064, 5932318.8121239375], [564950.8514004914, 5932298.990201254], [564954.0193662364, 5932297.070060024], [564975.2508133339, 5932284.180206598], [564978.2645827425, 5932282.379063041], [564994.5720587424, 5932272.64535496], [564994.6000809224, 5932272.628350859], [565009.2213168241, 5932263.609691803], [565020.4114314957, 5932256.813648888], [565020.7230876135, 5932256.585597307], [565021.3107989522, 5932256.072586877], [565030.6584080901, 5932249.516797775], [565039.2173351023, 5932244.717762077], [565039.3462691525, 5932244.639679454], [565045.35955813, 5932240.71686539], [565045.4892329008, 5932240.625599423], [565052.4826794262, 5932235.325445659], [565052.6195556115, 5932235.212958639], [565058.270274771, 5932230.1836102], [565058.4356037296, 5932230.020405839], [565062.5410854477, 5932225.526110944], [565062.6383271576, 5932225.412274517], [565070.5977044721, 5932215.441068092], [565070.7177502951, 5932215.275818804], [565076.6350250392, 5932206.300145617], [565076.7353911411, 5932206.132488704], [565082.5919765364, 5932195.308950166], [565083.6258808594, 5932193.39828848], [565083.7030259526, 5932193.241460619], [565090.7971108465, 5932177.283259383], [565090.9314103121, 5932176.884140468], [565092.910167069, 5932168.466167237], [565092.9223314582, 5932168.411356622], [565094.2468070579, 5932162.070482533], [565096.1307544262, 5932186.544263964], [565096.1323584766, 5932186.563969902], [565096.3493875822, 5932189.092749324], [565097.600194828, 5932203.663909284], [565097.6172512808, 5932203.807945748], [565099.6645132427, 5932217.344128656], [565099.7044257185, 5932217.54543639], [565101.9579198186, 5932226.700498908], [565101.9927581517, 5932226.826211506], [565104.5307662396, 5932235.050254133], [565107.0559702831, 5932243.240741155], [565107.0862626397, 5932243.332018077], [565111.7375897809, 5932256.40585915], [565124.7756248821, 5932295.353836158], [565124.8325569982, 5932295.505529476], [565126.4238266438, 5932299.321725441], [565130.1162196305, 5932308.165398656], [565144.370343363, 5932343.211916671], [565145.3014596284, 5932345.507012008], [565147.1881202417, 5932350.764115746], [565154.8292853439, 5932372.033485317], [565154.8744221354, 5932372.149013251], [565169.2422257552, 5932406.129225708], [565174.7404748172, 5932419.502504267], [565178.9024455057, 5932417.791364299], [565173.3999357728, 5932404.407722597], [565173.3913114094, 5932404.387039213], [565159.0433052345, 5932370.453648206], [565151.4234981477, 5932349.243729565], [565149.521440718, 5932343.943723219], [565149.4886387147, 5932343.857877832], [565148.5398737794, 5932341.519280538], [565139.6539030774, 5932319.6714027915], [565140.1698550504, 5932320.786426591], [565144.253822955, 5932318.896663072], [565140.9950607414, 5932311.854152112], [565137.3762556462, 5932302.105573329], [565137.3712155988, 5932302.092127773], [565134.9792766178, 5932295.7724761125], [565133.0727165083, 5932290.737628634], [565117.9679851243, 5932246.810081547], [565115.5041046176, 5932239.151854872], [565124.2884111161, 5932263.239383311], [565134.0051322572, 5932290.493002826], [565138.2437936137, 5932288.981794732], [565128.5243466396, 5932261.720529755], [565128.5188398672, 5932261.7052586535], [565119.5742536003, 5932237.178225573], [565118.3099086265, 5932232.366547811], [565115.7355772572, 5932222.534505884], [565110.9885925135, 5932202.327188723], [565108.6481686385, 5932189.948460355], [565105.688670219, 5932172.314063332], [565103.5653003361, 5932159.038089946], [565101.9867929666, 5932133.256788866], [565100.405622092, 5932107.091667967], [565098.8421213521, 5932079.676072922], [565098.3941651668, 5932070.775377726], [565099.3289150066, 5932078.326420703], [565100.5937577268, 5932098.715128678], [565100.5941204933, 5932098.72085803], [565104.2760729102, 5932155.718664611], [565104.2899212249, 5932155.861776691], [565105.5177267364, 5932165.369880946], [565105.5255281677, 5932165.424931023], [565107.308481608, 5932176.976898628], [565107.3197700426, 5932177.04340776], [565110.4846829948, 5932194.1333353855], [565114.9094468466, 5932193.313905794], [565111.7506766926, 5932176.25714811], [565109.9771097183, 5932164.765996535], [565108.7620764371, 5932155.356800207], [565105.084945744, 5932098.433635459], [565103.8160159054, 5932077.979044933], [565103.8032889841, 5932077.841939628], [565102.8429813209, 5932070.084436897], [565102.842452695, 5932070.080199565], [565101.7074223239, 5932061.051831507], [565101.6770177988, 5932060.870324275], [565099.9418335055, 5932052.602879866], [565099.5837631064, 5932050.885559846], [565093.9878082573, 5932022.6574388305], [565092.2454727689, 5932010.72840121], [565092.2440550688, 5932010.718838511], [565090.6314129985, 5932000.0], [565085.2672377023, 5932000.0], [565085.9689750009, 5932011.290675191], [565088.0259162716, 5932044.332506693], [565088.5959351824, 5932053.475673009], [565090.9441417805, 5932091.146429012], [565092.2276612814, 5932134.966703958], [565092.2296735813, 5932135.016530677], [565092.3524600784, 5932137.40113654], [565090.6472473682, 5932157.29470013], [565088.5231403658, 5932167.463777655], [565086.5992004726, 5932175.648550474], [565079.6265470576, 5932191.333590617], [565078.634249304, 5932193.167363102], [565072.8241731914, 5932203.904947967], [565067.0169937914, 5932212.713622009], [565059.1681196404, 5932222.546394256], [565055.1915996376, 5932226.8995140055], [565049.6939853297, 5932231.79259348], [565042.8344213251, 5932236.991281115], [565036.9507372929, 5932240.829546424], [565028.524991336, 5932245.553906798], [565017.8515670096, 5932249.354203152], [565016.556505095, 5932249.763006327], [565007.9816732857, 5932252.02964269], [564998.0267784831, 5932253.743634452], [564991.8964551344, 5932254.457828452], [564981.0406134679, 5932254.460982596], [564968.6480932549, 5932253.392557226], [564963.7830028111, 5932252.515473959], [564951.4944267556, 5932249.003150306], [564939.4861579584, 5932245.13265427], [564939.1303667478, 5932245.0491592735], [564926.0126947007, 5932243.077337077], [564925.7478675408, 5932243.053417658], [564921.2226267575, 5932242.913307783], [564914.2060568833, 5932242.694440878], [564914.0025980909, 5932242.697299703], [564900.455658176, 5932243.50134713], [564900.209832177, 5932243.529567468], [564889.4260531946, 5932245.373042036], [564889.1085305961, 5932245.451437297], [564880.9118787188, 5932248.120491609], [564880.7520351757, 5932248.179321083], [564867.7524842281, 5932253.530718569], [564868.6089853378, 5932255.6113208495], [564867.7483205294, 5932253.5324374745], [564850.5094139552, 5932260.669403599], [564794.8993044762, 5932283.212633302], [564785.7557071246, 5932286.902980146], [564786.5978056161, 5932288.989453278]], [[565093.9111910461, 5932157.71059804], [565093.9211519635, 5932157.839997258], [565092.8774439186, 5932157.62198854], [565093.9111910461, 5932157.71059804]], [[564839.55605116, 5932363.695869541], [564837.5090943055, 5932364.504097063], [564839.9908070413, 5932363.411724862], [564839.55605116, 5932363.695869541]], [[564855.5625047997, 5932351.640905489], [564855.5621497381, 5932351.641061776], [564854.8582254419, 5932349.911241474], [564855.5625047997, 5932351.640905489]], [[565099.0796913274, 5932159.41076532], [565100.0883359299, 5932179.324926833], [565096.8529733054, 5932137.295325022], [565096.725002115, 5932134.810028527], [565096.476569597, 5932126.32836445], [565097.5005426786, 5932133.6189788645], [565099.0796913274, 5932159.41076532]], [[565102.177505791, 5932203.431418542], [565102.3714478457, 5932205.150280402], [565102.0775005126, 5932203.206745602], [565101.84595725, 5932200.509404402], [565102.177505791, 5932203.431418542]], [[565113.691096222, 5932248.209625586], [565113.7052465887, 5932248.25215033], [565128.8285315891, 5932292.233655004], [565128.8520684721, 5932292.298823907], [565130.7707099066, 5932297.365575691], [565133.1600445627, 5932303.678346563], [565133.486932538, 5932304.558939217], [565130.577014379, 5932297.589376774], [565129.0171426986, 5932293.848479668], [565115.9981342624, 5932254.95734022], [565115.9843457944, 5932254.917400305], [565111.3420586715, 5932241.868968704], [565108.8309347067, 5932233.7241503475], [565106.3118971345, 5932225.561578607], [565104.0985507148, 5932216.569620365], [565102.5356323133, 5932206.235842985], [565104.649039128, 5932216.559332379], [565104.674252743, 5932216.668568954], [565109.1663632205, 5932234.132857241], [565109.2035572304, 5932234.261469123], [565113.691096222, 5932248.209625586]], [[565111.3613518439, 5932223.591371789], [565111.37509893, 5932223.646729901], [565113.9569040589, 5932233.507316062], [565115.1548476436, 5932238.066295297], [565113.507820597, 5932232.94701032], [565109.0463610125, 5932215.601885627], [565106.8917445611, 5932205.077096964], [565106.7805213551, 5932204.091352398], [565111.3613518439, 5932223.591371789]]]}}, {"type": "Feature", "properties": {}, "geometry": {"type": "Polygon", "coordinates": [[[564816.9968179116, 5932348.911834505], [564800.6383585954, 5932355.608145229], [564790.0127477976, 5932359.957529203], [564791.7174494476, 5932364.122141103], [564802.3430891602, 5932359.772745294], [564801.4907383352, 5932357.690439343], [564802.3431216936, 5932359.772731977], [564818.7015846284, 5932353.076419772], [564816.9968179116, 5932348.911834505]]]}}, {"type": "Feature", "properties": {}, "geometry": {"type": "Polygon", "coordinates": [[[564289.9664078198, 5933552.455184568], [564286.7697239023, 5933552.398444592], [564286.8289351688, 5933549.266157806], [564282.3297389759, 5933549.181107132], [564281.9977043467, 5933566.745799517], [564285.2109676553, 5933566.806541525], [564285.2106304095, 5933566.825541675], [564289.7099217154, 5933566.905402457], [564289.9664078198, 5933552.455184568]]]}}, {"type": "Feature", "properties": {}, "geometry": {"type": "Polygon", "coordinates": [[[565488.9288756084, 5932080.1607398], [565488.9304620061, 5932080.18842687], [565491.2700750647, 5932117.042750048], [565486.8779898422, 5932104.694426338], [565486.7957396426, 5932104.494240537], [565479.8938819334, 5932089.7556099165], [565479.7442374624, 5932089.485901703], [565472.5531406732, 5932078.392872675], [565472.3979298605, 5932078.181532025], [565461.0142352629, 5932064.437836319], [565460.9179937508, 5932064.328996231], [565450.3037202454, 5932053.079103572], [565442.6017902682, 5932042.819850264], [565432.621719409, 5932028.969879709], [565431.160178512, 5932025.953149128], [565428.1623394348, 5932019.778987829], [565428.0337078884, 5932019.549320796], [565422.9705789189, 5932011.634086429], [565417.5349331656, 5932001.367076419], [565417.0111899661, 5932000.0], [565412.1922494465, 5932000.0], [565413.3815433655, 5932003.104299347], [565413.4941184026, 5932003.352122107], [565419.0368359771, 5932013.82137257], [565419.1299496203, 5932013.981025028], [565424.1718720704, 5932021.8631070545], [565427.1108508398, 5932027.91604147], [565428.6571630025, 5932031.107746334], [565428.8565924122, 5932031.4421256315], [565438.963762686, 5932045.46848002], [565438.9898398389, 5932045.503932672], [565446.7809565915, 5932055.881986037], [565446.9437748737, 5932056.075231235], [565457.5950131364, 5932067.364302226], [565468.8485716849, 5932080.950882837], [565475.8841436316, 5932091.803998311], [565482.6744995591, 5932106.304521506], [565487.5002897505, 5932119.872204376], [565491.0389741291, 5932134.24723394], [565493.2900430774, 5932148.852656121], [565494.3652436095, 5932164.359976952], [565506.7371324112, 5932380.534506875], [565511.229780839, 5932380.277388024], [565498.8571170982, 5932164.0893175565], [565498.8554040416, 5932164.062246803], [565497.773202015, 5932148.453945347], [565493.4223002084, 5932079.917167134], [565489.3372157543, 5932000.0], [565484.8313405764, 5932000.0], [565488.9288756084, 5932080.1607398]]]}}, {"type": "Feature", "properties": {}, "geometry": {"type": "Polygon", "coordinates": [[[565386.5723917494, 5932056.962617937], [565387.4324983015, 5932086.400735117], [565387.0885888936, 5932094.293502057], [565386.262024372, 5932103.28045877], [565385.5623743563, 5932108.815245305], [565383.8061402817, 5932117.560493818], [565380.6754814084, 5932129.094030143], [565380.6546224871, 5932129.177098333], [565378.0595960246, 5932140.412640829], [565378.0475348787, 5932140.468035031], [565375.7936094557, 5932151.48576549], [565375.7595474111, 5932151.708623256], [565374.2566021114, 5932166.458017813], [565371.6495510668, 5932190.70693522], [565371.112626632, 5932182.605217766], [565366.6224764213, 5932182.902793111], [565369.9065904049, 5932232.457184493], [565370.7767302722, 5932246.63426083], [565372.0130261255, 5932268.388121826], [565372.0254839668, 5932268.5289962385], [565373.6184851207, 5932281.780855864], [565373.6403017897, 5932281.923547549], [565375.8426976235, 5932293.770739209], [565375.9048771802, 5932294.023089398], [565377.4831705227, 5932299.1365722995], [565366.2115275912, 5932282.462923783], [565366.1986634465, 5932282.444100666], [565360.967374761, 5932274.872195137], [565360.8916614504, 5932274.769009369], [565353.2786911178, 5932264.9895033175], [565344.4235821178, 5932253.13870538], [565337.1538410332, 5932242.506247303], [565333.4391283839, 5932245.04611146], [565340.7355379097, 5932255.717573826], [565340.7904887395, 5932255.794428454], [565349.6871814325, 5932267.700877873], [565349.714133004, 5932267.736213943], [565357.3014290147, 5932277.4827391505], [565362.4898492156, 5932284.992595702], [565374.2146177186, 5932302.336533063], [565374.2259787082, 5932302.353177736], [565380.1275320131, 5932310.916764753], [565381.7071223605, 5932313.587076251], [565385.1860208933, 5932319.458164705], [565391.3249292537, 5932332.741416811], [565399.1544240662, 5932352.159044995], [565399.1578065199, 5932352.167385551], [565436.853047795, 5932444.5862559695], [565441.0197839715, 5932442.886753207], [565403.3262422598, 5932350.472049674], [565395.4775424162, 5932331.006791833], [565395.4332218638, 5932330.904285427], [565389.2432219853, 5932317.510482475], [565386.1710816221, 5932310.02458411], [565383.6892670245, 5932303.985448467], [565380.2431088273, 5932292.820305369], [565378.0777014602, 5932281.172083144], [565376.5017625351, 5932268.062160804], [565375.269191701, 5932246.373845243], [565375.2685903906, 5932246.363671389], [565374.4016932991, 5932232.239429178], [565374.309438005, 5932213.243261824], [565375.1983487535, 5932199.795543459], [565378.7314857472, 5932166.932839323], [565378.7327866964, 5932166.920414374], [565380.2249237044, 5932152.277088719], [565382.4505469921, 5932141.397705916], [565385.0295551091, 5932130.231517165], [565388.168707539, 5932118.666690065], [565388.2032380698, 5932118.520282469], [565389.9903422245, 5932109.62131497], [565390.0166207094, 5932109.460487254], [565390.731297241, 5932103.80682906], [565390.7396048079, 5932103.730724358], [565391.5746398955, 5932094.651670043], [565391.5819636486, 5932094.543544473], [565391.9317971226, 5932086.514819423], [565391.9329702397, 5932086.351162505], [565391.0694870598, 5932056.797476435], [565391.0665062817, 5932056.730082956], [565387.7046006608, 5932000.0], [565383.1967057739, 5932000.0], [565386.5723917494, 5932056.962617937]]]}}, {"type": "Feature", "properties": {}, "geometry": {"type": "Polygon", "coordinates": [[[565404.8211805646, 5932003.299657554], [565405.3736219271, 5932014.353104015], [565405.3739144008, 5932014.358810579], [565406.2184611557, 5932030.437649237], [565406.2212384127, 5932030.482114669], [565406.3881397864, 5932032.787238686], [565411.6796250516, 5932106.27112859], [565417.4268690353, 5932204.27418637], [565422.5883073065, 5932291.035590913], [565422.8883072754, 5932296.168056897], [565427.3806396361, 5932295.905473652], [565427.0805717214, 5932290.771845237], [565427.0804346305, 5932290.769520508], [565421.9190954871, 5932204.009795738], [565416.1710305563, 5932105.992739019], [565416.1690787164, 5932105.962859304], [565410.87648632, 5932032.463594452], [565410.7110979127, 5932030.179364046], [565409.8678695214, 5932014.125624951], [565409.3126309579, 5932003.016211084], [565409.3036781622, 5932002.898803685], [565409.0061617774, 5932000.0], [565404.4825228653, 5932000.0], [565404.8211805646, 5932003.299657554]]]}}]}