{"type": "FeatureCollection", "attribution": "\u00a9 OpenStreetMap contributors (ODbL); tower heights: Freie und Hansestadt Hamburg, Landesbetrieb Geoinformation und Vermessung (LGV), dl-de/by-2-0", "crs": {"type": "name", "properties": {"name": "urn:ogc:def:crs:EPSG::25832"}}, "features": [{"type": "Feature", "properties": {"k": "bell", "h": 66.8, "size": "large", "name": "Heilige-Dreieinigkeits-Kirche"}, "geometry": {"type": "Point", "coordinates": [566765.5, 5934636.57]}}, {"type": "Feature", "properties": {"k": "bell", "h": 37.6, "size": "small", "name": "Domkirche Sankt Marien"}, "geometry": {"type": "Point", "coordinates": [567156.26, 5934799.43]}}, {"type": "Feature", "properties": {"k": "bell", "h": 31.5, "size": "small", "name": "Evangelisch-reformierte Kirche"}, "geometry": {"type": "Point", "coordinates": [566262.47, 5934361.21]}}]}