{"type": "FeatureCollection", "attribution": "\u00a9 OpenStreetMap contributors (ODbL); tower heights: Freie und Hansestadt Hamburg, Landesbetrieb Geoinformation und Vermessung (LGV), dl-de/by-2-0", "crs": {"type": "name", "properties": {"name": "urn:ogc:def:crs:EPSG::25832"}}, "features": [{"type": "Feature", "properties": {"k": "bell", "h": 45.4, "size": "medium", "name": "Evangelisch-lutherische Hauptkirche St. Jacobi"}, "geometry": {"type": "Point", "coordinates": [566327.54, 5933967.92]}}, {"type": "Feature", "properties": {"k": "bell", "h": 35.5, "size": "small", "name": "Hauptkirche St. Petri"}, "geometry": {"type": "Point", "coordinates": [566004.08, 5933972.37]}}]}