{"type": "FeatureCollection", "attribution": "\u00a9 OpenStreetMap contributors (ODbL)", "crs": {"type": "name", "properties": {"name": "urn:ogc:def:crs:EPSG::25832"}}, "features": [{"type": "Feature", "properties": {"w": 2.5, "n": 10, "z": [3.77, 5.17]}, "geometry": {"type": "LineString", "coordinates": [[567376.16, 5935350.55], [567379.51, 5935350.89]]}}, {"type": "Feature", "properties": {"w": 2.5, "n": 28, "z": [6.41, 10.84]}, "geometry": {"type": "LineString", "coordinates": [[566381.8, 5934522.06], [566395.39, 5934509.66]]}}, {"type": "Feature", "properties": {"w": 2.5, "n": 8, "z": [4.05, 5.46]}, "geometry": {"type": "LineString", "coordinates": [[567109.22, 5935193.94], [567112.64, 5935192.98], [567115.71, 5935193.03], [567118.9, 5935193.05], [567121.19, 5935193.7], [567122.8, 5935194.54], [567124.54, 5935195.93]]}}, {"type": "Feature", "properties": {"w": 1.2, "n": 15, "z": [11.6, 13.95]}, "geometry": {"type": "LineString", "coordinates": [[567767.83, 5934709.41], [567759.09, 5934721.78]]}}, {"type": "Feature", "properties": {"w": 2.5, "n": 6, "z": [5.29, 6.14]}, "geometry": {"type": "LineString", "coordinates": [[567224.46, 5934810.29], [567231.01, 5934820.31]]}}, {"type": "Feature", "properties": {"w": 2.5, "n": 12, "z": [12.06, 13.95]}, "geometry": {"type": "LineString", "coordinates": [[567788.01, 5934687.36], [567791.69, 5934690.5]]}}, {"type": "Feature", "properties": {"w": 2.5, "n": 20, "z": [3.8, 6.99]}, "geometry": {"type": "LineString", "coordinates": [[567849.36, 5935712.65], [567847.22, 5935721.68], [567848.36, 5935729.2]]}}, {"type": "Feature", "properties": {"w": 2.5, "n": 23, "z": [3.92, 6.93]}, "geometry": {"type": "LineString", "coordinates": [[567834.7, 5935689.98], [567835.91, 5935673.29]]}}, {"type": "Feature", "properties": {"w": 2.5, "n": 15, "z": [6.57, 8.03]}, "geometry": {"type": "LineString", "coordinates": [[567483.03, 5935340.37], [567484.09, 5935335.59]]}}, {"type": "Feature", "properties": {"w": 2.5, "n": 12, "z": [10.83, 12.04]}, "geometry": {"type": "LineString", "coordinates": [[567493.96, 5935314.62], [567499.24, 5935313.77]]}}, {"type": "Feature", "properties": {"w": 2.5, "n": 18, "z": [5.77, 8.54]}, "geometry": {"type": "LineString", "coordinates": [[566119.99, 5934706.12], [566126.46, 5934703.15]]}}, {"type": "Feature", "properties": {"w": 2.5, "n": 4, "z": [13.06, 13.7]}, "geometry": {"type": "LineString", "coordinates": [[567849.56, 5934913.94], [567847.46, 5934919.85]]}}, {"type": "Feature", "properties": {"w": 2.5, "n": 20, "z": [5.89, 9.16]}, "geometry": {"type": "LineString", "coordinates": [[567974.86, 5934308.41], [567985.41, 5934308.64]]}}, {"type": "Feature", "properties": {"w": 2.5, "n": 5, "z": [10.83, 11.6]}, "geometry": {"type": "LineString", "coordinates": [[566420.2, 5934531.61], [566419.38, 5934532.41]]}}, {"type": "Feature", "properties": {"w": 2.5, "n": 39, "z": [4.92, 10.82]}, "geometry": {"type": "LineString", "coordinates": [[566337.29, 5934579.73], [566357.11, 5934589.16]]}}, {"type": "Feature", "properties": {"w": 2.5, "n": 6, "z": [10.84, 11.77]}, "geometry": {"type": "LineString", "coordinates": [[566418.72, 5934561.82], [566417.67, 5934560.56]]}}, {"type": "Feature", "properties": {"w": 2.5, "n": 6, "z": [10.61, 11.58]}, "geometry": {"type": "LineString", "coordinates": [[566388.42, 5934529.43], [566389.56, 5934530.77]]}}, {"type": "Feature", "properties": {"w": 2.5, "n": 28, "z": [6.19, 10.83]}, "geometry": {"type": "LineString", "coordinates": [[566394.57, 5934593.32], [566393.59, 5934592.36], [566402.2, 5934577.04]]}}, {"type": "Feature", "properties": {"w": 2.5, "n": 6, "z": [10.84, 11.92]}, "geometry": {"type": "LineString", "coordinates": [[566387.85, 5934561.18], [566388.79, 5934560.38], [566389.51, 5934559.77]]}}, {"type": "Feature", "properties": {"w": 2.5, "n": 43, "z": [4.32, 10.82]}, "geometry": {"type": "LineString", "coordinates": [[566363.02, 5934609.8], [566357.11, 5934589.16]]}}, {"type": "Feature", "properties": {"w": 1.2, "n": 19, "z": [11.43, 13.95]}, "geometry": {"type": "LineString", "coordinates": [[567752.26, 5934714.83], [567755.64, 5934719.52], [567759.09, 5934721.78]]}}, {"type": "Feature", "properties": {"w": 2.5, "n": 23, "z": [10.55, 13.93]}, "geometry": {"type": "LineString", "coordinates": [[567739.24, 5934732.69], [567752.22, 5934729.87]]}}, {"type": "Feature", "properties": {"w": 2.0, "n": 20, "z": [11.39, 13.95]}, "geometry": {"type": "LineString", "coordinates": [[567739.49, 5934721.59], [567746.66, 5934721.78], [567753.85, 5934727.73]]}}, {"type": "Feature", "properties": {"w": 2.5, "n": 5, "z": [5.48, 6.56]}, "geometry": {"type": "LineString", "coordinates": [[567214.08, 5934910.02], [567228.58, 5934897.66]]}}, {"type": "Feature", "properties": {"w": 2.5, "n": 3, "z": [10.82, 11.37]}, "geometry": {"type": "LineString", "coordinates": [[566421.12, 5934530.72], [566420.2, 5934531.61]]}}, {"type": "Feature", "properties": {"w": 2.5, "n": 8, "z": [10.84, 12.18]}, "geometry": {"type": "LineString", "coordinates": [[566389.56, 5934530.77], [566390.65, 5934532.04]]}}, {"type": "Feature", "properties": {"w": 2.5, "n": 3, "z": [10.79, 11.14]}, "geometry": {"type": "LineString", "coordinates": [[566419.71, 5934562.9], [566418.72, 5934561.82]]}}, {"type": "Feature", "properties": {"w": 2.5, "n": 18, "z": [5.8, 8.63]}, "geometry": {"type": "LineString", "coordinates": [[566040.79, 5934740.31], [566032.78, 5934743.69]]}}, {"type": "Feature", "properties": {"w": 2.5, "n": 13, "z": [3.98, 6.13]}, "geometry": {"type": "LineString", "coordinates": [[566144.96, 5934783.57], [566155.66, 5934776.6]]}}, {"type": "Feature", "properties": {"w": 2.5, "n": 10, "z": [4.0, 6.04]}, "geometry": {"type": "LineString", "coordinates": [[566133.46, 5934742.03], [566140.15, 5934740.71], [566143.18, 5934736.68]]}}, {"type": "Feature", "properties": {"w": 2.5, "n": 22, "z": [5.62, 8.74]}, "geometry": {"type": "LineString", "coordinates": [[566143.18, 5934736.68], [566146.2, 5934732.67], [566159.29, 5934733.78], [566161.07, 5934737.59]]}}, {"type": "Feature", "properties": {"w": 2.5, "n": 7, "z": [3.98, 5.02]}, "geometry": {"type": "LineString", "coordinates": [[566490.3, 5934772.46], [566492.92, 5934766.07]]}}, {"type": "Feature", "properties": {"w": 2.5, "n": 19, "z": [4.12, 7.09]}, "geometry": {"type": "LineString", "coordinates": [[566075.38, 5934811.33], [566063.54, 5934815.42]]}}, {"type": "Feature", "properties": {"w": 2.5, "n": 27, "z": [3.88, 8.71]}, "geometry": {"type": "LineString", "coordinates": [[566018.55, 5934683.61], [566017.17, 5934687.75], [566009.21, 5934690.83]]}}, {"type": "Feature", "properties": {"w": 2.5, "n": 23, "z": [4.79, 7.51]}, "geometry": {"type": "LineString", "coordinates": [[567352.73, 5935691.08], [567352.17, 5935695.85]]}}, {"type": "Feature", "properties": {"w": 2.5, "n": 22, "z": [3.85, 7.48]}, "geometry": {"type": "LineString", "coordinates": [[567359.02, 5935643.87], [567359.77, 5935636.75]]}}, {"type": "Feature", "properties": {"w": 2.5, "n": 12, "z": [3.73, 5.69]}, "geometry": {"type": "LineString", "coordinates": [[567235.54, 5934764.14], [567236.14, 5934764.74], [567237.17, 5934763.69]]}}, {"type": "Feature", "properties": {"w": 2.5, "n": 18, "z": [3.72, 6.57]}, "geometry": {"type": "LineString", "coordinates": [[567226.31, 5934761.92], [567222.57, 5934758.34]]}}, {"type": "Feature", "properties": {"w": 2.5, "n": 28, "z": [5.99, 10.83]}, "geometry": {"type": "LineString", "coordinates": [[566356.59, 5934551.54], [566373.77, 5934545.51]]}}, {"type": "Feature", "properties": {"w": 2.5, "n": 9, "z": [3.37, 4.93]}, "geometry": {"type": "LineString", "coordinates": [[566005.41, 5934262.14], [566008.84, 5934258.88]]}}, {"type": "Feature", "properties": {"w": 2.5, "n": 20, "z": [4.04, 7.03]}, "geometry": {"type": "LineString", "coordinates": [[567497.69, 5935692.18], [567500.99, 5935700.15]]}}, {"type": "Feature", "properties": {"w": 2.5, "n": 22, "z": [3.83, 5.65]}, "geometry": {"type": "LineString", "coordinates": [[567897.35, 5935715.97], [567899.55, 5935728.39]]}}, {"type": "Feature", "properties": {"w": 2.5, "n": 26, "z": [5.45, 8.45]}, "geometry": {"type": "LineString", "coordinates": [[566095.73, 5934653.46], [566106.38, 5934648.89]]}}, {"type": "Feature", "properties": {"w": 2.5, "n": 7, "z": [4.99, 5.87]}, "geometry": {"type": "LineString", "coordinates": [[566044.84, 5935129.18], [566042.98, 5935129.89]]}}, {"type": "Feature", "properties": {"w": 2.5, "n": 16, "z": [4.89, 7.46]}, "geometry": {"type": "LineString", "coordinates": [[566026.88, 5935194.26], [566018.53, 5935196.95]]}}, {"type": "Feature", "properties": {"w": 2.5, "n": 19, "z": [8.48, 11.47]}, "geometry": {"type": "LineString", "coordinates": [[567607.11, 5934916.94], [567615.39, 5934909.19]]}}, {"type": "Feature", "properties": {"w": 2.5, "n": 21, "z": [4.76, 8.38]}, "geometry": {"type": "LineString", "coordinates": [[566681.61, 5934796.8], [566688.28, 5934791.09]]}}, {"type": "Feature", "properties": {"w": 2.5, "n": 21, "z": [4.73, 8.41]}, "geometry": {"type": "LineString", "coordinates": [[566717.94, 5934826.83], [566721.95, 5934820.22]]}}, {"type": "Feature", "properties": {"w": 2.5, "n": 18, "z": [7.05, 9.74]}, "geometry": {"type": "LineString", "coordinates": [[567486.91, 5935339.74], [567487.84, 5935335.92]]}}, {"type": "Feature", "properties": {"w": 2.5, "n": 2, "z": [12.57, 12.93]}, "geometry": {"type": "LineString", "coordinates": [[567844.83, 5935280.13], [567844.66, 5935281.07]]}}, {"type": "Feature", "properties": {"w": 2.5, "n": 10, "z": [3.75, 5.45]}, "geometry": {"type": "LineString", "coordinates": [[566320.33, 5935861.2], [566316.37, 5935861.91]]}}, {"type": "Feature", "properties": {"w": 2.5, "n": 10, "z": [3.77, 5.57]}, "geometry": {"type": "LineString", "coordinates": [[566321.24, 5935855.79], [566317.99, 5935856.51]]}}, {"type": "Feature", "properties": {"w": 2.5, "n": 7, "z": [4.08, 4.77]}, "geometry": {"type": "LineString", "coordinates": [[567102.31, 5935181.29], [567103.57, 5935180.42]]}}, {"type": "Feature", "properties": {"w": 2.5, "n": 6, "z": [9.49, 10.64]}, "geometry": {"type": "LineString", "coordinates": [[566280.73, 5934212.68], [566290.94, 5934214.66]]}}, {"type": "Feature", "properties": {"w": 2.5, "n": 9, "z": [12.11, 13.62]}, "geometry": {"type": "LineString", "coordinates": [[567705.74, 5935130.23], [567710.17, 5935130.73]]}}, {"type": "Feature", "properties": {"w": 2.5, "n": 7, "z": [12.41, 13.39]}, "geometry": {"type": "LineString", "coordinates": [[567697.83, 5935148.83], [567703.97, 5935150.83]]}}, {"type": "Feature", "properties": {"w": 2.5, "n": 8, "z": [3.98, 5.12]}, "geometry": {"type": "LineString", "coordinates": [[566043.48, 5934743.56], [566042.31, 5934741.09]]}}, {"type": "Feature", "properties": {"w": 2.5, "n": 17, "z": [4.03, 6.79]}, "geometry": {"type": "LineString", "coordinates": [[566118.98, 5934710.3], [566118.24, 5934707.77]]}}, {"type": "Feature", "properties": {"w": 2.5, "n": 10, "z": [3.25, 5.12]}, "geometry": {"type": "LineString", "coordinates": [[567082.76, 5935161.1], [567087.59, 5935157.83]]}}, {"type": "Feature", "properties": {"w": 2.5, "n": 21, "z": [3.45, 6.51]}, "geometry": {"type": "LineString", "coordinates": [[567248.48, 5935391.06], [567238.98, 5935379.46]]}}, {"type": "Feature", "properties": {"w": 2.5, "n": 5, "z": [5.83, 6.56]}, "geometry": {"type": "LineString", "coordinates": [[567268.67, 5935417.96], [567277.99, 5935428.15]]}}, {"type": "Feature", "properties": {"w": 2.5, "n": 3, "z": [7.16, 7.57]}, "geometry": {"type": "LineString", "coordinates": [[567317.45, 5935397.24], [567308.93, 5935386.09]]}}, {"type": "Feature", "properties": {"w": 2.5, "n": 8, "z": [4.58, 5.96]}, "geometry": {"type": "LineString", "coordinates": [[567377.57, 5935340.45], [567384.76, 5935331.95]]}}, {"type": "Feature", "properties": {"w": 2.5, "n": 12, "z": [4.27, 6.2]}, "geometry": {"type": "LineString", "coordinates": [[567362.12, 5935327.6], [567369.63, 5935318.52]]}}, {"type": "Feature", "properties": {"w": 2.5, "n": 16, "z": [3.77, 6.35]}, "geometry": {"type": "LineString", "coordinates": [[567351.1, 5935318.43], [567359.41, 5935309.45]]}}, {"type": "Feature", "properties": {"w": 2.5, "n": 8, "z": [8.0, 8.95]}, "geometry": {"type": "LineString", "coordinates": [[566053.11, 5934823.94], [566048.85, 5934822.34]]}}, {"type": "Feature", "properties": {"w": 1.2, "n": 3, "z": [9.54, 10.27]}, "geometry": {"type": "LineString", "coordinates": [[567613.2, 5934454.2], [567618.19, 5934455.98]]}}, {"type": "Feature", "properties": {"w": 2.5, "n": 3, "z": [10.48, 10.9]}, "geometry": {"type": "LineString", "coordinates": [[567632.52, 5934446.01], [567633.06, 5934444.84]]}}, {"type": "Feature", "properties": {"w": 2.5, "n": 3, "z": [5.83, 6.17]}, "geometry": {"type": "LineString", "coordinates": [[566528.95, 5934697.57], [566533.85, 5934703.17]]}}, {"type": "Feature", "properties": {"w": 2.5, "n": 7, "z": [2.74, 3.92]}, "geometry": {"type": "LineString", "coordinates": [[567240.6, 5935570.21], [567242.53, 5935569.81]]}}]}