{"type": "FeatureCollection", "attribution": "\u00a9 OpenStreetMap contributors (ODbL)", "crs": {"type": "name", "properties": {"name": "urn:ogc:def:crs:EPSG::25832"}}, "features": [{"type": "Feature", "properties": {"kind": "mast", "z": 3.46, "h": 11.1, "r": 2.5, "rt": 0.88}, "geometry": {"type": "Point", "coordinates": [567632.5, 5933268.5]}}, {"type": "Feature", "properties": {"kind": "mast", "z": 3.75, "h": 8.1, "r": 2.5, "rt": 0.88}, "geometry": {"type": "Point", "coordinates": [567068.5, 5933882.5]}}, {"type": "Feature", "properties": {"kind": "mast", "z": 5.55, "h": 47.6, "r": 2.5, "rt": 0.88}, "geometry": {"type": "Point", "coordinates": [567793.5, 5933452.5]}}, {"type": "Feature", "properties": {"kind": "chimney", "z": 7.86, "h": 83.7, "r": 3.49, "rt": 2.09}, "geometry": {"type": "Point", "coordinates": [566033.14, 5932930.63]}}, {"type": "Feature", "properties": {"kind": "chimney", "z": 7.94, "h": 82.1, "r": 3.42, "rt": 2.05}, "geometry": {"type": "Point", "coordinates": [566038.51, 5932928.31]}}, {"type": "Feature", "properties": {"kind": "chimney", "z": 7.98, "h": 82.1, "r": 3.42, "rt": 2.05}, "geometry": {"type": "Point", "coordinates": [566033.64, 5932924.78]}}, {"type": "Feature", "properties": {"kind": "tower", "z": 7.89, "h": 13.1, "r": 3.1, "rt": 2.79, "name": "View Point"}, "geometry": {"type": "Point", "coordinates": [566807.88, 5932655.25]}}, {"type": "Feature", "properties": {"kind": "building", "z": 7.94, "h": 29.9}, "geometry": {"type": "Polygon", "coordinates": [[[566499.53, 5933144.46], [566493.61, 5933158.43], [566499.24, 5933160.58], [566496.69, 5933166.65], [566512.7, 5933173.24], [566521.54, 5933152.78], [566499.53, 5933144.46]]]}}, {"type": "Feature", "properties": {"kind": "building", "z": 4.4, "h": 3.7}, "geometry": {"type": "Polygon", "coordinates": [[[567731.78, 5933844.11], [567737.59, 5933846.87], [567741.46, 5933838.76], [567735.65, 5933836.0], [567731.78, 5933844.11]]]}}, {"type": "Feature", "properties": {"kind": "building", "z": 6.83, "h": 29.9}, "geometry": {"type": "Polygon", "coordinates": [[[566463.8, 5933147.09], [566493.61, 5933158.43], [566499.53, 5933144.46], [566469.8, 5933133.21], [566463.8, 5933147.09]]]}}, {"type": "Feature", "properties": {"kind": "building", "z": 7.63, "h": 18.5, "name": "Eleven Decks"}, "geometry": {"type": "Polygon", "coordinates": [[[566052.18, 5932963.33], [566132.86, 5932950.43], [566140.07, 5932866.74], [566097.63, 5932857.72], [566052.18, 5932963.33]]]}}, {"type": "Feature", "properties": {"kind": "building", "z": 2.75, "h": 2.8}, "geometry": {"type": "Polygon", "coordinates": [[[567304.99, 5933568.27], [567311.06, 5933571.24], [567313.82, 5933565.61], [567307.76, 5933562.64], [567304.99, 5933568.27]]]}}, {"type": "Feature", "properties": {"kind": "building", "z": 2.95, "h": 2.7}, "geometry": {"type": "Polygon", "coordinates": [[[567296.61, 5933564.04], [567303.23, 5933567.35], [567306.87, 5933560.12], [567300.24, 5933556.81], [567296.61, 5933564.04]]]}}, {"type": "Feature", "properties": {"kind": "building", "z": 0.63, "h": 12.6}, "geometry": {"type": "Polygon", "coordinates": [[[566108.68, 5932833.08], [566154.81, 5932839.15], [566163.48, 5932803.22], [566127.86, 5932788.13], [566108.68, 5932833.08]]]}}, {"type": "Feature", "properties": {"kind": "building", "z": 7.23, "h": 12.2}, "geometry": {"type": "Polygon", "coordinates": [[[566132.58, 5932777.16], [566164.42, 5932791.04], [566184.77, 5932736.86], [566155.3, 5932724.45], [566132.58, 5932777.16]]]}}, {"type": "Feature", "properties": {"kind": "building", "z": 1.52, "h": 9.7, "name": "Luv"}, "geometry": {"type": "Polygon", "coordinates": [[[566173.22, 5932717.82], [566187.56, 5932721.5], [566192.24, 5932707.6], [566193.81, 5932708.7], [566195.58, 5932690.36], [566194.7, 5932687.34], [566192.8, 5932685.18], [566191.57, 5932684.46], [566176.48, 5932680.76], [566171.44, 5932694.05], [566169.84, 5932692.67], [566168.17, 5932710.28], [566169.52, 5932714.9], [566170.44, 5932716.2], [566173.22, 5932717.82]]]}}, {"type": "Feature", "properties": {"kind": "building", "z": 8.49, "h": 5.8}, "geometry": {"type": "Polygon", "coordinates": [[[566205.58, 5932800.22], [566177.71, 5932788.1], [566186.94, 5932768.39], [566196.82, 5932738.53], [566227.22, 5932745.4], [566249.64, 5932759.2], [566239.11, 5932801.63], [566205.58, 5932800.22]]]}}, {"type": "Feature", "properties": {"kind": "building", "z": 8.29, "h": 6.1, "name": "LEE"}, "geometry": {"type": "Polygon", "coordinates": [[[566204.77, 5932725.75], [566238.1, 5932736.91], [566241.3, 5932737.22], [566244.58, 5932736.83], [566258.35, 5932730.41], [566261.6, 5932727.84], [566267.07, 5932713.93], [566234.14, 5932698.7], [566221.26, 5932694.43], [566217.89, 5932694.0], [566216.09, 5932694.45], [566213.24, 5932697.04], [566205.88, 5932711.93], [566207.5, 5932712.16], [566204.77, 5932725.75]]]}}, {"type": "Feature", "properties": {"kind": "building", "z": 7.83, "h": 21.6, "name": "The Lyte"}, "geometry": {"type": "Polygon", "coordinates": [[[566050.36, 5932813.64], [566058.53, 5932792.17], [566072.99, 5932791.13], [566092.67, 5932800.69], [566088.7, 5932810.04], [566091.47, 5932813.69], [566087.13, 5932818.65], [566071.71, 5932819.22], [566050.36, 5932813.64]]]}}, {"type": "Feature", "properties": {"kind": "building", "z": 6.44, "h": 29.9}, "geometry": {"type": "Polygon", "coordinates": [[[566512.7, 5933173.24], [566492.67, 5933219.63], [566488.34, 5933217.61], [566493.2, 5933205.96], [566481.74, 5933200.78], [566496.69, 5933166.65], [566512.7, 5933173.24]]]}}, {"type": "Feature", "properties": {"kind": "building", "z": 2.98, "h": 2.6}, "geometry": {"type": "Polygon", "coordinates": [[[567094.25, 5933524.14], [567088.55, 5933527.56], [567084.65, 5933521.1], [567090.35, 5933517.68], [567094.25, 5933524.14]]]}}, {"type": "Feature", "properties": {"kind": "building", "z": 3.04, "h": 2.9}, "geometry": {"type": "Polygon", "coordinates": [[[567002.96, 5933572.44], [566989.07, 5933581.13], [566986.92, 5933577.71], [567000.82, 5933569.02], [567002.96, 5933572.44]]]}}, {"type": "Feature", "properties": {"kind": "building", "z": 5.98, "h": 11.9, "name": "PHOXXI \u2013 Haus der Photographie"}, "geometry": {"type": "Polygon", "coordinates": [[[566614.32, 5933606.24], [566663.9, 5933582.75], [566658.89, 5933572.23], [566609.32, 5933595.73], [566614.32, 5933606.24]]]}}, {"type": "Feature", "properties": {"kind": "building", "z": 4.98, "h": 9.4}, "geometry": {"type": "Polygon", "coordinates": [[[567906.52, 5932190.42], [567910.1, 5932188.57], [567915.15, 5932198.28], [567910.99, 5932198.91], [567910.39, 5932197.75], [567908.99, 5932198.48], [567907.03, 5932194.72], [567908.39, 5932194.02], [567906.52, 5932190.42]]]}}, {"type": "Feature", "properties": {"kind": "building", "z": 2.78, "h": 5.9}, "geometry": {"type": "Polygon", "coordinates": [[[566950.59, 5932912.82], [566940.21, 5932911.83], [566915.46, 5932922.68], [566890.72, 5932937.38], [566868.65, 5932954.01], [566845.02, 5932975.67], [566812.12, 5933009.26], [566759.54, 5933072.21], [566738.9, 5933103.36], [566723.66, 5933135.28], [566711.98, 5933171.78], [566703.99, 5933208.91], [566700.76, 5933241.49], [566699.9, 5933276.52], [566701.44, 5933309.09], [566690.34, 5933310.83], [566685.74, 5933281.64], [566684.89, 5933270.5], [566684.86, 5933256.56], [566686.2, 5933230.6], [566689.67, 5933205.75], [566694.4, 5933182.95], [566703.85, 5933154.11], [566719.71, 5933116.14], [566728.42, 5933098.32], [566747.47, 5933066.71], [566771.58, 5933035.39], [566801.75, 5933000.19], [566828.01, 5932971.15], [566843.99, 5932955.74], [566860.05, 5932942.62], [566877.94, 5932930.79], [566910.27, 5932913.49], [566946.11, 5932897.87], [566980.27, 5932886.04], [566994.4, 5932879.34], [567015.83, 5932870.2], [567019.15, 5932876.49], [567361.82, 5932792.47], [567364.3, 5932803.65], [566976.39, 5932898.44], [566950.59, 5932912.82]]]}}, {"type": "Feature", "properties": {"kind": "building", "z": 4.7, "h": 20.1}, "geometry": {"type": "Polygon", "coordinates": [[[566187.27, 5933726.49], [566183.52, 5933679.32], [566233.54, 5933680.02], [566234.72, 5933717.75], [566187.27, 5933726.49]]]}}, {"type": "Feature", "properties": {"kind": "relief", "z": 40.44, "h": 3.2, "of": "DEHHALKAJ00011px", "grid": {"x": 566480.0, "y": 5933836.0, "res": 1.0, "cols": 15, "rows": 8, "z": [-1.0, -1.0, -1.0, -1.0, -1.0, -1.0, -1.0, -1.0, -1.0, -1.0, -1.0, -1.0, 2.1, -1.0, -1.0, -1.0, 3.2, 3.2, 3.2, 3.2, 3.2, 3.2, 3.2, 3.2, 3.2, 3.1, 3.1, 3.0, 3.1, -1.0, 3.2, 3.2, 3.1, 3.1, 3.1, 3.1, 3.1, 3.1, 3.1, 3.1, 3.1, 3.1, 3.1, 3.1, 2.1, 3.2, 3.1, 3.1, 3.1, 3.1, 3.1, 3.1, 3.1, 3.1, 3.1, 3.1, 3.1, 3.1, 3.1, -1.0, 3.2, 3.1, 3.1, 3.1, 3.1, 3.1, 3.1, 3.1, 3.1, 3.1, 3.1, 3.1, 3.1, 3.1, -1.0, -1.0, 3.1, 3.1, 3.1, 3.1, 3.1, 3.1, 3.0, 3.0, 3.0, 3.0, 3.0, 3.0, 3.1, -1.0, -1.0, 3.1, 3.1, 3.1, 3.0, 3.0, 3.0, 3.0, 3.0, 3.0, 3.0, 3.0, 3.0, 3.0, -1.0, -1.0, -1.0, 3.0, 3.0, 3.0, 3.0, 2.9, 2.9, 2.9, 2.9, 2.9, 2.9, 2.8, -1.0, -1.0], "floor": [0.0, 0.0, 0.0, 0.0, 0.0, 0.0, 0.0, 0.0, 0.0, 0.0, 0.0, 0.0, -0.3, 0.0, 0.0, 0.0, -0.3, -0.3, -0.3, -0.3, -0.3, -0.3, -0.3, -0.3, -0.3, -0.3, -0.3, -0.3, -0.3, 0.0, -0.3, -0.3, -0.3, -0.3, -0.3, -0.3, -0.3, -0.3, -0.3, -0.3, -0.3, -0.3, -0.3, -0.3, -0.3, -0.3, -0.3, -0.3, -0.3, -0.3, -0.3, -0.3, -0.3, -0.3, -0.3, -0.3, -0.3, -0.3, -0.3, 0.0, -0.3, -0.3, -0.3, -0.3, -0.3, -0.3, -0.3, -0.3, -0.3, -0.3, -0.3, -0.3, -0.3, -0.3, 0.0, 0.0, -0.3, -0.3, -0.3, -0.3, -0.3, -0.3, -0.3, -0.3, -0.3, -0.3, -0.3, -0.3, -0.3, 0.0, 0.0, -0.3, -0.3, -0.3, -0.3, -0.3, -0.3, -0.3, -0.3, -0.3, -0.3, -0.3, -0.3, -0.3, 0.0, 0.0, 0.0, -0.3, -0.3, -0.3, -0.3, -0.3, -0.3, -0.3, -0.3, -0.3, -0.3, -0.3, 0.0, 0.0]}}, "geometry": {"type": "Polygon", "coordinates": [[[566492.0, 5933836.0], [566492.0, 5933835.0], [566481.0, 5933835.0], [566481.0, 5933834.0], [566480.0, 5933834.0], [566480.0, 5933831.0], [566481.0, 5933831.0], [566481.0, 5933829.0], [566482.0, 5933829.0], [566482.0, 5933828.0], [566493.0, 5933828.0], [566493.0, 5933829.0], [566494.0, 5933829.0], [566494.0, 5933833.0], [566495.0, 5933833.0], [566495.0, 5933834.0], [566494.0, 5933834.0], [566494.0, 5933835.0], [566492.0, 5933836.0]]]}}, {"type": "Feature", "properties": {"kind": "relief", "z": 40.44, "h": 2.6, "of": "DEHHALKAJ00011px", "grid": {"x": 566511.0, "y": 5933822.0, "res": 1.0, "cols": 4, "rows": 5, "z": [-1.0, 2.6, -1.0, -1.0, 2.5, 2.5, 2.5, -1.0, 2.5, 2.5, 2.5, 1.8, 2.5, 2.5, 2.5, 2.5, -1.0, 2.6, 2.6, -1.0], "floor": [0.0, -0.3, 0.0, 0.0, -0.3, -0.3, -0.3, 0.0, -0.3, -0.3, -0.3, -0.3, -0.3, -0.3, -0.3, -0.3, 0.0, -0.3, -0.3, 0.0]}}, "geometry": {"type": "Polygon", "coordinates": [[[566512.0, 5933822.0], [566512.0, 5933821.0], [566511.0, 5933821.0], [566511.0, 5933818.0], [566512.0, 5933818.0], [566512.0, 5933817.0], [566514.0, 5933817.0], [566514.0, 5933818.0], [566515.0, 5933818.0], [566515.0, 5933820.0], [566514.0, 5933820.0], [566514.0, 5933821.0], [566512.0, 5933822.0]]]}}, {"type": "Feature", "properties": {"kind": "relief", "z": 40.44, "h": 2.6, "of": "DEHHALKAJ00011px", "grid": {"x": 566463.0, "y": 5933815.0, "res": 1.0, "cols": 4, "rows": 5, "z": [-1.0, 2.6, 2.6, -1.0, 2.6, 2.6, 2.5, 2.5, 2.6, 2.6, 2.5, 2.5, 2.6, 2.6, 2.6, -1.0, -1.0, 2.5, -1.0, -1.0], "floor": [0.0, -0.3, -0.3, 0.0, -0.3, -0.3, -0.3, -0.3, -0.3, -0.3, -0.3, -0.3, -0.3, -0.3, -0.3, 0.0, 0.0, -0.3, 0.0, 0.0]}}, "geometry": {"type": "Polygon", "coordinates": [[[566464.0, 5933815.0], [566464.0, 5933814.0], [566463.0, 5933814.0], [566463.0, 5933811.0], [566465.0, 5933810.0], [566465.0, 5933811.0], [566467.0, 5933812.0], [566467.0, 5933814.0], [566466.0, 5933814.0], [566466.0, 5933815.0], [566464.0, 5933815.0]]]}}, {"type": "Feature", "properties": {"kind": "relief", "z": 40.44, "h": 1.5, "of": "DEHHALKAJ00011px", "grid": {"x": 566512.0, "y": 5933814.0, "res": 1.0, "cols": 5, "rows": 16, "z": [-1.0, -1.0, 1.3, -1.0, -1.0, -1.0, 1.4, 1.4, 1.3, -1.0, -1.0, 1.5, 1.4, 1.4, -1.0, -1.0, 1.4, 1.5, 1.4, -1.0, -1.0, 1.4, 1.4, 1.4, -1.0, 1.1, 1.4, 1.5, 1.5, -1.0, -1.0, 1.4, 1.5, 1.5, -1.0, 1.2, 1.5, 1.5, 1.5, -1.0, -1.0, 1.4, 1.5, 1.5, -1.0, -1.0, 1.4, 1.5, 1.5, -1.0, -1.0, -1.0, 1.5, 1.5, 1.3, -1.0, -1.0, 1.4, 1.4, 1.4, -1.0, -1.0, 1.5, 1.5, 1.4, -1.0, -1.0, 1.4, 1.4, 1.4, -1.0, -1.0, 1.4, 1.4, 1.4, -1.0, -1.0, -1.0, 1.2, -1.0], "floor": [0.0, 0.0, -0.3, 0.0, 0.0, 0.0, -0.3, -0.3, -0.3, 0.0, 0.0, -0.3, -0.3, -0.3, 0.0, 0.0, -0.3, -0.3, -0.3, 0.0, 0.0, -0.3, -0.3, -0.3, 0.0, -0.3, -0.3, -0.3, -0.3, 0.0, 0.0, -0.3, -0.3, -0.3, 0.0, -0.3, -0.3, -0.3, -0.3, 0.0, 0.0, -0.3, -0.3, -0.3, 0.0, 0.0, -0.3, -0.3, -0.3, 0.0, 0.0, 0.0, -0.3, -0.3, -0.3, 0.0, 0.0, -0.3, -0.3, -0.3, 0.0, 0.0, -0.3, -0.3, -0.3, 0.0, 0.0, -0.3, -0.3, -0.3, 0.0, 0.0, -0.3, -0.3, -0.3, 0.0, 0.0, 0.0, -0.3, 0.0]}}, "geometry": {"type": "Polygon", "coordinates": [[[566514.0, 5933814.0], [566514.0, 5933813.0], [566513.0, 5933813.0], [566513.0, 5933809.0], [566512.0, 5933809.0], [566513.0, 5933807.0], [566512.0, 5933807.0], [566512.0, 5933806.0], [566513.0, 5933806.0], [566513.0, 5933804.0], [566514.0, 5933804.0], [566514.0, 5933799.0], [566516.0, 5933798.0], [566516.0, 5933799.0], [566517.0, 5933799.0], [566517.0, 5933804.0], [566516.0, 5933804.0], [566516.0, 5933813.0], [566514.0, 5933814.0]]]}}, {"type": "Feature", "properties": {"kind": "relief", "z": 40.44, "h": 1.5, "of": "DEHHALKAJ00011px", "grid": {"x": 566464.0, "y": 5933807.0, "res": 1.0, "cols": 5, "rows": 15, "z": [-1.0, 1.3, -1.0, -1.0, -1.0, 1.4, 1.4, 1.4, -1.0, -1.0, 1.4, 1.4, 1.4, -1.0, -1.0, 1.4, 1.4, 1.5, -1.0, -1.0, 1.3, 1.4, 1.4, -1.0, -1.0, -1.0, 1.5, 1.4, 1.2, -1.0, -1.0, 1.4, 1.4, 1.4, -1.0, -1.0, 1.4, 1.4, 1.4, -1.0, -1.0, 1.4, 1.4, 1.5, 1.4, -1.0, 1.4, 1.4, 1.4, -1.0, 1.2, 1.4, 1.4, 1.4, -1.0, -1.0, 1.4, 1.4, 1.4, -1.0, -1.0, 1.4, 1.4, 1.4, -1.0, -1.0, 1.3, 1.4, 1.5, -1.0, -1.0, -1.0, 1.4, -1.0, -1.0], "floor": [0.0, -0.3, 0.0, 0.0, 0.0, -0.3, -0.3, -0.3, 0.0, 0.0, -0.3, -0.3, -0.3, 0.0, 0.0, -0.3, -0.3, -0.3, 0.0, 0.0, -0.3, -0.3, -0.3, 0.0, 0.0, 0.0, -0.3, -0.3, -0.3, 0.0, 0.0, -0.3, -0.3, -0.3, 0.0, 0.0, -0.3, -0.3, -0.3, 0.0, 0.0, -0.3, -0.3, -0.3, -0.3, 0.0, -0.3, -0.3, -0.3, 0.0, -0.3, -0.3, -0.3, -0.3, 0.0, 0.0, -0.3, -0.3, -0.3, 0.0, 0.0, -0.3, -0.3, -0.3, 0.0, 0.0, -0.3, -0.3, -0.3, 0.0, 0.0, 0.0, -0.3, 0.0, 0.0]}}, "geometry": {"type": "Polygon", "coordinates": [[[566465.0, 5933807.0], [566465.0, 5933806.0], [566464.0, 5933806.0], [566464.0, 5933802.0], [566465.0, 5933802.0], [566465.0, 5933797.0], [566464.0, 5933797.0], [566464.0, 5933796.0], [566465.0, 5933796.0], [566465.0, 5933793.0], [566467.0, 5933792.0], [566467.0, 5933793.0], [566468.0, 5933793.0], [566468.0, 5933798.0], [566469.0, 5933798.0], [566469.0, 5933799.0], [566468.0, 5933799.0], [566468.0, 5933802.0], [566467.0, 5933802.0], [566467.0, 5933806.0], [566465.0, 5933807.0]]]}}, {"type": "Feature", "properties": {"kind": "relief", "z": 40.44, "h": 2.6, "of": "DEHHALKAJ00011px", "grid": {"x": 566514.0, "y": 5933795.0, "res": 1.0, "cols": 4, "rows": 4, "z": [-1.0, 2.6, -1.0, -1.0, 2.5, 2.5, 2.6, -1.0, 2.5, 2.5, 2.5, 2.6, -1.0, 2.5, 2.6, -1.0], "floor": [0.0, -0.3, 0.0, 0.0, -0.3, -0.3, -0.3, 0.0, -0.3, -0.3, -0.3, -0.3, 0.0, -0.3, -0.3, 0.0]}}, "geometry": {"type": "Polygon", "coordinates": [[[566515.0, 5933795.0], [566515.0, 5933794.0], [566514.0, 5933794.0], [566514.0, 5933792.0], [566515.0, 5933792.0], [566515.0, 5933791.0], [566517.0, 5933791.0], [566518.0, 5933793.0], [566517.0, 5933793.0], [566517.0, 5933794.0], [566515.0, 5933795.0]]]}}, {"type": "Feature", "properties": {"kind": "relief", "z": 40.44, "h": 2.6, "of": "DEHHALKAJ00011px", "grid": {"x": 566466.0, "y": 5933788.0, "res": 1.0, "cols": 4, "rows": 5, "z": [-1.0, 2.5, 2.5, -1.0, 2.6, 2.5, 2.5, 2.5, 2.6, 2.5, 2.5, 2.5, 2.6, 2.5, 2.5, 2.5, -1.0, 2.6, 2.5, -1.0], "floor": [0.0, -0.3, -0.3, 0.0, -0.3, -0.3, -0.3, -0.3, -0.3, -0.3, -0.3, -0.3, -0.3, -0.3, -0.3, -0.3, 0.0, -0.3, -0.3, 0.0]}}, "geometry": {"type": "Polygon", "coordinates": [[[566467.0, 5933788.0], [566467.0, 5933787.0], [566466.0, 5933787.0], [566466.0, 5933784.0], [566467.0, 5933784.0], [566467.0, 5933783.0], [566469.0, 5933783.0], [566469.0, 5933784.0], [566470.0, 5933784.0], [566470.0, 5933787.0], [566469.0, 5933787.0], [566469.0, 5933788.0], [566467.0, 5933788.0]]]}}, {"type": "Feature", "properties": {"kind": "relief", "z": 40.44, "h": 1.6, "of": "DEHHALKAJ00011px", "grid": {"x": 566472.0, "y": 5933786.0, "res": 1.0, "cols": 4, "rows": 12, "z": [-1.0, 1.5, 1.5, -1.0, 1.5, 1.5, 1.5, 1.4, 1.5, 1.5, 1.5, -1.0, 1.5, 1.5, 1.5, 1.5, -1.0, 1.5, 1.5, 1.5, -1.0, 1.5, 1.5, 1.5, -1.0, 1.5, 1.5, 1.5, 1.2, 1.5, 1.5, 1.5, -1.0, 1.5, 1.5, 1.5, -1.0, 1.5, 1.5, 1.5, -1.0, 1.5, 1.5, 1.5, -1.0, -1.0, 1.6, -1.0], "floor": [0.0, -0.3, -0.3, 0.0, -0.3, -0.3, -0.3, -0.3, -0.3, -0.3, -0.3, 0.0, -0.3, -0.3, -0.3, -0.3, 0.0, -0.3, -0.3, -0.3, 0.0, -0.3, -0.3, -0.3, 0.0, -0.3, -0.3, -0.3, -0.3, -0.3, -0.3, -0.3, 0.0, -0.3, -0.3, -0.3, 0.0, -0.3, -0.3, -0.3, 0.0, -0.3, -0.3, -0.3, 0.0, 0.0, -0.3, 0.0]}}, "geometry": {"type": "Polygon", "coordinates": [[[566473.0, 5933786.0], [566473.0, 5933785.0], [566472.0, 5933785.0], [566472.0, 5933782.0], [566473.0, 5933782.0], [566473.0, 5933779.0], [566472.0, 5933779.0], [566472.0, 5933778.0], [566473.0, 5933778.0], [566473.0, 5933775.0], [566475.0, 5933774.0], [566475.0, 5933775.0], [566476.0, 5933775.0], [566476.0, 5933783.0], [566475.0, 5933783.0], [566476.0, 5933785.0], [566475.0, 5933785.0], [566475.0, 5933786.0], [566473.0, 5933786.0]]]}}, {"type": "Feature", "properties": {"kind": "relief", "z": 40.44, "h": 3.6, "of": "DEHHALKAJ00011px", "grid": {"x": 566486.0, "y": 5933785.0, "res": 1.0, "cols": 14, "rows": 12, "z": [-1.0, -1.0, -1.0, -1.0, -1.0, -1.0, 1.7, 1.7, -1.0, -1.0, -1.0, -1.0, -1.0, -1.0, -1.0, -1.0, -1.0, -1.0, -1.0, 2.1, 2.3, 2.4, 2.1, -1.0, 3.6, 3.6, -1.0, -1.0, -1.0, 3.6, 3.6, -1.0, -1.0, 2.9, 3.0, 3.1, 3.3, 3.5, 3.6, 3.6, 3.5, -1.0, 3.6, 3.6, 3.6, 3.5, 3.5, 3.4, 3.4, 3.4, 3.4, 3.5, 3.5, 3.5, 3.5, 3.5, 3.5, 3.5, 3.5, 3.5, 3.4, 3.4, 3.4, 3.4, 3.4, 3.4, 3.4, 3.4, 3.4, 3.5, 3.5, 3.4, 3.4, 3.4, 3.4, 3.4, 3.4, 3.4, 3.4, 3.4, 3.4, 3.4, 3.4, 3.4, 3.5, 3.4, 3.4, 3.4, 3.4, 3.4, 3.4, 3.4, 3.4, 3.4, 3.4, 3.4, 3.4, 3.4, 3.5, 3.4, 3.4, 3.4, 3.4, 3.4, 3.4, 3.4, 3.4, 3.4, 3.4, 3.4, 3.3, 3.4, 3.5, 3.4, 3.4, 3.3, 3.3, 3.3, 3.3, 3.3, 3.3, 3.3, 3.3, 3.3, 3.3, 3.3, 3.5, 3.4, 3.3, 3.3, 3.3, 3.3, 3.2, 3.2, 3.2, 3.2, 3.3, 3.3, 3.3, -1.0, -1.0, 3.3, 3.3, 3.2, 3.2, 3.0, 2.7, 2.4, 2.3, 2.4, -1.0, -1.0, -1.0, -1.0, -1.0, -1.0, -1.0, -1.0, -1.0, 2.3, 2.3, 2.2, 2.2, -1.0, -1.0, -1.0, -1.0, -1.0], "floor": [0.0, 0.0, 0.0, 0.0, 0.0, 0.0, -0.3, -0.3, 0.0, 0.0, 0.0, 0.0, 0.0, 0.0, 0.0, 0.0, 0.0, 0.0, 0.0, -0.3, -0.3, -0.3, -0.3, 0.0, -0.3, -0.3, 0.0, 0.0, 0.0, -0.3, -0.3, 0.0, 0.0, -0.3, -0.3, -0.3, -0.3, -0.3, -0.3, -0.3, -0.3, 0.0, -0.3, -0.3, -0.3, -0.3, -0.3, -0.3, -0.3, -0.3, -0.3, -0.3, -0.3, -0.3, -0.3, -0.3, -0.3, -0.3, -0.3, -0.3, -0.3, -0.3, -0.3, -0.3, -0.3, -0.3, -0.3, -0.3, -0.3, -0.3, -0.3, -0.3, -0.3, -0.3, -0.3, -0.3, -0.3, -0.3, -0.3, -0.3, -0.3, -0.3, -0.3, -0.3, -0.3, -0.3, -0.3, -0.3, -0.3, -0.3, -0.3, -0.3, -0.3, -0.3, -0.3, -0.3, -0.3, -0.3, -0.3, -0.3, -0.3, -0.3, -0.3, -0.3, -0.3, -0.3, -0.3, -0.3, -0.3, -0.3, -0.3, -0.3, -0.3, -0.3, -0.3, -0.3, -0.3, -0.3, -0.3, -0.3, -0.3, -0.3, -0.3, -0.3, -0.3, -0.3, -0.3, -0.3, -0.3, -0.3, -0.3, -0.3, -0.3, -0.3, -0.3, -0.3, -0.3, -0.3, -0.3, 0.0, 0.0, -0.3, -0.3, -0.3, -0.3, -0.3, -0.3, -0.3, -0.3, -0.3, 0.0, 0.0, 0.0, 0.0, 0.0, 0.0, 0.0, 0.0, 0.0, -0.3, -0.3, -0.3, -0.3, 0.0, 0.0, 0.0, 0.0, 0.0]}}, "geometry": {"type": "Polygon", "coordinates": [[[566492.0, 5933785.0], [566492.0, 5933784.0], [566491.0, 5933784.0], [566491.0, 5933782.0], [566489.0, 5933782.0], [566489.0, 5933783.0], [566487.0, 5933783.0], [566487.0, 5933782.0], [566486.0, 5933782.0], [566486.0, 5933775.0], [566487.0, 5933775.0], [566487.0, 5933774.0], [566491.0, 5933774.0], [566491.0, 5933773.0], [566495.0, 5933773.0], [566496.0, 5933775.0], [566499.0, 5933775.0], [566499.0, 5933776.0], [566500.0, 5933776.0], [566500.0, 5933782.0], [566499.0, 5933782.0], [566498.0, 5933784.0], [566496.0, 5933784.0], [566496.0, 5933783.0], [566495.0, 5933783.0], [566494.0, 5933785.0], [566492.0, 5933785.0]]]}}, {"type": "Feature", "properties": {"kind": "relief", "z": 33.96, "h": 3.4, "of": "DEHHALKAJ000125L", "grid": {"x": 566191.0, "y": 5933808.0, "res": 1.0, "cols": 13, "rows": 7, "z": [-1.0, -1.0, 3.4, 3.0, 3.0, 3.0, 3.0, 3.0, 3.0, 3.0, 3.0, -1.0, -1.0, -1.0, 3.1, 3.1, 3.1, 3.0, 3.0, 3.1, 3.1, 3.1, 3.1, 3.1, 3.0, -1.0, -1.0, 3.0, 3.1, 3.1, 3.1, 3.1, 3.1, 3.1, 3.1, 3.2, 3.1, 3.0, 2.0, 2.0, 3.1, 3.1, 3.2, 3.2, 3.2, 3.2, 3.2, 3.2, 3.2, 3.2, 3.1, 3.0, -1.0, 3.1, 3.2, 3.2, 3.2, 3.2, 3.3, 3.3, 3.3, 3.3, 3.2, 3.2, 3.2, -1.0, -1.0, 3.3, 3.3, 3.3, 3.3, 3.3, 3.2, 3.2, 3.2, 3.3, 3.3, -1.0, -1.0, -1.0, -1.0, -1.0, -1.0, -1.0, -1.0, -1.0, 2.0, -1.0, -1.0, -1.0, -1.0], "floor": [0.0, 0.0, -22.2, -22.2, -0.3, -0.3, -0.3, -0.3, -0.3, -0.3, -0.3, 0.0, 0.0, 0.0, -0.3, -0.3, -0.3, -0.3, -0.3, -0.3, -0.3, -0.3, -0.3, -0.3, -0.3, 0.0, 0.0, -0.3, -0.3, -0.3, -0.3, -0.3, -0.3, -0.3, -0.3, -0.3, -0.3, -0.3, -0.3, -0.3, -0.3, -0.3, -0.3, -0.3, -0.3, -0.3, -0.3, -0.3, -0.3, -0.3, -0.3, -0.3, 0.0, -0.3, -0.3, -0.3, -0.3, -0.3, -0.3, -0.3, -0.3, -0.3, -0.3, -0.3, -0.3, 0.0, 0.0, -0.3, -0.3, -0.3, -0.3, -0.3, -0.3, -0.3, -0.3, -0.3, -0.3, 0.0, 0.0, 0.0, 0.0, 0.0, 0.0, 0.0, 0.0, 0.0, -0.3, 0.0, 0.0, 0.0, 0.0]}}, "geometry": {"type": "Polygon", "coordinates": [[[566193.0, 5933808.0], [566193.0, 5933807.0], [566192.0, 5933807.0], [566192.0, 5933805.0], [566191.0, 5933805.0], [566191.0, 5933804.0], [566192.0, 5933804.0], [566193.0, 5933802.0], [566199.0, 5933802.0], [566199.0, 5933801.0], [566200.0, 5933801.0], [566200.0, 5933802.0], [566203.0, 5933802.0], [566203.0, 5933803.0], [566204.0, 5933803.0], [566204.0, 5933806.0], [566203.0, 5933806.0], [566202.0, 5933808.0], [566193.0, 5933808.0]]]}}]}