{"type": "FeatureCollection", "attribution": "\u00a9 OpenStreetMap contributors (ODbL)", "crs": {"type": "name", "properties": {"name": "urn:ogc:def:crs:EPSG::25832"}}, "features": [{"type": "Feature", "properties": {"z": 5.7}, "geometry": {"type": "Polygon", "coordinates": [[[565184.74, 5935325.31], [565146.86, 5935299.43], [565170.84, 5935264.49], [565167.72, 5935262.37], [565193.2, 5935224.06], [565214.53, 5935193.46], [565219.11, 5935196.59], [565227.58, 5935184.25], [565242.3, 5935194.31], [565256.87, 5935204.23], [565263.73, 5935209.0], [565184.74, 5935325.31]]]}}]}