{"type": "FeatureCollection", "attribution": "Verkehrsmengen 2019 \u00a9 Freie und Hansestadt Hamburg, Beh\u00f6rde f\u00fcr Verkehr und Mobilit\u00e4tswende (dl-de/by-2-0)", "crs": {"type": "name", "properties": {"name": "urn:ogc:def:crs:EPSG::25832"}}, "features": [{"type": "Feature", "properties": {"t": 14000, "f": 7000, "b": 7000, "sp": 1, "hf": 0.03, "hb": 0.03, "y": 2019, "m": "census"}, "geometry": {"type": "LineString", "coordinates": [[564000.0, 5934007.62], [564103.38, 5934008.42]]}}, {"type": "Feature", "properties": {"t": 13000, "f": 6500, "b": 6500, "sp": 1, "hf": 0.06, "hb": 0.06, "y": 2019, "m": "census"}, "geometry": {"type": "LineString", "coordinates": [[564000.0, 5934694.22], [564007.02, 5934695.57]]}}, {"type": "Feature", "properties": {"t": 16000, "f": 8000, "b": 8000, "sp": 1, "hf": 0.05, "hb": 0.05, "y": 2019, "m": "census"}, "geometry": {"type": "LineString", "coordinates": [[564000.0, 5935645.61], [564026.37, 5935670.68], [564169.12, 5935794.55], [564194.55, 5935811.98]]}}, {"type": "Feature", "properties": {"t": 12000, "f": 6000, "b": 6000, "sp": 1, "hf": 0.06, "hb": 0.06, "y": 2019, "m": "census"}, "geometry": {"type": "LineString", "coordinates": [[564007.02, 5934695.57], [564070.88, 5934707.87], [564099.71, 5934710.43], [564138.31, 5934710.23]]}}, {"type": "Feature", "properties": {"t": 39000, "f": 19500, "b": 19500, "sp": 1, "hf": 0.06, "hb": 0.06, "y": 2019, "m": "census"}, "geometry": {"type": "LineString", "coordinates": [[564036.76, 5936000.0], [564250.07, 5935843.77]]}}, {"type": "Feature", "properties": {"t": 26000, "f": 13000, "b": 13000, "sp": 1, "hf": 0.08, "hb": 0.08, "y": 2019, "m": "census"}, "geometry": {"type": "LineString", "coordinates": [[564083.89, 5934112.73], [564032.25, 5934174.21], [564000.0, 5934217.82]]}}, {"type": "Feature", "properties": {"t": 14000, "f": 7000, "b": 7000, "sp": 1, "hf": 0.03, "hb": 0.03, "y": 2019, "m": "census"}, "geometry": {"type": "LineString", "coordinates": [[564103.38, 5934008.42], [564158.51, 5934010.85]]}}, {"type": "Feature", "properties": {"t": 12000, "f": 6000, "b": 6000, "sp": 1, "hf": 0.06, "hb": 0.06, "y": 2019, "m": "census"}, "geometry": {"type": "LineString", "coordinates": [[564138.31, 5934710.23], [564156.39, 5934710.14]]}}, {"type": "Feature", "properties": {"t": 12000, "f": 6000, "b": 6000, "sp": 1, "hf": 0.06, "hb": 0.06, "y": 2019, "m": "census"}, "geometry": {"type": "LineString", "coordinates": [[564156.39, 5934710.14], [564195.39, 5934707.94]]}}, {"type": "Feature", "properties": {"t": 14000, "f": 7000, "b": 7000, "sp": 1, "hf": 0.03, "hb": 0.03, "y": 2019, "m": "census"}, "geometry": {"type": "LineString", "coordinates": [[564158.51, 5934010.85], [564170.56, 5934013.13], [564184.12, 5934018.76], [564193.34, 5934028.18]]}}, {"type": "Feature", "properties": {"t": 26000, "f": 13000, "b": 13000, "sp": 1, "hf": 0.08, "hb": 0.08, "y": 2019, "m": "census"}, "geometry": {"type": "LineString", "coordinates": [[564169.37, 5934046.68], [564083.89, 5934112.73]]}}, {"type": "Feature", "properties": {"t": 26000, "f": 13000, "b": 13000, "sp": 1, "hf": 0.07, "hb": 0.07, "y": 2019, "m": "census"}, "geometry": {"type": "LineString", "coordinates": [[564193.12, 5934028.35], [564169.37, 5934046.68]]}}, {"type": "Feature", "properties": {"t": 16000, "f": 8000, "b": 8000, "sp": 1, "hf": 0.06, "hb": 0.06, "y": 2019, "m": "census"}, "geometry": {"type": "LineString", "coordinates": [[564194.55, 5935811.98], [564209.42, 5935822.16]]}}, {"type": "Feature", "properties": {"t": 12000, "f": 6000, "b": 6000, "sp": 1, "hf": 0.06, "hb": 0.06, "y": 2019, "m": "census"}, "geometry": {"type": "LineString", "coordinates": [[564195.39, 5934707.94], [564264.69, 5934704.03], [564326.51, 5934696.45], [564394.89, 5934683.72], [564415.05, 5934677.53]]}}, {"type": "Feature", "properties": {"t": 16000, "f": 8000, "b": 8000, "sp": 1, "hf": 0.04, "hb": 0.04, "y": 2019, "m": "census"}, "geometry": {"type": "LineString", "coordinates": [[564209.42, 5935822.16], [564250.07, 5935843.77]]}}, {"type": "Feature", "properties": {"t": 40000, "f": 20000, "b": 20000, "sp": 1, "hf": 0.06, "hb": 0.06, "y": 2019, "m": "census"}, "geometry": {"type": "LineString", "coordinates": [[564217.92, 5934011.45], [564193.12, 5934028.35]]}}, {"type": "Feature", "properties": {"t": 40000, "f": 20000, "b": 20000, "sp": 1, "hf": 0.06, "hb": 0.06, "y": 2019, "m": "census"}, "geometry": {"type": "LineString", "coordinates": [[564234.76, 5934000.0], [564217.92, 5934011.45]]}}, {"type": "Feature", "properties": {"t": 37000, "f": 18500, "b": 18500, "sp": 1, "hf": 0.06, "hb": 0.06, "y": 2019, "m": "census"}, "geometry": {"type": "LineString", "coordinates": [[564250.07, 5935843.77], [564281.89, 5935819.53]]}}, {"type": "Feature", "properties": {"t": 37000, "f": 18500, "b": 18500, "sp": 1, "hf": 0.06, "hb": 0.06, "y": 2019, "m": "census"}, "geometry": {"type": "LineString", "coordinates": [[564281.89, 5935819.53], [564402.85, 5935727.39], [564631.42, 5935548.52], [564681.72, 5935511.07]]}}, {"type": "Feature", "properties": {"t": 16000, "f": 8000, "b": 8000, "sp": 1, "hf": 0.05, "hb": 0.05, "y": 2019, "m": "census"}, "geometry": {"type": "LineString", "coordinates": [[564294.26, 5935867.23], [564250.07, 5935843.77]]}}, {"type": "Feature", "properties": {"t": 12000, "f": 6000, "b": 6000, "sp": 1, "hf": 0.06, "hb": 0.06, "y": 2019, "m": "census"}, "geometry": {"type": "LineString", "coordinates": [[564415.05, 5934677.53], [564504.13, 5934650.18], [564576.94, 5934620.29], [564605.85, 5934614.9]]}}, {"type": "Feature", "properties": {"t": 16000, "f": 8000, "b": 8000, "sp": 1, "hf": 0.05, "hb": 0.05, "y": 2019, "m": "census"}, "geometry": {"type": "LineString", "coordinates": [[564463.54, 5936000.0], [564359.2, 5935913.57], [564333.31, 5935893.73], [564294.26, 5935867.23]]}}, {"type": "Feature", "properties": {"t": 18000, "f": 9000, "b": 9000, "sp": 1, "hf": 0.02, "hb": 0.02, "y": 2019, "m": "census"}, "geometry": {"type": "LineString", "coordinates": [[564555.58, 5934000.0], [564596.72, 5934084.07], [564652.14, 5934183.29]]}}, {"type": "Feature", "properties": {"t": 23000, "f": 11500, "b": 11500, "sp": 1, "hf": 0.03, "hb": 0.03, "y": 2019, "m": "census"}, "geometry": {"type": "LineString", "coordinates": [[564605.85, 5934614.9], [564622.17, 5934629.04], [564636.62, 5934648.01]]}}, {"type": "Feature", "properties": {"t": 27000, "f": 13500, "b": 13500, "sp": 1, "hf": 0.05, "hb": 0.05, "y": 2019, "m": "census"}, "geometry": {"type": "LineString", "coordinates": [[564612.86, 5935056.69], [564612.82, 5935083.7], [564615.71, 5935109.7], [564619.09, 5935128.13]]}}, {"type": "Feature", "properties": {"t": 27000, "f": 13500, "b": 13500, "sp": 1, "hf": 0.05, "hb": 0.05, "y": 2019, "m": "census"}, "geometry": {"type": "LineString", "coordinates": [[564619.09, 5935128.13], [564648.16, 5935282.45]]}}, {"type": "Feature", "properties": {"t": 27000, "f": 13500, "b": 13500, "sp": 1, "hf": 0.05, "hb": 0.05, "y": 2019, "m": "census"}, "geometry": {"type": "LineString", "coordinates": [[564627.17, 5934848.81], [564619.12, 5934869.16], [564615.7, 5934889.34], [564612.93, 5935008.04], [564612.86, 5935056.69]]}}, {"type": "Feature", "properties": {"t": 23000, "f": 11500, "b": 11500, "sp": 1, "hf": 0.03, "hb": 0.03, "y": 2019, "m": "census"}, "geometry": {"type": "LineString", "coordinates": [[564636.62, 5934648.01], [564674.92, 5934705.32], [564704.09, 5934744.61]]}}, {"type": "Feature", "properties": {"t": 25000, "f": 12500, "b": 12500, "sp": 1, "hf": 0.05, "hb": 0.05, "y": 2019, "m": "census"}, "geometry": {"type": "LineString", "coordinates": [[564648.16, 5935282.45], [564651.38, 5935296.05]]}}, {"type": "Feature", "properties": {"t": 25000, "f": 12500, "b": 12500, "sp": 1, "hf": 0.03, "hb": 0.03, "y": 2019, "m": "census"}, "geometry": {"type": "LineString", "coordinates": [[564651.38, 5935296.05], [564701.47, 5935429.72]]}}, {"type": "Feature", "properties": {"t": 18000, "f": 9000, "b": 9000, "sp": 1, "hf": 0.02, "hb": 0.02, "y": 2019, "m": "census"}, "geometry": {"type": "LineString", "coordinates": [[564652.14, 5934183.29], [564699.19, 5934263.65], [564735.94, 5934317.58]]}}, {"type": "Feature", "properties": {"t": 37000, "f": 18500, "b": 18500, "sp": 1, "hf": 0.06, "hb": 0.06, "y": 2019, "m": "census"}, "geometry": {"type": "LineString", "coordinates": [[564681.72, 5935511.07], [564704.75, 5935497.33], [564715.47, 5935492.49], [564727.49, 5935489.35]]}}, {"type": "Feature", "properties": {"t": 25000, "f": 12500, "b": 12500, "sp": 1, "hf": 0.03, "hb": 0.03, "y": 2019, "m": "census"}, "geometry": {"type": "LineString", "coordinates": [[564701.47, 5935429.72], [564727.49, 5935489.35]]}}, {"type": "Feature", "properties": {"t": 27000, "f": 13500, "b": 13500, "sp": 1, "hf": 0.05, "hb": 0.05, "y": 2019, "m": "census"}, "geometry": {"type": "LineString", "coordinates": [[564704.09, 5934744.61], [564649.96, 5934815.16], [564627.17, 5934848.81]]}}, {"type": "Feature", "properties": {"t": 17000, "f": 8500, "b": 8500, "sp": 1, "hf": 0.02, "hb": 0.02, "y": 2019, "m": "census"}, "geometry": {"type": "LineString", "coordinates": [[564727.49, 5935489.35], [564763.61, 5935574.56], [564777.85, 5935598.81], [564817.68, 5935645.88], [564851.4, 5935677.66]]}}, {"type": "Feature", "properties": {"t": 37000, "f": 18500, "b": 18500, "sp": 1, "hf": 0.06, "hb": 0.06, "y": 2019, "m": "census"}, "geometry": {"type": "LineString", "coordinates": [[564727.49, 5935489.35], [564848.89, 5935481.34], [564920.32, 5935478.24], [565045.36, 5935479.3]]}}, {"type": "Feature", "properties": {"t": 18000, "f": 9000, "b": 9000, "sp": 1, "hf": 0.02, "hb": 0.02, "y": 2019, "m": "census"}, "geometry": {"type": "LineString", "coordinates": [[564735.94, 5934317.58], [564812.83, 5934424.02], [564828.77, 5934449.52]]}}, {"type": "Feature", "properties": {"t": 7000, "f": 3500, "b": 3500, "sp": 1, "hf": 0.03, "hb": 0.03, "y": 2019, "m": "census"}, "geometry": {"type": "LineString", "coordinates": [[564745.92, 5934682.69], [564732.78, 5934696.93], [564721.86, 5934711.76], [564704.09, 5934744.61]]}}, {"type": "Feature", "properties": {"t": 18000, "f": 9000, "b": 9000, "sp": 1, "hf": 0.02, "hb": 0.02, "y": 2019, "m": "census"}, "geometry": {"type": "LineString", "coordinates": [[564828.77, 5934449.52], [564846.31, 5934477.57]]}}, {"type": "Feature", "properties": {"t": 18000, "f": 9000, "b": 9000, "sp": 1, "hf": 0.02, "hb": 0.02, "y": 2019, "m": "census"}, "geometry": {"type": "LineString", "coordinates": [[564846.31, 5934477.57], [564855.26, 5934491.9]]}}, {"type": "Feature", "properties": {"t": 17000, "f": 8500, "b": 8500, "sp": 1, "hf": 0.01, "hb": 0.01, "y": 2019, "m": "census"}, "geometry": {"type": "LineString", "coordinates": [[564851.4, 5935677.66], [564867.31, 5935691.7], [564919.13, 5935750.71], [564955.35, 5935796.52], [564960.55, 5935805.01]]}}, {"type": "Feature", "properties": {"t": 18000, "f": 9000, "b": 9000, "sp": 1, "hf": 0.02, "hb": 0.02, "y": 2019, "m": "census"}, "geometry": {"type": "LineString", "coordinates": [[564855.26, 5934491.9], [564877.25, 5934518.87]]}}, {"type": "Feature", "properties": {"t": 7000, "f": 3500, "b": 3500, "sp": 1, "hf": 0.03, "hb": 0.03, "y": 2019, "m": "census"}, "geometry": {"type": "LineString", "coordinates": [[564867.72, 5934578.48], [564857.01, 5934588.36], [564745.92, 5934682.69]]}}, {"type": "Feature", "properties": {"t": 16000, "f": 8000, "b": 8000, "sp": 1, "hf": 0.03, "hb": 0.03, "y": 2019, "m": "census"}, "geometry": {"type": "LineString", "coordinates": [[564877.25, 5934518.87], [564854.05, 5934528.34], [564821.51, 5934538.85], [564778.9, 5934556.52], [564758.04, 5934567.16], [564713.23, 5934595.04], [564690.47, 5934604.82], [564667.71, 5934611.23], [564651.95, 5934613.86], [564605.85, 5934614.9]]}}, {"type": "Feature", "properties": {"t": 24000, "f": 12000, "b": 12000, "sp": 1, "hf": 0.05, "hb": 0.05, "y": 2019, "m": "census"}, "geometry": {"type": "LineString", "coordinates": [[564877.25, 5934518.87], [564896.91, 5934539.99]]}}, {"type": "Feature", "properties": {"t": 17000, "f": 8500, "b": 8500, "sp": 1, "hf": 0.05, "hb": 0.05, "y": 2019, "m": "census"}, "geometry": {"type": "LineString", "coordinates": [[564893.73, 5934509.31], [564877.25, 5934518.87]]}}, {"type": "Feature", "properties": {"t": 24000, "f": 12000, "b": 12000, "sp": 1, "hf": 0.02, "hb": 0.02, "y": 2019, "m": "census"}, "geometry": {"type": "LineString", "coordinates": [[564896.91, 5934539.99], [564923.16, 5934568.58]]}}, {"type": "Feature", "properties": {"t": 7000, "f": 3500, "b": 3500, "sp": 1, "hf": 0.02, "hb": 0.02, "y": 2019, "m": "census"}, "geometry": {"type": "LineString", "coordinates": [[564898.7, 5934541.91], [564878.55, 5934568.49], [564867.72, 5934578.48]]}}, {"type": "Feature", "properties": {"t": 28000, "f": 14000, "b": 14000, "sp": 1, "hf": 0.05, "hb": 0.05, "y": 2019, "m": "census"}, "geometry": {"type": "LineString", "coordinates": [[564909.44, 5935931.37], [564879.18, 5936000.0]]}}, {"type": "Feature", "properties": {"t": 24000, "f": 12000, "b": 12000, "sp": 1, "hf": 0.03, "hb": 0.03, "y": 2019, "m": "census"}, "geometry": {"type": "LineString", "coordinates": [[564923.16, 5934568.58], [564948.81, 5934596.64], [564957.74, 5934602.6]]}}, {"type": "Feature", "properties": {"t": 17000, "f": 8500, "b": 8500, "sp": 1, "hf": 0.05, "hb": 0.05, "y": 2019, "m": "census"}, "geometry": {"type": "LineString", "coordinates": [[564935.37, 5934485.17], [564893.73, 5934509.31]]}}, {"type": "Feature", "properties": {"t": 24000, "f": 12000, "b": 12000, "sp": 1, "hf": 0.02, "hb": 0.02, "y": 2019, "m": "census"}, "geometry": {"type": "LineString", "coordinates": [[564957.74, 5934602.6], [564985.84, 5934625.8], [565032.05, 5934666.16], [565066.41, 5934692.99], [565105.17, 5934719.97], [565130.49, 5934735.49], [565168.32, 5934754.16]]}}, {"type": "Feature", "properties": {"t": 28000, "f": 14000, "b": 14000, "sp": 1, "hf": 0.05, "hb": 0.05, "y": 2019, "m": "census"}, "geometry": {"type": "LineString", "coordinates": [[564960.55, 5935805.01], [564909.44, 5935931.37]]}}, {"type": "Feature", "properties": {"t": 11000, "f": 5500, "b": 5500, "sp": 1, "hf": 0.06, "hb": 0.06, "y": 2019, "m": "census"}, "geometry": {"type": "LineString", "coordinates": [[565056.71, 5934374.77], [565009.26, 5934426.35], [564935.37, 5934485.17]]}}, {"type": "Feature", "properties": {"t": 10000, "f": 5000, "b": 5000, "sp": 1, "hf": 0.06, "hb": 0.06, "y": 2019, "m": "census"}, "geometry": {"type": "LineString", "coordinates": [[565138.91, 5934281.4], [565056.71, 5934374.77]]}}, {"type": "Feature", "properties": {"t": 10000, "f": 5000, "b": 5000, "sp": 1, "hf": 0.06, "hb": 0.06, "y": 2019, "m": "census"}, "geometry": {"type": "LineString", "coordinates": [[565163.44, 5934253.54], [565138.91, 5934281.4]]}}, {"type": "Feature", "properties": {"t": 31000, "f": 15500, "b": 15500, "sp": 1, "hf": 0.03, "hb": 0.03, "y": 2019, "m": "census"}, "geometry": {"type": "LineString", "coordinates": [[565165.41, 5934761.21], [565253.11, 5934794.52], [565441.79, 5934822.79], [565473.65, 5934826.39], [565512.11, 5934825.2]]}}, {"type": "Feature", "properties": {"t": 37000, "f": 18500, "b": 18500, "sp": 1, "hf": 0.05, "hb": 0.05, "y": 2019, "m": "census"}, "geometry": {"type": "LineString", "coordinates": [[565215.77, 5935462.94], [565115.3, 5935478.71], [565045.36, 5935479.3]]}}, {"type": "Feature", "properties": {"t": 57000, "f": 28500, "b": 28500, "sp": 1, "hf": 0.06, "hb": 0.06, "y": 2019, "m": "census"}, "geometry": {"type": "LineString", "coordinates": [[565215.77, 5935462.94], [565246.0, 5935445.7], [565276.94, 5935424.91], [565508.3, 5935227.4]]}}, {"type": "Feature", "properties": {"t": 20000, "f": 10000, "b": 10000, "sp": 1, "hf": 0.07, "hb": 0.07, "y": 2019, "m": "census"}, "geometry": {"type": "LineString", "coordinates": [[565215.77, 5935462.94], [565156.27, 5935538.32], [565070.11, 5935655.87], [565038.72, 5935695.05], [564960.55, 5935805.01]]}}, {"type": "Feature", "properties": {"t": 10000, "f": 5000, "b": 5000, "sp": 1, "hf": 0.06, "hb": 0.06, "y": 2019, "m": "census"}, "geometry": {"type": "LineString", "coordinates": [[565249.78, 5934180.46], [565191.59, 5934225.01], [565163.44, 5934253.54]]}}, {"type": "Feature", "properties": {"t": 10000, "f": 5000, "b": 5000, "sp": 1, "hf": 0.05, "hb": 0.05, "y": 2019, "m": "census"}, "geometry": {"type": "LineString", "coordinates": [[565285.75, 5934148.89], [565274.32, 5934161.83], [565249.78, 5934180.46]]}}, {"type": "Feature", "properties": {"t": 10000, "f": 5000, "b": 5000, "sp": 1, "hf": 0.04, "hb": 0.04, "y": 2019, "m": "census"}, "geometry": {"type": "LineString", "coordinates": [[565294.06, 5934136.46], [565285.75, 5934148.89]]}}, {"type": "Feature", "properties": {"t": 10000, "f": 5000, "b": 5000, "sp": 1, "hf": 0.06, "hb": 0.06, "y": 2019, "m": "census"}, "geometry": {"type": "LineString", "coordinates": [[565304.12, 5934121.34], [565294.06, 5934136.46]]}}, {"type": "Feature", "properties": {"t": 14000, "f": 7000, "b": 7000, "sp": 1, "hf": 0.06, "hb": 0.06, "y": 2019, "m": "census"}, "geometry": {"type": "LineString", "coordinates": [[565306.16, 5934102.91], [565304.12, 5934121.34]]}}, {"type": "Feature", "properties": {"t": 14000, "f": 7000, "b": 7000, "sp": 1, "hf": 0.06, "hb": 0.06, "y": 2019, "m": "census"}, "geometry": {"type": "LineString", "coordinates": [[565313.79, 5934034.03], [565306.16, 5934102.91]]}}, {"type": "Feature", "properties": {"t": 14000, "f": 7000, "b": 7000, "sp": 1, "hf": 0.06, "hb": 0.06, "y": 2019, "m": "census"}, "geometry": {"type": "LineString", "coordinates": [[565314.98, 5934023.36], [565313.79, 5934034.03]]}}, {"type": "Feature", "properties": {"t": 14000, "f": 7000, "b": 7000, "sp": 1, "hf": 0.06, "hb": 0.06, "y": 2019, "m": "census"}, "geometry": {"type": "LineString", "coordinates": [[565317.57, 5934000.0], [565314.98, 5934023.36]]}}, {"type": "Feature", "properties": {"t": 14000, "f": 7000, "b": 7000, "sp": 1, "hf": 0.13, "hb": 0.13, "y": 2019, "m": "census"}, "geometry": {"type": "LineString", "coordinates": [[565430.66, 5934535.36], [565429.6, 5934550.5], [565448.92, 5934634.63], [565454.86, 5934648.94]]}}, {"type": "Feature", "properties": {"t": 13000, "f": 6500, "b": 6500, "sp": 1, "hf": 0.13, "hb": 0.13, "y": 2019, "m": "census"}, "geometry": {"type": "LineString", "coordinates": [[565442.02, 5934527.12], [565430.66, 5934535.36]]}}, {"type": "Feature", "properties": {"t": 13000, "f": 6500, "b": 6500, "sp": 1, "hf": 0.13, "hb": 0.13, "y": 2019, "m": "census"}, "geometry": {"type": "LineString", "coordinates": [[565453.42, 5934518.96], [565442.02, 5934527.12]]}}, {"type": "Feature", "properties": {"t": 14000, "f": 7000, "b": 7000, "sp": 1, "hf": 0.17, "hb": 0.17, "y": 2019, "m": "census"}, "geometry": {"type": "LineString", "coordinates": [[565454.86, 5934648.94], [565464.05, 5934666.7]]}}, {"type": "Feature", "properties": {"t": 22000, "f": 11000, "b": 11000, "sp": 1, "hf": 0.02, "hb": 0.02, "y": 2019, "m": "census"}, "geometry": {"type": "LineString", "coordinates": [[565456.43, 5935906.62], [565457.51, 5936000.0]]}}, {"type": "Feature", "properties": {"t": 14000, "f": 7000, "b": 7000, "sp": 1, "hf": 0.15, "hb": 0.15, "y": 2019, "m": "census"}, "geometry": {"type": "LineString", "coordinates": [[565464.05, 5934666.7], [565478.87, 5934694.72], [565497.13, 5934749.03]]}}, {"type": "Feature", "properties": {"t": 22000, "f": 11000, "b": 11000, "sp": 1, "hf": 0.02, "hb": 0.02, "y": 2019, "m": "census"}, "geometry": {"type": "LineString", "coordinates": [[565484.46, 5935727.83], [565475.58, 5935778.43], [565460.48, 5935840.2], [565457.43, 5935865.14], [565456.43, 5935906.62]]}}, {"type": "Feature", "properties": {"t": 14000, "f": 7000, "b": 7000, "sp": 1, "hf": 0.12, "hb": 0.12, "y": 2019, "m": "census"}, "geometry": {"type": "LineString", "coordinates": [[565497.13, 5934749.03], [565504.43, 5934786.14]]}}, {"type": "Feature", "properties": {"t": 14000, "f": 7000, "b": 7000, "sp": 1, "hf": 0.12, "hb": 0.12, "y": 2019, "m": "census"}, "geometry": {"type": "LineString", "coordinates": [[565504.43, 5934786.14], [565512.11, 5934825.2]]}}, {"type": "Feature", "properties": {"t": 57000, "f": 28500, "b": 28500, "sp": 1, "hf": 0.06, "hb": 0.06, "y": 2019, "m": "census"}, "geometry": {"type": "LineString", "coordinates": [[565508.3, 5935227.4], [565561.72, 5935181.8]]}}, {"type": "Feature", "properties": {"t": 13000, "f": 6500, "b": 6500, "sp": 1, "hf": 0.13, "hb": 0.13, "y": 2019, "m": "census"}, "geometry": {"type": "LineString", "coordinates": [[565509.31, 5934496.77], [565453.42, 5934518.96]]}}, {"type": "Feature", "properties": {"t": 37000, "f": 18500, "b": 18500, "sp": 1, "hf": 0.03, "hb": 0.03, "y": 2019, "m": "census"}, "geometry": {"type": "LineString", "coordinates": [[565512.11, 5934825.2], [565586.28, 5934813.4], [565659.34, 5934795.81]]}}, {"type": "Feature", "properties": {"t": 17000, "f": 8500, "b": 8500, "sp": 1, "hf": 0.08, "hb": 0.08, "y": 2019, "m": "census"}, "geometry": {"type": "LineString", "coordinates": [[565512.11, 5934825.2], [565531.1, 5934870.37]]}}, {"type": "Feature", "properties": {"t": 13000, "f": 6500, "b": 6500, "sp": 1, "hf": 0.13, "hb": 0.13, "y": 2019, "m": "census"}, "geometry": {"type": "LineString", "coordinates": [[565526.06, 5934490.07], [565509.31, 5934496.77]]}}, {"type": "Feature", "properties": {"t": 17000, "f": 8500, "b": 8500, "sp": 1, "hf": 0.08, "hb": 0.08, "y": 2019, "m": "census"}, "geometry": {"type": "LineString", "coordinates": [[565531.1, 5934870.37], [565543.14, 5934900.99]]}}, {"type": "Feature", "properties": {"t": 22000, "f": 11000, "b": 11000, "sp": 1, "hf": 0.02, "hb": 0.02, "y": 2019, "m": "census"}, "geometry": {"type": "LineString", "coordinates": [[565532.65, 5935448.26], [565523.72, 5935504.91], [565506.58, 5935596.27], [565496.22, 5935653.93], [565484.46, 5935727.83]]}}, {"type": "Feature", "properties": {"t": 13000, "f": 6500, "b": 6500, "sp": 1, "hf": 0.13, "hb": 0.13, "y": 2019, "m": "census"}, "geometry": {"type": "LineString", "coordinates": [[565540.76, 5934481.46], [565526.06, 5934490.07]]}}, {"type": "Feature", "properties": {"t": 17000, "f": 8500, "b": 8500, "sp": 1, "hf": 0.08, "hb": 0.08, "y": 2019, "m": "census"}, "geometry": {"type": "LineString", "coordinates": [[565543.14, 5934900.99], [565558.69, 5934940.55], [565581.88, 5935007.52], [565593.68, 5935030.31], [565606.68, 5935063.9], [565616.83, 5935081.54]]}}, {"type": "Feature", "properties": {"t": 21000, "f": 10500, "b": 10500, "sp": 1, "hf": 0.02, "hb": 0.02, "y": 2019, "m": "census"}, "geometry": {"type": "LineString", "coordinates": [[565561.72, 5935181.8], [565567.39, 5935198.81], [565567.95, 5935213.76], [565567.48, 5935239.55]]}}, {"type": "Feature", "properties": {"t": 70000, "f": 35000, "b": 35000, "sp": 1, "hf": 0.04, "hb": 0.04, "y": 2019, "m": "census"}, "geometry": {"type": "LineString", "coordinates": [[565561.72, 5935181.8], [565584.4, 5935153.92]]}}, {"type": "Feature", "properties": {"t": 21000, "f": 10500, "b": 10500, "sp": 1, "hf": 0.02, "hb": 0.02, "y": 2019, "m": "census"}, "geometry": {"type": "LineString", "coordinates": [[565567.48, 5935239.55], [565567.39, 5935244.19], [565564.07, 5935283.74], [565560.2, 5935312.52], [565532.65, 5935448.26]]}}, {"type": "Feature", "properties": {"t": 70000, "f": 35000, "b": 35000, "sp": 1, "hf": 0.06, "hb": 0.06, "y": 2019, "m": "census"}, "geometry": {"type": "LineString", "coordinates": [[565584.4, 5935153.92], [565591.87, 5935144.73], [565610.4, 5935118.44], [565622.3, 5935091.05]]}}, {"type": "Feature", "properties": {"t": 13000, "f": 6500, "b": 6500, "sp": 1, "hf": 0.13, "hb": 0.13, "y": 2019, "m": "census"}, "geometry": {"type": "LineString", "coordinates": [[565612.45, 5934413.21], [565582.15, 5934445.54], [565540.76, 5934481.46]]}}, {"type": "Feature", "properties": {"t": 17000, "f": 8500, "b": 8500, "sp": 1, "hf": 0.08, "hb": 0.08, "y": 2019, "m": "census"}, "geometry": {"type": "LineString", "coordinates": [[565616.83, 5935081.54], [565622.3, 5935091.05]]}}, {"type": "Feature", "properties": {"t": 64000, "f": 32000, "b": 32000, "sp": 1, "hf": 0.03, "hb": 0.03, "y": 2019, "m": "census"}, "geometry": {"type": "LineString", "coordinates": [[565622.3, 5935091.05], [565628.1, 5935075.08]]}}, {"type": "Feature", "properties": {"t": 64000, "f": 32000, "b": 32000, "sp": 1, "hf": 0.04, "hb": 0.04, "y": 2019, "m": "census"}, "geometry": {"type": "LineString", "coordinates": [[565628.1, 5935075.08], [565634.93, 5935056.29], [565657.04, 5935013.73]]}}, {"type": "Feature", "properties": {"t": 13000, "f": 6500, "b": 6500, "sp": 1, "hf": 0.13, "hb": 0.13, "y": 2019, "m": "census"}, "geometry": {"type": "LineString", "coordinates": [[565642.16, 5934387.88], [565612.45, 5934413.21]]}}, {"type": "Feature", "properties": {"t": 64000, "f": 32000, "b": 32000, "sp": 1, "hf": 0.04, "hb": 0.04, "y": 2019, "m": "census"}, "geometry": {"type": "LineString", "coordinates": [[565657.04, 5935013.73], [565681.41, 5934977.73], [565711.28, 5934946.18], [565728.71, 5934931.52], [565759.93, 5934913.17]]}}, {"type": "Feature", "properties": {"t": 37000, "f": 18500, "b": 18500, "sp": 1, "hf": 0.03, "hb": 0.03, "y": 2019, "m": "census"}, "geometry": {"type": "LineString", "coordinates": [[565659.34, 5934795.81], [565773.28, 5934768.38]]}}, {"type": "Feature", "properties": {"t": 13000, "f": 6500, "b": 6500, "sp": 1, "hf": 0.13, "hb": 0.13, "y": 2019, "m": "census"}, "geometry": {"type": "LineString", "coordinates": [[565669.59, 5934364.49], [565642.16, 5934387.88]]}}, {"type": "Feature", "properties": {"t": 12000, "f": 6000, "b": 6000, "sp": 1, "hf": 0.13, "hb": 0.13, "y": 2019, "m": "census"}, "geometry": {"type": "LineString", "coordinates": [[565683.3, 5934352.8], [565669.59, 5934364.49]]}}, {"type": "Feature", "properties": {"t": 64000, "f": 32000, "b": 32000, "sp": 1, "hf": 0.05, "hb": 0.05, "y": 2019, "m": "census"}, "geometry": {"type": "LineString", "coordinates": [[565759.93, 5934913.17], [565775.26, 5934905.87]]}}, {"type": "Feature", "properties": {"t": 12000, "f": 6000, "b": 6000, "sp": 1, "hf": 0.13, "hb": 0.13, "y": 2019, "m": "census"}, "geometry": {"type": "LineString", "coordinates": [[565772.09, 5934259.01], [565683.3, 5934352.8]]}}, {"type": "Feature", "properties": {"t": 37000, "f": 18500, "b": 18500, "sp": 1, "hf": 0.03, "hb": 0.03, "y": 2019, "m": "census"}, "geometry": {"type": "LineString", "coordinates": [[565773.28, 5934768.38], [565806.39, 5934760.41]]}}, {"type": "Feature", "properties": {"t": 64000, "f": 32000, "b": 32000, "sp": 1, "hf": 0.04, "hb": 0.04, "y": 2019, "m": "census"}, "geometry": {"type": "LineString", "coordinates": [[565775.26, 5934905.87], [565831.69, 5934885.59]]}}, {"type": "Feature", "properties": {"t": 12000, "f": 6000, "b": 6000, "sp": 1, "hf": 0.13, "hb": 0.13, "y": 2019, "m": "census"}, "geometry": {"type": "LineString", "coordinates": [[565801.68, 5934227.75], [565772.09, 5934259.01]]}}, {"type": "Feature", "properties": {"t": 37000, "f": 18500, "b": 18500, "sp": 1, "hf": 0.04, "hb": 0.04, "y": 2019, "m": "census"}, "geometry": {"type": "LineString", "coordinates": [[565803.28, 5934805.67], [565798.44, 5934783.4], [565799.14, 5934777.82], [565806.39, 5934760.41]]}}, {"type": "Feature", "properties": {"t": 53000, "f": 26500, "b": 26500, "sp": 1, "hf": 0.05, "hb": 0.05, "y": 2019, "m": "census"}, "geometry": {"type": "LineString", "coordinates": [[565806.39, 5934760.41], [565859.13, 5934754.07]]}}, {"type": "Feature", "properties": {"t": 37000, "f": 18500, "b": 18500, "sp": 1, "hf": 0.04, "hb": 0.04, "y": 2019, "m": "census"}, "geometry": {"type": "LineString", "coordinates": [[565813.03, 5934841.53], [565807.5, 5934825.08], [565803.28, 5934805.67]]}}, {"type": "Feature", "properties": {"t": 37000, "f": 18500, "b": 18500, "sp": 1, "hf": 0.04, "hb": 0.04, "y": 2019, "m": "census"}, "geometry": {"type": "LineString", "coordinates": [[565827.63, 5934875.28], [565823.45, 5934870.87], [565813.03, 5934841.53]]}}, {"type": "Feature", "properties": {"t": 41000, "f": 20500, "b": 20500, "sp": 1, "hf": 0.04, "hb": 0.04, "y": 2019, "m": "census"}, "geometry": {"type": "LineString", "coordinates": [[565831.69, 5934885.59], [565844.86, 5934880.86]]}}, {"type": "Feature", "properties": {"t": 63000, "f": 31500, "b": 31500, "sp": 1, "hf": 0.04, "hb": 0.04, "y": 2019, "m": "census"}, "geometry": {"type": "LineString", "coordinates": [[565844.86, 5934880.86], [565827.63, 5934875.28]]}}, {"type": "Feature", "properties": {"t": 53000, "f": 26500, "b": 26500, "sp": 1, "hf": 0.05, "hb": 0.05, "y": 2019, "m": "census"}, "geometry": {"type": "LineString", "coordinates": [[565859.13, 5934754.07], [565885.74, 5934749.18]]}}, {"type": "Feature", "properties": {"t": 12000, "f": 6000, "b": 6000, "sp": 1, "hf": 0.13, "hb": 0.13, "y": 2019, "m": "census"}, "geometry": {"type": "LineString", "coordinates": [[565881.11, 5934145.91], [565870.18, 5934155.36], [565801.68, 5934227.75]]}}, {"type": "Feature", "properties": {"t": 53000, "f": 26500, "b": 26500, "sp": 1, "hf": 0.04, "hb": 0.04, "y": 2019, "m": "census"}, "geometry": {"type": "LineString", "coordinates": [[565885.74, 5934749.18], [565964.42, 5934725.86], [566000.0, 5934711.64]]}}, {"type": "Feature", "properties": {"t": 12000, "f": 6000, "b": 6000, "sp": 1, "hf": 0.22, "hb": 0.22, "y": 2019, "m": "census"}, "geometry": {"type": "LineString", "coordinates": [[565890.38, 5934142.13], [565881.11, 5934145.91]]}}, {"type": "Feature", "properties": {"t": 5000, "f": 2500, "b": 2500, "sp": 1, "hf": 0.22, "hb": 0.22, "y": 2019, "m": "census"}, "geometry": {"type": "LineString", "coordinates": [[565891.33, 5934091.5], [565891.82, 5934100.47], [565890.38, 5934142.13]]}}, {"type": "Feature", "properties": {"t": 43000, "f": 21500, "b": 21500, "sp": 1, "hf": 0.04, "hb": 0.04, "y": 2019, "m": "census"}, "geometry": {"type": "LineString", "coordinates": [[565905.28, 5934862.6], [565844.86, 5934880.86]]}}, {"type": "Feature", "properties": {"t": 5000, "f": 2500, "b": 2500, "sp": 1, "hf": 0.15, "hb": 0.15, "y": 2019, "m": "census"}, "geometry": {"type": "LineString", "coordinates": [[565928.7, 5934047.28], [565891.33, 5934091.5]]}}, {"type": "Feature", "properties": {"t": 5000, "f": 2500, "b": 2500, "sp": 1, "hf": 0.07, "hb": 0.07, "y": 2019, "m": "census"}, "geometry": {"type": "LineString", "coordinates": [[565965.48, 5934000.0], [565928.7, 5934047.28]]}}, {"type": "Feature", "properties": {"t": 43000, "f": 21500, "b": 21500, "sp": 1, "hf": 0.04, "hb": 0.04, "y": 2019, "m": "census"}, "geometry": {"type": "LineString", "coordinates": [[566000.0, 5934824.38], [565921.32, 5934857.75], [565905.28, 5934862.6]]}}]}