{"type": "FeatureCollection", "attribution": "Verkehrsmengen 2019 \u00a9 Freie und Hansestadt Hamburg, Beh\u00f6rde f\u00fcr Verkehr und Mobilit\u00e4tswende (dl-de/by-2-0)", "crs": {"type": "name", "properties": {"name": "urn:ogc:def:crs:EPSG::25832"}}, "features": [{"type": "Feature", "properties": {"t": 22000, "f": 11000, "b": 11000, "sp": 1, "hf": 0.04, "hb": 0.04, "y": 2019, "m": "census"}, "geometry": {"type": "LineString", "coordinates": [[564000.0, 5933483.21], [564005.71, 5933482.32]]}}, {"type": "Feature", "properties": {"t": 28000, "f": 14000, "b": 14000, "sp": 1, "hf": 0.04, "hb": 0.04, "y": 2019, "m": "census"}, "geometry": {"type": "LineString", "coordinates": [[564000.0, 5933874.73], [564079.95, 5933888.27]]}}, {"type": "Feature", "properties": {"t": 26000, "f": 13000, "b": 13000, "sp": 1, "hf": 0.04, "hb": 0.04, "y": 2019, "m": "census"}, "geometry": {"type": "LineString", "coordinates": [[564005.71, 5933482.32], [564155.33, 5933458.79]]}}, {"type": "Feature", "properties": {"t": 28000, "f": 14000, "b": 14000, "sp": 1, "hf": 0.04, "hb": 0.04, "y": 2019, "m": "census"}, "geometry": {"type": "LineString", "coordinates": [[564079.95, 5933888.27], [564102.6, 5933892.08]]}}, {"type": "Feature", "properties": {"t": 28000, "f": 14000, "b": 14000, "sp": 1, "hf": 0.04, "hb": 0.04, "y": 2019, "m": "census"}, "geometry": {"type": "LineString", "coordinates": [[564102.6, 5933892.08], [564122.54, 5933893.32]]}}, {"type": "Feature", "properties": {"t": 28000, "f": 14000, "b": 14000, "sp": 1, "hf": 0.04, "hb": 0.04, "y": 2019, "m": "census"}, "geometry": {"type": "LineString", "coordinates": [[564122.54, 5933893.32], [564230.21, 5933899.99]]}}, {"type": "Feature", "properties": {"t": 26000, "f": 13000, "b": 13000, "sp": 1, "hf": 0.04, "hb": 0.04, "y": 2019, "m": "census"}, "geometry": {"type": "LineString", "coordinates": [[564155.33, 5933458.79], [564209.11, 5933452.29]]}}, {"type": "Feature", "properties": {"t": 26000, "f": 13000, "b": 13000, "sp": 1, "hf": 0.04, "hb": 0.04, "y": 2019, "m": "census"}, "geometry": {"type": "LineString", "coordinates": [[564209.11, 5933452.29], [564235.0, 5933449.16]]}}, {"type": "Feature", "properties": {"t": 28000, "f": 14000, "b": 14000, "sp": 1, "hf": 0.05, "hb": 0.05, "y": 2019, "m": "census"}, "geometry": {"type": "LineString", "coordinates": [[564230.21, 5933899.99], [564246.28, 5933901.86], [564284.27, 5933904.4]]}}, {"type": "Feature", "properties": {"t": 9000, "f": 4500, "b": 4500, "sp": 1, "hf": 0.04, "hb": 0.04, "y": 2019, "m": "census"}, "geometry": {"type": "LineString", "coordinates": [[564230.21, 5933899.99], [564259.27, 5933983.31]]}}, {"type": "Feature", "properties": {"t": 23000, "f": 11500, "b": 11500, "sp": 1, "hf": 0.05, "hb": 0.05, "y": 2019, "m": "census"}, "geometry": {"type": "LineString", "coordinates": [[564235.0, 5933449.16], [564266.41, 5933435.91]]}}, {"type": "Feature", "properties": {"t": 5000, "f": 2500, "b": 2500, "sp": 1, "hf": 0.08, "hb": 0.08, "y": 2019, "m": "census"}, "geometry": {"type": "LineString", "coordinates": [[564235.0, 5933449.16], [564245.98, 5933475.0], [564254.25, 5933485.46], [564262.76, 5933493.33]]}}, {"type": "Feature", "properties": {"t": 40000, "f": 20000, "b": 20000, "sp": 1, "hf": 0.06, "hb": 0.06, "y": 2019, "m": "census"}, "geometry": {"type": "LineString", "coordinates": [[564259.27, 5933983.32], [564234.76, 5934000.0]]}}, {"type": "Feature", "properties": {"t": 5000, "f": 2500, "b": 2500, "sp": 1, "hf": 0.08, "hb": 0.08, "y": 2019, "m": "census"}, "geometry": {"type": "LineString", "coordinates": [[564262.76, 5933493.33], [564273.14, 5933502.93], [564279.21, 5933511.95]]}}, {"type": "Feature", "properties": {"t": 23000, "f": 11500, "b": 11500, "sp": 1, "hf": 0.07, "hb": 0.07, "y": 2019, "m": "census"}, "geometry": {"type": "LineString", "coordinates": [[564266.41, 5933435.91], [564370.82, 5933391.86], [564394.61, 5933388.49]]}}, {"type": "Feature", "properties": {"t": 5000, "f": 2500, "b": 2500, "sp": 1, "hf": 0.08, "hb": 0.08, "y": 2019, "m": "census"}, "geometry": {"type": "LineString", "coordinates": [[564279.21, 5933511.95], [564326.6, 5933564.32], [564334.09, 5933575.56], [564339.24, 5933585.71], [564343.2, 5933600.27], [564344.77, 5933618.11], [564342.77, 5933636.29], [564338.87, 5933650.65], [564256.96, 5933828.54], [564254.46, 5933839.47], [564236.67, 5933879.42], [564230.21, 5933899.99]]}}, {"type": "Feature", "properties": {"t": 28000, "f": 14000, "b": 14000, "sp": 1, "hf": 0.05, "hb": 0.05, "y": 2019, "m": "census"}, "geometry": {"type": "LineString", "coordinates": [[564284.27, 5933904.4], [564352.47, 5933908.52]]}}, {"type": "Feature", "properties": {"t": 40000, "f": 20000, "b": 20000, "sp": 1, "hf": 0.06, "hb": 0.06, "y": 2019, "m": "census"}, "geometry": {"type": "LineString", "coordinates": [[564299.89, 5933951.37], [564259.27, 5933983.32]]}}, {"type": "Feature", "properties": {"t": 40000, "f": 20000, "b": 20000, "sp": 1, "hf": 0.06, "hb": 0.06, "y": 2019, "m": "census"}, "geometry": {"type": "LineString", "coordinates": [[564352.47, 5933908.52], [564344.69, 5933916.13], [564299.89, 5933951.37]]}}, {"type": "Feature", "properties": {"t": 68000, "f": 34000, "b": 34000, "sp": 1, "hf": 0.06, "hb": 0.06, "y": 2019, "m": "census"}, "geometry": {"type": "LineString", "coordinates": [[564366.88, 5933901.55], [564352.47, 5933908.52]]}}, {"type": "Feature", "properties": {"t": 23000, "f": 11500, "b": 11500, "sp": 1, "hf": 0.05, "hb": 0.05, "y": 2019, "m": "census"}, "geometry": {"type": "LineString", "coordinates": [[564394.61, 5933388.49], [564398.46, 5933387.94], [564434.67, 5933388.43]]}}, {"type": "Feature", "properties": {"t": 14000, "f": 7000, "b": 7000, "sp": 1, "hf": 0.05, "hb": 0.05, "y": 2019, "m": "census"}, "geometry": {"type": "LineString", "coordinates": [[564434.67, 5933388.43], [564437.45, 5933383.96], [564443.13, 5933380.63], [564485.85, 5933364.57], [564613.59, 5933298.8]]}}, {"type": "Feature", "properties": {"t": 14000, "f": 7000, "b": 7000, "sp": 1, "hf": 0.05, "hb": 0.05, "y": 2019, "m": "census"}, "geometry": {"type": "LineString", "coordinates": [[564434.67, 5933388.43], [564440.17, 5933393.1], [564446.28, 5933396.24], [564455.91, 5933397.72], [564466.04, 5933397.97], [564480.36, 5933395.0]]}}, {"type": "Feature", "properties": {"t": 68000, "f": 34000, "b": 34000, "sp": 1, "hf": 0.06, "hb": 0.06, "y": 2019, "m": "census"}, "geometry": {"type": "LineString", "coordinates": [[564458.66, 5933877.38], [564397.71, 5933890.97], [564366.88, 5933901.55]]}}, {"type": "Feature", "properties": {"t": 14000, "f": 7000, "b": 7000, "sp": 1, "hf": 0.05, "hb": 0.05, "y": 2019, "m": "census"}, "geometry": {"type": "LineString", "coordinates": [[564480.36, 5933395.0], [564492.52, 5933388.03], [564611.23, 5933324.62]]}}, {"type": "Feature", "properties": {"t": 18000, "f": 9000, "b": 9000, "sp": 1, "hf": 0.03, "hb": 0.03, "y": 2019, "m": "census"}, "geometry": {"type": "LineString", "coordinates": [[564488.42, 5933868.63], [564506.54, 5933899.84]]}}, {"type": "Feature", "properties": {"t": 68000, "f": 34000, "b": 34000, "sp": 1, "hf": 0.06, "hb": 0.06, "y": 2019, "m": "census"}, "geometry": {"type": "LineString", "coordinates": [[564488.42, 5933868.63], [564458.66, 5933877.38]]}}, {"type": "Feature", "properties": {"t": 52000, "f": 26000, "b": 26000, "sp": 1, "hf": 0.06, "hb": 0.06, "y": 2019, "m": "census"}, "geometry": {"type": "LineString", "coordinates": [[564506.47, 5933862.51], [564488.42, 5933868.63]]}}, {"type": "Feature", "properties": {"t": 18000, "f": 9000, "b": 9000, "sp": 1, "hf": 0.02, "hb": 0.02, "y": 2019, "m": "census"}, "geometry": {"type": "LineString", "coordinates": [[564506.54, 5933899.84], [564555.58, 5934000.0]]}}, {"type": "Feature", "properties": {"t": 52000, "f": 26000, "b": 26000, "sp": 1, "hf": 0.06, "hb": 0.06, "y": 2019, "m": "census"}, "geometry": {"type": "LineString", "coordinates": [[564575.91, 5933842.92], [564539.29, 5933851.4], [564506.47, 5933862.51]]}}, {"type": "Feature", "properties": {"t": 14000, "f": 7000, "b": 7000, "sp": 1, "hf": 0.05, "hb": 0.05, "y": 2019, "m": "census"}, "geometry": {"type": "LineString", "coordinates": [[564611.23, 5933324.62], [564621.55, 5933319.09]]}}, {"type": "Feature", "properties": {"t": 14000, "f": 7000, "b": 7000, "sp": 1, "hf": 0.05, "hb": 0.05, "y": 2019, "m": "census"}, "geometry": {"type": "LineString", "coordinates": [[564613.59, 5933298.8], [564647.33, 5933280.22], [564682.83, 5933247.69], [564693.3, 5933241.03], [564714.17, 5933233.74], [564734.09, 5933232.35], [564824.42, 5933240.02]]}}, {"type": "Feature", "properties": {"t": 14000, "f": 7000, "b": 7000, "sp": 1, "hf": 0.05, "hb": 0.05, "y": 2019, "m": "census"}, "geometry": {"type": "LineString", "coordinates": [[564621.55, 5933319.09], [564690.8, 5933282.86]]}}, {"type": "Feature", "properties": {"t": 14000, "f": 7000, "b": 7000, "sp": 1, "hf": 0.05, "hb": 0.05, "y": 2019, "m": "census"}, "geometry": {"type": "LineString", "coordinates": [[564690.8, 5933282.86], [564720.4, 5933268.5], [564731.24, 5933264.24], [564745.97, 5933261.37], [564755.42, 5933260.53], [564772.38, 5933261.27], [564822.45, 5933265.67]]}}, {"type": "Feature", "properties": {"t": 52000, "f": 26000, "b": 26000, "sp": 1, "hf": 0.06, "hb": 0.06, "y": 2019, "m": "census"}, "geometry": {"type": "LineString", "coordinates": [[564790.06, 5933828.37], [564739.15, 5933830.01], [564575.91, 5933842.92]]}}, {"type": "Feature", "properties": {"t": 52000, "f": 26000, "b": 26000, "sp": 1, "hf": 0.06, "hb": 0.06, "y": 2019, "m": "census"}, "geometry": {"type": "LineString", "coordinates": [[564802.09, 5933827.94], [564790.06, 5933828.37]]}}, {"type": "Feature", "properties": {"t": 14000, "f": 7000, "b": 7000, "sp": 1, "hf": 0.05, "hb": 0.05, "y": 2019, "m": "census"}, "geometry": {"type": "LineString", "coordinates": [[564822.45, 5933265.67], [564932.45, 5933274.74]]}}, {"type": "Feature", "properties": {"t": 14000, "f": 7000, "b": 7000, "sp": 1, "hf": 0.05, "hb": 0.05, "y": 2019, "m": "census"}, "geometry": {"type": "LineString", "coordinates": [[564824.42, 5933240.02], [564944.21, 5933245.12]]}}, {"type": "Feature", "properties": {"t": 14000, "f": 7000, "b": 7000, "sp": 1, "hf": 0.05, "hb": 0.05, "y": 2019, "m": "census"}, "geometry": {"type": "LineString", "coordinates": [[564932.45, 5933274.74], [564959.7, 5933274.51], [564973.32, 5933275.75]]}}, {"type": "Feature", "properties": {"t": 14000, "f": 7000, "b": 7000, "sp": 1, "hf": 0.05, "hb": 0.05, "y": 2019, "m": "census"}, "geometry": {"type": "LineString", "coordinates": [[564944.21, 5933245.12], [564985.75, 5933244.62], [564999.99, 5933243.98], [565051.15, 5933242.84]]}}, {"type": "Feature", "properties": {"t": 52000, "f": 26000, "b": 26000, "sp": 1, "hf": 0.06, "hb": 0.06, "y": 2019, "m": "census"}, "geometry": {"type": "LineString", "coordinates": [[564972.39, 5933787.04], [564914.57, 5933805.83], [564872.38, 5933816.49], [564843.45, 5933822.42], [564802.09, 5933827.94]]}}, {"type": "Feature", "properties": {"t": 14000, "f": 7000, "b": 7000, "sp": 1, "hf": 0.05, "hb": 0.05, "y": 2019, "m": "census"}, "geometry": {"type": "LineString", "coordinates": [[564973.32, 5933275.75], [564989.76, 5933274.72], [565003.26, 5933273.35], [565019.07, 5933273.81], [565045.4, 5933276.46]]}}, {"type": "Feature", "properties": {"t": 52000, "f": 26000, "b": 26000, "sp": 1, "hf": 0.06, "hb": 0.06, "y": 2019, "m": "census"}, "geometry": {"type": "LineString", "coordinates": [[564984.8, 5933783.01], [564972.39, 5933787.04]]}}, {"type": "Feature", "properties": {"t": 14000, "f": 7000, "b": 7000, "sp": 1, "hf": 0.05, "hb": 0.05, "y": 2019, "m": "census"}, "geometry": {"type": "LineString", "coordinates": [[565045.4, 5933276.46], [565057.4, 5933277.81], [565090.5, 5933283.13]]}}, {"type": "Feature", "properties": {"t": 14000, "f": 7000, "b": 7000, "sp": 1, "hf": 0.05, "hb": 0.05, "y": 2019, "m": "census"}, "geometry": {"type": "LineString", "coordinates": [[565051.15, 5933242.84], [565061.15, 5933242.62]]}}, {"type": "Feature", "properties": {"t": 14000, "f": 7000, "b": 7000, "sp": 1, "hf": 0.05, "hb": 0.05, "y": 2019, "m": "census"}, "geometry": {"type": "LineString", "coordinates": [[565061.15, 5933242.62], [565110.42, 5933263.8]]}}, {"type": "Feature", "properties": {"t": 5000, "f": 2500, "b": 2500, "sp": 1, "hf": 0.07, "hb": 0.07, "y": 2019, "m": "census"}, "geometry": {"type": "LineString", "coordinates": [[565080.67, 5933228.8], [565069.93, 5933238.66], [565061.15, 5933242.62]]}}, {"type": "Feature", "properties": {"t": 14000, "f": 7000, "b": 7000, "sp": 1, "hf": 0.05, "hb": 0.05, "y": 2019, "m": "census"}, "geometry": {"type": "LineString", "coordinates": [[565090.5, 5933283.13], [565098.45, 5933285.74], [565128.84, 5933304.21]]}}, {"type": "Feature", "properties": {"t": 14000, "f": 7000, "b": 7000, "sp": 1, "hf": 0.05, "hb": 0.05, "y": 2019, "m": "census"}, "geometry": {"type": "LineString", "coordinates": [[565110.42, 5933263.8], [565177.92, 5933308.44]]}}, {"type": "Feature", "properties": {"t": 14000, "f": 7000, "b": 7000, "sp": 1, "hf": 0.05, "hb": 0.05, "y": 2019, "m": "census"}, "geometry": {"type": "LineString", "coordinates": [[565128.84, 5933304.21], [565171.01, 5933334.34], [565182.92, 5933343.94], [565194.08, 5933354.38], [565201.23, 5933363.12], [565219.69, 5933401.87]]}}, {"type": "Feature", "properties": {"t": 5000, "f": 2500, "b": 2500, "sp": 1, "hf": 0.05, "hb": 0.05, "y": 2019, "m": "census"}, "geometry": {"type": "LineString", "coordinates": [[565129.36, 5933179.23], [565080.67, 5933228.8]]}}, {"type": "Feature", "properties": {"t": 5000, "f": 2500, "b": 2500, "sp": 1, "hf": 0.07, "hb": 0.07, "y": 2019, "m": "census"}, "geometry": {"type": "LineString", "coordinates": [[565144.58, 5933163.67], [565129.36, 5933179.23]]}}, {"type": "Feature", "properties": {"t": 52000, "f": 26000, "b": 26000, "sp": 1, "hf": 0.06, "hb": 0.06, "y": 2019, "m": "census"}, "geometry": {"type": "LineString", "coordinates": [[565152.73, 5933728.45], [564984.8, 5933783.01]]}}, {"type": "Feature", "properties": {"t": 5000, "f": 2500, "b": 2500, "sp": 1, "hf": 0.05, "hb": 0.05, "y": 2019, "m": "census"}, "geometry": {"type": "LineString", "coordinates": [[565156.5, 5933199.96], [565135.71, 5933230.41], [565110.42, 5933263.8]]}}, {"type": "Feature", "properties": {"t": 5000, "f": 2500, "b": 2500, "sp": 1, "hf": 0.05, "hb": 0.05, "y": 2019, "m": "census"}, "geometry": {"type": "LineString", "coordinates": [[565156.95, 5933150.54], [565144.58, 5933163.67]]}}, {"type": "Feature", "properties": {"t": 5000, "f": 2500, "b": 2500, "sp": 1, "hf": 0.05, "hb": 0.05, "y": 2019, "m": "census"}, "geometry": {"type": "LineString", "coordinates": [[565163.96, 5933145.92], [565161.52, 5933161.47], [565161.8, 5933166.13], [565164.06, 5933182.6]]}}, {"type": "Feature", "properties": {"t": 5000, "f": 2500, "b": 2500, "sp": 1, "hf": 0.05, "hb": 0.05, "y": 2019, "m": "census"}, "geometry": {"type": "LineString", "coordinates": [[565164.06, 5933182.6], [565156.5, 5933199.96]]}}, {"type": "Feature", "properties": {"t": 52000, "f": 26000, "b": 26000, "sp": 1, "hf": 0.06, "hb": 0.06, "y": 2019, "m": "census"}, "geometry": {"type": "LineString", "coordinates": [[565167.99, 5933723.49], [565152.73, 5933728.45]]}}, {"type": "Feature", "properties": {"t": 11000, "f": 5500, "b": 5500, "sp": 1, "hf": 0.05, "hb": 0.05, "y": 2019, "m": "census"}, "geometry": {"type": "LineString", "coordinates": [[565168.69, 5933142.89], [565186.36, 5933123.43], [565206.82, 5933104.55]]}}, {"type": "Feature", "properties": {"t": 5000, "f": 2500, "b": 2500, "sp": 1, "hf": 0.07, "hb": 0.07, "y": 2019, "m": "census"}, "geometry": {"type": "LineString", "coordinates": [[565168.69, 5933142.89], [565156.95, 5933150.54]]}}, {"type": "Feature", "properties": {"t": 14000, "f": 7000, "b": 7000, "sp": 1, "hf": 0.05, "hb": 0.05, "y": 2019, "m": "census"}, "geometry": {"type": "LineString", "coordinates": [[565177.92, 5933308.44], [565210.4, 5933332.58]]}}, {"type": "Feature", "properties": {"t": 11000, "f": 5500, "b": 5500, "sp": 1, "hf": 0.05, "hb": 0.05, "y": 2019, "m": "census"}, "geometry": {"type": "LineString", "coordinates": [[565206.82, 5933104.55], [565221.85, 5933096.62], [565232.29, 5933095.65], [565263.02, 5933097.34], [565274.86, 5933098.72]]}}, {"type": "Feature", "properties": {"t": 14000, "f": 7000, "b": 7000, "sp": 1, "hf": 0.05, "hb": 0.05, "y": 2019, "m": "census"}, "geometry": {"type": "LineString", "coordinates": [[565210.4, 5933332.58], [565214.63, 5933342.04], [565226.28, 5933358.32], [565239.59, 5933391.49]]}}, {"type": "Feature", "properties": {"t": 52000, "f": 26000, "b": 26000, "sp": 1, "hf": 0.06, "hb": 0.06, "y": 2019, "m": "census"}, "geometry": {"type": "LineString", "coordinates": [[565225.57, 5933702.8], [565189.61, 5933716.47], [565167.99, 5933723.49]]}}, {"type": "Feature", "properties": {"t": 4000, "f": 2000, "b": 2000, "sp": 1, "hf": 0.04, "hb": 0.04, "y": 2019, "m": "census"}, "geometry": {"type": "LineString", "coordinates": [[565238.71, 5933436.02], [565219.69, 5933401.87]]}}, {"type": "Feature", "properties": {"t": 4000, "f": 2000, "b": 2000, "sp": 1, "hf": 0.04, "hb": 0.04, "y": 2019, "m": "census"}, "geometry": {"type": "LineString", "coordinates": [[565239.59, 5933391.49], [565257.53, 5933433.92]]}}, {"type": "Feature", "properties": {"t": 19000, "f": 9500, "b": 9500, "sp": 1, "hf": 0.04, "hb": 0.04, "y": 2019, "m": "census"}, "geometry": {"type": "LineString", "coordinates": [[565239.59, 5933391.49], [565292.71, 5933364.59], [565311.38, 5933357.42]]}}, {"type": "Feature", "properties": {"t": 4000, "f": 2000, "b": 2000, "sp": 1, "hf": 0.04, "hb": 0.04, "y": 2019, "m": "census"}, "geometry": {"type": "LineString", "coordinates": [[565243.85, 5933445.01], [565238.71, 5933436.02]]}}, {"type": "Feature", "properties": {"t": 4000, "f": 2000, "b": 2000, "sp": 1, "hf": 0.04, "hb": 0.04, "y": 2019, "m": "census"}, "geometry": {"type": "LineString", "coordinates": [[565257.53, 5933433.92], [565275.87, 5933477.27]]}}, {"type": "Feature", "properties": {"t": 4000, "f": 2000, "b": 2000, "sp": 1, "hf": 0.04, "hb": 0.04, "y": 2019, "m": "census"}, "geometry": {"type": "LineString", "coordinates": [[565262.99, 5933483.42], [565256.88, 5933469.59], [565249.18, 5933454.12], [565243.85, 5933445.01]]}}, {"type": "Feature", "properties": {"t": 11000, "f": 5500, "b": 5500, "sp": 1, "hf": 0.05, "hb": 0.05, "y": 2019, "m": "census"}, "geometry": {"type": "LineString", "coordinates": [[565274.86, 5933098.72], [565303.69, 5933102.08], [565352.4, 5933108.8]]}}, {"type": "Feature", "properties": {"t": 4000, "f": 2000, "b": 2000, "sp": 1, "hf": 0.04, "hb": 0.04, "y": 2019, "m": "census"}, "geometry": {"type": "LineString", "coordinates": [[565275.36, 5933509.5], [565268.2, 5933495.19], [565262.99, 5933483.42]]}}, {"type": "Feature", "properties": {"t": 4000, "f": 2000, "b": 2000, "sp": 1, "hf": 0.04, "hb": 0.04, "y": 2019, "m": "census"}, "geometry": {"type": "LineString", "coordinates": [[565275.87, 5933477.27], [565302.06, 5933533.29], [565323.39, 5933570.98]]}}, {"type": "Feature", "properties": {"t": 4000, "f": 2000, "b": 2000, "sp": 1, "hf": 0.04, "hb": 0.04, "y": 2019, "m": "census"}, "geometry": {"type": "LineString", "coordinates": [[565307.99, 5933573.86], [565284.91, 5933528.98], [565275.36, 5933509.5]]}}, {"type": "Feature", "properties": {"t": 4000, "f": 2000, "b": 2000, "sp": 1, "hf": 0.04, "hb": 0.04, "y": 2019, "m": "census"}, "geometry": {"type": "LineString", "coordinates": [[565311.24, 5933580.19], [565307.99, 5933573.86]]}}, {"type": "Feature", "properties": {"t": 19000, "f": 9500, "b": 9500, "sp": 1, "hf": 0.07, "hb": 0.07, "y": 2019, "m": "census"}, "geometry": {"type": "LineString", "coordinates": [[565311.38, 5933357.42], [565340.57, 5933349.67]]}}, {"type": "Feature", "properties": {"t": 14000, "f": 7000, "b": 7000, "sp": 1, "hf": 0.06, "hb": 0.06, "y": 2019, "m": "census"}, "geometry": {"type": "LineString", "coordinates": [[565318.52, 5933991.35], [565317.57, 5934000.0]]}}, {"type": "Feature", "properties": {"t": 4000, "f": 2000, "b": 2000, "sp": 1, "hf": 0.04, "hb": 0.04, "y": 2019, "m": "census"}, "geometry": {"type": "LineString", "coordinates": [[565319.08, 5933595.28], [565311.24, 5933580.19]]}}, {"type": "Feature", "properties": {"t": 4000, "f": 2000, "b": 2000, "sp": 1, "hf": 0.04, "hb": 0.04, "y": 2019, "m": "census"}, "geometry": {"type": "LineString", "coordinates": [[565323.39, 5933570.98], [565339.28, 5933599.07], [565363.51, 5933639.16]]}}, {"type": "Feature", "properties": {"t": 14000, "f": 7000, "b": 7000, "sp": 1, "hf": 0.06, "hb": 0.06, "y": 2019, "m": "census"}, "geometry": {"type": "LineString", "coordinates": [[565334.18, 5933884.45], [565328.26, 5933903.49], [565318.52, 5933991.35]]}}, {"type": "Feature", "properties": {"t": 4000, "f": 2000, "b": 2000, "sp": 1, "hf": 0.04, "hb": 0.04, "y": 2019, "m": "census"}, "geometry": {"type": "LineString", "coordinates": [[565339.89, 5933626.29], [565319.08, 5933595.28]]}}, {"type": "Feature", "properties": {"t": 19000, "f": 9500, "b": 9500, "sp": 1, "hf": 0.05, "hb": 0.05, "y": 2019, "m": "census"}, "geometry": {"type": "LineString", "coordinates": [[565340.57, 5933349.67], [565385.63, 5933344.99]]}}, {"type": "Feature", "properties": {"t": 11000, "f": 5500, "b": 5500, "sp": 1, "hf": 0.05, "hb": 0.05, "y": 2019, "m": "census"}, "geometry": {"type": "LineString", "coordinates": [[565352.4, 5933108.8], [565414.97, 5933117.43]]}}, {"type": "Feature", "properties": {"t": 4000, "f": 2000, "b": 2000, "sp": 1, "hf": 0.04, "hb": 0.04, "y": 2019, "m": "census"}, "geometry": {"type": "LineString", "coordinates": [[565356.33, 5933657.29], [565346.21, 5933637.19], [565339.89, 5933626.29]]}}, {"type": "Feature", "properties": {"t": 4000, "f": 2000, "b": 2000, "sp": 1, "hf": 0.04, "hb": 0.04, "y": 2019, "m": "census"}, "geometry": {"type": "LineString", "coordinates": [[565363.51, 5933639.16], [565371.8, 5933652.87]]}}, {"type": "Feature", "properties": {"t": 52000, "f": 26000, "b": 26000, "sp": 1, "hf": 0.06, "hb": 0.06, "y": 2019, "m": "census"}, "geometry": {"type": "LineString", "coordinates": [[565363.86, 5933654.63], [565277.15, 5933683.2], [565225.57, 5933702.8]]}}, {"type": "Feature", "properties": {"t": 5000, "f": 2500, "b": 2500, "sp": 1, "hf": 0.04, "hb": 0.04, "y": 2019, "m": "census"}, "geometry": {"type": "LineString", "coordinates": [[565371.8, 5933652.87], [565382.68, 5933670.87]]}}, {"type": "Feature", "properties": {"t": 14000, "f": 7000, "b": 7000, "sp": 1, "hf": 0.07, "hb": 0.07, "y": 2019, "m": "census"}, "geometry": {"type": "LineString", "coordinates": [[565376.11, 5933824.93], [565334.18, 5933884.45]]}}, {"type": "Feature", "properties": {"t": 5000, "f": 2500, "b": 2500, "sp": 1, "hf": 0.04, "hb": 0.04, "y": 2019, "m": "census"}, "geometry": {"type": "LineString", "coordinates": [[565377.45, 5933719.24], [565377.56, 5933716.88], [565376.78, 5933711.99], [565375.43, 5933707.06], [565368.03, 5933684.76], [565366.42, 5933680.21], [565356.33, 5933657.29]]}}, {"type": "Feature", "properties": {"t": 5000, "f": 2500, "b": 2500, "sp": 1, "hf": 0.04, "hb": 0.04, "y": 2019, "m": "census"}, "geometry": {"type": "LineString", "coordinates": [[565382.68, 5933670.87], [565428.5, 5933762.16]]}}, {"type": "Feature", "properties": {"t": 19000, "f": 9500, "b": 9500, "sp": 1, "hf": 0.05, "hb": 0.05, "y": 2019, "m": "census"}, "geometry": {"type": "LineString", "coordinates": [[565385.63, 5933344.99], [565410.11, 5933342.67], [565477.69, 5933335.48]]}}, {"type": "Feature", "properties": {"t": 61000, "f": 30500, "b": 30500, "sp": 1, "hf": 0.06, "hb": 0.06, "y": 2019, "m": "census"}, "geometry": {"type": "LineString", "coordinates": [[565390.87, 5933647.28], [565363.86, 5933654.62]]}}, {"type": "Feature", "properties": {"t": 5000, "f": 2500, "b": 2500, "sp": 1, "hf": 0.04, "hb": 0.04, "y": 2019, "m": "census"}, "geometry": {"type": "LineString", "coordinates": [[565393.0, 5933766.58], [565388.79, 5933762.71], [565385.47, 5933758.91], [565382.82, 5933754.87], [565380.52, 5933749.92], [565379.38, 5933746.61], [565378.11, 5933742.03], [565377.51, 5933737.93], [565377.45, 5933719.24]]}}, {"type": "Feature", "properties": {"t": 14000, "f": 7000, "b": 7000, "sp": 1, "hf": 0.07, "hb": 0.07, "y": 2019, "m": "census"}, "geometry": {"type": "LineString", "coordinates": [[565413.73, 5933782.3], [565376.11, 5933824.93]]}}, {"type": "Feature", "properties": {"t": 5000, "f": 2500, "b": 2500, "sp": 1, "hf": 0.04, "hb": 0.04, "y": 2019, "m": "census"}, "geometry": {"type": "LineString", "coordinates": [[565413.73, 5933782.3], [565399.95, 5933772.25], [565393.0, 5933766.58]]}}, {"type": "Feature", "properties": {"t": 11000, "f": 5500, "b": 5500, "sp": 1, "hf": 0.05, "hb": 0.05, "y": 2019, "m": "census"}, "geometry": {"type": "LineString", "coordinates": [[565414.97, 5933117.43], [565469.86, 5933125.0], [565519.33, 5933131.12]]}}, {"type": "Feature", "properties": {"t": 6000, "f": 3000, "b": 3000, "sp": 1, "hf": 0.1, "hb": 0.1, "y": 2019, "m": "census"}, "geometry": {"type": "LineString", "coordinates": [[565428.5, 5933762.16], [565438.03, 5933755.08], [565470.25, 5933740.42], [565500.87, 5933728.73]]}}, {"type": "Feature", "properties": {"t": 14000, "f": 7000, "b": 7000, "sp": 1, "hf": 0.09, "hb": 0.09, "y": 2019, "m": "census"}, "geometry": {"type": "LineString", "coordinates": [[565428.5, 5933762.16], [565420.48, 5933774.81], [565413.73, 5933782.3]]}}, {"type": "Feature", "properties": {"t": 61000, "f": 30500, "b": 30500, "sp": 1, "hf": 0.06, "hb": 0.06, "y": 2019, "m": "census"}, "geometry": {"type": "LineString", "coordinates": [[565450.75, 5933631.29], [565390.87, 5933647.28]]}}, {"type": "Feature", "properties": {"t": 19000, "f": 9500, "b": 9500, "sp": 1, "hf": 0.05, "hb": 0.05, "y": 2019, "m": "census"}, "geometry": {"type": "LineString", "coordinates": [[565477.69, 5933335.48], [565519.95, 5933336.17], [565571.64, 5933332.77]]}}, {"type": "Feature", "properties": {"t": 6000, "f": 3000, "b": 3000, "sp": 1, "hf": 0.17, "hb": 0.17, "y": 2019, "m": "census"}, "geometry": {"type": "LineString", "coordinates": [[565500.87, 5933728.73], [565533.43, 5933727.33], [565582.04, 5933731.89], [565602.08, 5933740.03]]}}, {"type": "Feature", "properties": {"t": 61000, "f": 30500, "b": 30500, "sp": 1, "hf": 0.06, "hb": 0.06, "y": 2019, "m": "census"}, "geometry": {"type": "LineString", "coordinates": [[565517.42, 5933613.64], [565450.75, 5933631.29]]}}, {"type": "Feature", "properties": {"t": 11000, "f": 5500, "b": 5500, "sp": 1, "hf": 0.05, "hb": 0.05, "y": 2019, "m": "census"}, "geometry": {"type": "LineString", "coordinates": [[565519.33, 5933131.12], [565608.87, 5933142.2]]}}, {"type": "Feature", "properties": {"t": 19000, "f": 9500, "b": 9500, "sp": 1, "hf": 0.05, "hb": 0.05, "y": 2019, "m": "census"}, "geometry": {"type": "LineString", "coordinates": [[565571.64, 5933332.77], [565689.59, 5933324.57], [565746.49, 5933322.4], [565759.99, 5933324.03], [565770.04, 5933326.73], [565788.78, 5933337.65], [565856.92, 5933388.15]]}}, {"type": "Feature", "properties": {"t": 6000, "f": 3000, "b": 3000, "sp": 1, "hf": 0.19, "hb": 0.19, "y": 2019, "m": "census"}, "geometry": {"type": "LineString", "coordinates": [[565602.08, 5933740.03], [565641.15, 5933767.1], [565671.02, 5933794.96], [565706.05, 5933822.71]]}}, {"type": "Feature", "properties": {"t": 11000, "f": 5500, "b": 5500, "sp": 1, "hf": 0.05, "hb": 0.05, "y": 2019, "m": "census"}, "geometry": {"type": "LineString", "coordinates": [[565608.87, 5933142.2], [565712.34, 5933155.0]]}}, {"type": "Feature", "properties": {"t": 8000, "f": 4000, "b": 4000, "sp": 1, "hf": 0.32, "hb": 0.32, "y": 2019, "m": "census"}, "geometry": {"type": "LineString", "coordinates": [[565706.05, 5933822.71], [565754.63, 5933872.49]]}}, {"type": "Feature", "properties": {"t": 11000, "f": 5500, "b": 5500, "sp": 1, "hf": 0.05, "hb": 0.05, "y": 2019, "m": "census"}, "geometry": {"type": "LineString", "coordinates": [[565712.34, 5933155.0], [565807.85, 5933166.82]]}}, {"type": "Feature", "properties": {"t": 60000, "f": 30000, "b": 30000, "sp": 1, "hf": 0.06, "hb": 0.06, "y": 2019, "m": "census"}, "geometry": {"type": "LineString", "coordinates": [[565718.67, 5933603.58], [565658.57, 5933599.44], [565601.75, 5933599.17], [565551.02, 5933606.52], [565517.42, 5933613.64]]}}, {"type": "Feature", "properties": {"t": 8000, "f": 4000, "b": 4000, "sp": 1, "hf": 0.32, "hb": 0.32, "y": 2019, "m": "census"}, "geometry": {"type": "LineString", "coordinates": [[565754.63, 5933872.49], [565774.62, 5933893.47], [565791.99, 5933911.0]]}}, {"type": "Feature", "properties": {"t": 8000, "f": 4000, "b": 4000, "sp": 1, "hf": 0.32, "hb": 0.32, "y": 2019, "m": "census"}, "geometry": {"type": "LineString", "coordinates": [[565791.99, 5933911.0], [565805.91, 5933923.75]]}}, {"type": "Feature", "properties": {"t": 60000, "f": 30000, "b": 30000, "sp": 1, "hf": 0.06, "hb": 0.06, "y": 2019, "m": "census"}, "geometry": {"type": "LineString", "coordinates": [[565804.74, 5933609.52], [565718.67, 5933603.58]]}}, {"type": "Feature", "properties": {"t": 5000, "f": 2500, "b": 2500, "sp": 1, "hf": 0.6, "hb": 0.6, "y": 2019, "m": "census"}, "geometry": {"type": "LineString", "coordinates": [[565805.91, 5933923.75], [565832.87, 5933945.45], [565847.53, 5933953.76], [565862.68, 5933960.59], [565892.13, 5933968.92]]}}, {"type": "Feature", "properties": {"t": 14000, "f": 7000, "b": 7000, "sp": 1, "hf": 0.05, "hb": 0.05, "y": 2019, "m": "census"}, "geometry": {"type": "LineString", "coordinates": [[565807.85, 5933166.82], [565816.08, 5933167.84], [565845.48, 5933172.77]]}}, {"type": "Feature", "properties": {"t": 14000, "f": 7000, "b": 7000, "sp": 1, "hf": 0.05, "hb": 0.05, "y": 2019, "m": "census"}, "geometry": {"type": "LineString", "coordinates": [[565845.48, 5933172.77], [565867.32, 5933176.43], [565910.06, 5933186.38], [565935.23, 5933193.64]]}}, {"type": "Feature", "properties": {"t": 60000, "f": 30000, "b": 30000, "sp": 1, "hf": 0.06, "hb": 0.06, "y": 2019, "m": "census"}, "geometry": {"type": "LineString", "coordinates": [[565851.53, 5933615.4], [565804.74, 5933609.52]]}}, {"type": "Feature", "properties": {"t": 16000, "f": 8000, "b": 8000, "sp": 1, "hf": 0.02, "hb": 0.02, "y": 2019, "m": "census"}, "geometry": {"type": "LineString", "coordinates": [[565851.85, 5933615.48], [565854.06, 5933634.95], [565859.1, 5933646.7], [565915.71, 5933749.4]]}}, {"type": "Feature", "properties": {"t": 37000, "f": 18500, "b": 18500, "sp": 1, "hf": 0.06, "hb": 0.06, "y": 2019, "m": "census"}, "geometry": {"type": "LineString", "coordinates": [[565855.51, 5933615.9], [565851.53, 5933615.4]]}}, {"type": "Feature", "properties": {"t": 19000, "f": 9500, "b": 9500, "sp": 1, "hf": 0.04, "hb": 0.04, "y": 2019, "m": "census"}, "geometry": {"type": "LineString", "coordinates": [[565856.92, 5933388.15], [565873.58, 5933401.33], [565904.9, 5933422.28], [565959.52, 5933456.15]]}}, {"type": "Feature", "properties": {"t": 5000, "f": 2500, "b": 2500, "sp": 1, "hf": 0.76, "hb": 0.76, "y": 2019, "m": "census"}, "geometry": {"type": "LineString", "coordinates": [[565892.13, 5933968.92], [565902.12, 5933971.32], [565971.5, 5933986.31]]}}, {"type": "Feature", "properties": {"t": 16000, "f": 8000, "b": 8000, "sp": 1, "hf": 0.02, "hb": 0.02, "y": 2019, "m": "census"}, "geometry": {"type": "LineString", "coordinates": [[565915.71, 5933749.4], [565942.75, 5933785.93], [565966.48, 5933808.71], [565990.21, 5933827.52]]}}, {"type": "Feature", "properties": {"t": 37000, "f": 18500, "b": 18500, "sp": 1, "hf": 0.06, "hb": 0.06, "y": 2019, "m": "census"}, "geometry": {"type": "LineString", "coordinates": [[565922.21, 5933624.29], [565855.51, 5933615.9]]}}, {"type": "Feature", "properties": {"t": 14000, "f": 7000, "b": 7000, "sp": 1, "hf": 0.05, "hb": 0.05, "y": 2019, "m": "census"}, "geometry": {"type": "LineString", "coordinates": [[565935.23, 5933193.64], [565968.69, 5933203.29], [566000.0, 5933214.59]]}}, {"type": "Feature", "properties": {"t": 19000, "f": 9500, "b": 9500, "sp": 1, "hf": 0.04, "hb": 0.04, "y": 2019, "m": "census"}, "geometry": {"type": "LineString", "coordinates": [[565959.52, 5933456.15], [566000.0, 5933478.51]]}}, {"type": "Feature", "properties": {"t": 5000, "f": 2500, "b": 2500, "sp": 1, "hf": 0.55, "hb": 0.55, "y": 2019, "m": "census"}, "geometry": {"type": "LineString", "coordinates": [[565971.5, 5933986.31], [566000.0, 5933988.52]]}}, {"type": "Feature", "properties": {"t": 5000, "f": 2500, "b": 2500, "sp": 1, "hf": 0.07, "hb": 0.07, "y": 2019, "m": "census"}, "geometry": {"type": "LineString", "coordinates": [[565971.5, 5933986.31], [565965.48, 5934000.0]]}}, {"type": "Feature", "properties": {"t": 5000, "f": 2500, "b": 2500, "sp": 1, "hf": 0.11, "hb": 0.11, "y": 2019, "m": "census"}, "geometry": {"type": "LineString", "coordinates": [[565986.8, 5933968.12], [565981.97, 5933977.0], [565971.5, 5933986.31]]}}, {"type": "Feature", "properties": {"t": 16000, "f": 8000, "b": 8000, "sp": 1, "hf": 0.02, "hb": 0.02, "y": 2019, "m": "census"}, "geometry": {"type": "LineString", "coordinates": [[565990.21, 5933827.52], [566000.0, 5933835.28]]}}, {"type": "Feature", "properties": {"t": 5000, "f": 2500, "b": 2500, "sp": 1, "hf": 0.1, "hb": 0.1, "y": 2019, "m": "census"}, "geometry": {"type": "LineString", "coordinates": [[565999.91, 5933915.45], [565986.8, 5933968.12]]}}, {"type": "Feature", "properties": {"t": 37000, "f": 18500, "b": 18500, "sp": 1, "hf": 0.06, "hb": 0.06, "y": 2019, "m": "census"}, "geometry": {"type": "LineString", "coordinates": [[566000.0, 5933634.08], [565922.21, 5933624.29]]}}]}