{"type": "FeatureCollection", "crs": {"type": "name", "properties": {"name": "urn:ogc:def:crs:EPSG::25832"}}, "features": [{"type": "Feature", "properties": {"kind": "hedge"}, "geometry": {"type": "LineString", "coordinates": [[564867.28, 5933541.1], [564867.35, 5933532.95]]}}, {"type": "Feature", "properties": {"kind": "hedge"}, "geometry": {"type": "LineString", "coordinates": [[564861.07, 5933531.09], [564864.52, 5933524.86]]}}, {"type": "Feature", "properties": {"kind": "hedge"}, "geometry": {"type": "LineString", "coordinates": [[564869.21, 5933534.15], [564894.51, 5933518.32]]}}, {"type": "Feature", "properties": {"kind": "hedge"}, "geometry": {"type": "LineString", "coordinates": [[564892.15, 5933517.6], [564889.42, 5933515.86], [564885.71, 5933514.51], [564880.09, 5933513.34], [564877.53, 5933514.4], [564872.41, 5933517.71], [564871.46, 5933518.93], [564870.12, 5933523.68], [564869.65, 5933528.56], [564869.41, 5933532.49]]}}, {"type": "Feature", "properties": {"kind": "hedge"}, "geometry": {"type": "LineString", "coordinates": [[564848.97, 5933558.1], [564853.77, 5933545.45]]}}, {"type": "Feature", "properties": {"kind": "hedge"}, "geometry": {"type": "LineString", "coordinates": [[564867.44, 5933553.95], [564867.38, 5933544.02]]}}, {"type": "Feature", "properties": {"kind": "treerow"}, "geometry": {"type": "LineString", "coordinates": [[564810.08, 5933442.22], [564810.76, 5933436.52], [564811.45, 5933430.82], [564812.12, 5933425.12], [564812.8, 5933419.42], [564813.48, 5933413.72], [564814.16, 5933408.02], [564814.84, 5933402.33], [564815.52, 5933396.63], [564816.2, 5933390.93], [564816.88, 5933385.23], [564817.56, 5933379.53], [564818.24, 5933373.83], [564818.92, 5933368.13], [564819.6, 5933362.43], [564820.28, 5933356.74], [564820.96, 5933351.04], [564821.64, 5933345.34], [564822.32, 5933339.64], [564823.0, 5933333.94], [564823.68, 5933328.24], [564824.36, 5933322.54], [564825.04, 5933316.84], [564825.72, 5933311.15], [564826.4, 5933305.45], [564827.08, 5933299.75], [564827.76, 5933294.05], [564828.44, 5933288.35], [564829.12, 5933282.65]]}}, {"type": "Feature", "properties": {"kind": "hedge"}, "geometry": {"type": "LineString", "coordinates": [[565686.6, 5932952.94], [565687.02, 5932948.77], [565692.27, 5932949.28], [565698.76, 5932949.9], [565706.48, 5932950.65], [565706.84, 5932947.01], [565707.51, 5932940.2], [565708.33, 5932932.11], [565709.12, 5932924.07], [565714.4, 5932924.64]]}}, {"type": "Feature", "properties": {"kind": "hedge"}, "geometry": {"type": "LineString", "coordinates": [[565708.33, 5932932.11], [565713.64, 5932932.62]]}}, {"type": "Feature", "properties": {"kind": "hedge"}, "geometry": {"type": "LineString", "coordinates": [[565707.51, 5932940.2], [565712.88, 5932940.66]]}}, {"type": "Feature", "properties": {"kind": "hedge"}, "geometry": {"type": "LineString", "coordinates": [[565706.84, 5932947.01], [565712.26, 5932947.53]]}}, {"type": "Feature", "properties": {"kind": "hedge"}, "geometry": {"type": "LineString", "coordinates": [[565706.48, 5932950.65], [565706.13, 5932954.88]]}}, {"type": "Feature", "properties": {"kind": "hedge"}, "geometry": {"type": "LineString", "coordinates": [[565698.76, 5932949.9], [565698.42, 5932954.11]]}}, {"type": "Feature", "properties": {"kind": "hedge"}, "geometry": {"type": "LineString", "coordinates": [[565692.27, 5932949.28], [565691.93, 5932953.47]]}}, {"type": "Feature", "properties": {"kind": "hedge"}, "geometry": {"type": "LineString", "coordinates": [[565689.07, 5932937.89], [565689.57, 5932936.01], [565697.31, 5932938.06], [565696.81, 5932939.95], [565689.07, 5932937.89]]}}, {"type": "Feature", "properties": {"kind": "hedge"}, "geometry": {"type": "LineString", "coordinates": [[565876.06, 5932811.94], [565883.84, 5932810.43]]}}, {"type": "Feature", "properties": {"kind": "hedge"}, "geometry": {"type": "LineString", "coordinates": [[565957.88, 5932806.03], [565958.79, 5932806.32], [565960.14, 5932806.36], [565962.18, 5932806.27], [565963.51, 5932805.87], [565965.66, 5932805.0], [565966.68, 5932806.11], [565968.39, 5932807.42], [565970.26, 5932808.29], [565972.2, 5932808.73], [565974.65, 5932808.94], [565976.61, 5932808.54], [565979.26, 5932807.59]]}}, {"type": "Feature", "properties": {"kind": "hedge"}, "geometry": {"type": "LineString", "coordinates": [[565886.75, 5932786.44], [565892.33, 5932790.37]]}}, {"type": "Feature", "properties": {"kind": "hedge"}, "geometry": {"type": "LineString", "coordinates": [[565893.39, 5932791.27], [565902.82, 5932786.79], [565915.29, 5932791.62], [565925.84, 5932793.15], [565926.28, 5932794.43], [565926.85, 5932795.56], [565927.65, 5932796.46], [565928.68, 5932797.27], [565929.72, 5932797.72], [565930.83, 5932798.01], [565931.96, 5932798.1], [565934.82, 5932798.22]]}}, {"type": "Feature", "properties": {"kind": "hedge"}, "geometry": {"type": "LineString", "coordinates": [[565882.58, 5932825.05], [565924.27, 5932830.7]]}}, {"type": "Feature", "properties": {"kind": "treerow"}, "geometry": {"type": "LineString", "coordinates": [[564814.32, 5933492.63], [564814.68, 5933487.5], [564815.1, 5933481.43], [564815.51, 5933475.36], [564815.87, 5933470.28], [564816.32, 5933463.64], [564816.72, 5933457.87], [564817.1, 5933452.42]]}}, {"type": "Feature", "properties": {"kind": "treerow"}, "geometry": {"type": "LineString", "coordinates": [[564806.33, 5933491.86], [564806.69, 5933486.72], [564807.11, 5933480.66], [564807.52, 5933474.59], [564807.88, 5933469.51], [564808.34, 5933462.87], [564808.73, 5933457.11], [564809.11, 5933451.65]]}}, {"type": "Feature", "properties": {"kind": "treerow"}, "geometry": {"type": "LineString", "coordinates": [[564804.68, 5933554.17], [564804.91, 5933547.88], [564805.13, 5933542.15], [564805.37, 5933535.73], [564805.58, 5933530.08], [564805.79, 5933524.45]]}}, {"type": "Feature", "properties": {"kind": "treerow"}, "geometry": {"type": "LineString", "coordinates": [[564811.61, 5933554.5], [564811.85, 5933547.86], [564812.05, 5933542.13], [564812.28, 5933535.71], [564812.51, 5933529.34], [564812.73, 5933522.83], [564813.01, 5933515.0], [564813.21, 5933509.6]]}}, {"type": "Feature", "properties": {"kind": "treerow"}, "geometry": {"type": "LineString", "coordinates": [[564808.84, 5933626.66], [564809.06, 5933620.37], [564809.34, 5933612.57], [564809.57, 5933606.01], [564809.82, 5933599.19], [564810.07, 5933592.11], [564810.29, 5933585.72]]}}, {"type": "Feature", "properties": {"kind": "treerow"}, "geometry": {"type": "LineString", "coordinates": [[564804.4, 5933626.51], [564804.62, 5933620.22], [564804.9, 5933612.42], [564805.13, 5933605.87], [564805.37, 5933599.04], [564805.62, 5933591.96], [564805.85, 5933585.57]]}}, {"type": "Feature", "properties": {"kind": "treerow"}, "geometry": {"type": "LineString", "coordinates": [[564841.75, 5933637.53], [564843.02, 5933630.56], [564844.39, 5933623.05], [564845.63, 5933616.22], [564846.85, 5933609.55], [564848.18, 5933602.27], [564849.21, 5933596.62], [564850.3, 5933590.6]]}}, {"type": "Feature", "properties": {"kind": "treerow"}, "geometry": {"type": "LineString", "coordinates": [[564844.35, 5933642.22], [564845.52, 5933635.74], [564846.58, 5933629.92], [564847.94, 5933622.41], [564849.17, 5933615.58], [564850.39, 5933608.9], [564851.7, 5933601.62], [564852.72, 5933595.97], [564854.08, 5933588.47], [564856.12, 5933577.18]]}}, {"type": "Feature", "properties": {"kind": "treerow"}, "geometry": {"type": "LineString", "coordinates": [[564817.96, 5933442.93], [564818.64, 5933437.23], [564819.32, 5933431.53], [564820.0, 5933425.83], [564820.68, 5933420.13], [564821.36, 5933414.43], [564822.04, 5933408.73], [564822.72, 5933403.03], [564823.4, 5933397.34], [564824.08, 5933391.64], [564824.76, 5933385.94], [564825.44, 5933380.24], [564826.12, 5933374.54], [564826.8, 5933368.84], [564827.48, 5933363.14], [564828.24, 5933357.6], [564828.84, 5933351.75], [564829.52, 5933346.05], [564830.2, 5933340.35], [564830.88, 5933334.65], [564831.56, 5933328.95], [564832.24, 5933323.25], [564832.92, 5933317.55], [564833.6, 5933311.85], [564834.28, 5933306.16], [564834.95, 5933300.46], [564835.64, 5933294.76], [564836.32, 5933289.06], [564837.0, 5933283.36]]}}, {"type": "Feature", "properties": {"kind": "hedge"}, "geometry": {"type": "LineString", "coordinates": [[565936.7, 5933043.02], [565942.48, 5932982.36]]}}]}