{"type": "FeatureCollection", "crs": {"type": "name", "properties": {"name": "urn:ogc:def:crs:EPSG::25832"}}, "features": [{"type": "Feature", "properties": {"kind": "hedge"}, "geometry": {"type": "LineString", "coordinates": [[567593.38, 5935357.72], [567595.08, 5935350.49], [567598.89, 5935344.12], [567604.46, 5935339.2], [567611.25, 5935336.22], [567618.64, 5935335.43]]}}, {"type": "Feature", "properties": {"kind": "hedge"}, "geometry": {"type": "LineString", "coordinates": [[567733.19, 5935340.54], [567730.89, 5935337.7], [567720.89, 5935339.65], [567710.06, 5935341.44], [567712.62, 5935361.5], [567725.6, 5935358.56]]}}, {"type": "Feature", "properties": {"kind": "hedge"}, "geometry": {"type": "LineString", "coordinates": [[567639.37, 5934915.81], [567670.32, 5934886.53]]}}, {"type": "Feature", "properties": {"kind": "hedge"}, "geometry": {"type": "LineString", "coordinates": [[567329.21, 5935573.98], [567327.9, 5935577.85], [567327.29, 5935585.98], [567326.49, 5935591.82], [567323.66, 5935601.84]]}}, {"type": "Feature", "properties": {"kind": "hedge"}, "geometry": {"type": "LineString", "coordinates": [[567157.03, 5934714.85], [567158.75, 5934713.08], [567170.79, 5934700.76]]}}, {"type": "Feature", "properties": {"kind": "hedge"}, "geometry": {"type": "LineString", "coordinates": [[567701.73, 5934499.84], [567712.31, 5934506.98]]}}, {"type": "Feature", "properties": {"kind": "hedge"}, "geometry": {"type": "LineString", "coordinates": [[567700.08, 5934507.49], [567695.87, 5934513.93]]}}, {"type": "Feature", "properties": {"kind": "hedge"}, "geometry": {"type": "LineString", "coordinates": [[567522.12, 5934585.28], [567503.5, 5934570.94]]}}, {"type": "Feature", "properties": {"kind": "hedge"}, "geometry": {"type": "LineString", "coordinates": [[567594.86, 5934642.08], [567606.99, 5934651.43]]}}, {"type": "Feature", "properties": {"kind": "hedge"}, "geometry": {"type": "LineString", "coordinates": [[567578.88, 5934629.89], [567592.31, 5934640.05]]}}, {"type": "Feature", "properties": {"kind": "hedge"}, "geometry": {"type": "LineString", "coordinates": [[567548.62, 5934605.78], [567578.88, 5934629.89]]}}, {"type": "Feature", "properties": {"kind": "hedge"}, "geometry": {"type": "LineString", "coordinates": [[567548.62, 5934605.78], [567522.12, 5934585.28]]}}, {"type": "Feature", "properties": {"kind": "treerow"}, "geometry": {"type": "LineString", "coordinates": [[567647.07, 5934607.91], [567651.74, 5934601.21], [567656.41, 5934594.5], [567661.09, 5934587.81]]}}, {"type": "Feature", "properties": {"kind": "treerow"}, "geometry": {"type": "LineString", "coordinates": [[567673.54, 5934627.26], [567678.03, 5934620.68], [567682.4, 5934614.3], [567687.25, 5934607.2], [567691.15, 5934601.5], [567695.58, 5934595.01], [567699.59, 5934589.14], [567704.36, 5934582.16]]}}, {"type": "Feature", "properties": {"kind": "treerow"}, "geometry": {"type": "LineString", "coordinates": [[567329.86, 5934906.44], [567335.26, 5934901.28], [567340.85, 5934895.95], [567346.8, 5934890.26], [567352.1, 5934885.2], [567358.27, 5934879.31], [567364.53, 5934873.33], [567373.52, 5934864.75], [567378.06, 5934860.42], [567383.28, 5934855.44]]}}, {"type": "Feature", "properties": {"kind": "hedge"}, "geometry": {"type": "LineString", "coordinates": [[566629.09, 5934583.67], [566621.71, 5934601.32]]}}, {"type": "Feature", "properties": {"kind": "hedge"}, "geometry": {"type": "LineString", "coordinates": [[566618.68, 5934606.34], [566611.89, 5934619.47], [566611.37, 5934619.9], [566603.08, 5934627.54]]}}, {"type": "Feature", "properties": {"kind": "hedge"}, "geometry": {"type": "LineString", "coordinates": [[566638.85, 5934562.51], [566641.78, 5934556.54], [566644.72, 5934550.78]]}}, {"type": "Feature", "properties": {"kind": "treerow"}, "geometry": {"type": "LineString", "coordinates": [[567505.01, 5934798.94], [567499.35, 5934793.74], [567493.51, 5934788.36], [567488.17, 5934783.46]]}}, {"type": "Feature", "properties": {"kind": "treerow"}, "geometry": {"type": "LineString", "coordinates": [[567489.67, 5934793.14], [567485.09, 5934788.22], [567480.23, 5934783.0], [567475.76, 5934778.22]]}}, {"type": "Feature", "properties": {"kind": "treerow"}, "geometry": {"type": "LineString", "coordinates": [[567504.27, 5934782.44], [567502.05, 5934780.57], [567499.83, 5934778.69], [567497.62, 5934776.83], [567495.4, 5934774.96]]}}, {"type": "Feature", "properties": {"kind": "treerow"}, "geometry": {"type": "LineString", "coordinates": [[567396.78, 5934849.6], [567403.55, 5934855.76], [567414.33, 5934865.57], [567419.14, 5934869.95]]}}, {"type": "Feature", "properties": {"kind": "treerow"}, "geometry": {"type": "LineString", "coordinates": [[567432.77, 5934867.31], [567436.19, 5934864.15], [567443.14, 5934857.71], [567450.69, 5934850.73], [567457.38, 5934844.54], [567466.4, 5934836.19], [567476.07, 5934827.23], [567485.04, 5934818.94], [567494.18, 5934810.48]]}}, {"type": "Feature", "properties": {"kind": "treerow"}, "geometry": {"type": "LineString", "coordinates": [[567296.08, 5934907.9], [567291.86, 5934903.42], [567287.57, 5934898.84], [567282.85, 5934893.81], [567277.96, 5934888.59]]}}, {"type": "Feature", "properties": {"kind": "treerow"}, "geometry": {"type": "LineString", "coordinates": [[567655.95, 5934651.73], [567660.55, 5934646.28], [567665.18, 5934640.38]]}}, {"type": "Feature", "properties": {"kind": "treerow"}, "geometry": {"type": "LineString", "coordinates": [[567734.19, 5934583.77], [567741.17, 5934574.12], [567746.08, 5934567.35]]}}, {"type": "Feature", "properties": {"kind": "hedge"}, "geometry": {"type": "LineString", "coordinates": [[567170.71, 5934710.28], [567170.04, 5934709.87], [567169.53, 5934709.26], [567169.25, 5934708.51], [567169.22, 5934707.74], [567169.45, 5934706.98], [567169.92, 5934706.32], [567170.58, 5934705.85], [567171.36, 5934705.63], [567172.18, 5934705.67], [567172.93, 5934705.97], [567173.54, 5934706.51], [567173.94, 5934707.21], [567174.08, 5934708.01], [567173.95, 5934708.82], [567173.57, 5934709.52]]}}, {"type": "Feature", "properties": {"kind": "hedge"}, "geometry": {"type": "LineString", "coordinates": [[567201.86, 5934740.72], [567202.37, 5934740.79], [567202.88, 5934740.69], [567203.34, 5934740.46], [567203.71, 5934740.11], [567203.98, 5934739.59], [567204.07, 5934739.01], [567203.96, 5934738.44], [567203.67, 5934737.94], [567203.24, 5934737.55], [567202.7, 5934737.33], [567202.12, 5934737.3], [567201.56, 5934737.46], [567201.08, 5934737.79], [567200.74, 5934738.26]]}}, {"type": "Feature", "properties": {"kind": "hedge"}, "geometry": {"type": "LineString", "coordinates": [[567886.3, 5934811.14], [567899.59, 5934798.78], [567907.71, 5934791.15], [567911.44, 5934795.08]]}}, {"type": "Feature", "properties": {"kind": "hedge"}, "geometry": {"type": "LineString", "coordinates": [[567913.95, 5934801.37], [567915.8, 5934803.48], [567917.86, 5934805.83], [567932.68, 5934822.77], [567935.01, 5934825.43]]}}, {"type": "Feature", "properties": {"kind": "hedge"}, "geometry": {"type": "LineString", "coordinates": [[567842.96, 5934866.3], [567845.5, 5934859.62]]}}, {"type": "Feature", "properties": {"kind": "hedge"}, "geometry": {"type": "LineString", "coordinates": [[567847.89, 5934879.2], [567854.21, 5934882.22]]}}, {"type": "Feature", "properties": {"kind": "hedge"}, "geometry": {"type": "LineString", "coordinates": [[567729.85, 5935235.63], [567745.02, 5935238.18]]}}, {"type": "Feature", "properties": {"kind": "hedge"}, "geometry": {"type": "LineString", "coordinates": [[567741.4, 5935227.24], [567746.9, 5935228.03]]}}, {"type": "Feature", "properties": {"kind": "hedge"}, "geometry": {"type": "LineString", "coordinates": [[567660.56, 5935328.36], [567655.08, 5935326.67], [567660.89, 5935299.29], [567666.32, 5935300.26], [567675.24, 5935301.88], [567675.79, 5935301.77], [567679.37, 5935301.05], [567681.4, 5935300.64], [567684.76, 5935300.15], [567689.56, 5935299.45], [567694.79, 5935298.69], [567695.28, 5935298.62], [567708.55, 5935296.51]]}}, {"type": "Feature", "properties": {"kind": "hedge"}, "geometry": {"type": "LineString", "coordinates": [[567667.71, 5935308.11], [567666.32, 5935300.26]]}}, {"type": "Feature", "properties": {"kind": "hedge"}, "geometry": {"type": "LineString", "coordinates": [[567676.84, 5935308.99], [567675.79, 5935301.77]]}}, {"type": "Feature", "properties": {"kind": "hedge"}, "geometry": {"type": "LineString", "coordinates": [[567680.77, 5935308.76], [567679.37, 5935301.05]]}}, {"type": "Feature", "properties": {"kind": "hedge"}, "geometry": {"type": "LineString", "coordinates": [[567685.65, 5935307.72], [567684.76, 5935300.15]]}}, {"type": "Feature", "properties": {"kind": "hedge"}, "geometry": {"type": "LineString", "coordinates": [[567690.47, 5935306.85], [567689.56, 5935299.45]]}}, {"type": "Feature", "properties": {"kind": "hedge"}, "geometry": {"type": "LineString", "coordinates": [[567695.87, 5935306.29], [567694.79, 5935298.69]]}}, {"type": "Feature", "properties": {"kind": "hedge"}, "geometry": {"type": "LineString", "coordinates": [[567684.91, 5935269.7], [567676.12, 5935273.43], [567678.05, 5935278.52], [567680.86, 5935285.95], [567685.39, 5935297.48], [567703.9, 5935290.09]]}}, {"type": "Feature", "properties": {"kind": "hedge"}, "geometry": {"type": "LineString", "coordinates": [[567678.05, 5935278.52], [567686.36, 5935274.95]]}}, {"type": "Feature", "properties": {"kind": "hedge"}, "geometry": {"type": "LineString", "coordinates": [[567680.86, 5935285.95], [567688.85, 5935282.05]]}}]}