{"type": "FeatureCollection", "attribution": "\u00a9 OpenStreetMap contributors (ODbL)", "crs": {"type": "name", "properties": {"name": "urn:ogc:def:crs:EPSG::25832"}}, "features": [{"type": "Feature", "properties": {"kind": "wall", "h": 1.5}, "geometry": {"type": "LineString", "coordinates": [[566155.77, 5935574.11], [566156.13, 5935572.3], [566156.65, 5935571.15], [566157.65, 5935569.75], [566158.82, 5935568.87], [566160.24, 5935568.1], [566161.9, 5935567.46], [566163.98, 5935567.15], [566165.43, 5935567.41], [566167.21, 5935565.98]]}}, {"type": "Feature", "properties": {"kind": "wall", "h": 1.5}, "geometry": {"type": "LineString", "coordinates": [[566165.72, 5935586.43], [566167.32, 5935586.06], [566168.96, 5935585.41], [566170.41, 5935584.6], [566172.22, 5935582.94], [566173.7, 5935581.05], [566174.47, 5935579.36], [566174.59, 5935577.48], [566174.08, 5935576.14], [566175.48, 5935574.71]]}}, {"type": "Feature", "properties": {"kind": "wall", "h": 1.5}, "geometry": {"type": "LineString", "coordinates": [[566162.12, 5935585.43], [566160.93, 5935584.65], [566159.78, 5935585.29], [566158.14, 5935585.57], [566156.45, 5935585.28], [566155.14, 5935584.07], [566154.27, 5935582.69], [566154.23, 5935581.0], [566154.76, 5935579.46], [566156.03, 5935577.92]]}}, {"type": "Feature", "properties": {"kind": "wall", "h": 1.5}, "geometry": {"type": "LineString", "coordinates": [[567618.12, 5934034.94], [567659.31, 5934055.74]]}}, {"type": "Feature", "properties": {"kind": "wall", "h": 1.5}, "geometry": {"type": "LineString", "coordinates": [[567713.31, 5934047.97], [567701.02, 5934074.93]]}}, {"type": "Feature", "properties": {"kind": "wall", "h": 1.5}, "geometry": {"type": "LineString", "coordinates": [[567896.8, 5934511.44], [567900.16, 5934504.58]]}}, {"type": "Feature", "properties": {"kind": "wall", "h": 1.5}, "geometry": {"type": "LineString", "coordinates": [[567930.02, 5934016.83], [567937.03, 5934002.72]]}}, {"type": "Feature", "properties": {"kind": "retaining_wall", "h": 3.0}, "geometry": {"type": "LineString", "coordinates": [[567786.09, 5934687.8], [567762.28, 5934719.62]]}}, {"type": "Feature", "properties": {"kind": "retaining_wall", "h": 3.0}, "geometry": {"type": "LineString", "coordinates": [[567742.02, 5934694.13], [567727.19, 5934712.71]]}}, {"type": "Feature", "properties": {"kind": "retaining_wall", "h": 3.0}, "geometry": {"type": "LineString", "coordinates": [[567788.47, 5934689.43], [567766.76, 5934717.63]]}}, {"type": "Feature", "properties": {"kind": "wall", "h": 1.5}, "geometry": {"type": "LineString", "coordinates": [[566953.17, 5934956.86], [566958.99, 5934965.08], [566952.63, 5934970.49], [566953.72, 5934971.41]]}}, {"type": "Feature", "properties": {"kind": "wall", "h": 0.5}, "geometry": {"type": "LineString", "coordinates": [[567849.25, 5935341.9], [567870.48, 5935345.15]]}}, {"type": "Feature", "properties": {"kind": "wall", "h": 1.5}, "geometry": {"type": "LineString", "coordinates": [[567741.92, 5935402.3], [567764.24, 5935397.46]]}}, {"type": "Feature", "properties": {"kind": "wall", "h": 1.5}, "geometry": {"type": "LineString", "coordinates": [[567743.78, 5935420.42], [567750.4, 5935420.33], [567772.75, 5935415.65]]}}, {"type": "Feature", "properties": {"kind": "wall", "h": 1.5}, "geometry": {"type": "LineString", "coordinates": [[567712.62, 5935361.5], [567702.24, 5935363.78], [567701.77, 5935360.11], [567692.84, 5935361.2], [567693.4, 5935365.53], [567683.93, 5935366.46]]}}, {"type": "Feature", "properties": {"kind": "wall", "h": 1.5}, "geometry": {"type": "LineString", "coordinates": [[567667.87, 5935368.52], [567655.57, 5935369.89], [567652.49, 5935351.95], [567656.98, 5935351.53]]}}, {"type": "Feature", "properties": {"kind": "wall", "h": 1.5}, "geometry": {"type": "LineString", "coordinates": [[567750.02, 5935330.57], [567765.37, 5935324.42]]}}, {"type": "Feature", "properties": {"kind": "wall", "h": 1.5}, "geometry": {"type": "LineString", "coordinates": [[567151.78, 5934763.12], [567140.52, 5934752.05], [567137.86, 5934754.75], [567136.88, 5934755.77]]}}, {"type": "Feature", "properties": {"kind": "wall", "h": 1.5}, "geometry": {"type": "LineString", "coordinates": [[567729.78, 5934776.77], [567718.02, 5934803.28], [567706.56, 5934799.05]]}}, {"type": "Feature", "properties": {"kind": "wall", "h": 1.5}, "geometry": {"type": "LineString", "coordinates": [[567128.24, 5934835.21], [567138.67, 5934824.37]]}}, {"type": "Feature", "properties": {"kind": "wall", "h": 1.5}, "geometry": {"type": "LineString", "coordinates": [[566795.56, 5934186.47], [566796.89, 5934180.81], [566796.99, 5934180.4], [566792.42, 5934179.32], [566791.0, 5934185.4]]}}, {"type": "Feature", "properties": {"kind": "wall", "h": 1.5}, "geometry": {"type": "LineString", "coordinates": [[566847.3, 5934218.75], [566839.17, 5934216.81], [566840.25, 5934212.21], [566848.39, 5934214.15]]}}, {"type": "Feature", "properties": {"kind": "retaining_wall", "h": 3.0}, "geometry": {"type": "LineString", "coordinates": [[567767.0, 5934536.17], [567764.11, 5934534.44], [567769.38, 5934525.46], [567773.62, 5934515.66], [567776.7, 5934509.27], [567780.37, 5934497.38], [567781.63, 5934497.89]]}}, {"type": "Feature", "properties": {"kind": "wall", "h": 1.5}, "geometry": {"type": "LineString", "coordinates": [[566104.82, 5934651.16], [566095.74, 5934655.29], [566091.75, 5934653.37], [566087.01, 5934655.01], [566084.55, 5934659.98], [566086.4, 5934663.02]]}}, {"type": "Feature", "properties": {"kind": "wall", "h": 1.5}, "geometry": {"type": "LineString", "coordinates": [[566128.13, 5934701.26], [566118.81, 5934704.15], [566116.06, 5934710.55], [566111.97, 5934712.15], [566107.42, 5934710.85], [566105.78, 5934707.59]]}}, {"type": "Feature", "properties": {"kind": "wall", "h": 1.5}, "geometry": {"type": "LineString", "coordinates": [[566040.38, 5934742.17], [566024.74, 5934748.97]]}}, {"type": "Feature", "properties": {"kind": "wall", "h": 1.5}, "geometry": {"type": "LineString", "coordinates": [[566003.88, 5934691.58], [566016.33, 5934686.65]]}}, {"type": "Feature", "properties": {"kind": "retaining_wall", "h": 3.0}, "geometry": {"type": "LineString", "coordinates": [[566051.82, 5934262.33], [566047.03, 5934257.21], [566044.19, 5934259.89], [566048.98, 5934265.0]]}}, {"type": "Feature", "properties": {"kind": "retaining_wall", "h": 3.0}, "geometry": {"type": "LineString", "coordinates": [[566031.29, 5934214.46], [566025.9, 5934218.94], [566028.78, 5934222.39], [566034.17, 5934217.92]]}}, {"type": "Feature", "properties": {"kind": "retaining_wall", "h": 3.0}, "geometry": {"type": "LineString", "coordinates": [[566064.55, 5934211.01], [566060.15, 5934216.47], [566063.21, 5934218.89], [566067.61, 5934213.44]]}}, {"type": "Feature", "properties": {"kind": "retaining_wall", "h": 3.0}, "geometry": {"type": "LineString", "coordinates": [[567743.35, 5934331.55], [567736.51, 5934329.72], [567735.09, 5934334.98], [567741.81, 5934336.78]]}}, {"type": "Feature", "properties": {"kind": "retaining_wall", "h": 3.0}, "geometry": {"type": "LineString", "coordinates": [[567738.97, 5934288.61], [567734.21, 5934287.31], [567731.56, 5934286.61], [567730.71, 5934289.77], [567738.0, 5934291.73]]}}, {"type": "Feature", "properties": {"kind": "retaining_wall", "h": 3.0}, "geometry": {"type": "LineString", "coordinates": [[567875.79, 5934369.28], [567869.6, 5934365.97], [567867.41, 5934369.55], [567873.01, 5934373.66]]}}, {"type": "Feature", "properties": {"kind": "retaining_wall", "h": 3.0}, "geometry": {"type": "LineString", "coordinates": [[567700.59, 5934325.74], [567708.78, 5934327.97], [567710.17, 5934322.9], [567703.68, 5934321.14]]}}, {"type": "Feature", "properties": {"kind": "retaining_wall", "h": 3.0}, "geometry": {"type": "LineString", "coordinates": [[567867.69, 5934313.81], [567860.98, 5934311.63], [567859.38, 5934316.55], [567866.0, 5934318.69]]}}, {"type": "Feature", "properties": {"kind": "retaining_wall", "h": 3.0}, "geometry": {"type": "LineString", "coordinates": [[567715.96, 5934285.67], [567722.23, 5934287.27], [567723.27, 5934283.23], [567716.7, 5934281.54]]}}, {"type": "Feature", "properties": {"kind": "retaining_wall", "h": 3.0}, "geometry": {"type": "LineString", "coordinates": [[567808.34, 5934355.83], [567814.8, 5934357.3], [567815.88, 5934352.62], [567809.53, 5934351.17]]}}, {"type": "Feature", "properties": {"kind": "retaining_wall", "h": 3.0}, "geometry": {"type": "LineString", "coordinates": [[567838.85, 5934359.44], [567834.03, 5934355.26], [567830.66, 5934359.14], [567835.78, 5934363.56]]}}, {"type": "Feature", "properties": {"kind": "retaining_wall", "h": 3.0}, "geometry": {"type": "LineString", "coordinates": [[567222.32, 5934759.13], [567225.67, 5934762.23], [567223.19, 5934764.8]]}}, {"type": "Feature", "properties": {"kind": "retaining_wall", "h": 3.0}, "geometry": {"type": "LineString", "coordinates": [[567235.89, 5934763.55], [567227.54, 5934760.26], [567226.6, 5934761.09], [567223.26, 5934757.94]]}}, {"type": "Feature", "properties": {"kind": "wall", "h": 1.5}, "geometry": {"type": "LineString", "coordinates": [[566588.8, 5934111.62], [566597.05, 5934113.56], [566613.43, 5934117.48], [566613.32, 5934116.8], [566613.1, 5934116.04], [566612.81, 5934115.36], [566612.51, 5934114.75], [566612.17, 5934114.14], [566611.73, 5934113.55], [566611.33, 5934113.06], [566610.85, 5934112.49], [566610.28, 5934112.0], [566609.6, 5934111.48], [566608.76, 5934110.87], [566607.76, 5934110.4], [566605.38, 5934109.65], [566602.71, 5934108.92], [566600.9, 5934108.45], [566590.11, 5934105.88]]}}, {"type": "Feature", "properties": {"kind": "wall", "h": 1.5}, "geometry": {"type": "LineString", "coordinates": [[566585.75, 5934125.1], [566596.04, 5934127.47], [566596.86, 5934127.65], [566600.87, 5934128.61], [566601.87, 5934128.84], [566603.16, 5934129.02], [566603.93, 5934129.01], [566604.78, 5934129.0], [566605.54, 5934128.91], [566606.27, 5934128.75], [566606.96, 5934128.61], [566607.61, 5934128.35], [566608.42, 5934128.04], [566609.13, 5934127.65], [566609.86, 5934127.19], [566610.46, 5934126.78], [566611.08, 5934126.27], [566611.51, 5934125.8], [566611.99, 5934125.14], [566595.33, 5934121.3], [566587.06, 5934119.37]]}}, {"type": "Feature", "properties": {"kind": "wall", "h": 1.5}, "geometry": {"type": "LineString", "coordinates": [[567157.71, 5934687.84], [567170.79, 5934700.76], [567231.16, 5934756.19]]}}, {"type": "Feature", "properties": {"kind": "wall", "h": 1.5}, "geometry": {"type": "LineString", "coordinates": [[567658.21, 5934665.95], [567656.49, 5934666.16], [567654.39, 5934666.96], [567652.98, 5934667.93], [567651.71, 5934669.27], [567624.79, 5934705.26], [567622.32, 5934708.13], [567619.3, 5934710.95], [567616.21, 5934713.22], [567612.76, 5934715.22], [567603.96, 5934719.64]]}}, {"type": "Feature", "properties": {"kind": "wall", "h": 1.5}, "geometry": {"type": "LineString", "coordinates": [[567661.65, 5934666.05], [567662.47, 5934666.29], [567668.11, 5934666.61]]}}, {"type": "Feature", "properties": {"kind": "wall", "h": 1.5}, "geometry": {"type": "LineString", "coordinates": [[567752.58, 5934474.34], [567753.62, 5934476.55], [567743.23, 5934482.7], [567738.47, 5934486.55], [567729.25, 5934494.01], [567726.3, 5934497.29], [567715.87, 5934508.91], [567714.58, 5934508.23]]}}, {"type": "Feature", "properties": {"kind": "wall", "h": 1.5}, "geometry": {"type": "LineString", "coordinates": [[567618.53, 5934640.99], [567619.45, 5934643.59], [567618.52, 5934646.86], [567615.26, 5934651.06], [567613.76, 5934652.45], [567609.23, 5934656.65], [567600.41, 5934664.86], [567591.27, 5934675.54], [567586.5, 5934686.79], [567583.48, 5934692.1], [567579.28, 5934698.11], [567575.07, 5934694.82]]}}, {"type": "Feature", "properties": {"kind": "wall", "h": 1.5}, "geometry": {"type": "LineString", "coordinates": [[567587.56, 5934692.27], [567582.31, 5934700.28], [567601.54, 5934713.14], [567608.5, 5934710.84]]}}, {"type": "Feature", "properties": {"kind": "wall", "h": 0.5}, "geometry": {"type": "LineString", "coordinates": [[567693.8, 5934544.77], [567691.32, 5934542.82], [567708.23, 5934517.49], [567710.14, 5934519.41]]}}, {"type": "Feature", "properties": {"kind": "wall", "h": 0.7}, "geometry": {"type": "LineString", "coordinates": [[567684.75, 5934551.85], [567687.54, 5934554.0], [567688.22, 5934554.51], [567691.31, 5934549.6]]}}, {"type": "Feature", "properties": {"kind": "wall", "h": 0.5}, "geometry": {"type": "LineString", "coordinates": [[567714.15, 5934576.55], [567711.1, 5934571.03], [567700.97, 5934576.32], [567702.94, 5934579.75]]}}, {"type": "Feature", "properties": {"kind": "wall", "h": 0.5}, "geometry": {"type": "LineString", "coordinates": [[567728.23, 5934506.06], [567730.03, 5934505.03], [567732.0, 5934504.17], [567734.66, 5934504.12], [567736.78, 5934505.13], [567738.53, 5934506.48], [567739.39, 5934508.61], [567740.52, 5934511.11], [567742.27, 5934512.92], [567744.47, 5934513.75], [567746.87, 5934513.78], [567749.45, 5934513.55], [567752.22, 5934512.7], [567754.71, 5934512.47], [567757.1, 5934513.22], [567758.41, 5934514.65], [567759.0, 5934517.05], [567757.89, 5934519.87], [567756.34, 5934522.33], [567753.74, 5934524.6], [567751.4, 5934526.35], [567749.16, 5934528.08], [567748.07, 5934529.58], [567746.35, 5934531.95], [567744.38, 5934532.62], [567742.16, 5934533.03], [567740.04, 5934532.04], [567738.55, 5934530.32], [567737.08, 5934527.64], [567735.61, 5934524.52], [567734.31, 5934522.64], [567731.92, 5934521.19], [567729.27, 5934520.71], [567726.59, 5934521.64], [567725.06, 5934523.04], [567723.35, 5934524.7], [567721.63, 5934526.54], [567719.83, 5934528.46], [567716.71, 5934529.31], [567713.94, 5934529.97], [567711.43, 5934531.36], [567708.86, 5934534.07], [567707.09, 5934536.93], [567705.52, 5934540.75], [567705.48, 5934544.03], [567706.27, 5934547.37], [567707.65, 5934550.19], [567710.23, 5934553.15], [567712.93, 5934557.35], [567715.26, 5934561.54], [567717.08, 5934565.03], [567718.97, 5934569.41], [567720.69, 5934573.68], [567721.89, 5934576.45], [567723.57, 5934577.36], [567725.35, 5934577.12]]}}, {"type": "Feature", "properties": {"kind": "wall", "h": 0.5}, "geometry": {"type": "LineString", "coordinates": [[567664.31, 5934576.81], [567665.17, 5934575.59], [567671.27, 5934577.89], [567687.54, 5934554.0]]}}, {"type": "Feature", "properties": {"kind": "wall", "h": 0.5}, "geometry": {"type": "LineString", "coordinates": [[567639.9, 5934601.41], [567643.94, 5934595.17]]}}, {"type": "Feature", "properties": {"kind": "wall", "h": 0.5}, "geometry": {"type": "LineString", "coordinates": [[567646.63, 5934615.15], [567648.27, 5934612.85], [567647.68, 5934612.34], [567666.29, 5934585.12], [567662.08, 5934580.42], [567662.99, 5934578.98]]}}, {"type": "Feature", "properties": {"kind": "wall", "h": 1.5}, "geometry": {"type": "LineString", "coordinates": [[567637.19, 5934658.56], [567639.78, 5934657.8], [567641.84, 5934656.32], [567643.39, 5934654.04], [567643.88, 5934650.94], [567645.6, 5934648.3], [567647.49, 5934646.56], [567648.86, 5934644.19], [567649.08, 5934641.09], [567648.23, 5934638.33], [567646.57, 5934636.0], [567644.37, 5934634.73], [567641.72, 5934633.98], [567638.78, 5934634.3], [567636.37, 5934635.5], [567634.57, 5934637.07], [567633.56, 5934638.83], [567633.18, 5934640.86]]}}, {"type": "Feature", "properties": {"kind": "wall", "h": 1.5}, "geometry": {"type": "LineString", "coordinates": [[567655.96, 5934657.02], [567650.51, 5934652.82], [567663.43, 5934636.13]]}}, {"type": "Feature", "properties": {"kind": "wall", "h": 1.5}, "geometry": {"type": "LineString", "coordinates": [[566560.8, 5934641.49], [566547.31, 5934628.92]]}}, {"type": "Feature", "properties": {"kind": "wall", "h": 1.5}, "geometry": {"type": "LineString", "coordinates": [[566538.19, 5934631.59], [566537.15, 5934630.61], [566536.18, 5934630.16], [566535.1, 5934629.64], [566533.4, 5934629.83], [566531.64, 5934630.92], [566513.47, 5934645.94], [566508.24, 5934640.35]]}}, {"type": "Feature", "properties": {"kind": "retaining_wall", "h": 3.0}, "geometry": {"type": "LineString", "coordinates": [[566106.71, 5935384.87], [566107.69, 5935384.79], [566109.02, 5935385.21], [566110.12, 5935385.94], [566110.8, 5935387.81], [566111.44, 5935390.34], [566112.1, 5935393.36], [566112.56, 5935395.99], [566112.83, 5935398.47], [566112.59, 5935400.1], [566111.77, 5935401.34], [566110.21, 5935401.75]]}}, {"type": "Feature", "properties": {"kind": "retaining_wall", "h": 3.0}, "geometry": {"type": "LineString", "coordinates": [[566247.98, 5935643.56], [566248.81, 5935645.39], [566249.56, 5935647.08], [566250.6, 5935649.39], [566251.6, 5935651.61], [566252.59, 5935653.81]]}}, {"type": "Feature", "properties": {"kind": "wall", "h": 1.5}, "geometry": {"type": "LineString", "coordinates": [[567471.24, 5934814.95], [567469.29, 5934811.36], [567468.74, 5934807.31], [567469.66, 5934803.33], [567471.92, 5934799.92], [567474.7, 5934797.97], [567478.29, 5934796.64]]}}, {"type": "Feature", "properties": {"kind": "wall", "h": 0.5}, "geometry": {"type": "LineString", "coordinates": [[567316.65, 5934935.76], [567322.65, 5934938.68], [567327.21, 5934942.74], [567329.99, 5934946.68], [567329.97, 5934948.46], [567328.71, 5934949.14], [567325.96, 5934949.1], [567323.81, 5934950.23], [567322.64, 5934951.8], [567322.33, 5934954.37], [567322.12, 5934956.5], [567321.2, 5934958.61], [567318.82, 5934961.01], [567314.96, 5934963.71]]}}, {"type": "Feature", "properties": {"kind": "retaining_wall", "h": 3.0}, "geometry": {"type": "LineString", "coordinates": [[567674.07, 5934632.83], [567674.73, 5934630.26], [567667.84, 5934628.65], [567670.59, 5934617.04], [567675.35, 5934618.11]]}}, {"type": "Feature", "properties": {"kind": "wall", "h": 1.5}, "geometry": {"type": "LineString", "coordinates": [[567147.21, 5934815.71], [567153.71, 5934809.22], [567169.09, 5934793.49]]}}, {"type": "Feature", "properties": {"kind": "wall", "h": 0.5}, "geometry": {"type": "LineString", "coordinates": [[567764.14, 5934001.31], [567806.28, 5934021.38]]}}, {"type": "Feature", "properties": {"kind": "retaining_wall", "h": 3.0}, "geometry": {"type": "LineString", "coordinates": [[567155.99, 5934700.39], [567160.21, 5934704.68]]}}, {"type": "Feature", "properties": {"kind": "retaining_wall", "h": 3.0}, "geometry": {"type": "LineString", "coordinates": [[567164.65, 5934700.27], [567160.31, 5934696.01]]}}, {"type": "Feature", "properties": {"kind": "wall", "h": 1.5}, "geometry": {"type": "LineString", "coordinates": [[567363.41, 5934481.95], [567367.56, 5934485.21], [567371.42, 5934480.66], [567375.04, 5934476.38]]}}, {"type": "Feature", "properties": {"kind": "retaining_wall", "h": 3.0}, "geometry": {"type": "LineString", "coordinates": [[567817.02, 5934192.39], [567813.81, 5934190.87], [567812.1, 5934193.41], [567799.34, 5934182.91], [567798.42, 5934184.21], [567769.96, 5934163.99], [567703.72, 5934118.68], [567687.96, 5934108.2]]}}, {"type": "Feature", "properties": {"kind": "retaining_wall", "h": 3.0}, "geometry": {"type": "LineString", "coordinates": [[567697.31, 5934102.19], [567728.41, 5934122.78], [567763.71, 5934145.71], [567800.55, 5934169.15], [567817.83, 5934179.13]]}}, {"type": "Feature", "properties": {"kind": "retaining_wall", "h": 3.0}, "geometry": {"type": "LineString", "coordinates": [[567477.81, 5934596.74], [567463.2, 5934612.14]]}}, {"type": "Feature", "properties": {"kind": "wall", "h": 1.5}, "geometry": {"type": "LineString", "coordinates": [[567454.05, 5934633.83], [567449.47, 5934630.45]]}}, {"type": "Feature", "properties": {"kind": "wall", "h": 1.5}, "geometry": {"type": "LineString", "coordinates": [[567447.94, 5934632.59], [567452.48, 5934635.95]]}}, {"type": "Feature", "properties": {"kind": "retaining_wall", "h": 3.0}, "geometry": {"type": "LineString", "coordinates": [[566027.79, 5935579.92], [566028.19, 5935595.41], [566037.4, 5935595.17], [566037.0, 5935579.6]]}}, {"type": "Feature", "properties": {"kind": "wall", "h": 1.5}, "geometry": {"type": "LineString", "coordinates": [[567718.44, 5935385.39], [567693.83, 5935388.04]]}}, {"type": "Feature", "properties": {"kind": "wall", "h": 1.5}, "geometry": {"type": "LineString", "coordinates": [[567727.27, 5935384.18], [567732.91, 5935383.42]]}}, {"type": "Feature", "properties": {"kind": "retaining_wall", "h": 3.0}, "geometry": {"type": "LineString", "coordinates": [[566004.33, 5934260.8], [566000.0, 5934256.4]]}}, {"type": "Feature", "properties": {"kind": "retaining_wall", "h": 3.0}, "geometry": {"type": "LineString", "coordinates": [[567100.67, 5935174.97], [567098.86, 5935175.56], [567096.96, 5935175.44], [567095.24, 5935174.63], [567093.95, 5935173.24], [567093.22, 5935171.32], [567093.33, 5935169.26], [567094.24, 5935167.41]]}}, {"type": "Feature", "properties": {"kind": "wall", "h": 1.5}, "geometry": {"type": "LineString", "coordinates": [[567842.83, 5934877.71], [567839.9, 5934876.86], [567841.73, 5934870.74]]}}, {"type": "Feature", "properties": {"kind": "wall", "h": 1.5}, "geometry": {"type": "LineString", "coordinates": [[566981.71, 5934811.0], [566982.54, 5934810.33], [566983.72, 5934809.31]]}}, {"type": "Feature", "properties": {"kind": "wall", "h": 1.5}, "geometry": {"type": "LineString", "coordinates": [[566977.58, 5934816.2], [566976.72, 5934815.03]]}}, {"type": "Feature", "properties": {"kind": "wall", "h": 1.5}, "geometry": {"type": "LineString", "coordinates": [[567255.0, 5934326.98], [567257.95, 5934329.97]]}}, {"type": "Feature", "properties": {"kind": "wall", "h": 1.5}, "geometry": {"type": "LineString", "coordinates": [[567723.87, 5935237.42], [567738.9, 5935239.72], [567740.51, 5935239.3], [567742.74, 5935244.06], [567740.94, 5935245.0], [567738.6, 5935245.02], [567722.84, 5935242.15]]}}, {"type": "Feature", "properties": {"kind": "wall", "h": 1.5}, "geometry": {"type": "LineString", "coordinates": [[566049.96, 5934731.64], [566051.3, 5934735.76], [566049.7, 5934739.36], [566045.66, 5934740.7], [566041.44, 5934738.63], [566032.65, 5934742.22]]}}, {"type": "Feature", "properties": {"kind": "wall", "h": 1.5}, "geometry": {"type": "LineString", "coordinates": [[566105.78, 5934707.59], [566049.96, 5934731.64]]}}, {"type": "Feature", "properties": {"kind": "wall", "h": 1.5}, "geometry": {"type": "LineString", "coordinates": [[566030.65, 5934687.04], [566029.53, 5934683.29], [566024.95, 5934681.78], [566020.75, 5934683.4], [566019.09, 5934688.55], [566007.35, 5934693.09]]}}, {"type": "Feature", "properties": {"kind": "wall", "h": 1.5}, "geometry": {"type": "LineString", "coordinates": [[566086.4, 5934663.02], [566030.65, 5934687.04]]}}, {"type": "Feature", "properties": {"kind": "wall", "h": 1.5}, "geometry": {"type": "LineString", "coordinates": [[567599.79, 5935126.19], [567621.49, 5935142.99], [567627.17, 5935135.61], [567605.57, 5935118.42]]}}, {"type": "Feature", "properties": {"kind": "retaining_wall", "h": 3.0}, "geometry": {"type": "LineString", "coordinates": [[567808.49, 5934394.52], [567796.15, 5934421.3], [567803.74, 5934424.68], [567816.16, 5934398.1]]}}, {"type": "Feature", "properties": {"kind": "retaining_wall", "h": 3.0}, "geometry": {"type": "LineString", "coordinates": [[567547.22, 5934789.92], [567552.09, 5934795.36], [567554.88, 5934798.12], [567556.56, 5934798.2], [567558.09, 5934797.32], [567559.44, 5934796.16], [567560.19, 5934794.22], [567559.83, 5934792.83], [567552.55, 5934784.84]]}}, {"type": "Feature", "properties": {"kind": "wall", "h": 1.5}, "geometry": {"type": "LineString", "coordinates": [[566393.95, 5934481.4], [566390.3, 5934482.52], [566394.94, 5934478.02], [566393.95, 5934481.4]]}}, {"type": "Feature", "properties": {"kind": "wall", "h": 1.5}, "geometry": {"type": "LineString", "coordinates": [[566406.36, 5934473.91], [566405.32, 5934473.09], [566475.16, 5934405.58], [566476.32, 5934406.45], [566406.36, 5934473.91]]}}, {"type": "Feature", "properties": {"kind": "wall", "h": 1.5}, "geometry": {"type": "LineString", "coordinates": [[566395.39, 5934459.38], [566463.01, 5934393.31], [566461.97, 5934392.5], [566394.46, 5934458.56], [566395.39, 5934459.38]]}}, {"type": "Feature", "properties": {"kind": "wall", "h": 1.5}, "geometry": {"type": "LineString", "coordinates": [[566468.57, 5934400.82], [566428.08, 5934439.07], [566427.23, 5934438.22], [566467.76, 5934400.02], [566468.57, 5934400.82]]}}, {"type": "Feature", "properties": {"kind": "fence", "type": "railing", "h": 1.2}, "geometry": {"type": "LineString", "coordinates": [[566264.56, 5935735.71], [566280.44, 5935762.84], [566285.84, 5935774.83], [566288.59, 5935782.07], [566290.77, 5935790.43], [566293.52, 5935803.59], [566294.98, 5935813.63], [566295.74, 5935822.76], [566295.95, 5935834.29]]}}, {"type": "Feature", "properties": {"kind": "fence", "type": "railing", "h": 1.2}, "geometry": {"type": "LineString", "coordinates": [[567906.91, 5934075.98], [567922.74, 5934083.46]]}}, {"type": "Feature", "properties": {"kind": "fence", "type": "railing", "h": 1.2}, "geometry": {"type": "LineString", "coordinates": [[567892.66, 5934105.83], [567899.7, 5934109.25], [567908.18, 5934113.4]]}}, {"type": "Feature", "properties": {"kind": "fence", "type": "railing", "h": 1.2}, "geometry": {"type": "LineString", "coordinates": [[567776.01, 5934767.4], [567772.08, 5934773.18], [567769.05, 5934778.76]]}}, {"type": "Feature", "properties": {"kind": "fence", "type": "railing", "h": 1.2}, "geometry": {"type": "LineString", "coordinates": [[566757.66, 5934836.37], [566763.77, 5934829.08], [566777.73, 5934812.17], [566766.74, 5934802.71], [566784.22, 5934784.35], [566786.78, 5934782.06], [566798.12, 5934771.93], [566825.4, 5934747.56], [566826.67, 5934746.82]]}}, {"type": "Feature", "properties": {"kind": "fence", "type": "railing", "h": 1.2}, "geometry": {"type": "LineString", "coordinates": [[566877.62, 5934788.37], [566871.49, 5934793.82], [566845.48, 5934816.44], [566830.38, 5934831.65], [566825.71, 5934837.32], [566821.75, 5934833.54]]}}, {"type": "Feature", "properties": {"kind": "fence", "type": "railing", "h": 1.2}, "geometry": {"type": "LineString", "coordinates": [[566849.91, 5934726.11], [566839.67, 5934713.3], [566838.18, 5934711.25]]}}, {"type": "Feature", "properties": {"kind": "fence", "type": "railing", "h": 1.2}, "geometry": {"type": "LineString", "coordinates": [[567659.31, 5934055.74], [567687.41, 5934067.92], [567699.21, 5934041.15], [567633.45, 5934009.27], [567629.72, 5934010.63], [567623.64, 5934023.53], [567618.12, 5934034.94]]}}, {"type": "Feature", "properties": {"kind": "fence", "type": "railing", "h": 1.2}, "geometry": {"type": "LineString", "coordinates": [[567766.59, 5934078.99], [567768.38, 5934074.63], [567758.36, 5934069.77], [567744.06, 5934062.83], [567736.22, 5934059.03], [567713.31, 5934047.97], [567706.02, 5934044.53], [567699.21, 5934041.15]]}}, {"type": "Feature", "properties": {"kind": "fence", "type": "railing", "h": 1.2}, "geometry": {"type": "LineString", "coordinates": [[567895.04, 5934457.25], [567904.1, 5934496.51], [567900.16, 5934504.58]]}}, {"type": "Feature", "properties": {"kind": "fence", "type": "railing", "h": 1.2}, "geometry": {"type": "LineString", "coordinates": [[567889.38, 5934526.66], [567893.01, 5934519.22]]}}, {"type": "Feature", "properties": {"kind": "fence", "type": "mesh", "h": 1.2}, "geometry": {"type": "LineString", "coordinates": [[567900.16, 5934504.58], [567906.47, 5934507.64], [567909.61, 5934524.74], [567904.97, 5934534.24], [567897.11, 5934530.42], [567889.38, 5934526.66]]}}, {"type": "Feature", "properties": {"kind": "fence", "type": "railing", "h": 1.2}, "geometry": {"type": "LineString", "coordinates": [[567889.38, 5934526.66], [567881.17, 5934522.95], [567856.62, 5934511.29], [567856.23, 5934509.95], [567855.99, 5934508.9], [567857.92, 5934504.64]]}}, {"type": "Feature", "properties": {"kind": "fence", "type": "railing", "h": 1.2}, "geometry": {"type": "LineString", "coordinates": [[566908.18, 5934573.81], [566896.69, 5934562.34], [566922.45, 5934543.47], [566949.29, 5934551.39], [566986.1, 5934565.03], [566987.14, 5934574.87], [566970.83, 5934587.45]]}}, {"type": "Feature", "properties": {"kind": "fence", "type": "railing", "h": 1.2}, "geometry": {"type": "LineString", "coordinates": [[566956.49, 5934539.94], [566952.54, 5934537.84], [566951.52, 5934537.28]]}}, {"type": "Feature", "properties": {"kind": "fence", "type": "railing", "h": 1.2}, "geometry": {"type": "LineString", "coordinates": [[566934.2, 5934527.03], [566942.25, 5934529.97]]}}, {"type": "Feature", "properties": {"kind": "fence", "type": "railing", "h": 1.2}, "geometry": {"type": "LineString", "coordinates": [[567157.46, 5934450.85], [567144.17, 5934468.0]]}}, {"type": "Feature", "properties": {"kind": "fence", "type": "railing", "h": 1.2}, "geometry": {"type": "LineString", "coordinates": [[567103.81, 5934782.6], [567105.51, 5934780.93], [567107.72, 5934778.77], [567108.03, 5934779.1], [567109.0, 5934778.16], [567111.32, 5934775.88], [567113.94, 5934778.53], [567117.17, 5934775.36]]}}, {"type": "Feature", "properties": {"kind": "fence", "type": "railing", "h": 1.2}, "geometry": {"type": "LineString", "coordinates": [[566905.36, 5934593.14], [566912.33, 5934601.95]]}}, {"type": "Feature", "properties": {"kind": "fence", "type": "railing", "h": 1.2}, "geometry": {"type": "LineString", "coordinates": [[567147.88, 5934443.49], [567134.33, 5934460.9]]}}, {"type": "Feature", "properties": {"kind": "fence", "type": "railing", "h": 1.2}, "geometry": {"type": "LineString", "coordinates": [[566919.85, 5934611.44], [566921.22, 5934612.98], [566926.81, 5934620.39]]}}, {"type": "Feature", "properties": {"kind": "fence", "type": "railing", "h": 1.2}, "geometry": {"type": "LineString", "coordinates": [[567137.9, 5934436.09], [567124.84, 5934453.48]]}}, {"type": "Feature", "properties": {"kind": "fence", "type": "railing", "h": 1.2}, "geometry": {"type": "LineString", "coordinates": [[567418.87, 5934818.02], [567438.32, 5934800.01], [567416.89, 5934776.48], [567420.91, 5934772.42]]}}, {"type": "Feature", "properties": {"kind": "fence", "type": "railing", "h": 1.2}, "geometry": {"type": "LineString", "coordinates": [[567301.18, 5934642.8], [567304.89, 5934646.4], [567309.33, 5934649.32], [567316.13, 5934648.0]]}}, {"type": "Feature", "properties": {"kind": "fence", "type": "railing", "h": 1.2}, "geometry": {"type": "LineString", "coordinates": [[566000.0, 5935296.03], [566034.84, 5935294.09], [566055.12, 5935291.61], [566065.75, 5935289.79], [566063.64, 5935283.13], [566061.8, 5935281.0], [566061.1, 5935278.9], [566061.99, 5935278.71], [566056.36, 5935262.62], [566055.59, 5935262.77], [566054.73, 5935260.53], [566053.92, 5935258.43], [566054.73, 5935258.11], [566048.44, 5935240.18], [566040.42, 5935242.75], [566039.52, 5935240.38], [566038.22, 5935236.83], [566004.83, 5935248.89], [566000.0, 5935253.95]]}}, {"type": "Feature", "properties": {"kind": "fence", "type": "railing", "h": 1.2}, "geometry": {"type": "LineString", "coordinates": [[567673.12, 5934000.0], [567686.36, 5934006.4]]}}, {"type": "Feature", "properties": {"kind": "fence", "type": "railing", "h": 1.2}, "geometry": {"type": "LineString", "coordinates": [[567937.03, 5934002.72], [567931.19, 5934000.0]]}}, {"type": "Feature", "properties": {"kind": "fence", "type": "railing", "h": 1.2}, "geometry": {"type": "LineString", "coordinates": [[567494.82, 5934093.23], [567488.45, 5934108.16], [567484.68, 5934106.53], [567484.35, 5934103.57], [567418.86, 5934076.12], [567439.88, 5934026.62], [567453.11, 5934032.27], [567465.72, 5934037.66], [567491.09, 5934048.63], [567515.74, 5934059.46], [567514.12, 5934063.26], [567521.8, 5934066.51], [567527.09, 5934068.71], [567562.5, 5934096.15], [567562.67, 5934096.86], [567553.47, 5934115.79], [567546.92, 5934129.9], [567538.78, 5934126.26], [567536.42, 5934131.67], [567492.23, 5934111.93], [567499.32, 5934095.17]]}}, {"type": "Feature", "properties": {"kind": "fence", "type": "railing", "h": 1.2}, "geometry": {"type": "LineString", "coordinates": [[566518.39, 5934836.04], [566535.03, 5934847.6], [566531.83, 5934852.14]]}}, {"type": "Feature", "properties": {"kind": "fence", "type": "railing", "h": 1.2}, "geometry": {"type": "LineString", "coordinates": [[566490.5, 5934779.56], [566494.07, 5934818.52], [566495.0, 5934821.84], [566508.52, 5934829.55]]}}, {"type": "Feature", "properties": {"kind": "fence", "type": "railing", "h": 1.2}, "geometry": {"type": "LineString", "coordinates": [[567767.08, 5935007.0], [567790.21, 5935023.2]]}}, {"type": "Feature", "properties": {"kind": "fence", "type": "railing", "h": 1.2}, "geometry": {"type": "LineString", "coordinates": [[567832.76, 5935339.62], [567849.25, 5935341.9]]}}, {"type": "Feature", "properties": {"kind": "fence", "type": "railing", "h": 1.2}, "geometry": {"type": "LineString", "coordinates": [[567118.21, 5934448.65], [567124.84, 5934453.48], [567134.33, 5934460.9], [567144.17, 5934468.0], [567150.93, 5934473.19], [567154.62, 5934468.12]]}}, {"type": "Feature", "properties": {"kind": "fence", "type": "railing", "h": 1.2}, "geometry": {"type": "LineString", "coordinates": [[567151.48, 5934806.88], [567152.86, 5934808.34], [567153.71, 5934809.22]]}}, {"type": "Feature", "properties": {"kind": "fence", "type": "railing", "h": 1.2}, "geometry": {"type": "LineString", "coordinates": [[567169.09, 5934793.49], [567170.51, 5934792.17], [567173.1, 5934789.57]]}}, {"type": "Feature", "properties": {"kind": "fence", "type": "railing", "h": 1.2}, "geometry": {"type": "LineString", "coordinates": [[567185.14, 5934782.95], [567182.34, 5934780.06]]}}, {"type": "Feature", "properties": {"kind": "fence", "type": "railing", "h": 1.2}, "geometry": {"type": "LineString", "coordinates": [[567208.65, 5934764.49], [567209.76, 5934764.42]]}}, {"type": "Feature", "properties": {"kind": "fence", "type": "railing", "h": 1.2}, "geometry": {"type": "LineString", "coordinates": [[567103.57, 5934799.11], [567102.06, 5934800.68], [567097.27, 5934805.64], [567093.36, 5934801.9], [567091.92, 5934803.41]]}}, {"type": "Feature", "properties": {"kind": "fence", "type": "railing", "h": 1.2}, "geometry": {"type": "LineString", "coordinates": [[567713.67, 5934369.78], [567711.67, 5934369.62], [567709.95, 5934368.77], [567708.59, 5934367.58], [567708.06, 5934366.61], [567708.01, 5934364.88], [567709.32, 5934360.51], [567710.17, 5934358.51], [567711.08, 5934357.84], [567711.77, 5934357.58], [567713.63, 5934357.87], [567717.27, 5934359.24], [567718.28, 5934360.42], [567718.54, 5934361.66], [567718.17, 5934363.93], [567716.31, 5934368.11], [567715.33, 5934369.36], [567714.48, 5934369.7], [567713.67, 5934369.78]]}}, {"type": "Feature", "properties": {"kind": "fence", "type": "railing", "h": 1.2}, "geometry": {"type": "LineString", "coordinates": [[567670.11, 5934381.63], [567668.7, 5934380.59], [567668.23, 5934379.49], [567668.21, 5934377.53], [567668.9, 5934375.25], [567669.92, 5934373.55], [567671.17, 5934373.07], [567672.38, 5934373.27], [567676.07, 5934374.48], [567676.68, 5934375.13], [567676.78, 5934375.55], [567674.49, 5934381.68], [567673.89, 5934382.34], [567673.17, 5934382.51], [567671.81, 5934382.29], [567670.11, 5934381.63]]}}, {"type": "Feature", "properties": {"kind": "fence", "type": "railing", "h": 1.2}, "geometry": {"type": "LineString", "coordinates": [[567687.32, 5934358.77], [567683.59, 5934357.93], [567681.17, 5934356.66], [567680.27, 5934355.73], [567680.15, 5934354.96], [567682.61, 5934347.9], [567683.12, 5934347.28], [567683.71, 5934347.16], [567684.42, 5934347.13], [567689.74, 5934350.12], [567692.16, 5934352.48], [567692.87, 5934354.44], [567692.69, 5934355.92], [567692.0, 5934357.48], [567690.98, 5934358.5], [567690.07, 5934358.73], [567687.32, 5934358.77]]}}, {"type": "Feature", "properties": {"kind": "fence", "type": "railing", "h": 1.2}, "geometry": {"type": "LineString", "coordinates": [[567761.56, 5934421.63], [567758.6, 5934421.11], [567757.16, 5934420.4], [567755.63, 5934419.24], [567754.86, 5934417.68], [567754.82, 5934415.79], [567755.79, 5934412.75], [567757.69, 5934407.96], [567758.96, 5934405.63], [567760.91, 5934403.57], [567763.58, 5934403.02], [567766.61, 5934403.34], [567768.8, 5934404.34], [567769.88, 5934406.22], [567769.78, 5934408.21], [567769.18, 5934411.02], [567768.24, 5934414.38], [567766.67, 5934418.42], [567765.25, 5934420.74], [567763.72, 5934421.61], [567761.56, 5934421.63]]}}, {"type": "Feature", "properties": {"kind": "fence", "type": "railing", "h": 1.2}, "geometry": {"type": "LineString", "coordinates": [[567674.18, 5934398.75], [567675.98, 5934400.31], [567678.75, 5934404.34], [567679.89, 5934406.63], [567680.27, 5934409.04], [567679.81, 5934411.39], [567678.35, 5934412.66], [567675.19, 5934412.27], [567668.87, 5934410.39], [567660.43, 5934406.95], [567658.36, 5934405.22], [567657.32, 5934403.07], [567657.29, 5934401.94], [567657.92, 5934399.58], [567658.99, 5934397.15], [567660.43, 5934394.98], [567661.3, 5934394.33], [567663.26, 5934394.03], [567665.67, 5934394.34], [567668.38, 5934395.54], [567669.21, 5934396.68], [567674.18, 5934398.75]]}}, {"type": "Feature", "properties": {"kind": "fence", "type": "railing", "h": 1.2}, "geometry": {"type": "LineString", "coordinates": [[567304.71, 5934429.63], [567305.66, 5934428.45], [567315.43, 5934416.12], [567330.35, 5934426.92]]}}, {"type": "Feature", "properties": {"kind": "fence", "type": "railing", "h": 1.2}, "geometry": {"type": "LineString", "coordinates": [[566675.73, 5934314.99], [566706.08, 5934326.2], [566706.6, 5934326.25], [566707.23, 5934325.99], [566707.58, 5934325.45], [566710.23, 5934318.33], [566710.23, 5934317.8], [566710.01, 5934317.22], [566709.59, 5934316.8], [566679.32, 5934305.57], [566675.73, 5934314.99]]}}, {"type": "Feature", "properties": {"kind": "fence", "type": "railing", "h": 1.2}, "geometry": {"type": "LineString", "coordinates": [[566677.46, 5934304.89], [566648.47, 5934294.33], [566647.82, 5934294.34], [566647.15, 5934294.59], [566646.57, 5934295.06], [566643.96, 5934302.18], [566643.97, 5934302.71], [566644.11, 5934303.2], [566644.55, 5934303.69], [566673.95, 5934314.34], [566677.46, 5934304.89]]}}, {"type": "Feature", "properties": {"kind": "fence", "type": "railing", "h": 1.2}, "geometry": {"type": "LineString", "coordinates": [[566795.51, 5934186.48], [566796.94, 5934180.33], [566792.43, 5934179.29], [566790.99, 5934185.44]]}}, {"type": "Feature", "properties": {"kind": "fence", "type": "railing", "h": 1.2}, "geometry": {"type": "LineString", "coordinates": [[566766.11, 5934434.11], [566766.01, 5934426.73], [566767.3, 5934426.72], [566769.13, 5934426.69], [566770.17, 5934426.67], [566770.27, 5934434.05]]}}, {"type": "Feature", "properties": {"kind": "fence", "type": "railing", "h": 1.2}, "geometry": {"type": "LineString", "coordinates": [[566804.77, 5934408.76], [566806.37, 5934399.87], [566804.66, 5934399.56], [566802.97, 5934399.26], [566801.36, 5934408.19]]}}, {"type": "Feature", "properties": {"kind": "fence", "type": "railing", "h": 1.2}, "geometry": {"type": "LineString", "coordinates": [[566753.51, 5934351.28], [566752.27, 5934359.16], [566753.29, 5934359.32], [566755.08, 5934359.6], [566756.21, 5934359.79], [566757.44, 5934351.94]]}}, {"type": "Feature", "properties": {"kind": "fence", "type": "railing", "h": 1.2}, "geometry": {"type": "LineString", "coordinates": [[567162.18, 5934181.79], [567174.02, 5934183.05], [567180.06, 5934141.83], [567164.03, 5934139.93], [567163.34, 5934153.65], [567162.53, 5934158.98], [567159.71, 5934165.41]]}}, {"type": "Feature", "properties": {"kind": "fence", "type": "railing", "h": 1.2}, "geometry": {"type": "LineString", "coordinates": [[566451.13, 5934349.73], [566456.15, 5934354.6], [566456.89, 5934353.83], [566458.37, 5934352.33], [566459.11, 5934351.58], [566454.08, 5934346.71]]}}, {"type": "Feature", "properties": {"kind": "fence", "type": "railing", "h": 1.2}, "geometry": {"type": "LineString", "coordinates": [[566457.32, 5934328.61], [566462.35, 5934333.48], [566462.99, 5934332.81], [566464.32, 5934331.48], [566464.94, 5934330.82], [566459.91, 5934325.95]]}}, {"type": "Feature", "properties": {"kind": "fence", "type": "railing", "h": 1.2}, "geometry": {"type": "LineString", "coordinates": [[566933.46, 5934211.24], [566927.23, 5934206.98], [566924.51, 5934210.79], [566930.8, 5934215.1]]}}, {"type": "Feature", "properties": {"kind": "fence", "type": "railing", "h": 1.2}, "geometry": {"type": "LineString", "coordinates": [[567920.01, 5934937.26], [567926.53, 5934939.86], [567927.8, 5934936.68], [567921.28, 5934934.08]]}}, {"type": "Feature", "properties": {"kind": "fence", "type": "railing", "h": 1.2}, "geometry": {"type": "LineString", "coordinates": [[567978.31, 5934968.6], [567972.62, 5934964.68], [567974.58, 5934961.86], [567980.27, 5934965.77]]}}, {"type": "Feature", "properties": {"kind": "fence", "type": "railing", "h": 1.2}, "geometry": {"type": "LineString", "coordinates": [[567924.87, 5934907.01], [567931.4, 5934908.69], [567932.22, 5934905.49], [567925.69, 5934903.83]]}}, {"type": "Feature", "properties": {"kind": "fence", "type": "railing", "h": 1.2}, "geometry": {"type": "LineString", "coordinates": [[567964.1, 5934973.86], [567965.62, 5934966.78], [567962.29, 5934966.07], [567960.77, 5934973.16]]}}, {"type": "Feature", "properties": {"kind": "fence", "type": "railing", "h": 1.2}, "geometry": {"type": "LineString", "coordinates": [[567943.79, 5934896.59], [567942.44, 5934902.9], [567945.64, 5934903.58], [567946.99, 5934897.27]]}}, {"type": "Feature", "properties": {"kind": "fence", "type": "railing", "h": 1.2}, "geometry": {"type": "LineString", "coordinates": [[567933.32, 5934957.83], [567934.39, 5934950.86], [567937.64, 5934951.36], [567936.57, 5934958.32]]}}, {"type": "Feature", "properties": {"kind": "fence", "type": "railing", "h": 1.2}, "geometry": {"type": "LineString", "coordinates": [[567560.4, 5934737.38], [567554.66, 5934732.68], [567556.8, 5934730.08], [567562.53, 5934734.78]]}}, {"type": "Feature", "properties": {"kind": "fence", "type": "railing", "h": 1.2}, "geometry": {"type": "LineString", "coordinates": [[567422.9, 5934626.81], [567417.1, 5934622.26], [567418.68, 5934620.26], [567424.47, 5934624.82]]}}, {"type": "Feature", "properties": {"kind": "fence", "type": "railing", "h": 1.2}, "geometry": {"type": "LineString", "coordinates": [[567580.79, 5934712.28], [567574.86, 5934707.82], [567576.89, 5934705.13], [567582.82, 5934709.59]]}}, {"type": "Feature", "properties": {"kind": "fence", "type": "railing", "h": 1.2}, "geometry": {"type": "LineString", "coordinates": [[567403.03, 5934611.43], [567409.04, 5934616.07], [567410.67, 5934613.97], [567404.65, 5934609.34]]}}, {"type": "Feature", "properties": {"kind": "fence", "type": "railing", "h": 1.2}, "geometry": {"type": "LineString", "coordinates": [[567419.99, 5934590.27], [567426.0, 5934594.91], [567427.63, 5934592.81], [567421.61, 5934588.17]]}}, {"type": "Feature", "properties": {"kind": "fence", "type": "railing", "h": 1.2}, "geometry": {"type": "LineString", "coordinates": [[567439.81, 5934605.7], [567434.02, 5934601.14], [567435.59, 5934599.15], [567441.39, 5934603.71]]}}, {"type": "Feature", "properties": {"kind": "fence", "type": "railing", "h": 1.2}, "geometry": {"type": "LineString", "coordinates": [[567386.45, 5935360.7], [567391.98, 5935367.7], [567384.94, 5935373.23], [567379.41, 5935366.25], [567386.45, 5935360.7]]}}, {"type": "Feature", "properties": {"kind": "fence", "type": "railing", "h": 1.2}, "geometry": {"type": "LineString", "coordinates": [[567374.09, 5935360.87], [567376.93, 5935364.35], [567378.79, 5935366.78]]}}, {"type": "Feature", "properties": {"kind": "fence", "type": "railing", "h": 1.2}, "geometry": {"type": "LineString", "coordinates": [[567569.0, 5934693.33], [567575.07, 5934694.82]]}}, {"type": "Feature", "properties": {"kind": "fence", "type": "railing", "h": 1.2}, "geometry": {"type": "LineString", "coordinates": [[567609.71, 5934652.5], [567519.29, 5934581.47]]}}, {"type": "Feature", "properties": {"kind": "fence", "type": "railing", "h": 1.2}, "geometry": {"type": "LineString", "coordinates": [[567115.13, 5934180.74], [567117.38, 5934176.31], [567118.64, 5934167.02], [567118.54, 5934163.06], [567118.1, 5934160.53], [567116.24, 5934155.56], [567113.61, 5934151.39], [567110.22, 5934147.51], [567106.15, 5934143.09], [567100.79, 5934138.42], [567095.82, 5934135.39], [567091.64, 5934132.79], [567086.32, 5934129.14], [567073.98, 5934120.27], [567052.66, 5934110.92], [567046.58, 5934110.99], [567026.74, 5934104.86], [567020.04, 5934106.46], [567000.52, 5934103.12], [566996.06, 5934104.92], [566975.61, 5934106.56], [566970.72, 5934107.35], [566969.12, 5934109.29], [566968.75, 5934111.33], [566967.87, 5934115.18], [566960.82, 5934114.64], [566952.02, 5934118.05], [566953.64, 5934122.55], [566946.88, 5934125.4], [566938.78, 5934129.17], [566933.28, 5934132.5], [566926.72, 5934136.48], [566918.74, 5934142.58], [566911.62, 5934147.87]]}}, {"type": "Feature", "properties": {"kind": "fence", "type": "railing", "h": 1.2}, "geometry": {"type": "LineString", "coordinates": [[566619.79, 5934572.11], [566632.35, 5934577.38]]}}, {"type": "Feature", "properties": {"kind": "fence", "type": "railing", "h": 1.2}, "geometry": {"type": "LineString", "coordinates": [[566623.92, 5934561.92], [566637.41, 5934566.86], [566635.28, 5934571.78]]}}, {"type": "Feature", "properties": {"kind": "fence", "type": "railing", "h": 1.2}, "geometry": {"type": "LineString", "coordinates": [[566629.19, 5934542.01], [566646.54, 5934545.79], [566647.44, 5934541.8]]}}, {"type": "Feature", "properties": {"kind": "fence", "type": "railing", "h": 1.2}, "geometry": {"type": "LineString", "coordinates": [[566631.79, 5934529.88], [566649.62, 5934533.35], [566648.76, 5934537.82]]}}, {"type": "Feature", "properties": {"kind": "fence", "type": "railing", "h": 1.2}, "geometry": {"type": "LineString", "coordinates": [[566641.58, 5934510.04], [566643.91, 5934507.42], [566654.29, 5934509.98]]}}, {"type": "Feature", "properties": {"kind": "fence", "type": "railing", "h": 1.2}, "geometry": {"type": "LineString", "coordinates": [[566654.29, 5934509.98], [566657.7, 5934492.96]]}}, {"type": "Feature", "properties": {"kind": "fence", "type": "railing", "h": 1.2}, "geometry": {"type": "LineString", "coordinates": [[566638.0, 5934526.34], [566650.64, 5934528.97], [566654.29, 5934509.98]]}}, {"type": "Feature", "properties": {"kind": "fence", "type": "railing", "h": 1.2}, "geometry": {"type": "LineString", "coordinates": [[566726.44, 5934389.13], [566722.72, 5934398.85], [566720.0, 5934405.99]]}}, {"type": "Feature", "properties": {"kind": "fence", "type": "railing", "h": 1.2}, "geometry": {"type": "LineString", "coordinates": [[566040.42, 5935242.75], [566042.34, 5935248.46]]}}, {"type": "Feature", "properties": {"kind": "fence", "type": "railing", "h": 1.2}, "geometry": {"type": "LineString", "coordinates": [[566016.87, 5935041.21], [566013.55, 5935042.24], [566022.11, 5935066.37], [566025.31, 5935067.19], [566027.2, 5935072.13], [566028.12, 5935073.3], [566029.11, 5935074.57]]}}, {"type": "Feature", "properties": {"kind": "fence", "type": "railing", "h": 1.2}, "geometry": {"type": "LineString", "coordinates": [[566249.06, 5935711.59], [566261.52, 5935730.82]]}}, {"type": "Feature", "properties": {"kind": "fence", "type": "railing", "h": 1.2}, "geometry": {"type": "LineString", "coordinates": [[566154.81, 5935681.47], [566192.91, 5935647.79], [566196.37, 5935648.08], [566216.19, 5935669.89], [566227.61, 5935683.27], [566246.61, 5935708.17]]}}, {"type": "Feature", "properties": {"kind": "fence", "type": "railing", "h": 1.2}, "geometry": {"type": "LineString", "coordinates": [[567744.06, 5934062.83], [567739.28, 5934073.0]]}}, {"type": "Feature", "properties": {"kind": "fence", "type": "railing", "h": 1.2}, "geometry": {"type": "LineString", "coordinates": [[566682.03, 5934284.62], [566681.68, 5934285.62]]}}, {"type": "Feature", "properties": {"kind": "fence", "type": "railing", "h": 1.2}, "geometry": {"type": "LineString", "coordinates": [[566692.58, 5934287.6], [566692.59, 5934287.0], [566692.36, 5934286.44], [566691.86, 5934286.01], [566683.95, 5934283.18], [566683.37, 5934283.19], [566682.78, 5934283.37], [566682.35, 5934283.8]]}}, {"type": "Feature", "properties": {"kind": "fence", "type": "railing", "h": 1.2}, "geometry": {"type": "LineString", "coordinates": [[566692.32, 5934288.33], [566691.96, 5934289.37]]}}, {"type": "Feature", "properties": {"kind": "fence", "type": "railing", "h": 1.2}, "geometry": {"type": "LineString", "coordinates": [[566711.93, 5934321.75], [566713.9, 5934316.44], [566710.98, 5934315.38]]}}, {"type": "Feature", "properties": {"kind": "fence", "type": "railing", "h": 1.2}, "geometry": {"type": "LineString", "coordinates": [[566707.39, 5934328.74], [566709.11, 5934329.38], [566711.08, 5934324.06]]}}, {"type": "Feature", "properties": {"kind": "fence", "type": "railing", "h": 1.2}, "geometry": {"type": "LineString", "coordinates": [[566643.06, 5934296.47], [566645.03, 5934291.13], [566646.41, 5934291.66]]}}, {"type": "Feature", "properties": {"kind": "fence", "type": "railing", "h": 1.2}, "geometry": {"type": "LineString", "coordinates": [[566641.56, 5934304.51], [566640.26, 5934304.03], [566642.26, 5934298.61]]}}, {"type": "Feature", "properties": {"kind": "fence", "type": "railing", "h": 1.2}, "geometry": {"type": "LineString", "coordinates": [[566671.7, 5934167.81], [566663.69, 5934166.06]]}}, {"type": "Feature", "properties": {"kind": "fence", "type": "railing", "h": 1.2}, "geometry": {"type": "LineString", "coordinates": [[566674.69, 5934168.46], [566691.16, 5934172.06]]}}, {"type": "Feature", "properties": {"kind": "fence", "type": "railing", "h": 1.2}, "geometry": {"type": "LineString", "coordinates": [[566766.33, 5934188.46], [566775.17, 5934190.38]]}}, {"type": "Feature", "properties": {"kind": "fence", "type": "railing", "h": 1.2}, "geometry": {"type": "LineString", "coordinates": [[566745.66, 5934183.97], [566761.81, 5934187.48]]}}, {"type": "Feature", "properties": {"kind": "fence", "type": "railing", "h": 1.2}, "geometry": {"type": "LineString", "coordinates": [[566726.5, 5934179.76], [566741.67, 5934183.07]]}}, {"type": "Feature", "properties": {"kind": "fence", "type": "railing", "h": 1.2}, "geometry": {"type": "LineString", "coordinates": [[566695.03, 5934172.9], [566722.59, 5934178.91]]}}, {"type": "Feature", "properties": {"kind": "fence", "type": "railing", "h": 1.2}, "geometry": {"type": "LineString", "coordinates": [[566712.02, 5934294.27], [566720.67, 5934297.43]]}}, {"type": "Feature", "properties": {"kind": "fence", "type": "railing", "h": 1.2}, "geometry": {"type": "LineString", "coordinates": [[566693.4, 5934287.46], [566708.3, 5934292.9]]}}, {"type": "Feature", "properties": {"kind": "fence", "type": "railing", "h": 1.2}, "geometry": {"type": "LineString", "coordinates": [[566662.7, 5934276.27], [566689.74, 5934286.17]]}}, {"type": "Feature", "properties": {"kind": "fence", "type": "railing", "h": 1.2}, "geometry": {"type": "LineString", "coordinates": [[566644.18, 5934269.54], [566657.8, 5934274.5]]}}, {"type": "Feature", "properties": {"kind": "fence", "type": "railing", "h": 1.2}, "geometry": {"type": "LineString", "coordinates": [[566633.56, 5934265.65], [566640.74, 5934268.27]]}}, {"type": "Feature", "properties": {"kind": "fence", "type": "rail", "h": 1.0}, "geometry": {"type": "LineString", "coordinates": [[567679.1, 5934268.37], [567706.3, 5934275.56]]}}, {"type": "Feature", "properties": {"kind": "fence", "type": "rail", "h": 1.0}, "geometry": {"type": "LineString", "coordinates": [[567674.78, 5934265.14], [567682.64, 5934267.39]]}}, {"type": "Feature", "properties": {"kind": "fence", "type": "rail", "h": 1.0}, "geometry": {"type": "LineString", "coordinates": [[567650.0, 5934260.59], [567676.88, 5934267.78]]}}, {"type": "Feature", "properties": {"kind": "fence", "type": "railing", "h": 1.2}, "geometry": {"type": "LineString", "coordinates": [[566568.86, 5934372.23], [566566.97, 5934373.05], [566565.56, 5934381.27]]}}, {"type": "Feature", "properties": {"kind": "fence", "type": "railing", "h": 1.2}, "geometry": {"type": "LineString", "coordinates": [[566478.6, 5934346.58], [566473.91, 5934342.0], [566474.69, 5934341.2], [566475.4, 5934340.48], [566480.21, 5934345.16]]}}, {"type": "Feature", "properties": {"kind": "fence", "type": "railing", "h": 1.2}, "geometry": {"type": "LineString", "coordinates": [[566594.47, 5934291.64], [566590.41, 5934294.62], [566592.85, 5934297.89], [566596.89, 5934294.92]]}}, {"type": "Feature", "properties": {"kind": "fence", "type": "railing", "h": 1.2}, "geometry": {"type": "LineString", "coordinates": [[566746.6, 5934392.03], [566732.74, 5934389.52]]}}, {"type": "Feature", "properties": {"kind": "fence", "type": "railing", "h": 1.2}, "geometry": {"type": "LineString", "coordinates": [[566717.72, 5934392.57], [566712.29, 5934394.37], [566710.27, 5934404.51]]}}, {"type": "Feature", "properties": {"kind": "fence", "type": "railing", "h": 1.2}, "geometry": {"type": "LineString", "coordinates": [[566854.87, 5934146.6], [566846.84, 5934145.52]]}}, {"type": "Feature", "properties": {"kind": "fence", "type": "railing", "h": 1.2}, "geometry": {"type": "LineString", "coordinates": [[566919.82, 5934154.66], [566912.79, 5934153.72]]}}, {"type": "Feature", "properties": {"kind": "fence", "type": "railing", "h": 1.2}, "geometry": {"type": "LineString", "coordinates": [[566924.68, 5934152.25], [566931.67, 5934153.22], [566931.55, 5934154.14], [566931.35, 5934155.51], [566931.28, 5934156.15], [566924.3, 5934155.2]]}}, {"type": "Feature", "properties": {"kind": "fence", "type": "railing", "h": 1.2}, "geometry": {"type": "LineString", "coordinates": [[566947.99, 5934162.7], [566941.0, 5934161.9], [566941.53, 5934156.96], [566948.56, 5934157.77]]}}, {"type": "Feature", "properties": {"kind": "fence", "type": "railing", "h": 1.2}, "geometry": {"type": "LineString", "coordinates": [[566808.83, 5934199.71], [566815.31, 5934201.13], [566816.32, 5934196.64], [566809.81, 5934195.22]]}}, {"type": "Feature", "properties": {"kind": "fence", "type": "railing", "h": 1.2}, "geometry": {"type": "LineString", "coordinates": [[567550.86, 5934521.71], [567548.8, 5934519.87], [567564.36, 5934502.87], [567565.59, 5934504.05], [567566.5, 5934503.02], [567567.42, 5934501.95], [567566.11, 5934500.94], [567575.4, 5934491.25], [567582.81, 5934497.3]]}}, {"type": "Feature", "properties": {"kind": "fence", "type": "railing", "h": 1.2}, "geometry": {"type": "LineString", "coordinates": [[567893.5, 5934541.0], [567888.65, 5934538.73], [567882.8, 5934536.01]]}}, {"type": "Feature", "properties": {"kind": "fence", "type": "railing", "h": 1.2}, "geometry": {"type": "LineString", "coordinates": [[567788.48, 5934000.0], [567923.1, 5934064.37]]}}, {"type": "Feature", "properties": {"kind": "fence", "type": "railing", "h": 1.2}, "geometry": {"type": "LineString", "coordinates": [[567209.76, 5934764.42], [567214.24, 5934763.99]]}}, {"type": "Feature", "properties": {"kind": "fence", "type": "railing", "h": 1.2}, "geometry": {"type": "LineString", "coordinates": [[566892.51, 5934554.18], [566896.69, 5934562.34]]}}, {"type": "Feature", "properties": {"kind": "fence", "type": "railing", "h": 1.2}, "geometry": {"type": "LineString", "coordinates": [[566922.45, 5934543.47], [566919.15, 5934540.99]]}}, {"type": "Feature", "properties": {"kind": "fence", "type": "railing", "h": 1.2}, "geometry": {"type": "LineString", "coordinates": [[567812.1, 5934193.41], [567851.43, 5934229.0]]}}, {"type": "Feature", "properties": {"kind": "fence", "type": "railing", "h": 1.2}, "geometry": {"type": "LineString", "coordinates": [[567781.45, 5934563.74], [567786.59, 5934567.6], [567790.35, 5934569.23]]}}, {"type": "Feature", "properties": {"kind": "fence", "type": "railing", "h": 1.2}, "geometry": {"type": "LineString", "coordinates": [[567805.72, 5934575.92], [567806.69, 5934576.35], [567807.01, 5934576.5]]}}, {"type": "Feature", "properties": {"kind": "fence", "type": "railing", "h": 1.2}, "geometry": {"type": "LineString", "coordinates": [[567843.65, 5935297.46], [567846.42, 5935281.05], [567866.72, 5935284.91]]}}, {"type": "Feature", "properties": {"kind": "fence", "type": "railing", "h": 1.2}, "geometry": {"type": "LineString", "coordinates": [[567835.87, 5935296.2], [567843.65, 5935297.46], [567864.06, 5935300.77]]}}, {"type": "Feature", "properties": {"kind": "fence", "type": "railing", "h": 1.2}, "geometry": {"type": "LineString", "coordinates": [[567861.49, 5934053.7], [567856.35, 5934051.26], [567841.85, 5934044.43], [567828.26, 5934038.02], [567811.36, 5934030.05]]}}, {"type": "Feature", "properties": {"kind": "fence", "type": "railing", "h": 1.2}, "geometry": {"type": "LineString", "coordinates": [[567846.81, 5934084.23], [567841.48, 5934081.65], [567832.55, 5934077.31], [567813.75, 5934068.2], [567809.54, 5934066.16], [567796.91, 5934060.03]]}}, {"type": "Feature", "properties": {"kind": "fence", "type": "railing", "h": 1.2}, "geometry": {"type": "LineString", "coordinates": [[566935.36, 5934189.85], [566969.45, 5934195.34], [566983.37, 5934196.89], [566991.72, 5934197.66]]}}, {"type": "Feature", "properties": {"kind": "fence", "type": "railing", "h": 1.2}, "geometry": {"type": "LineString", "coordinates": [[566254.56, 5934153.84], [566257.9, 5934148.19], [566258.9, 5934148.8], [566258.58, 5934149.34], [566258.16, 5934150.02]]}}, {"type": "Feature", "properties": {"kind": "fence", "type": "railing", "h": 1.2}, "geometry": {"type": "LineString", "coordinates": [[566227.6, 5934092.53], [566225.38, 5934096.16]]}}, {"type": "Feature", "properties": {"kind": "fence", "type": "railing", "h": 1.2}, "geometry": {"type": "LineString", "coordinates": [[566252.94, 5934152.46], [566250.04, 5934149.85], [566252.95, 5934146.39], [566255.64, 5934147.98], [566252.94, 5934152.46]]}}, {"type": "Feature", "properties": {"kind": "fence", "type": "railing", "h": 1.2}, "geometry": {"type": "LineString", "coordinates": [[566231.31, 5934100.3], [566230.06, 5934099.5], [566229.42, 5934098.45], [566229.35, 5934097.22], [566230.98, 5934094.58]]}}, {"type": "Feature", "properties": {"kind": "fence", "type": "railing", "h": 1.2}, "geometry": {"type": "LineString", "coordinates": [[567252.11, 5934287.88], [567250.48, 5934289.18], [567244.25, 5934293.96]]}}, {"type": "Feature", "properties": {"kind": "fence", "type": "railing", "h": 1.2}, "geometry": {"type": "LineString", "coordinates": [[567994.8, 5935406.3], [567993.63, 5935411.91], [567986.24, 5935447.07]]}}, {"type": "Feature", "properties": {"kind": "fence", "type": "railing", "h": 1.2}, "geometry": {"type": "LineString", "coordinates": [[566583.34, 5934384.69], [566599.61, 5934342.9]]}}, {"type": "Feature", "properties": {"kind": "fence", "type": "railing", "h": 1.2}, "geometry": {"type": "LineString", "coordinates": [[566980.28, 5934819.55], [566986.04, 5934815.09], [566987.44, 5934814.24]]}}, {"type": "Feature", "properties": {"kind": "fence", "type": "railing", "h": 1.2}, "geometry": {"type": "LineString", "coordinates": [[566729.85, 5934129.73], [566690.09, 5934120.75]]}}, {"type": "Feature", "properties": {"kind": "fence", "type": "railing", "h": 1.2}, "geometry": {"type": "LineString", "coordinates": [[566765.02, 5934137.49], [566734.63, 5934130.68]]}}, {"type": "Feature", "properties": {"kind": "fence", "type": "railing", "h": 1.2}, "geometry": {"type": "LineString", "coordinates": [[566811.14, 5934145.37], [566808.88, 5934144.98], [566806.79, 5934144.88], [566803.19, 5934144.92], [566799.5, 5934144.89], [566797.22, 5934144.57], [566769.16, 5934138.44]]}}, {"type": "Feature", "properties": {"kind": "fence", "type": "railing", "h": 1.2}, "geometry": {"type": "LineString", "coordinates": [[566775.09, 5934143.39], [566780.65, 5934144.65]]}}, {"type": "Feature", "properties": {"kind": "fence", "type": "railing", "h": 1.2}, "geometry": {"type": "LineString", "coordinates": [[566768.42, 5934141.87], [566770.96, 5934142.44]]}}, {"type": "Feature", "properties": {"kind": "fence", "type": "railing", "h": 1.2}, "geometry": {"type": "LineString", "coordinates": [[566756.89, 5934139.25], [566764.33, 5934140.93]]}}, {"type": "Feature", "properties": {"kind": "fence", "type": "railing", "h": 1.2}, "geometry": {"type": "LineString", "coordinates": [[566733.89, 5934134.02], [566752.56, 5934138.26]]}}, {"type": "Feature", "properties": {"kind": "fence", "type": "railing", "h": 1.2}, "geometry": {"type": "LineString", "coordinates": [[566717.76, 5934130.35], [566729.06, 5934132.91]]}}, {"type": "Feature", "properties": {"kind": "fence", "type": "railing", "h": 1.2}, "geometry": {"type": "LineString", "coordinates": [[566711.18, 5934128.86], [566713.45, 5934129.37]]}}, {"type": "Feature", "properties": {"kind": "fence", "type": "railing", "h": 1.2}, "geometry": {"type": "LineString", "coordinates": [[567987.89, 5934968.06], [567995.98, 5934974.05]]}}, {"type": "Feature", "properties": {"kind": "fence", "type": "railing", "h": 1.2}, "geometry": {"type": "LineString", "coordinates": [[567979.65, 5934928.8], [567982.49, 5934931.11], [567986.76, 5934934.4], [567991.95, 5934938.62]]}}, {"type": "Feature", "properties": {"kind": "fence", "type": "railing", "h": 1.2}, "geometry": {"type": "LineString", "coordinates": [[567206.6, 5934819.06], [567198.77, 5934826.55], [567169.55, 5934854.77]]}}, {"type": "Feature", "properties": {"kind": "fence", "type": "railing", "h": 1.2}, "geometry": {"type": "LineString", "coordinates": [[567169.09, 5934793.49], [567180.57, 5934804.67], [567149.33, 5934835.91]]}}, {"type": "Feature", "properties": {"kind": "fence", "type": "railing", "h": 1.6}, "geometry": {"type": "LineString", "coordinates": [[566931.95, 5934000.0], [566956.95, 5934009.77]]}}, {"type": "Feature", "properties": {"kind": "fence", "type": "railing", "h": 1.6}, "geometry": {"type": "LineString", "coordinates": [[566962.42, 5934011.91], [566986.02, 5934021.13]]}}, {"type": "Feature", "properties": {"kind": "fence", "type": "railing", "h": 1.2}, "geometry": {"type": "LineString", "coordinates": [[566451.09, 5934078.2], [566442.75, 5934076.23], [566443.29, 5934073.94], [566451.63, 5934075.9]]}}, {"type": "Feature", "properties": {"kind": "fence", "type": "railing", "h": 1.2}, "geometry": {"type": "LineString", "coordinates": [[566448.41, 5934089.3], [566440.07, 5934087.33], [566440.61, 5934085.04], [566448.95, 5934087.0]]}}, {"type": "Feature", "properties": {"kind": "fence", "type": "railing", "h": 1.2}, "geometry": {"type": "LineString", "coordinates": [[566803.68, 5934182.39], [566796.89, 5934180.81]]}}, {"type": "Feature", "properties": {"kind": "fence", "type": "railing", "h": 1.2}, "geometry": {"type": "LineString", "coordinates": [[566652.43, 5934169.52], [566653.82, 5934163.74], [566655.98, 5934164.26]]}}, {"type": "Feature", "properties": {"kind": "fence", "type": "railing", "h": 1.2}, "geometry": {"type": "LineString", "coordinates": [[567321.14, 5934180.56], [567311.92, 5934179.67], [567310.42, 5934195.32], [567313.0, 5934195.56]]}}, {"type": "Feature", "properties": {"kind": "fence", "type": "mesh", "h": 1.2}, "geometry": {"type": "LineString", "coordinates": [[567317.29, 5934195.9], [567317.16, 5934198.78], [567324.85, 5934199.11], [567324.96, 5934196.58]]}}, {"type": "Feature", "properties": {"kind": "fence", "type": "railing", "h": 1.2}, "geometry": {"type": "LineString", "coordinates": [[567362.76, 5934185.68], [567366.39, 5934185.98], [567365.21, 5934200.11], [567361.51, 5934199.81]]}}, {"type": "Feature", "properties": {"kind": "fence", "type": "railing", "h": 1.1}, "geometry": {"type": "LineString", "coordinates": [[566637.1, 5934133.92], [566619.42, 5934201.93], [566608.69, 5934225.54], [566602.46, 5934238.4]]}}, {"type": "Feature", "properties": {"kind": "fence", "type": "mesh", "h": 2.0}, "geometry": {"type": "LineString", "coordinates": [[566795.99, 5934140.73], [566797.89, 5934134.09], [566795.51, 5934132.16], [566801.79, 5934113.6], [566807.8, 5934097.22], [566814.37, 5934081.84], [566822.95, 5934062.96], [566829.62, 5934047.51], [566832.08, 5934033.67], [566837.77, 5934015.91]]}}, {"type": "Feature", "properties": {"kind": "fence", "type": "railing", "h": 1.2}, "geometry": {"type": "LineString", "coordinates": [[566021.44, 5935213.55], [566019.18, 5935205.48], [566034.58, 5935200.07]]}}, {"type": "Feature", "properties": {"kind": "fence", "type": "railing", "h": 1.2}, "geometry": {"type": "LineString", "coordinates": [[566903.94, 5934190.89], [566884.79, 5934188.03], [566853.13, 5934182.05]]}}, {"type": "Feature", "properties": {"kind": "fence", "type": "railing", "h": 1.2}, "geometry": {"type": "LineString", "coordinates": [[567334.27, 5935402.9], [567332.31, 5935400.28], [567329.93, 5935397.22]]}}, {"type": "Feature", "properties": {"kind": "fence", "type": "railing", "h": 1.2}, "geometry": {"type": "LineString", "coordinates": [[566781.09, 5934164.92], [566773.38, 5934165.72], [566764.24, 5934163.73]]}}, {"type": "Feature", "properties": {"kind": "fence", "type": "railing", "h": 1.2}, "geometry": {"type": "LineString", "coordinates": [[566772.81, 5934159.56], [566772.19, 5934162.33], [566765.05, 5934160.72]]}}, {"type": "Feature", "properties": {"kind": "fence", "type": "railing", "h": 1.2}, "geometry": {"type": "LineString", "coordinates": [[566762.08, 5934160.04], [566758.88, 5934159.32]]}}, {"type": "Feature", "properties": {"kind": "fence", "type": "railing", "h": 1.2}, "geometry": {"type": "LineString", "coordinates": [[566754.57, 5934158.34], [566743.78, 5934155.9]]}}, {"type": "Feature", "properties": {"kind": "fence", "type": "railing", "h": 1.2}, "geometry": {"type": "LineString", "coordinates": [[566739.47, 5934154.93], [566727.21, 5934152.15]]}}, {"type": "Feature", "properties": {"kind": "fence", "type": "railing", "h": 1.2}, "geometry": {"type": "LineString", "coordinates": [[566722.89, 5934151.16], [566717.55, 5934149.95]]}}, {"type": "Feature", "properties": {"kind": "fence", "type": "railing", "h": 1.2}, "geometry": {"type": "LineString", "coordinates": [[566714.54, 5934149.28], [566709.33, 5934148.1], [566709.96, 5934145.32]]}}, {"type": "Feature", "properties": {"kind": "fence", "type": "railing", "h": 1.2}, "geometry": {"type": "LineString", "coordinates": [[566713.94, 5934151.94], [566713.82, 5934152.46], [566708.72, 5934151.29]]}}, {"type": "Feature", "properties": {"kind": "fence", "type": "railing", "h": 1.2}, "geometry": {"type": "LineString", "coordinates": [[567904.06, 5935402.98], [567920.24, 5935406.16]]}}, {"type": "Feature", "properties": {"kind": "fence", "type": "railing", "h": 1.2}, "geometry": {"type": "LineString", "coordinates": [[566720.0, 5934405.99], [566726.44, 5934389.13]]}}, {"type": "Feature", "properties": {"kind": "fence", "type": "railing", "h": 1.2}, "geometry": {"type": "LineString", "coordinates": [[566806.72, 5934237.15], [566807.43, 5934237.37], [566800.65, 5934264.06], [566787.32, 5934261.41], [566790.83, 5934245.08], [566793.34, 5934245.6]]}}, {"type": "Feature", "properties": {"kind": "fence", "type": "railing", "h": 1.2}, "geometry": {"type": "LineString", "coordinates": [[566791.33, 5934243.08], [566792.26, 5934243.36], [566795.64, 5934230.6]]}}, {"type": "Feature", "properties": {"kind": "fence", "type": "railing", "h": 1.2}, "geometry": {"type": "LineString", "coordinates": [[567253.78, 5935437.53], [567252.27, 5935435.24], [567249.47, 5935433.98], [567246.42, 5935433.76], [567243.46, 5935434.58], [567240.97, 5935436.36], [567239.23, 5935438.9], [567238.48, 5935441.86], [567238.78, 5935444.91], [567240.11, 5935447.67], [567242.31, 5935449.8], [567245.1, 5935451.06], [567246.88, 5935451.28], [567247.16, 5935453.02], [567251.05, 5935469.76], [567245.97, 5935476.28]]}}, {"type": "Feature", "properties": {"kind": "fence", "type": "railing", "h": 1.2}, "geometry": {"type": "LineString", "coordinates": [[566569.17, 5934334.39], [566575.0, 5934336.61], [566555.78, 5934386.81]]}}, {"type": "Feature", "properties": {"kind": "fence", "type": "railing", "h": 1.2}, "geometry": {"type": "LineString", "coordinates": [[567126.85, 5934684.07], [567083.29, 5934640.25], [567105.58, 5934604.64], [567108.44, 5934602.57], [567124.06, 5934587.43], [567159.14, 5934630.92], [567162.69, 5934649.43], [567126.85, 5934684.07]]}}, {"type": "Feature", "properties": {"kind": "fence", "type": "railing", "h": 1.2}, "geometry": {"type": "LineString", "coordinates": [[567658.0, 5935791.06], [567652.47, 5935784.9], [567630.78, 5935760.76], [567623.75, 5935753.05], [567633.36, 5935730.35], [567683.37, 5935732.03], [567682.0, 5935767.72], [567658.0, 5935791.06]]}}, {"type": "Feature", "properties": {"kind": "fence", "type": "railing", "h": 1.2}, "geometry": {"type": "LineString", "coordinates": [[567825.2, 5935252.16], [567811.97, 5935252.22], [567790.18, 5935250.32], [567777.76, 5935249.39], [567760.38, 5935247.07], [567767.84, 5935237.47], [567776.83, 5935227.41], [567785.88, 5935218.63], [567792.29, 5935214.29], [567802.78, 5935223.39], [567811.83, 5935233.37], [567819.39, 5935242.55], [567825.2, 5935252.16]]}}, {"type": "Feature", "properties": {"kind": "fence", "type": "railing", "h": 1.2}, "geometry": {"type": "LineString", "coordinates": [[567756.07, 5935250.56], [567762.33, 5935208.4], [567715.41, 5935200.5], [567710.17, 5935231.87], [567714.72, 5935244.01], [567756.07, 5935250.56]]}}, {"type": "Feature", "properties": {"kind": "gate", "w": 1.2, "on": "fence"}, "geometry": {"type": "Point", "coordinates": [566039.52, 5935240.38]}}, {"type": "Feature", "properties": {"kind": "gate", "w": 1.2, "on": "fence"}, "geometry": {"type": "Point", "coordinates": [567899.7, 5934109.25]}}, {"type": "Feature", "properties": {"kind": "gate", "w": 1.2, "on": "fence"}, "geometry": {"type": "Point", "coordinates": [567772.08, 5934773.18]}}, {"type": "Feature", "properties": {"kind": "gate", "w": 1.2, "on": "fence"}, "geometry": {"type": "Point", "coordinates": [566839.67, 5934713.3]}}, {"type": "Feature", "properties": {"kind": "gate", "w": 1.2, "on": "fence"}, "geometry": {"type": "Point", "coordinates": [567736.22, 5934059.03]}}, {"type": "Feature", "properties": {"kind": "gate", "w": 1.2, "on": "fence"}, "geometry": {"type": "Point", "coordinates": [567706.02, 5934044.53]}}, {"type": "Feature", "properties": {"kind": "gate", "w": 1.2, "on": "fence"}, "geometry": {"type": "Point", "coordinates": [567623.64, 5934023.53]}}, {"type": "Feature", "properties": {"kind": "gate", "w": 1.2, "on": "fence"}, "geometry": {"type": "Point", "coordinates": [567856.23, 5934509.95]}}, {"type": "Feature", "properties": {"kind": "gate", "w": 4.0, "on": "fence", "type": "lift_gate"}, "geometry": {"type": "Point", "coordinates": [567897.11, 5934530.42]}}, {"type": "Feature", "properties": {"kind": "gate", "w": 1.2, "on": "fence"}, "geometry": {"type": "Point", "coordinates": [567881.17, 5934522.95]}}, {"type": "Feature", "properties": {"kind": "gate", "w": 5.0, "on": "fence"}, "geometry": {"type": "Point", "coordinates": [567521.8, 5934066.51]}}, {"type": "Feature", "properties": {"kind": "gate", "w": 1.2, "on": "fence"}, "geometry": {"type": "Point", "coordinates": [567304.89, 5934646.4]}}, {"type": "Feature", "properties": {"kind": "gate", "w": 1.2, "on": "fence"}, "geometry": {"type": "Point", "coordinates": [567553.47, 5934115.79]}}, {"type": "Feature", "properties": {"kind": "gate", "w": 1.2, "on": "fence"}, "geometry": {"type": "Point", "coordinates": [567491.09, 5934048.63]}}, {"type": "Feature", "properties": {"kind": "gate", "w": 1.2, "on": "fence"}, "geometry": {"type": "Point", "coordinates": [567453.11, 5934032.27]}}, {"type": "Feature", "properties": {"kind": "gate", "w": 1.2, "on": "fence"}, "geometry": {"type": "Point", "coordinates": [567465.72, 5934037.66]}}, {"type": "Feature", "properties": {"kind": "gate", "w": 1.2, "on": "fence"}, "geometry": {"type": "Point", "coordinates": [567170.51, 5934792.17]}}, {"type": "Feature", "properties": {"kind": "gate", "w": 1.2, "on": "fence"}, "geometry": {"type": "Point", "coordinates": [567152.86, 5934808.34]}}, {"type": "Feature", "properties": {"kind": "gate", "w": 1.2, "on": "fence"}, "geometry": {"type": "Point", "coordinates": [567209.76, 5934764.42]}}, {"type": "Feature", "properties": {"kind": "gate", "w": 1.2, "on": "fence"}, "geometry": {"type": "Point", "coordinates": [567102.06, 5934800.68]}}, {"type": "Feature", "properties": {"kind": "gate", "w": 1.2, "on": "wall"}, "geometry": {"type": "Point", "coordinates": [567137.86, 5934754.75]}}, {"type": "Feature", "properties": {"kind": "gate", "w": 1.2, "on": "fence"}, "geometry": {"type": "Point", "coordinates": [567109.0, 5934778.16]}}, {"type": "Feature", "properties": {"kind": "gate", "w": 1.2, "on": "fence"}, "geometry": {"type": "Point", "coordinates": [567105.51, 5934780.93]}}, {"type": "Feature", "properties": {"kind": "gate", "w": 1.2, "on": "fence"}, "geometry": {"type": "Point", "coordinates": [567376.93, 5935364.35]}}, {"type": "Feature", "properties": {"kind": "gate", "w": 1.2, "on": "fence"}, "geometry": {"type": "Point", "coordinates": [567758.36, 5934069.77]}}, {"type": "Feature", "properties": {"kind": "gate", "w": 1.2, "on": "fence"}, "geometry": {"type": "Point", "coordinates": [566054.73, 5935260.53]}}, {"type": "Feature", "properties": {"kind": "gate", "w": 1.2, "on": "fence"}, "geometry": {"type": "Point", "coordinates": [566061.8, 5935281.0]}}, {"type": "Feature", "properties": {"kind": "gate", "w": 1.2, "on": "fence"}, "geometry": {"type": "Point", "coordinates": [566028.12, 5935073.3]}}, {"type": "Feature", "properties": {"kind": "gate", "w": 1.2, "on": "fence"}, "geometry": {"type": "Point", "coordinates": [567630.78, 5935760.76]}}, {"type": "Feature", "properties": {"kind": "gate", "w": 1.2, "on": "fence"}, "geometry": {"type": "Point", "coordinates": [567566.5, 5934503.02]}}, {"type": "Feature", "properties": {"kind": "gate", "w": 1.2, "on": "fence"}, "geometry": {"type": "Point", "coordinates": [567888.65, 5934538.73]}}, {"type": "Feature", "properties": {"kind": "gate", "w": 1.2, "on": "fence"}, "geometry": {"type": "Point", "coordinates": [567652.47, 5935784.9]}}, {"type": "Feature", "properties": {"kind": "gate", "w": 1.2, "on": "fence"}, "geometry": {"type": "Point", "coordinates": [566919.15, 5934540.99]}}, {"type": "Feature", "properties": {"kind": "gate", "w": 1.2, "on": "wall"}, "geometry": {"type": "Point", "coordinates": [567371.42, 5934480.66]}}, {"type": "Feature", "properties": {"kind": "gate", "w": 1.2, "on": "wall"}, "geometry": {"type": "Point", "coordinates": [567613.76, 5934652.45]}}, {"type": "Feature", "properties": {"kind": "gate", "w": 1.2, "on": "fence"}, "geometry": {"type": "Point", "coordinates": [567305.66, 5934428.45]}}, {"type": "Feature", "properties": {"kind": "gate", "w": 1.2, "on": "fence"}, "geometry": {"type": "Point", "coordinates": [567806.69, 5934576.35]}}, {"type": "Feature", "properties": {"kind": "gate", "w": 1.2, "on": "fence"}, "geometry": {"type": "Point", "coordinates": [567993.63, 5935411.91]}}, {"type": "Feature", "properties": {"kind": "gate", "w": 1.2, "on": "fence"}, "geometry": {"type": "Point", "coordinates": [567198.77, 5934826.55]}}]}