{"type": "FeatureCollection", "attribution": "\u00a9 OpenStreetMap contributors (ODbL)", "crs": {"type": "name", "properties": {"name": "urn:ogc:def:crs:EPSG::25832"}}, "features": [{"type": "Feature", "properties": {"kind": "wall", "h": 1.5}, "geometry": {"type": "LineString", "coordinates": [[564913.5, 5933702.45], [564908.25, 5933698.27], [564896.9, 5933690.67], [564891.1, 5933687.72]]}}, {"type": "Feature", "properties": {"kind": "wall", "h": 1.5}, "geometry": {"type": "LineString", "coordinates": [[565245.42, 5933797.06], [565248.78, 5933795.25]]}}, {"type": "Feature", "properties": {"kind": "wall", "h": 1.5}, "geometry": {"type": "LineString", "coordinates": [[565759.1, 5933439.29], [565758.05, 5933428.01]]}}, {"type": "Feature", "properties": {"kind": "wall", "h": 1.5}, "geometry": {"type": "LineString", "coordinates": [[565109.37, 5932359.17], [565127.49, 5932351.61]]}}, {"type": "Feature", "properties": {"kind": "wall", "h": 1.5}, "geometry": {"type": "LineString", "coordinates": [[564340.15, 5933486.96], [564340.95, 5933489.77], [564340.72, 5933489.95], [564340.18, 5933490.46], [564339.83, 5933491.12], [564339.69, 5933491.88], [564339.81, 5933492.65], [564340.15, 5933493.31], [564340.66, 5933493.84], [564341.32, 5933494.2], [564342.09, 5933494.33], [564342.86, 5933494.22], [564343.22, 5933494.03], [564343.72, 5933494.8], [564345.36, 5933497.42]]}}, {"type": "Feature", "properties": {"kind": "wall", "h": 1.5}, "geometry": {"type": "LineString", "coordinates": [[564382.51, 5933477.16], [564377.71, 5933473.74], [564377.97, 5933473.27], [564378.1, 5933472.5], [564377.99, 5933471.74], [564377.65, 5933471.07], [564377.13, 5933470.54], [564376.47, 5933470.19], [564375.71, 5933470.05], [564374.94, 5933470.16], [564374.27, 5933470.5], [564373.8, 5933470.95], [564369.45, 5933467.85], [564367.76, 5933466.76], [564367.9, 5933466.0], [564367.79, 5933465.23], [564367.45, 5933464.55], [564366.93, 5933464.02], [564366.28, 5933463.68], [564365.51, 5933463.54], [564364.74, 5933463.66], [564364.07, 5933463.99], [564363.54, 5933464.5], [564363.34, 5933464.87], [564361.46, 5933464.37], [564358.42, 5933464.09], [564356.53, 5933464.21], [564356.19, 5933463.53], [564355.68, 5933463.0], [564355.01, 5933462.65], [564354.25, 5933462.52], [564353.48, 5933462.63], [564352.81, 5933462.96], [564352.28, 5933463.48], [564351.93, 5933464.13], [564351.79, 5933464.9], [564351.84, 5933465.22], [564349.78, 5933466.06], [564347.3, 5933467.55], [564345.88, 5933468.58], [564345.19, 5933468.19], [564344.43, 5933468.06], [564343.66, 5933468.17], [564342.99, 5933468.5], [564342.45, 5933469.02], [564342.1, 5933469.68], [564341.97, 5933470.44], [564342.08, 5933471.21], [564342.41, 5933471.88], [564342.75, 5933472.22], [564341.62, 5933473.98], [564340.45, 5933476.65], [564339.94, 5933478.3], [564339.15, 5933478.41], [564338.48, 5933478.75], [564337.95, 5933479.26], [564337.6, 5933479.91], [564337.46, 5933480.68], [564337.58, 5933481.45], [564337.91, 5933482.12], [564338.43, 5933482.65], [564339.09, 5933482.99], [564339.44, 5933483.07], [564339.62, 5933485.58]]}}, {"type": "Feature", "properties": {"kind": "wall", "h": 1.5}, "geometry": {"type": "LineString", "coordinates": [[564280.52, 5933614.12], [564236.18, 5933609.66], [564190.2, 5933605.04], [564172.01, 5933603.21]]}}, {"type": "Feature", "properties": {"kind": "retaining_wall", "h": 3.0}, "geometry": {"type": "LineString", "coordinates": [[565828.34, 5932925.4], [565822.22, 5932904.72], [565821.16, 5932900.44], [565820.76, 5932895.63], [565821.44, 5932889.03], [565825.93, 5932877.27], [565831.08, 5932866.03]]}}, {"type": "Feature", "properties": {"kind": "retaining_wall", "h": 3.0}, "geometry": {"type": "LineString", "coordinates": [[565795.68, 5932913.44], [565800.61, 5932902.45], [565808.5, 5932885.35], [565806.6, 5932884.47]]}}, {"type": "Feature", "properties": {"kind": "retaining_wall", "h": 3.0}, "geometry": {"type": "LineString", "coordinates": [[565788.59, 5932815.42], [565779.26, 5932811.01], [565776.17, 5932809.42], [565771.91, 5932805.37], [565771.21, 5932802.63], [565771.81, 5932792.05]]}}, {"type": "Feature", "properties": {"kind": "retaining_wall", "h": 3.0}, "geometry": {"type": "LineString", "coordinates": [[565814.43, 5932879.27], [565818.84, 5932869.6]]}}, {"type": "Feature", "properties": {"kind": "retaining_wall", "h": 3.0}, "geometry": {"type": "LineString", "coordinates": [[565778.52, 5933075.24], [565783.37, 5933082.58], [565785.32, 5933083.83], [565787.8, 5933085.43], [565789.42, 5933086.47], [565790.41, 5933087.1], [565790.93, 5933087.44], [565791.91, 5933088.07], [565791.35, 5933091.77], [565791.01, 5933094.88], [565790.43, 5933098.54]]}}, {"type": "Feature", "properties": {"kind": "retaining_wall", "h": 3.0}, "geometry": {"type": "LineString", "coordinates": [[565815.37, 5933055.34], [565812.75, 5933053.77], [565797.63, 5933044.69], [565802.89, 5933042.29]]}}, {"type": "Feature", "properties": {"kind": "wall", "h": 1.5}, "geometry": {"type": "LineString", "coordinates": [[565868.05, 5932696.99], [565871.79, 5932667.64], [565874.27, 5932650.52]]}}, {"type": "Feature", "properties": {"kind": "wall", "h": 2.0}, "geometry": {"type": "LineString", "coordinates": [[565848.91, 5932650.08], [565811.29, 5932664.58], [565808.45, 5932665.65], [565794.21, 5932671.11], [565785.16, 5932674.52], [565784.06, 5932681.06], [565783.76, 5932683.88]]}}, {"type": "Feature", "properties": {"kind": "retaining_wall", "h": 3.0}, "geometry": {"type": "LineString", "coordinates": [[565806.2, 5933118.26], [565806.82, 5933112.67], [565807.32, 5933108.19], [565807.97, 5933102.41], [565808.41, 5933098.5]]}}, {"type": "Feature", "properties": {"kind": "wall", "h": 1.5}, "geometry": {"type": "LineString", "coordinates": [[564224.18, 5932032.52], [564217.04, 5932031.78], [564188.21, 5932028.57], [564188.31, 5932027.46], [564183.27, 5932027.03], [564176.78, 5932026.4], [564174.81, 5932026.22], [564174.74, 5932027.86], [564157.91, 5932042.67], [564143.51, 5932053.55], [564130.42, 5932061.78], [564086.0, 5932087.62], [564083.92, 5932083.87], [564043.02, 5932107.96], [564043.45, 5932108.82], [564032.41, 5932115.07], [564026.42, 5932118.49], [564019.96, 5932122.18], [564000.0, 5932134.15]]}}, {"type": "Feature", "properties": {"kind": "wall", "h": 1.5}, "geometry": {"type": "LineString", "coordinates": [[565314.12, 5932062.65], [565310.15, 5932000.0]]}}, {"type": "Feature", "properties": {"kind": "wall", "h": 1.5}, "geometry": {"type": "LineString", "coordinates": [[565472.77, 5932094.33], [565474.08, 5932093.72]]}}, {"type": "Feature", "properties": {"kind": "wall", "h": 1.5}, "geometry": {"type": "LineString", "coordinates": [[565480.25, 5932208.04], [565475.84, 5932153.65]]}}, {"type": "Feature", "properties": {"kind": "wall", "h": 1.5}, "geometry": {"type": "LineString", "coordinates": [[565315.62, 5932086.32], [565314.84, 5932073.93]]}}, {"type": "Feature", "properties": {"kind": "wall", "h": 1.5}, "geometry": {"type": "LineString", "coordinates": [[565481.11, 5932090.15], [565483.03, 5932089.3], [565479.59, 5932030.25]]}}, {"type": "Feature", "properties": {"kind": "wall", "h": 1.5}, "geometry": {"type": "LineString", "coordinates": [[564924.01, 5933234.9], [564935.3, 5933234.91]]}}, {"type": "Feature", "properties": {"kind": "wall", "h": 1.5}, "geometry": {"type": "LineString", "coordinates": [[564843.7, 5933234.18], [564868.08, 5933234.94]]}}, {"type": "Feature", "properties": {"kind": "wall", "h": 1.5}, "geometry": {"type": "LineString", "coordinates": [[564940.53, 5933237.75], [564952.9, 5933238.16], [564962.83, 5933238.38]]}}, {"type": "Feature", "properties": {"kind": "wall", "h": 1.5}, "geometry": {"type": "LineString", "coordinates": [[565637.58, 5932937.74], [565638.85, 5932933.61], [565640.58, 5932927.98], [565648.26, 5932926.78], [565650.55, 5932925.86], [565651.93, 5932924.75], [565652.88, 5932923.21], [565653.41, 5932921.07], [565654.14, 5932917.59]]}}, {"type": "Feature", "properties": {"kind": "wall", "h": 1.5}, "geometry": {"type": "LineString", "coordinates": [[565651.08, 5932920.6], [565651.8, 5932917.1], [565652.39, 5932914.53], [565662.21, 5932915.24], [565664.57, 5932915.41]]}}, {"type": "Feature", "properties": {"kind": "wall", "h": 1.5}, "geometry": {"type": "LineString", "coordinates": [[565629.24, 5932940.13], [565627.69, 5932926.57], [565628.58, 5932911.99], [565629.24, 5932908.01], [565633.82, 5932907.87], [565634.57, 5932912.46], [565635.97, 5932926.27]]}}, {"type": "Feature", "properties": {"kind": "wall", "h": 1.5}, "geometry": {"type": "LineString", "coordinates": [[565632.51, 5932939.88], [565632.41, 5932936.75], [565632.25, 5932931.6], [565632.1, 5932926.8], [565631.57, 5932912.76]]}}, {"type": "Feature", "properties": {"kind": "wall", "h": 1.5}, "geometry": {"type": "LineString", "coordinates": [[564733.81, 5933984.88], [564720.03, 5933982.47]]}}, {"type": "Feature", "properties": {"kind": "wall", "h": 1.5}, "geometry": {"type": "LineString", "coordinates": [[564701.45, 5933979.21], [564709.85, 5933981.09]]}}, {"type": "Feature", "properties": {"kind": "retaining_wall", "h": 3.0}, "geometry": {"type": "LineString", "coordinates": [[565818.33, 5932881.03], [565821.06, 5932875.06], [565822.74, 5932871.37], [565826.14, 5932863.81]]}}, {"type": "Feature", "properties": {"kind": "retaining_wall", "h": 3.0}, "geometry": {"type": "LineString", "coordinates": [[565826.5, 5932806.12], [565820.49, 5932804.48], [565819.12, 5932803.79], [565818.16, 5932802.62], [565817.77, 5932801.81], [565817.87, 5932801.16], [565818.24, 5932800.54]]}}, {"type": "Feature", "properties": {"kind": "retaining_wall", "h": 3.0}, "geometry": {"type": "LineString", "coordinates": [[565798.2, 5932831.34], [565788.52, 5932827.06], [565787.32, 5932826.2], [565786.52, 5932825.06], [565785.91, 5932823.71], [565785.69, 5932822.3], [565785.71, 5932817.98], [565785.72, 5932816.96]]}}, {"type": "Feature", "properties": {"kind": "retaining_wall", "h": 3.0}, "geometry": {"type": "LineString", "coordinates": [[565792.75, 5932835.66], [565793.26, 5932833.65], [565786.0, 5932830.65], [565784.18, 5932829.3], [565783.03, 5932827.55], [565782.71, 5932825.05], [565782.57, 5932816.58], [565782.57, 5932815.48]]}}, {"type": "Feature", "properties": {"kind": "retaining_wall", "h": 3.0}, "geometry": {"type": "LineString", "coordinates": [[565844.45, 5932813.67], [565818.84, 5932869.6], [565814.43, 5932879.27]]}}, {"type": "Feature", "properties": {"kind": "retaining_wall", "h": 3.0}, "geometry": {"type": "LineString", "coordinates": [[565169.17, 5933069.95], [565148.4, 5933067.22], [565147.31, 5933067.82], [565146.99, 5933068.67], [565146.97, 5933069.82], [565147.11, 5933070.83], [565148.19, 5933071.46], [565168.66, 5933073.9]]}}, {"type": "Feature", "properties": {"kind": "retaining_wall", "h": 3.0}, "geometry": {"type": "LineString", "coordinates": [[565225.21, 5933080.76], [565245.38, 5933083.26], [565246.12, 5933083.03], [565246.54, 5933082.62], [565246.75, 5933082.29], [565246.91, 5933081.93], [565246.99, 5933081.55], [565247.0, 5933081.16], [565246.96, 5933080.53], [565246.71, 5933079.98], [565245.97, 5933079.48], [565225.7, 5933076.81]]}}, {"type": "Feature", "properties": {"kind": "wall", "h": 1.5}, "geometry": {"type": "LineString", "coordinates": [[565357.67, 5932972.06], [565360.08, 5932971.74], [565362.55, 5932970.89], [565364.56, 5932969.57], [565365.93, 5932968.19], [565366.95, 5932966.33], [565367.34, 5932968.27], [565368.31, 5932969.98], [565369.64, 5932971.58], [565371.21, 5932972.65], [565373.91, 5932973.59]]}}, {"type": "Feature", "properties": {"kind": "wall", "h": 1.5}, "geometry": {"type": "LineString", "coordinates": [[565366.95, 5932966.33], [565367.94, 5932955.02]]}}, {"type": "Feature", "properties": {"kind": "wall", "h": 1.5}, "geometry": {"type": "LineString", "coordinates": [[565442.3, 5932980.78], [565434.02, 5932976.83], [565435.75, 5932974.11], [565438.31, 5932970.13], [565439.73, 5932967.9]]}}, {"type": "Feature", "properties": {"kind": "retaining_wall", "h": 3.0}, "geometry": {"type": "LineString", "coordinates": [[565800.75, 5933949.15], [565807.45, 5933941.72], [565806.11, 5933940.52], [565804.84, 5933939.38], [565798.14, 5933946.82]]}}, {"type": "Feature", "properties": {"kind": "retaining_wall", "h": 3.0}, "geometry": {"type": "LineString", "coordinates": [[565832.92, 5933929.37], [565832.91, 5933936.36], [565836.91, 5933936.36], [565836.93, 5933929.38]]}}, {"type": "Feature", "properties": {"kind": "retaining_wall", "h": 3.0}, "geometry": {"type": "LineString", "coordinates": [[564279.8, 5933402.74], [564287.96, 5933401.22], [564292.41, 5933399.35], [564300.63, 5933396.16], [564309.98, 5933391.86]]}}, {"type": "Feature", "properties": {"kind": "retaining_wall", "h": 3.0}, "geometry": {"type": "LineString", "coordinates": [[564937.19, 5933260.3], [564936.75, 5933268.78]]}}, {"type": "Feature", "properties": {"kind": "retaining_wall", "h": 3.0}, "geometry": {"type": "LineString", "coordinates": [[564938.38, 5933237.58], [564937.3, 5933258.26]]}}, {"type": "Feature", "properties": {"kind": "retaining_wall", "h": 3.0}, "geometry": {"type": "LineString", "coordinates": [[564933.47, 5933286.41], [564936.02, 5933237.46]]}}, {"type": "Feature", "properties": {"kind": "retaining_wall", "h": 3.0}, "geometry": {"type": "LineString", "coordinates": [[564936.64, 5933270.87], [564935.83, 5933286.53]]}}, {"type": "Feature", "properties": {"kind": "retaining_wall", "h": 3.0}, "geometry": {"type": "LineString", "coordinates": [[565235.38, 5933912.0], [565268.51, 5933897.64]]}}, {"type": "Feature", "properties": {"kind": "retaining_wall", "h": 3.0}, "geometry": {"type": "LineString", "coordinates": [[565155.53, 5933706.94], [565180.96, 5933698.81]]}}, {"type": "Feature", "properties": {"kind": "retaining_wall", "h": 3.0}, "geometry": {"type": "LineString", "coordinates": [[565240.81, 5933834.78], [565215.86, 5933845.19]]}}, {"type": "Feature", "properties": {"kind": "retaining_wall", "h": 3.0}, "geometry": {"type": "LineString", "coordinates": [[565196.75, 5933733.98], [565176.1, 5933740.64]]}}, {"type": "Feature", "properties": {"kind": "retaining_wall", "h": 3.0}, "geometry": {"type": "LineString", "coordinates": [[565582.55, 5933973.0], [565563.1, 5934000.0]]}}, {"type": "Feature", "properties": {"kind": "retaining_wall", "h": 3.0}, "geometry": {"type": "LineString", "coordinates": [[565272.37, 5933906.49], [565239.23, 5933920.85]]}}, {"type": "Feature", "properties": {"kind": "retaining_wall", "h": 3.0}, "geometry": {"type": "LineString", "coordinates": [[565293.12, 5933701.43], [565255.76, 5933715.96]]}}, {"type": "Feature", "properties": {"kind": "retaining_wall", "h": 3.0}, "geometry": {"type": "LineString", "coordinates": [[565214.83, 5933840.67], [565236.68, 5933831.2]]}}, {"type": "Feature", "properties": {"kind": "retaining_wall", "h": 3.0}, "geometry": {"type": "LineString", "coordinates": [[565551.64, 5933995.83], [565573.77, 5933965.66]]}}, {"type": "Feature", "properties": {"kind": "retaining_wall", "h": 3.0}, "geometry": {"type": "LineString", "coordinates": [[565239.71, 5933676.34], [565271.86, 5933664.03]]}}, {"type": "Feature", "properties": {"kind": "wall", "h": 1.5}, "geometry": {"type": "LineString", "coordinates": [[565361.55, 5933868.65], [565357.24, 5933874.47], [565356.09, 5933873.61], [565354.55, 5933872.47], [565353.68, 5933871.82], [565357.86, 5933866.2]]}}, {"type": "Feature", "properties": {"kind": "wall", "h": 1.5}, "geometry": {"type": "LineString", "coordinates": [[565374.51, 5933873.11], [565369.86, 5933869.29]]}}, {"type": "Feature", "properties": {"kind": "wall", "h": 1.5}, "geometry": {"type": "LineString", "coordinates": [[565358.69, 5933859.36], [565361.39, 5933861.5], [565360.8, 5933862.26], [565364.35, 5933865.26]]}}, {"type": "Feature", "properties": {"kind": "wall", "h": 1.5}, "geometry": {"type": "LineString", "coordinates": [[565354.94, 5933888.26], [565359.88, 5933881.78], [565360.73, 5933882.4], [565362.42, 5933883.65], [565363.36, 5933884.35], [565358.35, 5933890.92]]}}, {"type": "Feature", "properties": {"kind": "wall", "h": 1.5}, "geometry": {"type": "LineString", "coordinates": [[565798.14, 5933946.82], [565804.84, 5933939.38], [565806.11, 5933940.52], [565807.45, 5933941.72], [565800.75, 5933949.15]]}}, {"type": "Feature", "properties": {"kind": "wall", "h": 1.5}, "geometry": {"type": "LineString", "coordinates": [[565391.18, 5933129.48], [565373.68, 5933127.2], [565374.25, 5933122.86], [565391.95, 5933125.09]]}}, {"type": "Feature", "properties": {"kind": "wall", "h": 1.5}, "geometry": {"type": "LineString", "coordinates": [[565546.69, 5932907.5], [565551.36, 5932906.84], [565553.37, 5932906.55], [565553.71, 5932904.87], [565553.78, 5932904.28], [565554.74, 5932904.35]]}}, {"type": "Feature", "properties": {"kind": "wall", "h": 1.5}, "geometry": {"type": "LineString", "coordinates": [[565688.49, 5932918.6], [565682.43, 5932918.0]]}}, {"type": "Feature", "properties": {"kind": "wall", "h": 1.5}, "geometry": {"type": "LineString", "coordinates": [[565439.07, 5932875.68], [565430.37, 5932877.32], [565428.79, 5932877.49], [565427.17, 5932877.52], [565425.77, 5932877.38], [565424.45, 5932877.1], [565423.22, 5932876.78], [565420.63, 5932875.47], [565422.31, 5932875.08], [565424.59, 5932874.54], [565426.83, 5932874.06], [565429.06, 5932873.67], [565431.07, 5932873.5], [565432.69, 5932873.41], [565434.2, 5932873.57], [565434.88, 5932873.81], [565436.12, 5932874.25], [565439.07, 5932875.68]]}}, {"type": "Feature", "properties": {"kind": "wall", "h": 1.5}, "geometry": {"type": "LineString", "coordinates": [[565384.66, 5932869.55], [565386.12, 5932870.34], [565388.02, 5932871.01], [565389.77, 5932871.48], [565391.61, 5932871.66], [565394.66, 5932871.64], [565399.39, 5932871.3], [565401.42, 5932870.95], [565403.58, 5932870.43], [565402.7, 5932869.88], [565401.95, 5932869.47], [565401.03, 5932868.69], [565400.21, 5932868.21], [565398.95, 5932867.86], [565395.54, 5932867.41], [565392.49, 5932867.28], [565390.91, 5932867.37], [565389.51, 5932867.55], [565388.28, 5932867.96], [565386.45, 5932868.67], [565384.66, 5932869.55]]}}, {"type": "Feature", "properties": {"kind": "wall", "h": 1.5}, "geometry": {"type": "LineString", "coordinates": [[564000.0, 5933046.4], [564002.06, 5933046.41], [564002.42, 5933059.63], [564021.35, 5933059.75], [564076.27, 5933047.07], [564082.82, 5933044.58], [564084.98, 5933043.77], [564114.42, 5933032.77], [564111.69, 5933025.16]]}}, {"type": "Feature", "properties": {"kind": "wall", "h": 1.5}, "geometry": {"type": "LineString", "coordinates": [[564548.33, 5932824.2], [564564.12, 5932818.29]]}}, {"type": "Feature", "properties": {"kind": "wall", "h": 1.5}, "geometry": {"type": "LineString", "coordinates": [[564568.98, 5932815.83], [564583.32, 5932807.37]]}}, {"type": "Feature", "properties": {"kind": "wall", "h": 1.5}, "geometry": {"type": "LineString", "coordinates": [[565380.58, 5933325.78], [565378.04, 5933325.85], [565372.9, 5933326.01], [565366.57, 5933326.21]]}}, {"type": "Feature", "properties": {"kind": "wall", "h": 1.5}, "geometry": {"type": "LineString", "coordinates": [[565363.73, 5933326.07], [565356.03, 5933326.18], [565351.16, 5933326.17], [565345.67, 5933326.56], [565340.1, 5933327.02], [565335.11, 5933327.66], [565325.01, 5933329.6]]}}, {"type": "Feature", "properties": {"kind": "wall", "h": 1.5}, "geometry": {"type": "LineString", "coordinates": [[565312.74, 5933333.98], [565312.36, 5933332.73], [565315.83, 5933331.74], [565319.38, 5933330.75], [565322.3, 5933330.11]]}}, {"type": "Feature", "properties": {"kind": "wall", "h": 1.5}, "geometry": {"type": "LineString", "coordinates": [[565261.82, 5933341.92], [565269.01, 5933343.4], [565276.43, 5933344.47]]}}, {"type": "Feature", "properties": {"kind": "wall", "h": 1.5}, "geometry": {"type": "LineString", "coordinates": [[565281.17, 5933344.98], [565288.19, 5933345.24], [565290.51, 5933345.19], [565293.74, 5933344.8]]}}, {"type": "Feature", "properties": {"kind": "retaining_wall", "h": 3.0}, "geometry": {"type": "LineString", "coordinates": [[565972.18, 5933614.04], [565974.06, 5933613.54], [566000.0, 5933617.1]]}}, {"type": "Feature", "properties": {"kind": "retaining_wall", "h": 3.0}, "geometry": {"type": "LineString", "coordinates": [[564290.1, 5932020.78], [564291.93, 5932023.23], [564290.01, 5932038.52], [564328.25, 5932042.22], [564313.69, 5932183.77], [564288.88, 5932424.94], [564284.36, 5932432.26], [564192.23, 5932478.08], [564191.03, 5932478.69], [564190.66, 5932488.73]]}}, {"type": "Feature", "properties": {"kind": "wall", "h": 1.5}, "geometry": {"type": "LineString", "coordinates": [[565185.29, 5933946.07], [565185.38, 5933942.49], [565192.24, 5933941.77]]}}, {"type": "Feature", "properties": {"kind": "wall", "h": 1.5}, "geometry": {"type": "LineString", "coordinates": [[565185.38, 5933942.49], [565173.67, 5933943.86]]}}, {"type": "Feature", "properties": {"kind": "wall", "h": 1.5}, "geometry": {"type": "LineString", "coordinates": [[565165.06, 5933943.96], [565169.12, 5933954.79], [565173.57, 5933953.94], [565173.8, 5933955.64], [565175.07, 5933967.78]]}}, {"type": "Feature", "properties": {"kind": "wall", "h": 1.5}, "geometry": {"type": "LineString", "coordinates": [[565169.12, 5933954.79], [565169.67, 5933956.52], [565173.8, 5933955.64]]}}, {"type": "Feature", "properties": {"kind": "wall", "h": 1.5}, "geometry": {"type": "LineString", "coordinates": [[565246.49, 5932458.68], [565242.88, 5932449.76], [565240.91, 5932450.8], [565229.36, 5932424.92]]}}, {"type": "Feature", "properties": {"kind": "wall", "h": 1.5}, "geometry": {"type": "LineString", "coordinates": [[565685.8, 5933620.06], [565685.82, 5933619.27], [565687.44, 5933617.69], [565687.54, 5933616.41], [565690.87, 5933616.55], [565690.81, 5933617.61]]}}, {"type": "Feature", "properties": {"kind": "wall", "h": 1.5}, "geometry": {"type": "LineString", "coordinates": [[565677.6, 5933618.5], [565677.82, 5933615.74], [565680.71, 5933616.0], [565680.61, 5933616.63], [565682.05, 5933618.95], [565681.94, 5933619.77]]}}, {"type": "Feature", "properties": {"kind": "wall", "h": 2.0}, "geometry": {"type": "LineString", "coordinates": [[564099.27, 5932993.38], [564064.78, 5932924.76], [564054.42, 5932826.41], [564030.1, 5932775.06], [564027.37, 5932776.17], [564024.78, 5932770.99]]}}, {"type": "Feature", "properties": {"kind": "embankment", "h": 2.5}, "geometry": {"type": "LineString", "coordinates": [[565724.08, 5932000.0], [565700.05, 5932023.92], [565692.7, 5932028.25], [565683.65, 5932027.24], [565642.83, 5932008.93], [565634.26, 5932000.0]]}}, {"type": "Feature", "properties": {"kind": "wall", "h": 1.5}, "geometry": {"type": "LineString", "coordinates": [[564046.13, 5933410.68], [564049.3, 5933410.78], [564051.96, 5933411.09], [564056.08, 5933412.03], [564060.11, 5933413.86], [564063.45, 5933415.94], [564064.7, 5933415.79]]}}, {"type": "Feature", "properties": {"kind": "wall", "h": 1.5}, "geometry": {"type": "LineString", "coordinates": [[564061.87, 5933416.96], [564059.25, 5933415.54], [564056.89, 5933414.39], [564054.36, 5933413.52], [564051.88, 5933412.87], [564049.75, 5933412.72], [564045.87, 5933412.52], [564043.41, 5933412.75], [564041.55, 5933413.1], [564038.47, 5933414.16], [564002.39, 5933416.74], [564000.0, 5933416.91]]}}, {"type": "Feature", "properties": {"kind": "wall", "h": 1.5}, "geometry": {"type": "LineString", "coordinates": [[564118.14, 5933030.09], [564122.17, 5933028.45], [564112.4, 5933020.73], [564099.27, 5932993.38]]}}, {"type": "Feature", "properties": {"kind": "wall", "h": 1.5}, "geometry": {"type": "LineString", "coordinates": [[564118.14, 5933030.09], [564117.26, 5933028.86], [564112.68, 5933024.89], [564111.69, 5933025.16], [564105.47, 5933011.78], [564101.58, 5933003.4]]}}, {"type": "Feature", "properties": {"kind": "retaining_wall", "h": 3.0}, "geometry": {"type": "LineString", "coordinates": [[565988.4, 5933612.47], [565973.55, 5933610.61]]}}, {"type": "Feature", "properties": {"kind": "wall", "h": 1.5}, "geometry": {"type": "LineString", "coordinates": [[565935.34, 5932992.93], [565940.24, 5932993.29], [565941.47, 5932981.42]]}}, {"type": "Feature", "properties": {"kind": "retaining_wall", "h": 3.0}, "geometry": {"type": "LineString", "coordinates": [[564312.89, 5933433.18], [564313.89, 5933435.28], [564317.87, 5933437.72], [564386.23, 5933409.51], [564396.02, 5933405.59], [564397.79, 5933405.9], [564399.05, 5933407.55], [564400.5, 5933411.27]]}}, {"type": "Feature", "properties": {"kind": "retaining_wall", "h": 3.0}, "geometry": {"type": "LineString", "coordinates": [[565135.63, 5933409.99], [565144.72, 5933411.03]]}}, {"type": "Feature", "properties": {"kind": "retaining_wall", "h": 3.0}, "geometry": {"type": "LineString", "coordinates": [[565140.17, 5933327.13], [565133.18, 5933378.56]]}}, {"type": "Feature", "properties": {"kind": "retaining_wall", "h": 3.0}, "geometry": {"type": "LineString", "coordinates": [[566000.0, 5932864.28], [565999.62, 5932864.2], [565998.7, 5932859.85], [565997.97, 5932856.44], [565988.14, 5932855.21], [565986.24, 5932861.15], [565975.04, 5932863.64], [565961.28, 5932861.77], [565960.7, 5932865.61], [565959.36, 5932872.73], [565963.82, 5932872.91], [565963.75, 5932886.02], [565966.7, 5932886.33], [565969.62, 5932874.63], [565981.74, 5932874.78], [565989.47, 5932874.87], [565999.47, 5932875.32], [566000.0, 5932875.34]]}}, {"type": "Feature", "properties": {"kind": "retaining_wall", "h": 3.0}, "geometry": {"type": "LineString", "coordinates": [[564092.35, 5933477.48], [564150.05, 5933467.9], [564150.58, 5933467.97], [564151.04, 5933468.23], [564151.35, 5933468.6], [564151.65, 5933470.04], [564159.0, 5933468.87], [564159.09, 5933468.52], [564159.26, 5933468.35], [564159.5, 5933468.23], [564159.78, 5933468.27], [564160.26, 5933466.07], [564160.0, 5933465.86], [564160.05, 5933465.52]]}}, {"type": "Feature", "properties": {"kind": "retaining_wall", "h": 3.0}, "geometry": {"type": "LineString", "coordinates": [[564000.0, 5933496.65], [564004.03, 5933495.11], [564015.26, 5933490.92], [564023.49, 5933487.8], [564028.95, 5933485.94]]}}, {"type": "Feature", "properties": {"kind": "retaining_wall", "h": 3.0}, "geometry": {"type": "LineString", "coordinates": [[564008.17, 5933473.93], [564009.67, 5933473.76], [564009.44, 5933471.84], [564012.67, 5933471.47], [564012.3, 5933468.36], [564015.7, 5933467.96]]}}, {"type": "Feature", "properties": {"kind": "retaining_wall", "h": 3.0}, "geometry": {"type": "LineString", "coordinates": [[564015.96, 5933471.09], [564037.87, 5933467.69], [564048.64, 5933465.42], [564077.73, 5933460.57], [564150.99, 5933448.58], [564151.96, 5933447.68], [564154.59, 5933447.29], [564155.31, 5933447.9], [564158.52, 5933447.34]]}}, {"type": "Feature", "properties": {"kind": "retaining_wall", "h": 3.0}, "geometry": {"type": "LineString", "coordinates": [[565779.88, 5932787.54], [565771.26, 5932785.68], [565760.32, 5932783.61], [565757.73, 5932783.42], [565753.36, 5932783.48], [565731.2, 5932785.49], [565670.39, 5932790.98]]}}, {"type": "Feature", "properties": {"kind": "retaining_wall", "h": 3.0}, "geometry": {"type": "LineString", "coordinates": [[565784.98, 5932781.06], [565781.1, 5932781.33], [565771.78, 5932781.97]]}}, {"type": "Feature", "properties": {"kind": "retaining_wall", "h": 3.0}, "geometry": {"type": "LineString", "coordinates": [[565752.81, 5932778.33], [565705.89, 5932782.93], [565703.58, 5932783.13], [565696.63, 5932780.29], [565688.51, 5932784.46], [565679.48, 5932782.16], [565671.38, 5932784.5], [565669.54, 5932784.04], [565662.84, 5932782.74], [565650.93, 5932780.13]]}}, {"type": "Feature", "properties": {"kind": "retaining_wall", "h": 3.0}, "geometry": {"type": "LineString", "coordinates": [[565662.85, 5932786.14], [565648.55, 5932788.39], [565640.64, 5932789.28], [565628.79, 5932790.39], [565611.53, 5932791.54], [565595.07, 5932792.33], [565572.13, 5932792.74], [565556.58, 5932792.4]]}}, {"type": "Feature", "properties": {"kind": "retaining_wall", "h": 3.0}, "geometry": {"type": "LineString", "coordinates": [[565703.58, 5932783.13], [565688.51, 5932784.46], [565669.68, 5932786.08], [565669.54, 5932784.04]]}}, {"type": "Feature", "properties": {"kind": "retaining_wall", "h": 3.0}, "geometry": {"type": "LineString", "coordinates": [[564667.79, 5933245.4], [564657.87, 5933250.71]]}}, {"type": "Feature", "properties": {"kind": "retaining_wall", "h": 3.0}, "geometry": {"type": "LineString", "coordinates": [[564820.28, 5933563.15], [564827.65, 5933569.98], [564831.16, 5933570.21]]}}, {"type": "Feature", "properties": {"kind": "retaining_wall", "h": 3.0}, "geometry": {"type": "LineString", "coordinates": [[564818.78, 5933576.86], [564820.98, 5933578.14], [564823.28, 5933579.22], [564825.65, 5933580.11], [564828.1, 5933580.79], [564830.59, 5933581.27], [564834.79, 5933574.02]]}}, {"type": "Feature", "properties": {"kind": "retaining_wall", "h": 3.0}, "geometry": {"type": "LineString", "coordinates": [[564818.92, 5933571.66], [564821.05, 5933573.65], [564823.44, 5933575.29], [564826.06, 5933576.56], [564828.85, 5933577.41]]}}, {"type": "Feature", "properties": {"kind": "retaining_wall", "h": 3.0}, "geometry": {"type": "LineString", "coordinates": [[564819.16, 5933566.64], [564826.51, 5933573.36], [564834.79, 5933574.02]]}}, {"type": "Feature", "properties": {"kind": "retaining_wall", "h": 3.0}, "geometry": {"type": "LineString", "coordinates": [[565914.96, 5933410.12], [565969.99, 5933444.01], [565968.93, 5933445.65], [565984.53, 5933455.34], [565985.46, 5933453.94], [566000.0, 5933462.83]]}}, {"type": "Feature", "properties": {"kind": "retaining_wall", "h": 3.0}, "geometry": {"type": "LineString", "coordinates": [[565823.37, 5933347.98], [565872.27, 5933382.66], [565874.67, 5933384.23], [565891.78, 5933395.46]]}}, {"type": "Feature", "properties": {"kind": "retaining_wall", "h": 3.0}, "geometry": {"type": "LineString", "coordinates": [[565585.97, 5933318.86], [565595.4, 5933318.11], [565595.35, 5933316.93], [565595.88, 5933315.76], [565596.8, 5933314.91], [565598.72, 5933314.44], [565740.43, 5933309.11], [565749.64, 5933309.33], [565755.9, 5933310.32], [565768.09, 5933313.01], [565770.93, 5933314.03], [565776.84, 5933316.53], [565777.28, 5933316.72]]}}, {"type": "Feature", "properties": {"kind": "retaining_wall", "h": 3.0}, "geometry": {"type": "LineString", "coordinates": [[565560.02, 5933318.62], [565567.59, 5933318.77], [565567.98, 5933313.32]]}}, {"type": "Feature", "properties": {"kind": "retaining_wall", "h": 3.0}, "geometry": {"type": "LineString", "coordinates": [[564375.28, 5933435.94], [564362.26, 5933442.19]]}}, {"type": "Feature", "properties": {"kind": "wall", "h": 1.0}, "geometry": {"type": "LineString", "coordinates": [[565902.08, 5932987.22], [565903.09, 5932977.02]]}}, {"type": "Feature", "properties": {"kind": "wall", "h": 1.5}, "geometry": {"type": "LineString", "coordinates": [[565674.95, 5933657.26], [565669.86, 5933657.17], [565669.95, 5933652.97]]}}, {"type": "Feature", "properties": {"kind": "retaining_wall", "h": 3.0}, "geometry": {"type": "LineString", "coordinates": [[565679.93, 5932745.08], [565687.74, 5932715.0]]}}, {"type": "Feature", "properties": {"kind": "retaining_wall", "h": 3.0}, "geometry": {"type": "LineString", "coordinates": [[565679.46, 5932736.5], [565685.34, 5932712.87], [565691.86, 5932710.28], [565697.83, 5932708.08]]}}, {"type": "Feature", "properties": {"kind": "retaining_wall", "h": 3.0}, "geometry": {"type": "LineString", "coordinates": [[565691.86, 5932710.28], [565682.74, 5932745.66]]}}, {"type": "Feature", "properties": {"kind": "retaining_wall", "h": 3.0}, "geometry": {"type": "LineString", "coordinates": [[565680.54, 5932713.67], [565676.5, 5932735.88]]}}, {"type": "Feature", "properties": {"kind": "retaining_wall", "h": 3.0}, "geometry": {"type": "LineString", "coordinates": [[565626.51, 5932735.83], [565630.75, 5932734.09], [565640.67, 5932748.64]]}}, {"type": "Feature", "properties": {"kind": "wall", "h": 1.5}, "geometry": {"type": "LineString", "coordinates": [[564000.0, 5932717.88], [564019.75, 5932760.74], [564021.26, 5932759.6], [564026.44, 5932769.77]]}}, {"type": "Feature", "properties": {"kind": "retaining_wall", "h": 3.0}, "geometry": {"type": "LineString", "coordinates": [[565946.71, 5932640.98], [565895.33, 5932642.47]]}}, {"type": "Feature", "properties": {"kind": "wall", "h": 1.5}, "geometry": {"type": "LineString", "coordinates": [[564707.46, 5933486.82], [564719.39, 5933491.02]]}}, {"type": "Feature", "properties": {"kind": "wall", "h": 1.5}, "geometry": {"type": "LineString", "coordinates": [[564970.89, 5933238.01], [564981.86, 5933236.66]]}}, {"type": "Feature", "properties": {"kind": "retaining_wall", "h": 3.0}, "geometry": {"type": "LineString", "coordinates": [[565811.98, 5933109.48], [565807.44, 5933144.9], [565802.75, 5933145.68]]}}, {"type": "Feature", "properties": {"kind": "wall", "h": 1.5}, "geometry": {"type": "LineString", "coordinates": [[565901.4, 5933158.06], [565906.15, 5933158.56], [565905.45, 5933164.05]]}}, {"type": "Feature", "properties": {"kind": "wall", "h": 1.5}, "geometry": {"type": "LineString", "coordinates": [[565908.34, 5933158.8], [565907.6, 5933164.34], [565909.87, 5933164.65]]}}, {"type": "Feature", "properties": {"kind": "wall", "h": 1.5}, "geometry": {"type": "LineString", "coordinates": [[565095.96, 5933361.0], [565082.02, 5933362.1]]}}, {"type": "Feature", "properties": {"kind": "retaining_wall", "h": 3.0}, "geometry": {"type": "LineString", "coordinates": [[565895.23, 5932636.73], [565941.09, 5932635.4]]}}, {"type": "Feature", "properties": {"kind": "retaining_wall", "h": 3.0}, "geometry": {"type": "LineString", "coordinates": [[565738.4, 5932726.69], [565742.32, 5932717.84], [565730.88, 5932719.27]]}}, {"type": "Feature", "properties": {"kind": "retaining_wall", "h": 3.0}, "geometry": {"type": "LineString", "coordinates": [[565723.66, 5932720.33], [565730.27, 5932717.26], [565739.63, 5932715.45]]}}, {"type": "Feature", "properties": {"kind": "retaining_wall", "h": 3.0}, "geometry": {"type": "LineString", "coordinates": [[565739.02, 5932720.55], [565730.35, 5932721.24], [565723.66, 5932720.33], [565718.08, 5932719.82], [565717.47, 5932717.35]]}}, {"type": "Feature", "properties": {"kind": "retaining_wall", "h": 3.0}, "geometry": {"type": "LineString", "coordinates": [[565706.26, 5932740.52], [565710.83, 5932741.58], [565719.53, 5932733.86]]}}, {"type": "Feature", "properties": {"kind": "retaining_wall", "h": 3.0}, "geometry": {"type": "LineString", "coordinates": [[565714.74, 5932741.52], [565722.11, 5932734.6], [565729.36, 5932738.38], [565736.38, 5932742.21], [565737.63, 5932742.12], [565741.55, 5932742.28], [565741.41, 5932738.42], [565741.99, 5932734.5], [565742.71, 5932728.49], [565744.24, 5932718.04], [565747.51, 5932718.67]]}}, {"type": "Feature", "properties": {"kind": "retaining_wall", "h": 3.0}, "geometry": {"type": "LineString", "coordinates": [[565490.71, 5932797.1], [565481.05, 5932796.3], [565479.34, 5932796.03], [565477.81, 5932795.2], [565476.64, 5932793.92], [565475.97, 5932792.33], [565475.86, 5932790.6], [565476.33, 5932788.94], [565477.33, 5932787.53], [565478.75, 5932786.53], [565480.41, 5932785.3], [565489.82, 5932781.7]]}}, {"type": "Feature", "properties": {"kind": "retaining_wall", "h": 3.0}, "geometry": {"type": "LineString", "coordinates": [[565626.45, 5932796.48], [565555.7, 5932799.05]]}}, {"type": "Feature", "properties": {"kind": "wall", "h": 1.5}, "geometry": {"type": "LineString", "coordinates": [[565079.95, 5933790.83], [565077.22, 5933795.75], [565081.13, 5933808.61], [565086.74, 5933810.25]]}}, {"type": "Feature", "properties": {"kind": "wall", "h": 1.5}, "geometry": {"type": "LineString", "coordinates": [[565855.63, 5933668.23], [565857.87, 5933672.25]]}}, {"type": "Feature", "properties": {"kind": "wall", "h": 1.5}, "geometry": {"type": "LineString", "coordinates": [[565846.36, 5933654.56], [565844.61, 5933651.99], [565843.61, 5933652.0]]}}, {"type": "Feature", "properties": {"kind": "wall", "h": 0.8}, "geometry": {"type": "LineString", "coordinates": [[565206.72, 5934000.0], [565208.36, 5933998.09], [565210.47, 5934000.0]]}}, {"type": "Feature", "properties": {"kind": "wall", "h": 1.5}, "geometry": {"type": "LineString", "coordinates": [[565084.38, 5933239.13], [565084.83, 5933238.58], [565082.93, 5933237.23], [565083.58, 5933236.4], [565084.15, 5933235.67], [565084.63, 5933236.03], [565085.17, 5933235.45], [565096.21, 5933243.9], [565110.58, 5933253.21], [565110.64, 5933254.29], [565110.28, 5933254.93], [565109.83, 5933255.71], [565108.39, 5933254.72], [565107.9, 5933255.47], [565094.5, 5933246.17], [565084.38, 5933239.13]]}}, {"type": "Feature", "properties": {"kind": "wall", "h": 1.5}, "geometry": {"type": "LineString", "coordinates": [[565074.15, 5933230.69], [565074.73, 5933230.11], [565074.46, 5933229.89], [565074.69, 5933229.64], [565074.87, 5933229.44], [565075.15, 5933229.68], [565077.37, 5933227.46], [565075.36, 5933227.46], [565075.36, 5933227.86], [565075.67, 5933227.86], [565075.64, 5933228.24], [565075.62, 5933228.63], [565074.28, 5933228.73], [565072.17, 5933230.75], [565074.15, 5933230.69]]}}, {"type": "Feature", "properties": {"kind": "wall", "h": 1.5}, "geometry": {"type": "LineString", "coordinates": [[565128.13, 5933265.57], [565123.1, 5933264.49], [565121.8, 5933263.78], [565122.31, 5933262.99], [565122.77, 5933263.28], [565122.89, 5933263.06], [565123.02, 5933262.86], [565122.58, 5933262.59], [565122.89, 5933262.12], [565128.27, 5933265.2], [565144.06, 5933273.87], [565144.01, 5933274.27], [565128.13, 5933265.57]]}}, {"type": "Feature", "properties": {"kind": "wall", "h": 1.5}, "geometry": {"type": "LineString", "coordinates": [[564388.26, 5933726.82], [564421.71, 5933724.62], [564425.28, 5933775.2], [564391.49, 5933776.87], [564391.75, 5933780.06], [564429.15, 5933778.09], [564425.13, 5933721.29], [564387.95, 5933723.62], [564388.26, 5933726.82]]}}, {"type": "Feature", "properties": {"kind": "retaining_wall", "h": 3.0}, "geometry": {"type": "LineString", "coordinates": [[565487.53, 5932886.16], [565488.1, 5932886.69], [565486.48, 5932886.99], [565485.21, 5932887.19], [565483.74, 5932887.35], [565482.32, 5932887.42], [565481.22, 5932887.39], [565480.07, 5932887.32], [565479.07, 5932887.15], [565477.84, 5932886.78], [565476.53, 5932886.13], [565471.08, 5932883.08], [565464.23, 5932885.14], [565462.92, 5932885.42], [565461.09, 5932885.37], [565458.7, 5932884.78], [565455.94, 5932883.85], [565452.52, 5932882.91], [565452.74, 5932882.3], [565456.21, 5932883.35], [565458.91, 5932884.28], [565461.11, 5932884.77], [565462.93, 5932884.84], [565464.17, 5932884.54], [565471.16, 5932882.36], [565476.88, 5932885.69], [565478.11, 5932886.32], [565479.15, 5932886.64], [565480.19, 5932886.85], [565481.28, 5932886.94], [565482.48, 5932886.92], [565483.75, 5932886.86], [565485.14, 5932886.68], [565486.54, 5932886.48], [565487.53, 5932886.16]]}}, {"type": "Feature", "properties": {"kind": "retaining_wall", "h": 3.0}, "geometry": {"type": "LineString", "coordinates": [[565452.65, 5932881.61], [565452.84, 5932881.09], [565458.62, 5932882.99], [565459.87, 5932883.08], [565460.91, 5932883.07], [565461.68, 5932882.85], [565462.65, 5932882.45], [565463.35, 5932881.93], [565466.81, 5932878.85], [565471.6, 5932881.49], [565473.53, 5932882.46], [565474.67, 5932882.91], [565475.92, 5932883.18], [565477.73, 5932883.41], [565479.61, 5932883.53], [565482.44, 5932883.97], [565483.84, 5932884.57], [565479.66, 5932884.12], [565477.67, 5932883.96], [565475.83, 5932883.76], [565474.48, 5932883.48], [565473.27, 5932882.99], [565471.32, 5932881.97], [565466.86, 5932879.66], [565463.81, 5932882.22], [565462.93, 5932882.79], [565461.85, 5932883.21], [565460.93, 5932883.51], [565459.84, 5932883.54], [565458.49, 5932883.4], [565452.65, 5932881.61]]}}, {"type": "Feature", "properties": {"kind": "retaining_wall", "h": 3.0}, "geometry": {"type": "LineString", "coordinates": [[565453.06, 5932879.54], [565453.35, 5932878.95], [565454.86, 5932879.63], [565455.9, 5932879.89], [565456.82, 5932879.96], [565457.79, 5932879.87], [565458.74, 5932879.6], [565459.72, 5932879.05], [565464.48, 5932876.21], [565470.21, 5932879.41], [565471.9, 5932880.24], [565473.3, 5932880.64], [565473.86, 5932880.8], [565474.45, 5932880.97], [565476.31, 5932881.35], [565477.74, 5932881.96], [565477.59, 5932882.28], [565476.14, 5932881.93], [565474.29, 5932881.52], [565473.14, 5932881.17], [565471.69, 5932880.75], [565469.89, 5932879.84], [565464.31, 5932876.96], [565460.07, 5932879.39], [565458.94, 5932879.99], [565457.89, 5932880.3], [565456.79, 5932880.39], [565455.84, 5932880.35], [565454.67, 5932880.13], [565453.06, 5932879.54]]}}, {"type": "Feature", "properties": {"kind": "retaining_wall", "h": 3.0}, "geometry": {"type": "LineString", "coordinates": [[565413.0, 5932878.2], [565412.82, 5932878.85], [565425.63, 5932881.75], [565427.26, 5932882.14], [565428.85, 5932882.44], [565430.3, 5932882.59], [565431.71, 5932882.59], [565435.83, 5932882.52], [565449.49, 5932881.77], [565450.51, 5932882.19], [565450.72, 5932881.59], [565449.57, 5932881.2], [565435.77, 5932881.88], [565431.66, 5932881.99], [565430.3, 5932881.96], [565428.92, 5932881.84], [565427.37, 5932881.55], [565425.76, 5932881.17], [565413.0, 5932878.2]]}}, {"type": "Feature", "properties": {"kind": "retaining_wall", "h": 3.0}, "geometry": {"type": "LineString", "coordinates": [[565450.69, 5932880.87], [565446.58, 5932879.45], [565436.36, 5932879.92], [565430.28, 5932880.18], [565427.81, 5932880.3], [565425.7, 5932880.2], [565423.53, 5932879.98], [565421.58, 5932879.66], [565413.02, 5932877.48], [565413.17, 5932876.9], [565421.77, 5932879.09], [565423.64, 5932879.45], [565425.74, 5932879.68], [565427.83, 5932879.8], [565430.32, 5932879.63], [565436.33, 5932879.29], [565446.69, 5932878.75], [565450.88, 5932880.36], [565450.69, 5932880.87]]}}, {"type": "Feature", "properties": {"kind": "retaining_wall", "h": 3.0}, "geometry": {"type": "LineString", "coordinates": [[565451.25, 5932878.66], [565447.79, 5932876.73], [565433.56, 5932878.72], [565430.24, 5932879.11], [565428.15, 5932879.19], [565426.34, 5932879.16], [565424.41, 5932878.94], [565413.2, 5932876.27], [565413.37, 5932875.64], [565424.5, 5932878.41], [565426.41, 5932878.63], [565428.13, 5932878.66], [565430.19, 5932878.52], [565433.49, 5932878.18], [565447.96, 5932875.97], [565451.53, 5932878.07], [565451.25, 5932878.66]]}}, {"type": "Feature", "properties": {"kind": "retaining_wall", "h": 3.0}, "geometry": {"type": "LineString", "coordinates": [[565410.91, 5932878.3], [565411.1, 5932877.65], [565407.49, 5932876.81], [565396.64, 5932877.12], [565391.46, 5932877.23], [565386.48, 5932877.12], [565381.69, 5932876.71], [565381.63, 5932877.26], [565386.39, 5932877.62], [565391.45, 5932877.74], [565396.67, 5932877.64], [565407.41, 5932877.39], [565410.91, 5932878.3]]}}, {"type": "Feature", "properties": {"kind": "retaining_wall", "h": 3.0}, "geometry": {"type": "LineString", "coordinates": [[565411.13, 5932876.95], [565407.3, 5932876.0], [565396.54, 5932876.43], [565393.14, 5932876.43], [565390.66, 5932876.19], [565382.79, 5932874.9], [565382.91, 5932874.31], [565390.82, 5932875.64], [565393.13, 5932875.87], [565396.59, 5932875.87], [565407.29, 5932875.44], [565411.3, 5932876.37], [565411.13, 5932876.95]]}}, {"type": "Feature", "properties": {"kind": "retaining_wall", "h": 3.0}, "geometry": {"type": "LineString", "coordinates": [[565384.4, 5932872.94], [565384.59, 5932872.31], [565388.7, 5932873.24], [565389.76, 5932873.41], [565390.86, 5932873.47], [565391.83, 5932873.39], [565394.83, 5932873.1], [565400.17, 5932872.44], [565411.43, 5932875.11], [565411.26, 5932875.74], [565400.16, 5932873.17], [565394.94, 5932873.68], [565391.87, 5932873.95], [565390.85, 5932874.01], [565389.78, 5932873.99], [565388.55, 5932873.86], [565384.4, 5932872.94]]}}, {"type": "Feature", "properties": {"kind": "retaining_wall", "h": 3.0}, "geometry": {"type": "LineString", "coordinates": [[565382.32, 5932872.33], [565377.14, 5932870.7], [565377.35, 5932870.21], [565382.08, 5932871.58], [565382.51, 5932871.69], [565382.32, 5932872.33]]}}, {"type": "Feature", "properties": {"kind": "retaining_wall", "h": 3.0}, "geometry": {"type": "LineString", "coordinates": [[565378.79, 5932876.92], [565368.77, 5932875.25], [565357.81, 5932873.43], [565357.75, 5932872.99], [565362.57, 5932873.79], [565368.86, 5932874.83], [565378.86, 5932876.37], [565378.79, 5932876.92]]}}, {"type": "Feature", "properties": {"kind": "retaining_wall", "h": 3.0}, "geometry": {"type": "LineString", "coordinates": [[565379.2, 5932874.2], [565366.58, 5932871.91], [565366.67, 5932871.35], [565371.62, 5932872.23], [565379.32, 5932873.61], [565379.2, 5932874.2]]}}, {"type": "Feature", "properties": {"kind": "fence", "type": "railing", "h": 1.2}, "geometry": {"type": "LineString", "coordinates": [[564214.47, 5932371.13], [564212.88, 5932385.93], [564242.39, 5932389.09], [564243.99, 5932374.29], [564214.47, 5932371.13]]}}, {"type": "Feature", "properties": {"kind": "fence", "type": "railing", "h": 1.2}, "geometry": {"type": "LineString", "coordinates": [[565911.55, 5933311.09], [565913.42, 5933308.72], [565915.23, 5933306.25]]}}, {"type": "Feature", "properties": {"kind": "fence", "type": "railing", "h": 1.2}, "geometry": {"type": "LineString", "coordinates": [[565374.51, 5933873.11], [565396.37, 5933888.45]]}}, {"type": "Feature", "properties": {"kind": "fence", "type": "railing", "h": 1.2}, "geometry": {"type": "LineString", "coordinates": [[565129.28, 5933951.16], [565135.33, 5934000.0]]}}, {"type": "Feature", "properties": {"kind": "fence", "type": "railing", "h": 1.2}, "geometry": {"type": "LineString", "coordinates": [[564965.94, 5933473.92], [565011.73, 5933459.11], [565003.56, 5933433.81], [564994.49, 5933404.81]]}}, {"type": "Feature", "properties": {"kind": "fence", "type": "railing", "h": 1.2}, "geometry": {"type": "LineString", "coordinates": [[564928.83, 5933388.76], [564930.27, 5933382.33], [564931.17, 5933382.39], [564931.77, 5933379.41], [564930.93, 5933379.23], [564933.08, 5933365.91], [564959.66, 5933368.0], [564968.91, 5933368.52]]}}, {"type": "Feature", "properties": {"kind": "fence", "type": "railing", "h": 1.2}, "geometry": {"type": "LineString", "coordinates": [[565134.57, 5933323.33], [565134.07, 5933328.9], [565136.14, 5933329.11]]}}, {"type": "Feature", "properties": {"kind": "fence", "type": "railing", "h": 1.2}, "geometry": {"type": "LineString", "coordinates": [[565135.63, 5933409.99], [565144.72, 5933411.03], [565148.15, 5933409.72], [565150.63, 5933408.78]]}}, {"type": "Feature", "properties": {"kind": "fence", "type": "railing", "h": 1.2}, "geometry": {"type": "LineString", "coordinates": [[564033.34, 5933810.55], [564041.37, 5933764.15], [564044.8, 5933764.81], [564048.44, 5933765.71]]}}, {"type": "Feature", "properties": {"kind": "fence", "type": "railing", "h": 1.2}, "geometry": {"type": "LineString", "coordinates": [[565116.41, 5933638.6], [565112.23, 5933628.9]]}}, {"type": "Feature", "properties": {"kind": "fence", "type": "railing", "h": 1.2}, "geometry": {"type": "LineString", "coordinates": [[564767.19, 5933329.57], [564784.35, 5933331.43]]}}, {"type": "Feature", "properties": {"kind": "fence", "type": "railing", "h": 1.2}, "geometry": {"type": "LineString", "coordinates": [[565486.18, 5932923.01], [565485.28, 5932932.95]]}}, {"type": "Feature", "properties": {"kind": "fence", "type": "railing", "h": 1.2}, "geometry": {"type": "LineString", "coordinates": [[565747.63, 5932950.04], [565746.55, 5932959.93]]}}, {"type": "Feature", "properties": {"kind": "fence", "type": "railing", "h": 1.2}, "geometry": {"type": "LineString", "coordinates": [[565348.93, 5932934.35], [565341.04, 5932933.95]]}}, {"type": "Feature", "properties": {"kind": "fence", "type": "railing", "h": 1.2}, "geometry": {"type": "LineString", "coordinates": [[565412.07, 5932915.36], [565411.19, 5932926.12]]}}, {"type": "Feature", "properties": {"kind": "fence", "type": "railing", "h": 1.2}, "geometry": {"type": "LineString", "coordinates": [[565559.08, 5932930.75], [565557.89, 5932943.02]]}}, {"type": "Feature", "properties": {"kind": "fence", "type": "railing", "h": 1.2}, "geometry": {"type": "LineString", "coordinates": [[565778.03, 5932963.08], [565788.88, 5932961.59]]}}, {"type": "Feature", "properties": {"kind": "fence", "type": "railing", "h": 1.2}, "geometry": {"type": "LineString", "coordinates": [[565434.14, 5933676.88], [565436.7, 5933680.41], [565438.71, 5933679.5]]}}, {"type": "Feature", "properties": {"kind": "fence", "type": "mesh", "h": 1.2}, "geometry": {"type": "LineString", "coordinates": [[566000.0, 5932889.74], [565987.68, 5932888.48], [565966.7, 5932886.33], [565963.75, 5932886.02], [565942.74, 5932883.87], [565936.74, 5932938.11], [565935.25, 5932951.66], [565934.64, 5932956.16], [565933.82, 5932962.68]]}}, {"type": "Feature", "properties": {"kind": "fence", "type": "railing", "h": 1.2}, "geometry": {"type": "LineString", "coordinates": [[565493.11, 5932885.83], [565489.45, 5932884.04], [565488.69, 5932883.67], [565485.07, 5932881.88], [565483.7, 5932881.22], [565479.12, 5932878.96], [565477.73, 5932878.28], [565474.68, 5932876.78], [565471.91, 5932876.12], [565470.09, 5932875.93], [565468.25, 5932875.89], [565468.07, 5932875.04], [565467.67, 5932874.01], [565467.04, 5932873.13], [565463.22, 5932871.52], [565460.32, 5932870.67], [565457.88, 5932871.1], [565455.65, 5932871.58], [565454.0, 5932872.07], [565450.98, 5932870.94], [565447.85, 5932869.9], [565445.69, 5932869.64], [565441.21, 5932870.38], [565421.12, 5932873.6], [565405.65, 5932868.03], [565403.06, 5932867.05], [565400.33, 5932866.19], [565397.47, 5932865.78], [565393.63, 5932865.41], [565391.08, 5932865.41], [565386.53, 5932865.8], [565382.79, 5932866.41], [565381.28, 5932866.68], [565376.96, 5932867.47], [565371.02, 5932868.49], [565366.42, 5932869.35], [565362.06, 5932870.08], [565357.42, 5932870.89], [565343.76, 5932873.29], [565340.68, 5932873.15], [565341.09, 5932870.72]]}}, {"type": "Feature", "properties": {"kind": "fence", "type": "railing", "h": 1.2}, "geometry": {"type": "LineString", "coordinates": [[564174.4, 5933780.53], [564177.02, 5933783.53], [564177.1, 5933787.82], [564209.1, 5933767.24], [564234.39, 5933746.84], [564255.12, 5933728.23], [564271.4, 5933705.23], [564276.66, 5933696.45], [564283.43, 5933685.23], [564292.17, 5933661.42], [564297.55, 5933641.69], [564301.62, 5933619.17]]}}, {"type": "Feature", "properties": {"kind": "fence", "type": "railing", "h": 1.2}, "geometry": {"type": "LineString", "coordinates": [[565209.92, 5933626.1], [565218.28, 5933644.22]]}}, {"type": "Feature", "properties": {"kind": "fence", "type": "railing", "h": 1.2}, "geometry": {"type": "LineString", "coordinates": [[565185.3, 5933110.57], [565184.3, 5933109.79], [565172.41, 5933100.4], [565171.74, 5933099.89], [565163.8, 5933096.18], [565159.87, 5933094.33], [565155.0, 5933092.75], [565147.83, 5933090.43], [565139.69, 5933087.79], [565134.26, 5933086.04], [565129.97, 5933084.69], [565115.2, 5933080.02], [565113.24, 5933071.43], [565097.37, 5933063.46], [565094.68, 5933057.61], [565093.44, 5933054.92]]}}, {"type": "Feature", "properties": {"kind": "fence", "type": "railing", "h": 1.2}, "geometry": {"type": "LineString", "coordinates": [[565272.26, 5933346.33], [565259.71, 5933344.0], [565247.58, 5933340.13], [565240.61, 5933337.35], [565230.49, 5933333.31], [565219.98, 5933328.26], [565209.28, 5933322.81], [565194.99, 5933313.87], [565171.16, 5933298.56], [565153.2, 5933287.01], [565143.26, 5933280.1], [565138.85, 5933277.41], [565133.37, 5933274.11], [565120.33, 5933267.14]]}}, {"type": "Feature", "properties": {"kind": "fence", "type": "railing", "h": 1.2}, "geometry": {"type": "LineString", "coordinates": [[565114.71, 5933247.93], [565112.49, 5933251.56], [565106.02, 5933247.52], [565099.74, 5933242.88], [565093.85, 5933237.82], [565086.72, 5933231.1], [565089.68, 5933228.11]]}}, {"type": "Feature", "properties": {"kind": "fence", "type": "railing", "h": 1.2}, "geometry": {"type": "LineString", "coordinates": [[565064.09, 5933215.69], [565070.28, 5933215.3], [565075.97, 5933215.06], [565078.34, 5933215.04], [565079.62, 5933215.0], [565080.69, 5933214.87], [565081.46, 5933214.71], [565082.02, 5933214.45], [565082.76, 5933213.9], [565121.19, 5933175.09], [565125.89, 5933170.22], [565123.45, 5933164.41]]}}, {"type": "Feature", "properties": {"kind": "fence", "type": "railing", "h": 1.2}, "geometry": {"type": "LineString", "coordinates": [[565903.09, 5932977.02], [565902.24, 5932976.93], [565895.36, 5932976.33], [565889.37, 5933038.97], [565895.69, 5933039.38]]}}, {"type": "Feature", "properties": {"kind": "fence", "type": "railing", "h": 1.2}, "geometry": {"type": "LineString", "coordinates": [[565918.5, 5932946.87], [565923.08, 5932947.5], [565927.04, 5932947.91], [565928.59, 5932948.08], [565929.94, 5932950.94]]}}, {"type": "Feature", "properties": {"kind": "fence", "type": "railing", "h": 1.2}, "geometry": {"type": "LineString", "coordinates": [[564311.89, 5933397.21], [564302.55, 5933401.13], [564300.86, 5933401.83], [564311.22, 5933434.01]]}}, {"type": "Feature", "properties": {"kind": "fence", "type": "railing", "h": 1.2}, "geometry": {"type": "LineString", "coordinates": [[564303.05, 5933437.53], [564295.27, 5933404.32], [564294.6, 5933404.58], [564289.69, 5933406.73], [564283.64, 5933411.59]]}}, {"type": "Feature", "properties": {"kind": "fence", "type": "picket", "h": 1.2}, "geometry": {"type": "LineString", "coordinates": [[565290.79, 5933065.07], [565290.19, 5933070.31], [565288.79, 5933082.59], [565288.93, 5933084.92], [565289.67, 5933086.23], [565291.3, 5933087.29], [565408.25, 5933102.9]]}}, {"type": "Feature", "properties": {"kind": "fence", "type": "railing", "h": 1.2}, "geometry": {"type": "LineString", "coordinates": [[565746.99, 5933024.21], [565746.74, 5933027.32], [565756.69, 5933059.16], [565758.71, 5933058.57], [565762.23, 5933057.58], [565763.84, 5933057.1], [565765.1, 5933057.05], [565764.04, 5933083.62], [565774.51, 5933084.36], [565767.28, 5933094.34]]}}, {"type": "Feature", "properties": {"kind": "fence", "type": "railing", "h": 1.2}, "geometry": {"type": "LineString", "coordinates": [[565761.84, 5933102.44], [565761.4, 5933102.93], [565778.17, 5933113.18], [565774.17, 5933119.56], [565770.57, 5933119.12]]}}, {"type": "Feature", "properties": {"kind": "fence", "type": "railing", "h": 1.2}, "geometry": {"type": "LineString", "coordinates": [[565543.87, 5932903.61], [565551.58, 5932904.11], [565551.54, 5932904.7], [565546.91, 5932904.46]]}}, {"type": "Feature", "properties": {"kind": "fence", "type": "railing", "h": 1.2}, "geometry": {"type": "LineString", "coordinates": [[565472.54, 5932899.26], [565477.07, 5932898.97], [565480.71, 5932898.96]]}}, {"type": "Feature", "properties": {"kind": "fence", "type": "railing", "h": 1.2}, "geometry": {"type": "LineString", "coordinates": [[565468.36, 5932895.64], [565477.11, 5932896.53], [565477.1, 5932897.06], [565472.64, 5932896.61]]}}, {"type": "Feature", "properties": {"kind": "fence", "type": "railing", "h": 1.2}, "geometry": {"type": "LineString", "coordinates": [[565397.46, 5932891.82], [565402.23, 5932891.39], [565403.68, 5932891.27], [565404.19, 5932889.92], [565404.26, 5932889.44], [565405.81, 5932889.6]]}}, {"type": "Feature", "properties": {"kind": "fence", "type": "railing", "h": 1.2}, "geometry": {"type": "LineString", "coordinates": [[565393.74, 5932888.36], [565402.43, 5932889.25], [565402.37, 5932889.75], [565397.63, 5932889.34]]}}, {"type": "Feature", "properties": {"kind": "fence", "type": "railing", "h": 1.2}, "geometry": {"type": "LineString", "coordinates": [[565684.98, 5932919.93], [565688.3, 5932920.26], [565689.91, 5932920.44], [565690.09, 5932918.78], [565714.76, 5932920.78]]}}, {"type": "Feature", "properties": {"kind": "fence", "type": "railing", "h": 1.2}, "geometry": {"type": "LineString", "coordinates": [[565729.03, 5932923.93], [565733.01, 5932925.09], [565738.12, 5932926.56]]}}, {"type": "Feature", "properties": {"kind": "fence", "type": "railing", "h": 1.2}, "geometry": {"type": "LineString", "coordinates": [[565738.38, 5932923.81], [565733.17, 5932923.21], [565733.24, 5932922.4], [565742.31, 5932923.37]]}}, {"type": "Feature", "properties": {"kind": "fence", "type": "railing", "h": 1.2}, "geometry": {"type": "LineString", "coordinates": [[565882.58, 5932825.05], [565884.15, 5932822.0], [565881.1, 5932820.22], [565877.47, 5932818.37], [565876.06, 5932811.94], [565873.62, 5932812.6], [565876.11, 5932802.86], [565875.08, 5932792.38], [565880.65, 5932791.99], [565882.87, 5932789.15], [565883.62, 5932789.92], [565885.1, 5932788.37], [565886.53, 5932786.69], [565886.75, 5932786.44], [565887.18, 5932785.94], [565888.55, 5932787.07], [565889.78, 5932787.51], [565891.09, 5932787.68], [565892.02, 5932787.62], [565896.81, 5932785.14], [565902.82, 5932786.79], [565925.84, 5932793.15]]}}, {"type": "Feature", "properties": {"kind": "fence", "type": "railing", "h": 1.2}, "geometry": {"type": "LineString", "coordinates": [[565934.82, 5932798.22], [565936.78, 5932798.13], [565939.23, 5932797.97], [565942.52, 5932800.67], [565947.13, 5932800.28], [565951.44, 5932802.59], [565954.32, 5932804.13], [565957.88, 5932806.03], [565964.06, 5932803.43], [565979.26, 5932807.59], [566000.0, 5932813.28]]}}, {"type": "Feature", "properties": {"kind": "fence", "type": "railing", "h": 1.2}, "geometry": {"type": "LineString", "coordinates": [[565924.27, 5932830.7], [565926.64, 5932831.04], [565929.88, 5932832.43]]}}, {"type": "Feature", "properties": {"kind": "fence", "type": "railing", "h": 1.2}, "geometry": {"type": "LineString", "coordinates": [[564084.0, 5932999.91], [564087.51, 5932999.06], [564097.49, 5932996.46], [564081.05, 5932963.16], [564069.02, 5932965.7]]}}, {"type": "Feature", "properties": {"kind": "fence", "type": "railing", "h": 1.2}, "geometry": {"type": "LineString", "coordinates": [[564082.82, 5933044.58], [564081.46, 5933011.45], [564079.45, 5933009.29], [564072.29, 5933008.74]]}}, {"type": "Feature", "properties": {"kind": "fence", "type": "railing", "h": 1.2}, "geometry": {"type": "LineString", "coordinates": [[564608.93, 5932695.12], [564617.9, 5932712.17], [564635.48, 5932748.82], [564643.67, 5932765.71], [564649.22, 5932777.13], [564639.0, 5932781.96], [564627.19, 5932787.54]]}}, {"type": "Feature", "properties": {"kind": "fence", "type": "railing", "h": 1.2}, "geometry": {"type": "LineString", "coordinates": [[564627.19, 5932787.54], [564627.58, 5932788.72], [564627.64, 5932789.19], [564627.54, 5932789.64], [564627.32, 5932790.0], [564627.0, 5932790.28], [564618.92, 5932794.18], [564618.52, 5932794.35], [564618.1, 5932794.38], [564617.69, 5932794.29], [564617.32, 5932794.07], [564617.04, 5932793.75], [564616.7, 5932793.0], [564610.62, 5932795.93], [564595.0, 5932803.44]]}}, {"type": "Feature", "properties": {"kind": "fence", "type": "railing", "h": 1.2}, "geometry": {"type": "LineString", "coordinates": [[564595.0, 5932803.44], [564595.22, 5932804.33], [564595.28, 5932804.8], [564595.18, 5932805.25], [564594.97, 5932805.62], [564594.64, 5932805.89], [564579.6, 5932813.25], [564570.0, 5932817.85], [564570.52, 5932818.99]]}}, {"type": "Feature", "properties": {"kind": "fence", "type": "railing", "h": 1.2}, "geometry": {"type": "LineString", "coordinates": [[564565.34, 5932821.3], [564564.93, 5932820.41], [564541.33, 5932831.7], [564540.94, 5932831.86], [564540.73, 5932831.89], [564540.52, 5932831.9], [564540.31, 5932831.86], [564540.1, 5932831.81], [564539.92, 5932831.71], [564539.74, 5932831.59], [564539.59, 5932831.44], [564539.46, 5932831.26], [564539.29, 5932830.87], [564539.06, 5932830.23], [564514.84, 5932841.65], [564515.21, 5932845.17], [564515.24, 5932845.82], [564514.98, 5932846.52], [564514.04, 5932847.04], [564500.07, 5932853.81], [564499.54, 5932853.74], [564498.47, 5932853.37], [564496.32, 5932852.09], [564495.51, 5932851.55], [564495.12, 5932851.12], [564483.38, 5932856.69], [564462.31, 5932867.79]]}}, {"type": "Feature", "properties": {"kind": "fence", "type": "railing", "h": 1.2}, "geometry": {"type": "LineString", "coordinates": [[564586.26, 5932851.66], [564572.16, 5932822.4], [564571.95, 5932821.97], [564570.52, 5932818.99]]}}, {"type": "Feature", "properties": {"kind": "fence", "type": "railing", "h": 1.2}, "geometry": {"type": "LineString", "coordinates": [[564581.17, 5932854.15], [564567.12, 5932825.01], [564565.34, 5932821.3]]}}, {"type": "Feature", "properties": {"kind": "fence", "type": "railing", "h": 1.2}, "geometry": {"type": "LineString", "coordinates": [[564176.78, 5932026.4], [564185.65, 5932011.21], [564189.4, 5932008.84], [564192.16, 5932006.19], [564194.56, 5932003.51], [564197.28, 5932000.73], [564198.14, 5932000.42], [564200.57, 5932002.24], [564202.43, 5932003.62], [564203.91, 5932010.64], [564212.33, 5932011.46]]}}, {"type": "Feature", "properties": {"kind": "fence", "type": "railing", "h": 1.2}, "geometry": {"type": "LineString", "coordinates": [[564235.04, 5932567.09], [564232.86, 5932562.99], [564240.83, 5932559.95], [564248.2, 5932557.48], [564255.18, 5932556.54], [564260.98, 5932556.87], [564266.43, 5932559.26], [564272.38, 5932561.86], [564275.95, 5932564.73], [564282.3, 5932571.95], [564288.49, 5932581.56], [564321.71, 5932650.36], [564327.19, 5932659.51], [564331.44, 5932665.28], [564338.18, 5932671.42], [564343.81, 5932674.71], [564354.91, 5932678.6], [564365.95, 5932677.2], [564381.17, 5932671.75], [564385.99, 5932672.71], [564406.43, 5932714.47], [564398.13, 5932718.15]]}}, {"type": "Feature", "properties": {"kind": "fence", "type": "railing", "h": 1.2}, "geometry": {"type": "LineString", "coordinates": [[564426.56, 5932777.5], [564431.06, 5932787.08], [564433.54, 5932792.35], [564360.0, 5932827.67], [564319.81, 5932846.97], [564317.69, 5932848.88], [564315.97, 5932851.71], [564315.8, 5932854.31], [564316.35, 5932857.11], [564324.59, 5932874.59], [564326.08, 5932878.57], [564325.92, 5932880.88], [564324.17, 5932886.52], [564320.25, 5932889.99], [564219.25, 5932938.55], [564218.0, 5932939.15], [564211.87, 5932925.49], [564209.85, 5932922.64], [564207.04, 5932920.67], [564204.35, 5932919.48], [564190.89, 5932914.21], [564187.82, 5932912.11], [564184.52, 5932908.15], [564140.02, 5932815.53], [564137.4, 5932808.87], [564134.47, 5932802.74], [564090.81, 5932711.52], [564087.51, 5932704.62], [564083.57, 5932696.38], [564077.68, 5932683.95], [564075.32, 5932676.85], [564073.43, 5932668.97], [564072.7, 5932661.38], [564073.43, 5932654.76], [564076.8, 5932648.7], [564080.69, 5932642.46], [564085.19, 5932638.08], [564092.54, 5932633.48], [564093.44, 5932633.99]]}}, {"type": "Feature", "properties": {"kind": "fence", "type": "railing", "h": 1.2}, "geometry": {"type": "LineString", "coordinates": [[564162.3, 5932603.6], [564170.75, 5932599.66], [564178.33, 5932596.13], [564183.12, 5932593.9], [564190.63, 5932590.4]]}}, {"type": "Feature", "properties": {"kind": "fence", "type": "railing", "h": 1.2}, "geometry": {"type": "LineString", "coordinates": [[564462.26, 5932880.92], [564456.35, 5932873.88], [564395.16, 5932903.18], [564363.88, 5932836.01], [564360.0, 5932827.67]]}}, {"type": "Feature", "properties": {"kind": "fence", "type": "railing", "h": 1.2}, "geometry": {"type": "LineString", "coordinates": [[565152.18, 5932398.16], [565147.88, 5932388.16], [565139.62, 5932356.99], [565138.31, 5932353.44], [565135.84, 5932346.75], [565125.93, 5932322.69], [565117.52, 5932326.3], [565114.08, 5932317.84], [565113.04, 5932315.3], [565114.51, 5932314.72], [565111.1, 5932306.94], [565116.8, 5932304.36], [565107.99, 5932281.54]]}}, {"type": "Feature", "properties": {"kind": "fence", "type": "railing", "h": 1.2}, "geometry": {"type": "LineString", "coordinates": [[565277.34, 5932521.35], [565264.22, 5932526.85], [565195.38, 5932555.35], [565189.7, 5932541.79], [565213.82, 5932533.07], [565215.16, 5932526.35], [565212.2, 5932521.52], [565207.42, 5932520.57], [565197.97, 5932496.49], [565166.51, 5932509.01]]}}, {"type": "Feature", "properties": {"kind": "fence", "type": "railing", "h": 1.2}, "geometry": {"type": "LineString", "coordinates": [[565147.14, 5932337.18], [565148.99, 5932341.31], [565146.45, 5932342.37], [565144.02, 5932343.39], [565126.21, 5932299.44], [565119.03, 5932280.71], [565114.28, 5932267.29], [565113.2, 5932264.02], [565103.62, 5932234.98], [565102.08, 5932228.92], [565099.85, 5932219.43], [565096.71, 5932203.78], [565095.33, 5932196.89], [565092.96, 5932177.37], [565092.34, 5932171.96], [565093.8, 5932167.42], [565092.88, 5932157.62], [565091.41, 5932140.87], [565090.45, 5932140.06], [565089.34, 5932119.7], [565091.06, 5932117.89], [565087.73, 5932053.63], [565087.38, 5932046.87], [565087.04, 5932046.71], [565085.41, 5932011.31], [565088.21, 5932011.15], [565090.02, 5932011.05], [565093.17, 5932010.86], [565092.5, 5932000.0]]}}, {"type": "Feature", "properties": {"kind": "fence", "type": "railing", "h": 1.2}, "geometry": {"type": "LineString", "coordinates": [[565912.63, 5933416.87], [566000.0, 5933469.67]]}}, {"type": "Feature", "properties": {"kind": "fence", "type": "railing", "h": 1.2}, "geometry": {"type": "LineString", "coordinates": [[565870.85, 5933389.43], [565906.95, 5933413.3]]}}, {"type": "Feature", "properties": {"kind": "fence", "type": "railing", "h": 1.2}, "geometry": {"type": "LineString", "coordinates": [[565897.03, 5933404.58], [565926.13, 5933422.98]]}}, {"type": "Feature", "properties": {"kind": "fence", "type": "railing", "h": 1.2}, "geometry": {"type": "LineString", "coordinates": [[565862.04, 5933383.5], [565790.96, 5933332.3], [565785.6, 5933328.51], [565779.92, 5933325.17], [565773.73, 5933322.23], [565767.42, 5933319.88], [565761.02, 5933318.11], [565754.6, 5933316.92], [565748.09, 5933316.26], [565741.59, 5933316.16], [565599.25, 5933321.19]]}}, {"type": "Feature", "properties": {"kind": "fence", "type": "railing", "h": 1.2}, "geometry": {"type": "LineString", "coordinates": [[565891.78, 5933395.46], [565896.06, 5933398.09]]}}, {"type": "Feature", "properties": {"kind": "fence", "type": "railing", "h": 1.2}, "geometry": {"type": "LineString", "coordinates": [[565880.49, 5933385.95], [565892.29, 5933393.65], [565893.48, 5933393.58], [565899.37, 5933397.29], [565899.48, 5933397.81], [565897.66, 5933400.62], [565897.04, 5933400.83], [565893.56, 5933398.61]]}}, {"type": "Feature", "properties": {"kind": "fence", "type": "railing", "h": 1.2}, "geometry": {"type": "LineString", "coordinates": [[565942.96, 5933456.44], [565944.56, 5933458.19], [565946.18, 5933460.27], [565946.9, 5933462.48], [565947.23, 5933464.86]]}}, {"type": "Feature", "properties": {"kind": "fence", "type": "railing", "h": 1.2}, "geometry": {"type": "LineString", "coordinates": [[565930.12, 5933448.67], [565903.09, 5933431.14]]}}, {"type": "Feature", "properties": {"kind": "fence", "type": "railing", "h": 1.2}, "geometry": {"type": "LineString", "coordinates": [[565678.13, 5933333.69], [565664.97, 5933334.91], [565650.26, 5933336.69]]}}, {"type": "Feature", "properties": {"kind": "fence", "type": "railing", "h": 1.2}, "geometry": {"type": "LineString", "coordinates": [[565075.44, 5932242.35], [565024.4, 5932263.76], [565019.92, 5932254.3], [565018.57, 5932251.49], [565017.39, 5932249.15], [565015.28, 5932244.9], [565014.15, 5932242.24]]}}, {"type": "Feature", "properties": {"kind": "fence", "type": "railing", "h": 1.2}, "geometry": {"type": "LineString", "coordinates": [[565549.41, 5933323.97], [565533.72, 5933325.03], [565495.66, 5933327.44], [565470.08, 5933329.81], [565469.86, 5933329.14], [565469.22, 5933328.62], [565468.27, 5933328.61], [565456.98, 5933329.68]]}}, {"type": "Feature", "properties": {"kind": "fence", "type": "railing", "h": 1.2}, "geometry": {"type": "LineString", "coordinates": [[565422.84, 5933329.11], [565423.02, 5933330.6], [565438.78, 5933328.73]]}}, {"type": "Feature", "properties": {"kind": "fence", "type": "railing", "h": 1.2}, "geometry": {"type": "LineString", "coordinates": [[565419.74, 5933331.31], [565419.6, 5933329.71], [565416.89, 5933326.47], [565417.95, 5933321.22], [565419.85, 5933311.24], [565437.73, 5933308.82], [565452.54, 5933325.25], [565452.46, 5933327.28], [565451.19, 5933329.06], [565448.64, 5933329.28], [565448.48, 5933327.45]]}}, {"type": "Feature", "properties": {"kind": "fence", "type": "railing", "h": 1.2}, "geometry": {"type": "LineString", "coordinates": [[565126.12, 5933405.32], [565124.65, 5933405.12], [565124.31, 5933407.7], [565123.87, 5933411.09]]}}, {"type": "Feature", "properties": {"kind": "fence", "type": "railing", "h": 1.2}, "geometry": {"type": "LineString", "coordinates": [[564453.08, 5933368.7], [564462.61, 5933366.72], [564482.35, 5933359.51]]}}, {"type": "Feature", "properties": {"kind": "fence", "type": "railing", "h": 1.2}, "geometry": {"type": "LineString", "coordinates": [[564479.23, 5933358.55], [564468.5, 5933360.79], [564418.9, 5933370.21]]}}, {"type": "Feature", "properties": {"kind": "fence", "type": "railing", "h": 1.2}, "geometry": {"type": "LineString", "coordinates": [[564029.63, 5932973.94], [564029.47, 5932987.69], [564031.59, 5932987.71]]}}, {"type": "Feature", "properties": {"kind": "fence", "type": "railing", "h": 1.2}, "geometry": {"type": "LineString", "coordinates": [[564762.51, 5933741.15], [564766.74, 5933741.75], [564768.08, 5933741.93], [564767.61, 5933744.74]]}}, {"type": "Feature", "properties": {"kind": "fence", "type": "railing", "h": 1.2}, "geometry": {"type": "LineString", "coordinates": [[564767.23, 5933746.99], [564766.64, 5933750.14], [564768.99, 5933750.5], [564773.16, 5933751.12], [564776.78, 5933751.67]]}}, {"type": "Feature", "properties": {"kind": "fence", "type": "railing", "h": 1.2}, "geometry": {"type": "LineString", "coordinates": [[564773.64, 5933748.06], [564773.16, 5933751.12]]}}, {"type": "Feature", "properties": {"kind": "fence", "type": "railing", "h": 1.2}, "geometry": {"type": "LineString", "coordinates": [[564774.03, 5933745.82], [564779.16, 5933716.01]]}}, {"type": "Feature", "properties": {"kind": "fence", "type": "railing", "h": 1.2}, "geometry": {"type": "LineString", "coordinates": [[564766.44, 5933697.19], [564729.36, 5933695.17]]}}, {"type": "Feature", "properties": {"kind": "fence", "type": "railing", "h": 1.2}, "geometry": {"type": "LineString", "coordinates": [[564067.05, 5933007.8], [564044.67, 5933001.6], [564030.73, 5933000.12], [564027.33, 5932999.76], [564014.71, 5932998.44], [564000.0, 5932998.73]]}}, {"type": "Feature", "properties": {"kind": "fence", "type": "railing", "h": 1.2}, "geometry": {"type": "LineString", "coordinates": [[564967.93, 5933304.47], [564968.72, 5933314.1], [564969.55, 5933318.65], [564970.74, 5933325.06], [564972.03, 5933330.16], [564973.76, 5933335.92], [564972.48, 5933345.67], [564965.08, 5933351.88], [564950.51, 5933346.8], [564956.96, 5933313.22], [564962.66, 5933302.95], [564967.93, 5933304.47]]}}, {"type": "Feature", "properties": {"kind": "fence", "type": "railing", "h": 1.2}, "geometry": {"type": "LineString", "coordinates": [[565854.83, 5933583.94], [565855.44, 5933593.54]]}}, {"type": "Feature", "properties": {"kind": "fence", "type": "railing", "h": 1.0}, "geometry": {"type": "LineString", "coordinates": [[565193.06, 5933391.8], [565174.43, 5933399.89], [565150.63, 5933408.78], [565148.15, 5933409.72], [565144.72, 5933411.03], [565135.63, 5933409.99]]}}, {"type": "Feature", "properties": {"kind": "fence", "type": "railing", "h": 1.2}, "geometry": {"type": "LineString", "coordinates": [[565139.57, 5933318.67], [565166.12, 5933337.07], [565174.12, 5933343.34], [565181.68, 5933349.86], [565189.06, 5933356.91], [565195.89, 5933364.08], [565198.14, 5933367.09], [565200.14, 5933370.29], [565201.2, 5933372.49]]}}, {"type": "Feature", "properties": {"kind": "fence", "type": "railing", "h": 1.2}, "geometry": {"type": "LineString", "coordinates": [[565132.52, 5933383.5], [565133.18, 5933378.56]]}}, {"type": "Feature", "properties": {"kind": "fence", "type": "railing", "h": 1.2}, "geometry": {"type": "LineString", "coordinates": [[564364.87, 5932652.84], [564375.06, 5932648.11], [564379.15, 5932656.9], [564368.97, 5932661.63], [564364.87, 5932652.84]]}}, {"type": "Feature", "properties": {"kind": "fence", "type": "railing", "h": 1.2}, "geometry": {"type": "LineString", "coordinates": [[564426.62, 5932809.21], [564442.34, 5932802.27], [564444.12, 5932800.73], [564445.25, 5932798.72], [564445.68, 5932795.98], [564445.75, 5932793.71], [564445.38, 5932791.42], [564443.23, 5932786.65]]}}, {"type": "Feature", "properties": {"kind": "fence", "type": "railing", "h": 1.2}, "geometry": {"type": "LineString", "coordinates": [[564090.81, 5932711.52], [564103.26, 5932705.46], [564128.52, 5932693.18]]}}, {"type": "Feature", "properties": {"kind": "fence", "type": "railing", "h": 1.2}, "geometry": {"type": "LineString", "coordinates": [[564666.56, 5933251.63], [564669.98, 5933248.67]]}}, {"type": "Feature", "properties": {"kind": "fence", "type": "railing", "h": 1.2}, "geometry": {"type": "LineString", "coordinates": [[564814.31, 5933231.7], [564743.31, 5933225.73]]}}, {"type": "Feature", "properties": {"kind": "fence", "type": "railing", "h": 1.2}, "geometry": {"type": "LineString", "coordinates": [[565016.79, 5933232.83], [565060.14, 5933233.4]]}}, {"type": "Feature", "properties": {"kind": "fence", "type": "railing", "h": 1.2}, "geometry": {"type": "LineString", "coordinates": [[565908.2, 5933329.34], [565911.71, 5933332.0], [565929.57, 5933344.78], [565932.5, 5933346.88], [565943.37, 5933331.38], [565944.26, 5933332.0], [565947.06, 5933327.99], [565946.16, 5933327.39], [565945.79, 5933326.95], [565945.58, 5933326.43], [565945.62, 5933325.66], [565945.91, 5933325.11], [565946.25, 5933324.78], [565946.77, 5933324.54], [565947.42, 5933324.49], [565948.06, 5933324.73], [565959.72, 5933308.49], [565959.4, 5933308.2], [565959.16, 5933307.81], [565959.08, 5933307.37], [565959.18, 5933306.81], [565959.45, 5933306.4], [565959.84, 5933306.13], [565960.34, 5933305.99], [565960.89, 5933306.08], [565961.36, 5933306.36], [565968.53, 5933297.24], [565964.5, 5933294.48], [565942.77, 5933290.71], [565937.76, 5933289.67]]}}, {"type": "Feature", "properties": {"kind": "fence", "type": "railing", "h": 1.2}, "geometry": {"type": "LineString", "coordinates": [[564645.14, 5933765.29], [564656.29, 5933766.55], [564655.45, 5933772.43], [564654.42, 5933779.67]]}}, {"type": "Feature", "properties": {"kind": "fence", "type": "railing", "h": 1.2}, "geometry": {"type": "LineString", "coordinates": [[564402.21, 5933429.73], [564391.35, 5933434.0]]}}, {"type": "Feature", "properties": {"kind": "fence", "type": "railing", "h": 1.2}, "geometry": {"type": "LineString", "coordinates": [[564383.65, 5933413.01], [564390.11, 5933410.63], [564394.16, 5933409.13]]}}, {"type": "Feature", "properties": {"kind": "fence", "type": "railing", "h": 1.2}, "geometry": {"type": "LineString", "coordinates": [[564383.65, 5933413.01], [564378.73, 5933414.92], [564377.65, 5933415.67], [564377.24, 5933416.49], [564377.1, 5933417.5], [564377.77, 5933419.6], [564372.49, 5933421.84], [564365.03, 5933424.99], [564355.22, 5933429.57]]}}, {"type": "Feature", "properties": {"kind": "fence", "type": "railing", "h": 1.2}, "geometry": {"type": "LineString", "coordinates": [[564385.15, 5933416.71], [564395.78, 5933412.4]]}}, {"type": "Feature", "properties": {"kind": "fence", "type": "railing", "h": 1.2}, "geometry": {"type": "LineString", "coordinates": [[564391.35, 5933434.0], [564387.78, 5933435.42], [564386.4, 5933435.98], [564384.97, 5933435.81], [564384.26, 5933435.15], [564382.87, 5933432.79], [564375.28, 5933435.94]]}}, {"type": "Feature", "properties": {"kind": "fence", "type": "railing", "h": 1.2}, "geometry": {"type": "LineString", "coordinates": [[564389.77, 5933430.42], [564401.06, 5933425.59]]}}, {"type": "Feature", "properties": {"kind": "fence", "type": "railing", "h": 1.0}, "geometry": {"type": "LineString", "coordinates": [[565907.71, 5932987.81], [565904.82, 5932987.5], [565902.08, 5932987.22]]}}, {"type": "Feature", "properties": {"kind": "fence", "type": "railing", "h": 1.2}, "geometry": {"type": "LineString", "coordinates": [[564271.4, 5933705.23], [564264.09, 5933700.17], [564258.33, 5933696.54]]}}, {"type": "Feature", "properties": {"kind": "fence", "type": "railing", "h": 1.2}, "geometry": {"type": "LineString", "coordinates": [[565861.18, 5933682.08], [565834.18, 5933686.24]]}}, {"type": "Feature", "properties": {"kind": "fence", "type": "railing", "h": 1.2}, "geometry": {"type": "LineString", "coordinates": [[565832.71, 5933686.49], [565832.09, 5933679.56], [565831.69, 5933674.71], [565831.83, 5933673.19], [565832.48, 5933671.55], [565843.61, 5933652.0]]}}, {"type": "Feature", "properties": {"kind": "fence", "type": "railing", "h": 1.2}, "geometry": {"type": "LineString", "coordinates": [[565765.7, 5933625.7], [565766.68, 5933625.77], [565814.59, 5933629.41], [565816.23, 5933629.61], [565819.52, 5933630.32], [565822.74, 5933631.41], [565825.61, 5933632.79], [565828.29, 5933634.45], [565830.64, 5933636.3], [565832.67, 5933638.24], [565834.8, 5933640.78], [565836.16, 5933642.78], [565835.17, 5933643.38], [565834.15, 5933643.99], [565837.86, 5933650.13], [565823.66, 5933673.3], [565822.88, 5933674.24], [565821.77, 5933675.12], [565820.46, 5933675.73], [565819.25, 5933676.02], [565817.99, 5933676.05], [565808.97, 5933675.88], [565805.02, 5933676.25], [565800.35, 5933677.14], [565795.25, 5933678.71], [565796.1, 5933680.73], [565790.06, 5933683.28]]}}, {"type": "Feature", "properties": {"kind": "fence", "type": "railing", "h": 1.2}, "geometry": {"type": "LineString", "coordinates": [[565790.06, 5933683.28], [565789.66, 5933682.35], [565789.27, 5933681.41], [565785.94, 5933683.46], [565781.24, 5933687.06], [565776.58, 5933690.99], [565772.65, 5933694.62], [565769.47, 5933697.1], [565759.2, 5933704.09], [565750.61, 5933709.26], [565740.38, 5933693.45], [565745.2, 5933684.51]]}}, {"type": "Feature", "properties": {"kind": "fence", "type": "railing", "h": 1.2}, "geometry": {"type": "LineString", "coordinates": [[564218.0, 5932939.15], [564191.23, 5932951.36], [564129.91, 5932820.06]]}}, {"type": "Feature", "properties": {"kind": "fence", "type": "railing", "h": 1.2}, "geometry": {"type": "LineString", "coordinates": [[566000.0, 5932801.78], [565978.33, 5932795.73], [565949.74, 5932787.77], [565959.61, 5932709.74]]}}, {"type": "Feature", "properties": {"kind": "fence", "type": "rail", "h": 1.0}, "geometry": {"type": "LineString", "coordinates": [[565794.21, 5932671.11], [565794.38, 5932672.06], [565794.56, 5932672.95], [565794.8, 5932674.13]]}}, {"type": "Feature", "properties": {"kind": "fence", "type": "rail", "h": 1.0}, "geometry": {"type": "LineString", "coordinates": [[565848.91, 5932650.08], [565849.06, 5932651.11], [565849.21, 5932652.18], [565849.36, 5932653.22]]}}, {"type": "Feature", "properties": {"kind": "fence", "type": "railing", "h": 1.2}, "geometry": {"type": "LineString", "coordinates": [[564129.91, 5932820.06], [564118.2, 5932825.54]]}}, {"type": "Feature", "properties": {"kind": "fence", "type": "railing", "h": 1.2}, "geometry": {"type": "LineString", "coordinates": [[564061.72, 5933886.29], [564000.0, 5933875.09]]}}, {"type": "Feature", "properties": {"kind": "fence", "type": "railing", "h": 1.2}, "geometry": {"type": "LineString", "coordinates": [[564092.58, 5933890.96], [564069.35, 5933887.63]]}}, {"type": "Feature", "properties": {"kind": "fence", "type": "railing", "h": 1.2}, "geometry": {"type": "LineString", "coordinates": [[565857.87, 5933672.25], [565860.3, 5933676.62], [565865.09, 5933685.22]]}}, {"type": "Feature", "properties": {"kind": "fence", "type": "railing", "h": 1.2}, "geometry": {"type": "LineString", "coordinates": [[565894.23, 5932667.93], [565894.33, 5932660.46], [565895.33, 5932642.47], [565895.28, 5932639.62], [565895.23, 5932636.73]]}}, {"type": "Feature", "properties": {"kind": "fence", "type": "railing", "h": 1.0}, "geometry": {"type": "LineString", "coordinates": [[564984.25, 5933265.39], [564988.61, 5933264.86], [565000.06, 5933263.46], [565004.7, 5933262.89], [565003.89, 5933256.35], [564999.25, 5933256.92], [564987.8, 5933258.32], [564983.45, 5933258.85], [564984.25, 5933265.39]]}}, {"type": "Feature", "properties": {"kind": "fence", "type": "railing", "h": 1.2}, "geometry": {"type": "LineString", "coordinates": [[565838.83, 5933123.65], [565839.74, 5933115.75]]}}, {"type": "Feature", "properties": {"kind": "fence", "type": "railing", "h": 0.5}, "geometry": {"type": "LineString", "coordinates": [[565877.2, 5933793.2], [565877.15, 5933792.58], [565877.17, 5933791.95], [565877.27, 5933791.34], [565878.21, 5933790.6], [565879.05, 5933789.72], [565879.77, 5933788.75], [565880.36, 5933787.72], [565880.95, 5933787.51], [565881.56, 5933787.38], [565882.18, 5933787.34]]}}, {"type": "Feature", "properties": {"kind": "fence", "type": "railing", "h": 1.2}, "geometry": {"type": "LineString", "coordinates": [[564030.15, 5933552.3], [564067.05, 5933555.41], [564077.95, 5933556.34]]}}, {"type": "Feature", "properties": {"kind": "fence", "type": "railing", "h": 1.2}, "geometry": {"type": "LineString", "coordinates": [[566000.0, 5932640.57], [565960.3, 5932639.26]]}}, {"type": "Feature", "properties": {"kind": "fence", "type": "railing", "h": 1.2}, "geometry": {"type": "LineString", "coordinates": [[565762.47, 5932720.83], [565762.75, 5932717.36], [565763.14, 5932713.88]]}}, {"type": "Feature", "properties": {"kind": "fence", "type": "railing", "h": 1.2}, "geometry": {"type": "LineString", "coordinates": [[565946.71, 5932640.98], [565946.71, 5932638.3], [565946.71, 5932635.25], [565941.09, 5932635.4]]}}, {"type": "Feature", "properties": {"kind": "fence", "type": "railing", "h": 1.2}, "geometry": {"type": "LineString", "coordinates": [[565159.15, 5933135.83], [565178.45, 5933116.92], [565180.07, 5933115.33]]}}, {"type": "Feature", "properties": {"kind": "fence", "type": "railing", "h": 1.2}, "geometry": {"type": "LineString", "coordinates": [[565174.55, 5933150.57], [565194.43, 5933130.3], [565196.21, 5933128.48]]}}, {"type": "Feature", "properties": {"kind": "fence", "type": "railing", "h": 1.2}, "geometry": {"type": "LineString", "coordinates": [[565846.36, 5933654.56], [565855.63, 5933668.23]]}}, {"type": "Feature", "properties": {"kind": "fence", "type": "railing", "h": 1.2}, "geometry": {"type": "LineString", "coordinates": [[565765.51, 5933782.95], [565764.19, 5933783.97], [565762.79, 5933785.06]]}}, {"type": "Feature", "properties": {"kind": "fence", "type": "railing", "h": 1.2}, "geometry": {"type": "LineString", "coordinates": [[565179.3, 5933114.68], [565181.83, 5933112.17], [565184.3, 5933109.79]]}}, {"type": "Feature", "properties": {"kind": "fence", "type": "railing", "h": 1.2}, "geometry": {"type": "LineString", "coordinates": [[565094.68, 5933057.61], [565091.82, 5933057.08], [565089.21, 5933056.97]]}}, {"type": "Feature", "properties": {"kind": "fence", "type": "picket", "h": 1.2}, "geometry": {"type": "LineString", "coordinates": [[565294.94, 5933056.71], [565294.15, 5933062.8]]}}, {"type": "Feature", "properties": {"kind": "fence", "type": "mesh", "h": 2.0}, "geometry": {"type": "LineString", "coordinates": [[565884.11, 5933554.58], [565883.09, 5933554.65], [565876.97, 5933555.0], [565870.57, 5933555.39], [565869.25, 5933555.48]]}}, {"type": "Feature", "properties": {"kind": "fence", "type": "railing", "h": 1.2}, "geometry": {"type": "LineString", "coordinates": [[564192.23, 5932478.08], [564284.36, 5932432.26], [564288.88, 5932424.94], [564313.69, 5932183.77], [564234.7, 5932175.45], [564225.32, 5932265.57], [564226.64, 5932265.51], [564226.42, 5932268.51], [564226.99, 5932268.58], [564226.63, 5932272.94], [564225.47, 5932283.09], [564223.54, 5932282.89], [564221.21, 5932306.63], [564214.47, 5932371.13], [564243.99, 5932374.29], [564242.39, 5932389.09], [564212.88, 5932385.93], [564197.7, 5932430.72], [564192.23, 5932478.08]]}}, {"type": "Feature", "properties": {"kind": "fence", "type": "railing", "h": 1.2}, "geometry": {"type": "LineString", "coordinates": [[564000.0, 5933758.02], [564040.54, 5933762.26], [564026.05, 5933842.3], [564000.0, 5933837.75]]}}, {"type": "Feature", "properties": {"kind": "fence", "type": "railing", "h": 0.3}, "geometry": {"type": "LineString", "coordinates": [[565842.9, 5933780.72], [565843.61, 5933790.2], [565843.32, 5933790.98], [565842.7, 5933791.28], [565842.01, 5933791.1], [565841.58, 5933790.33], [565840.89, 5933780.86], [565842.9, 5933780.72]]}}, {"type": "Feature", "properties": {"kind": "fence", "type": "railing", "h": 0.3}, "geometry": {"type": "LineString", "coordinates": [[565842.7, 5933777.87], [565840.68, 5933778.0], [565840.4, 5933774.07], [565842.41, 5933773.93], [565842.7, 5933777.87]]}}, {"type": "Feature", "properties": {"kind": "fence", "type": "railing", "h": 0.3}, "geometry": {"type": "LineString", "coordinates": [[565840.2, 5933771.22], [565839.61, 5933763.29], [565839.88, 5933762.66], [565840.52, 5933762.35], [565841.25, 5933762.56], [565841.62, 5933763.15], [565842.21, 5933771.08], [565840.2, 5933771.22]]}}, {"type": "Feature", "properties": {"kind": "gate", "w": 1.2, "on": "fence"}, "geometry": {"type": "Point", "coordinates": [565017.39, 5932249.15]}}, {"type": "Feature", "properties": {"kind": "gate", "w": 1.2, "on": "fence"}, "geometry": {"type": "Point", "coordinates": [565092.88, 5932157.62]}}, {"type": "Feature", "properties": {"kind": "gate", "w": 1.2, "on": "fence"}, "geometry": {"type": "Point", "coordinates": [564044.8, 5933764.81]}}, {"type": "Feature", "properties": {"kind": "gate", "w": 1.2, "on": "fence"}, "geometry": {"type": "Point", "coordinates": [565003.56, 5933433.81]}}, {"type": "Feature", "properties": {"kind": "gate", "w": 1.2, "on": "fence"}, "geometry": {"type": "Point", "coordinates": [564226.63, 5932272.94]}}, {"type": "Feature", "properties": {"kind": "gate", "w": 1.2, "on": "fence"}, "geometry": {"type": "Point", "coordinates": [564177.02, 5933783.53]}}, {"type": "Feature", "properties": {"kind": "gate", "w": 1.2, "on": "wall"}, "geometry": {"type": "Point", "coordinates": [564190.2, 5933605.04]}}, {"type": "Feature", "properties": {"kind": "gate", "w": 1.2, "on": "fence"}, "geometry": {"type": "Point", "coordinates": [565849.21, 5932652.18]}}, {"type": "Feature", "properties": {"kind": "gate", "w": 1.2, "on": "fence"}, "geometry": {"type": "Point", "coordinates": [565794.56, 5932672.95]}}, {"type": "Feature", "properties": {"kind": "gate", "w": 1.2, "on": "fence"}, "geometry": {"type": "Point", "coordinates": [565881.1, 5932820.22]}}, {"type": "Feature", "properties": {"kind": "gate", "w": 1.2, "on": "fence"}, "geometry": {"type": "Point", "coordinates": [564431.06, 5932787.08]}}, {"type": "Feature", "properties": {"kind": "gate", "w": 1.2, "on": "fence"}, "geometry": {"type": "Point", "coordinates": [565885.1, 5932788.37]}}, {"type": "Feature", "properties": {"kind": "gate", "w": 1.2, "on": "fence"}, "geometry": {"type": "Point", "coordinates": [565936.78, 5932798.13]}}, {"type": "Feature", "properties": {"kind": "gate", "w": 1.2, "on": "fence"}, "geometry": {"type": "Point", "coordinates": [565018.57, 5932251.49]}}, {"type": "Feature", "properties": {"kind": "gate", "w": 1.2, "on": "fence"}, "geometry": {"type": "Point", "coordinates": [565019.92, 5932254.3]}}, {"type": "Feature", "properties": {"kind": "gate", "w": 1.2, "on": "fence"}, "geometry": {"type": "Point", "coordinates": [564183.12, 5932593.9]}}, {"type": "Feature", "properties": {"kind": "gate", "w": 1.2, "on": "fence"}, "geometry": {"type": "Point", "coordinates": [565876.97, 5933555.0]}}, {"type": "Feature", "properties": {"kind": "gate", "w": 1.2, "on": "wall"}, "geometry": {"type": "Point", "coordinates": [564183.27, 5932027.03]}}, {"type": "Feature", "properties": {"kind": "gate", "w": 1.2, "on": "wall"}, "geometry": {"type": "Point", "coordinates": [564026.42, 5932118.49]}}, {"type": "Feature", "properties": {"kind": "gate", "w": 4.0, "on": "fence", "type": "lift_gate"}, "geometry": {"type": "Point", "coordinates": [565927.04, 5932947.91]}}, {"type": "Feature", "properties": {"kind": "gate", "w": 1.2, "on": "fence"}, "geometry": {"type": "Point", "coordinates": [564170.75, 5932599.66]}}, {"type": "Feature", "properties": {"kind": "gate", "w": 1.2, "on": "fence"}, "geometry": {"type": "Point", "coordinates": [565926.64, 5932831.04]}}, {"type": "Feature", "properties": {"kind": "gate", "w": 1.2, "on": "fence"}, "geometry": {"type": "Point", "coordinates": [565951.44, 5932802.59]}}, {"type": "Feature", "properties": {"kind": "gate", "w": 1.2, "on": "fence"}, "geometry": {"type": "Point", "coordinates": [564087.51, 5932999.06]}}, {"type": "Feature", "properties": {"kind": "gate", "w": 1.2, "on": "fence"}, "geometry": {"type": "Point", "coordinates": [564200.57, 5932002.24]}}, {"type": "Feature", "properties": {"kind": "gate", "w": 1.2, "on": "wall"}, "geometry": {"type": "Point", "coordinates": [564224.18, 5932032.52]}}, {"type": "Feature", "properties": {"kind": "gate", "w": 1.2, "on": "fence"}, "geometry": {"type": "Point", "coordinates": [564354.91, 5932678.6]}}, {"type": "Feature", "properties": {"kind": "gate", "w": 1.2, "on": "fence"}, "geometry": {"type": "Point", "coordinates": [564178.33, 5932596.13]}}, {"type": "Feature", "properties": {"kind": "gate", "w": 1.2, "on": "fence"}, "geometry": {"type": "Point", "coordinates": [564134.47, 5932802.74]}}, {"type": "Feature", "properties": {"kind": "gate", "w": 1.2, "on": "fence"}, "geometry": {"type": "Point", "coordinates": [564363.88, 5932836.01]}}, {"type": "Feature", "properties": {"kind": "gate", "w": 1.2, "on": "fence"}, "geometry": {"type": "Point", "coordinates": [565090.02, 5932011.05]}}, {"type": "Feature", "properties": {"kind": "gate", "w": 1.2, "on": "fence"}, "geometry": {"type": "Point", "coordinates": [565088.21, 5932011.15]}}, {"type": "Feature", "properties": {"kind": "gate", "w": 1.2, "on": "fence"}, "geometry": {"type": "Point", "coordinates": [565087.73, 5932053.63]}}, {"type": "Feature", "properties": {"kind": "gate", "w": 1.2, "on": "fence"}, "geometry": {"type": "Point", "coordinates": [565096.71, 5932203.78]}}, {"type": "Feature", "properties": {"kind": "gate", "w": 1.2, "on": "fence"}, "geometry": {"type": "Point", "coordinates": [565146.45, 5932342.37]}}, {"type": "Feature", "properties": {"kind": "gate", "w": 1.2, "on": "fence"}, "geometry": {"type": "Point", "coordinates": [565103.62, 5932234.98]}}, {"type": "Feature", "properties": {"kind": "gate", "w": 1.2, "on": "fence"}, "geometry": {"type": "Point", "coordinates": [565126.21, 5932299.44]}}, {"type": "Feature", "properties": {"kind": "gate", "w": 1.2, "on": "fence"}, "geometry": {"type": "Point", "coordinates": [564768.99, 5933750.5]}}, {"type": "Feature", "properties": {"kind": "gate", "w": 1.2, "on": "fence"}, "geometry": {"type": "Point", "coordinates": [564766.74, 5933741.75]}}, {"type": "Feature", "properties": {"kind": "gate", "w": 1.2, "on": "fence"}, "geometry": {"type": "Point", "coordinates": [564969.55, 5933318.65]}}, {"type": "Feature", "properties": {"kind": "gate", "w": 1.2, "on": "fence"}, "geometry": {"type": "Point", "coordinates": [565114.08, 5932317.84]}}, {"type": "Feature", "properties": {"kind": "gate", "w": 1.2, "on": "fence"}, "geometry": {"type": "Point", "coordinates": [565138.31, 5932353.44]}}, {"type": "Feature", "properties": {"kind": "gate", "w": 1.2, "on": "fence"}, "geometry": {"type": "Point", "coordinates": [564266.43, 5932559.26]}}, {"type": "Feature", "properties": {"kind": "gate", "w": 1.2, "on": "fence"}, "geometry": {"type": "Point", "coordinates": [564087.51, 5932704.62]}}, {"type": "Feature", "properties": {"kind": "gate", "w": 1.2, "on": "fence"}, "geometry": {"type": "Point", "coordinates": [564103.26, 5932705.46]}}, {"type": "Feature", "properties": {"kind": "gate", "w": 1.2, "on": "fence"}, "geometry": {"type": "Point", "coordinates": [564655.45, 5933772.43]}}, {"type": "Feature", "properties": {"kind": "gate", "w": 1.2, "on": "fence"}, "geometry": {"type": "Point", "coordinates": [565904.82, 5932987.5]}}, {"type": "Feature", "properties": {"kind": "gate", "w": 1.2, "on": "fence"}, "geometry": {"type": "Point", "coordinates": [564264.09, 5933700.17]}}, {"type": "Feature", "properties": {"kind": "gate", "w": 1.2, "on": "fence"}, "geometry": {"type": "Point", "coordinates": [565978.33, 5932795.73]}}, {"type": "Feature", "properties": {"kind": "gate", "w": 1.2, "on": "fence"}, "geometry": {"type": "Point", "coordinates": [564027.33, 5932999.76]}}, {"type": "Feature", "properties": {"kind": "gate", "w": 1.2, "on": "fence"}, "geometry": {"type": "Point", "coordinates": [565946.71, 5932638.3]}}, {"type": "Feature", "properties": {"kind": "gate", "w": 1.2, "on": "fence"}, "geometry": {"type": "Point", "coordinates": [564067.05, 5933555.41]}}, {"type": "Feature", "properties": {"kind": "gate", "w": 1.2, "on": "fence"}, "geometry": {"type": "Point", "coordinates": [565762.75, 5932717.36]}}, {"type": "Feature", "properties": {"kind": "gate", "w": 1.2, "on": "fence"}, "geometry": {"type": "Point", "coordinates": [565835.17, 5933643.38]}}, {"type": "Feature", "properties": {"kind": "gate", "w": 1.2, "on": "fence"}, "geometry": {"type": "Point", "coordinates": [565789.66, 5933682.35]}}, {"type": "Feature", "properties": {"kind": "gate", "w": 1.2, "on": "fence"}, "geometry": {"type": "Point", "coordinates": [565764.19, 5933783.97]}}]}